{"type":"Feature","properties":{"slug":"shinagawa-takasaki","name":"品川駅 → 高崎駅","length_km":158.7,"cycleway_share":0.747},"geometry":{"type":"LineString","coordinates":[[139.737463,35.628678],[139.737606,35.628679],[139.737603,35.628761],[139.737595,35.629015],[139.737591,35.62924],[139.737588,35.629557],[139.737588,35.629856],[139.73759,35.629995],[139.737592,35.630102],[139.737594,35.630157],[139.737599,35.630272],[139.737605,35.630363],[139.737683,35.631517],[139.73772,35.631862],[139.737727,35.631909],[139.737748,35.632054],[139.737761,35.632133],[139.737782,35.632263],[139.737794,35.632334],[139.737864,35.632658],[139.73818,35.633885],[139.73821,35.634001],[139.738248,35.63412],[139.738257,35.634147],[139.738333,35.634366],[139.738878,35.635939],[139.739286,35.637026],[139.739408,35.637349],[139.739424,35.63739],[139.739462,35.637505],[139.739487,35.63757],[139.739538,35.63769],[139.739552,35.637717],[139.739825,35.638247],[139.740402,35.639232],[139.740413,35.639251],[139.74047,35.63935],[139.740673,35.63972],[139.740795,35.639924],[139.740894,35.640107],[139.740927,35.640175],[139.740962,35.640262],[139.740988,35.640319],[139.741056,35.640471],[139.741265,35.641002],[139.741485,35.641459],[139.741692,35.64185],[139.741722,35.641898],[139.742029,35.642393],[139.742091,35.642498],[139.74211,35.64253],[139.742307,35.642862],[139.742762,35.643616],[139.742942,35.643848],[139.743005,35.643921],[139.74346,35.644437],[139.743712,35.644685],[139.743842,35.644792],[139.744152,35.645041],[139.744178,35.645217],[139.744292,35.6453],[139.744305,35.64544],[139.744317,35.645527],[139.744341,35.645703],[139.744449,35.646512],[139.744503,35.646919],[139.74452,35.647045],[139.744543,35.647229],[139.744558,35.64735],[139.744613,35.647797],[139.744631,35.647957],[139.744646,35.648119],[139.744756,35.648879],[139.744813,35.649313],[139.744856,35.64969],[139.744908,35.650233],[139.744921,35.650337],[139.744931,35.650443],[139.745057,35.651432],[139.745093,35.651809],[139.7451,35.651882],[139.745105,35.651979],[139.745109,35.652035],[139.745117,35.652176],[139.745153,35.652897],[139.745157,35.652988],[139.745162,35.653046],[139.745227,35.653916],[139.745231,35.653979],[139.74524,35.654153],[139.74525,35.654307],[139.745254,35.65437],[139.745255,35.654394],[139.745275,35.654755],[139.745275,35.65476],[139.745279,35.654834],[139.745135,35.65495],[139.745209,35.654945],[139.745282,35.65494],[139.745486,35.655099],[139.745586,35.655206],[139.745684,35.655326],[139.745771,35.655429],[139.745842,35.655536],[139.745902,35.655652],[139.745942,35.655769],[139.745959,35.655862],[139.745961,35.656097],[139.745964,35.65622],[139.745971,35.656286],[139.746025,35.656516],[139.746081,35.656672],[139.746116,35.656747],[139.746121,35.656758],[139.746145,35.656804],[139.746168,35.656839],[139.746231,35.65694],[139.74638,35.657151],[139.746651,35.657547],[139.746962,35.658016],[139.747025,35.658144],[139.747071,35.658327],[139.747091,35.658438],[139.747111,35.658565],[139.747158,35.658772],[139.74718,35.658848],[139.747221,35.658946],[139.747426,35.659369],[139.747517,35.659555],[139.747549,35.659614],[139.747601,35.659677],[139.747641,35.659708],[139.747698,35.659739],[139.74775,35.659758],[139.747807,35.659772],[139.74791,35.659784],[139.748012,35.659789],[139.748284,35.659803],[139.748579,35.659804],[139.748623,35.659804],[139.748704,35.659807],[139.748775,35.65982],[139.748829,35.659842],[139.748886,35.659873],[139.748927,35.659909],[139.748957,35.659958],[139.748971,35.66],[139.749022,35.660189],[139.749059,35.660268],[139.74918,35.660742],[139.749385,35.66165],[139.749454,35.661628],[139.749528,35.661605],[139.750559,35.661265],[139.750663,35.661235],[139.750704,35.66132],[139.750908,35.661756],[139.750992,35.661934],[139.751103,35.66217],[139.751204,35.662386],[139.751558,35.663139],[139.751578,35.663181],[139.751834,35.663105],[139.751847,35.663135],[139.752035,35.663537],[139.752204,35.663899],[139.752213,35.663919],[139.752223,35.66394],[139.752407,35.664333],[139.752584,35.664712],[139.752607,35.664763],[139.752629,35.66481],[139.752788,35.66515],[139.75282,35.665218],[139.75311,35.665122],[139.753178,35.665084],[139.753218,35.66507],[139.753288,35.665046],[139.753409,35.665003],[139.753479,35.66498],[139.753537,35.664967],[139.753589,35.664955],[139.753723,35.664899],[139.753986,35.664795],[139.75402,35.664871],[139.754059,35.664953],[139.754194,35.664898],[139.754287,35.664861],[139.75438,35.664828],[139.754516,35.66478],[139.754566,35.664763],[139.754648,35.664734],[139.754706,35.664713],[139.75477,35.664692],[139.754841,35.664669],[139.754888,35.664661],[139.754967,35.664648],[139.755072,35.664619],[139.755196,35.66458],[139.755611,35.664442],[139.7557,35.664414],[139.755766,35.664393],[139.755793,35.664384],[139.75585,35.664366],[139.755884,35.664356],[139.755966,35.664332],[139.756884,35.664029],[139.756948,35.664027],[139.757042,35.663996],[139.757067,35.663981],[139.757101,35.66397],[139.757137,35.663958],[139.757167,35.663957],[139.757403,35.663885],[139.757426,35.663867],[139.757477,35.663852],[139.757488,35.663869],[139.757608,35.664006],[139.757966,35.664446],[139.757994,35.66448],[139.758029,35.66452],[139.758134,35.66464],[139.758144,35.664648],[139.758189,35.664693],[139.758231,35.664728],[139.758209,35.664853],[139.758635,35.665245],[139.758714,35.665334],[139.758755,35.665394],[139.758955,35.665276],[139.758993,35.665258],[139.759137,35.665273],[139.759261,35.665431],[139.759315,35.6655],[139.759397,35.665613],[139.759737,35.66604],[139.76,35.666352],[139.760159,35.666535],[139.760217,35.666595],[139.760268,35.66664],[139.760342,35.666695],[139.760399,35.666734],[139.760462,35.666778],[139.76052,35.666822],[139.760577,35.666872],[139.760634,35.666931],[139.760883,35.66724],[139.761076,35.667485],[139.761103,35.66752],[139.761189,35.667628],[139.761266,35.667602],[139.761346,35.667673],[139.761383,35.667707],[139.762175,35.668454],[139.762235,35.66851],[139.762298,35.668571],[139.762337,35.668607],[139.763111,35.669345],[139.763162,35.669398],[139.763215,35.669449],[139.763251,35.669483],[139.76404,35.670223],[139.764103,35.670286],[139.76417,35.670346],[139.764209,35.670383],[139.764918,35.671046],[139.765029,35.671157],[139.765115,35.671242],[139.765234,35.671361],[139.765275,35.6714],[139.765869,35.671966],[139.765931,35.672026],[139.765997,35.672089],[139.766037,35.672126],[139.76681,35.672859],[139.766888,35.672933],[139.766952,35.672886],[139.767006,35.672847],[139.767339,35.672607],[139.767709,35.672346],[139.767784,35.672293],[139.767841,35.672255],[139.768016,35.672141],[139.768378,35.671901],[139.768416,35.671948],[139.768598,35.672176],[139.76896,35.672641],[139.769123,35.67284],[139.769165,35.672892],[139.769197,35.672939],[139.769394,35.673196],[139.769636,35.673509],[139.770053,35.674017],[139.770092,35.674064],[139.770138,35.674124],[139.77036,35.674411],[139.770379,35.674443],[139.770525,35.674686],[139.770626,35.674849],[139.770706,35.674969],[139.770849,35.675204],[139.771062,35.675533],[139.7711,35.675583],[139.771156,35.675676],[139.771202,35.675754],[139.771442,35.676156],[139.77169,35.676565],[139.77186,35.676828],[139.772135,35.677249],[139.772344,35.677598],[139.772519,35.677868],[139.772773,35.678257],[139.772954,35.678563],[139.773012,35.678648],[139.773098,35.678775],[139.773162,35.678868],[139.773277,35.679059],[139.7733,35.679096],[139.773375,35.679217],[139.773388,35.679237],[139.773474,35.679378],[139.773506,35.679431],[139.773633,35.679637],[139.773705,35.679755],[139.773721,35.67978],[139.77392,35.680107],[139.773954,35.680162],[139.773999,35.680236],[139.774199,35.680563],[139.774336,35.680791],[139.774359,35.68083],[139.774379,35.680863],[139.774441,35.680967],[139.774521,35.681091],[139.774604,35.68122],[139.774652,35.681297],[139.774776,35.681495],[139.774822,35.681567],[139.775011,35.681869],[139.775057,35.681932],[139.775134,35.681901],[139.775496,35.681759],[139.775623,35.681709],[139.775687,35.681807],[139.775748,35.681903],[139.775999,35.682302],[139.776194,35.682621],[139.776236,35.682691],[139.776265,35.682737],[139.776492,35.683094],[139.77672,35.683472],[139.776845,35.683595],[139.776877,35.683726],[139.776891,35.68385],[139.776888,35.683966],[139.776876,35.684143],[139.776833,35.684572],[139.776816,35.684733],[139.776803,35.684856],[139.777006,35.684881],[139.776997,35.685004],[139.776965,35.685597],[139.776953,35.685738],[139.776915,35.686266],[139.776861,35.686873],[139.77685,35.687002],[139.776823,35.687195],[139.776779,35.687307],[139.776682,35.687537],[139.776525,35.687889],[139.776586,35.68791],[139.776908,35.688018],[139.777202,35.688131],[139.77726,35.688153],[139.777314,35.688173],[139.777739,35.688322],[139.7779,35.68839],[139.777963,35.688413],[139.778145,35.688477],[139.778465,35.688576],[139.778918,35.688723],[139.779324,35.688852],[139.779804,35.689004],[139.779926,35.689043],[139.78005,35.689059],[139.780064,35.689067],[139.780482,35.689282],[139.781078,35.689601],[139.781113,35.689647],[139.782235,35.690385],[139.782401,35.690492],[139.782584,35.690587],[139.783559,35.691273],[139.783638,35.691329],[139.78373,35.691395],[139.784131,35.691683],[139.784189,35.691725],[139.784248,35.691767],[139.784636,35.692046],[139.784701,35.692057],[139.78481,35.692075],[139.784944,35.692098],[139.785035,35.692701],[139.785052,35.692807],[139.785103,35.693149],[139.785172,35.693609],[139.785209,35.693853],[139.785255,35.694154],[139.785266,35.694232],[139.78532,35.694587],[139.785343,35.694752],[139.785217,35.694769],[139.785231,35.69486],[139.785251,35.694993],[139.785277,35.695166],[139.785279,35.695235],[139.785275,35.695291],[139.78526,35.695345],[139.785252,35.695372],[139.785204,35.695434],[139.785125,35.695489],[139.785194,35.695565],[139.785254,35.695646],[139.785302,35.695734],[139.785447,35.696034],[139.785568,35.696252],[139.7856,35.696308],[139.785645,35.69639],[139.785713,35.6965],[139.786061,35.697066],[139.786091,35.697112],[139.786148,35.697203],[139.786234,35.697346],[139.786316,35.697476],[139.786487,35.697753],[139.786841,35.698315],[139.786884,35.698384],[139.786937,35.698468],[139.78701,35.698584],[139.787227,35.698929],[139.787295,35.699032],[139.78781,35.699807],[139.788015,35.700095],[139.788051,35.700147],[139.788159,35.700299],[139.788206,35.700365],[139.788281,35.70047],[139.788956,35.701422],[139.788992,35.701467],[139.789054,35.701551],[139.789087,35.701596],[139.789118,35.701637],[139.789178,35.701634],[139.789274,35.701628],[139.789337,35.701717],[139.789394,35.701797],[139.789443,35.70186],[139.7896,35.702027],[139.789846,35.702241],[139.79008,35.702445],[139.79021,35.702561],[139.790412,35.702732],[139.79042,35.702739],[139.790467,35.702778],[139.790811,35.703067],[139.791232,35.70342],[139.791294,35.703472],[139.791386,35.70355],[139.79143,35.703588],[139.791938,35.704018],[139.792282,35.704296],[139.792646,35.70459],[139.793247,35.70508],[139.793378,35.705182],[139.793501,35.705294],[139.793528,35.705317],[139.793839,35.705613],[139.794455,35.706322],[139.794554,35.706436],[139.794582,35.706476],[139.794611,35.706517],[139.794962,35.707013],[139.795108,35.707212],[139.795191,35.707325],[139.795261,35.707425],[139.795305,35.707487],[139.795583,35.707886],[139.796044,35.708596],[139.796206,35.708772],[139.79622,35.708788],[139.796254,35.708826],[139.796402,35.708962],[139.796444,35.709008],[139.796804,35.709381],[139.796953,35.709555],[139.796999,35.709617],[139.79704,35.709672],[139.797102,35.709754],[139.797205,35.709901],[139.797645,35.710542],[139.797744,35.7107],[139.797992,35.711014],[139.798056,35.711092],[139.798119,35.711169],[139.798524,35.711649],[139.799093,35.712336],[139.799136,35.712388],[139.799187,35.712432],[139.799224,35.712463],[139.799629,35.712806],[139.799876,35.713034],[139.800543,35.713649],[139.800644,35.713742],[139.800754,35.71387],[139.800797,35.713919],[139.801209,35.714394],[139.801707,35.714969],[139.801805,35.7151],[139.801988,35.715315],[139.802049,35.715376],[139.802088,35.715422],[139.802409,35.7158],[139.80253,35.715941],[139.802776,35.716221],[139.802961,35.716431],[139.803061,35.716545],[139.803138,35.716633],[139.803485,35.717027],[139.803599,35.717169],[139.803765,35.717376],[139.803788,35.717408],[139.803978,35.717642],[139.804113,35.717824],[139.804123,35.717838],[139.804129,35.717847],[139.804224,35.717987],[139.804256,35.718033],[139.804381,35.718217],[139.804552,35.718452],[139.804742,35.718698],[139.804777,35.718744],[139.804943,35.718969],[139.805104,35.71918],[139.805163,35.719257],[139.805253,35.719374],[139.805296,35.719434],[139.805377,35.719514],[139.805759,35.719871],[139.805828,35.719937],[139.805877,35.719984],[139.806405,35.720495],[139.806471,35.720562],[139.806595,35.720688],[139.806633,35.720742],[139.80669,35.720831],[139.806827,35.721044],[139.806853,35.721092],[139.806872,35.721147],[139.806964,35.721476],[139.807028,35.721702],[139.807132,35.722071],[139.807178,35.722259],[139.807184,35.722281],[139.80722,35.722431],[139.807247,35.72254],[139.807266,35.722623],[139.807342,35.72296],[139.80739,35.723177],[139.807393,35.723189],[139.807466,35.723518],[139.807483,35.723596],[139.80752,35.72376],[139.807551,35.723906],[139.807588,35.724075],[139.807599,35.72413],[139.80762,35.724233],[139.807677,35.724552],[139.807727,35.724806],[139.807747,35.724907],[139.807784,35.725046],[139.807793,35.72508],[139.80784,35.725254],[139.807923,35.725549],[139.807942,35.725616],[139.807976,35.725736],[139.807997,35.725798],[139.808017,35.72586],[139.808062,35.725997],[139.808082,35.726062],[139.80811,35.726149],[139.808152,35.726281],[139.808186,35.726377],[139.808216,35.726459],[139.808262,35.72659],[139.808291,35.726679],[139.808325,35.726782],[139.808348,35.726858],[139.808368,35.726933],[139.808371,35.726945],[139.808395,35.727059],[139.808397,35.727067],[139.808429,35.727218],[139.80849,35.727498],[139.808512,35.727599],[139.808528,35.727696],[139.808527,35.72774],[139.808512,35.727873],[139.808501,35.727958],[139.808496,35.728056],[139.808501,35.728121],[139.808622,35.728106],[139.808842,35.728077],[139.810696,35.727835],[139.810759,35.727827],[139.811047,35.727793],[139.811413,35.727746],[139.811765,35.727703],[139.812352,35.727625],[139.812937,35.727548],[139.813009,35.727535],[139.813084,35.727517],[139.813174,35.727487],[139.81319,35.727573],[139.813341,35.727496],[139.813354,35.727489],[139.813472,35.727425],[139.813586,35.727348],[139.813679,35.727277],[139.813763,35.727201],[139.81383,35.727139],[139.814206,35.726749],[139.814376,35.726581],[139.815165,35.725756],[139.81542,35.725476],[139.815525,35.725464],[139.815579,35.725457],[139.815793,35.725418],[139.816057,35.725422],[139.816206,35.725398],[139.816255,35.725391],[139.816642,35.725303],[139.8167,35.725189],[139.816944,35.725203],[139.817116,35.725213],[139.817265,35.725234],[139.817419,35.72527],[139.817561,35.725297],[139.817722,35.725309],[139.817766,35.725304],[139.817857,35.725297],[139.818243,35.725307],[139.818512,35.725314],[139.818837,35.72537],[139.81897,35.725374],[139.819012,35.725364],[139.819407,35.725289],[139.819605,35.725251],[139.819779,35.725233],[139.819888,35.725227],[139.819974,35.725233],[139.820327,35.725272],[139.820701,35.72525],[139.820753,35.725305],[139.820816,35.725375],[139.820922,35.725522],[139.820928,35.72554],[139.821335,35.725521],[139.821499,35.725513],[139.821531,35.725513],[139.82165,35.725512],[139.821721,35.72557],[139.821865,35.725701],[139.822298,35.726095],[139.822488,35.726275],[139.822892,35.726631],[139.823015,35.726741],[139.823296,35.72701],[139.823398,35.727107],[139.823663,35.727348],[139.823965,35.72763],[139.824087,35.727737],[139.824248,35.727885],[139.824325,35.727845],[139.824457,35.727774],[139.824905,35.727779],[139.825006,35.728147],[139.825085,35.728465],[139.825102,35.72851],[139.82513,35.728582],[139.825063,35.728635],[139.825136,35.728699],[139.825309,35.728851],[139.825707,35.72922],[139.825778,35.729283],[139.827055,35.73044],[139.827123,35.730499],[139.827195,35.730556],[139.827211,35.730567],[139.830908,35.733322],[139.830974,35.733372],[139.83108,35.733448],[139.831612,35.733855],[139.831936,35.734039],[139.83259,35.734508],[139.832732,35.734622],[139.83312,35.734907],[139.833307,35.735028],[139.833411,35.735094],[139.833533,35.735175],[139.833695,35.735278],[139.83433,35.735736],[139.835235,35.736405],[139.83549,35.736601],[139.835878,35.736911],[139.836298,35.737247],[139.836967,35.73776],[139.837206,35.737952],[139.837455,35.73817],[139.837737,35.738436],[139.838399,35.739051],[139.839341,35.739921],[139.839831,35.740358],[139.839906,35.740431],[139.840132,35.740653],[139.840182,35.740702],[139.840557,35.74106],[139.840923,35.741399],[139.841,35.741474],[139.841103,35.741572],[139.84149,35.741939],[139.841735,35.742184],[139.84205,35.742513],[139.842833,35.74336],[139.843356,35.743913],[139.843647,35.744222],[139.843707,35.744288],[139.844592,35.745255],[139.84492,35.745611],[139.845265,35.746],[139.845336,35.746083],[139.845564,35.746383],[139.845896,35.746815],[139.846227,35.747268],[139.846296,35.747359],[139.847146,35.748481],[139.847855,35.74942],[139.847925,35.749513],[139.848002,35.749614],[139.848408,35.750149],[139.849049,35.751013],[139.849258,35.751293],[139.849453,35.75153],[139.849722,35.751838],[139.849973,35.752113],[139.850021,35.752166],[139.85102,35.753308],[139.851102,35.7534],[139.851245,35.75356],[139.85164,35.754003],[139.852151,35.754598],[139.852624,35.755143],[139.853004,35.755567],[139.853585,35.756218],[139.854329,35.757066],[139.854475,35.757212],[139.854661,35.757393],[139.854772,35.757482],[139.854911,35.757581],[139.855161,35.757734],[139.855264,35.75779],[139.856078,35.758248],[139.856146,35.758289],[139.857367,35.758998],[139.85746,35.759051],[139.858307,35.759554],[139.858825,35.759859],[139.859203,35.76008],[139.859565,35.760281],[139.859711,35.760367],[139.859849,35.760443],[139.860508,35.760824],[139.861096,35.761163],[139.861216,35.761227],[139.861315,35.761286],[139.861774,35.761551],[139.861896,35.76162],[139.862321,35.761863],[139.862395,35.761905],[139.862512,35.761973],[139.862814,35.762147],[139.862999,35.762249],[139.863668,35.762639],[139.863773,35.762699],[139.863888,35.762765],[139.863945,35.762797],[139.864495,35.763112],[139.865197,35.763522],[139.865835,35.763888],[139.865899,35.763924],[139.866007,35.763987],[139.866305,35.764159],[139.867241,35.764702],[139.867505,35.764847],[139.86764,35.764919],[139.867751,35.764934],[139.867826,35.764975],[139.868408,35.765292],[139.869409,35.765873],[139.869663,35.766015],[139.869827,35.766107],[139.870043,35.766238],[139.870157,35.766308],[139.870578,35.766559],[139.870778,35.766673],[139.871003,35.766796],[139.871075,35.766838],[139.871158,35.766881],[139.871318,35.766958],[139.871376,35.766984],[139.871738,35.767178],[139.872351,35.767489],[139.873347,35.767985],[139.873728,35.768183],[139.873793,35.768217],[139.874041,35.768348],[139.874678,35.768676],[139.874872,35.768777],[139.875022,35.768857],[139.875129,35.768923],[139.875227,35.768988],[139.875343,35.769081],[139.875445,35.769184],[139.87552,35.769294],[139.875601,35.769436],[139.87571,35.769669],[139.875943,35.770176],[139.876383,35.77122],[139.876432,35.771336],[139.876493,35.77148],[139.87652,35.771544],[139.876738,35.77206],[139.877192,35.773076],[139.877256,35.773221],[139.87729,35.773302],[139.877325,35.773385],[139.877545,35.773867],[139.877682,35.774164],[139.877715,35.774238],[139.877834,35.77452],[139.878053,35.775039],[139.8783,35.775581],[139.878361,35.77569],[139.878515,35.775907],[139.878596,35.775996],[139.87879,35.776174],[139.878939,35.776281],[139.879003,35.776321],[139.87912,35.776393],[139.879224,35.776452],[139.879324,35.776498],[139.88003,35.776834],[139.880544,35.777078],[139.88062,35.777115],[139.880696,35.777152],[139.881716,35.777636],[139.881971,35.77776],[139.88243,35.77798],[139.883109,35.778308],[139.883123,35.778315],[139.883222,35.778364],[139.88328,35.778392],[139.883392,35.778446],[139.883973,35.778727],[139.884114,35.778792],[139.884264,35.77882],[139.884421,35.778868],[139.884541,35.77892],[139.884724,35.779009],[139.885405,35.77932],[139.885496,35.779354],[139.885586,35.779366],[139.885695,35.779366],[139.885776,35.779356],[139.885854,35.779336],[139.885917,35.779304],[139.885985,35.779258],[139.886054,35.779199],[139.886396,35.778847],[139.886603,35.778658],[139.886697,35.778537],[139.886871,35.778318],[139.886774,35.778261],[139.886478,35.7781],[139.886491,35.778025],[139.886485,35.777968],[139.886461,35.777924],[139.886392,35.777857],[139.886313,35.777788],[139.886162,35.777663],[139.886153,35.777655],[139.885958,35.777487],[139.885777,35.777322],[139.885593,35.777162],[139.885407,35.776998],[139.885366,35.776956],[139.885343,35.776922],[139.885341,35.776886],[139.8855,35.776952],[139.885789,35.777122],[139.886442,35.777465],[139.886575,35.77754],[139.886611,35.777565],[139.88665,35.777606],[139.886724,35.777671],[139.886833,35.777753],[139.887051,35.77787],[139.887642,35.778188],[139.887748,35.778247],[139.888231,35.778505],[139.888704,35.778756],[139.888851,35.77883],[139.888886,35.778882],[139.88895,35.778961],[139.889134,35.77918],[139.889273,35.779349],[139.889403,35.77953],[139.889508,35.779675],[139.889582,35.779788],[139.889721,35.780042],[139.889739,35.780147],[139.88987,35.780347],[139.889955,35.780484],[139.890047,35.780629],[139.890122,35.780761],[139.890191,35.780903],[139.890256,35.781055],[139.890295,35.781207],[139.890319,35.781329],[139.890338,35.781456],[139.890344,35.781602],[139.89034,35.781788],[139.890329,35.781947],[139.890316,35.782117],[139.890298,35.782269],[139.890273,35.782446],[139.890244,35.78261],[139.890185,35.78289],[139.890123,35.783107],[139.890067,35.783296],[139.889993,35.783522],[139.889895,35.783804],[139.88978,35.784115],[139.889648,35.784445],[139.889353,35.78523],[139.88929,35.785387],[139.88923,35.785559],[139.889173,35.785722],[139.88899,35.786221],[139.888814,35.786699],[139.888548,35.787411],[139.888309,35.788071],[139.888117,35.788586],[139.887868,35.789263],[139.887627,35.789894],[139.88734,35.790683],[139.887178,35.791138],[139.887052,35.791503],[139.886951,35.791857],[139.886864,35.792222],[139.886793,35.792583],[139.886745,35.792854],[139.886707,35.793155],[139.886682,35.793427],[139.886678,35.79358],[139.886678,35.793729],[139.886666,35.793861],[139.886664,35.794094],[139.886669,35.79432],[139.886679,35.79448],[139.886693,35.794646],[139.886712,35.794859],[139.886716,35.794884],[139.886774,35.79527],[139.886814,35.795469],[139.886823,35.795541],[139.886821,35.795683],[139.886844,35.795918],[139.88686,35.795995],[139.886876,35.796086],[139.886926,35.796193],[139.886982,35.796314],[139.88707,35.796475],[139.887148,35.79662],[139.887255,35.796788],[139.88739,35.796963],[139.887522,35.797152],[139.88767,35.797331],[139.887926,35.79762],[139.888469,35.798251],[139.889001,35.798912],[139.889105,35.799036],[139.889212,35.799178],[139.889336,35.799347],[139.889428,35.799539],[139.889458,35.799634],[139.889478,35.79974],[139.889504,35.799895],[139.889524,35.800075],[139.889555,35.800468],[139.889575,35.800976],[139.889568,35.801121],[139.88955,35.80128],[139.889503,35.801515],[139.889403,35.801829],[139.889391,35.801867],[139.889331,35.801991],[139.889236,35.802176],[139.889188,35.802269],[139.889132,35.802371],[139.889038,35.80253],[139.88895,35.802676],[139.888871,35.8028],[139.888783,35.80293],[139.88859,35.803186],[139.888558,35.803223],[139.888523,35.803265],[139.888398,35.803401],[139.888257,35.803548],[139.888097,35.803702],[139.887966,35.803812],[139.887824,35.803926],[139.887546,35.804152],[139.887418,35.804255],[139.887243,35.804396],[139.886949,35.804633],[139.886474,35.805019],[139.886323,35.805151],[139.886053,35.805396],[139.885937,35.805501],[139.885776,35.805647],[139.885632,35.805788],[139.885481,35.805943],[139.885343,35.806098],[139.885234,35.806222],[139.885146,35.806331],[139.885047,35.806492],[139.884996,35.806585],[139.884956,35.806667],[139.884885,35.806835],[139.884836,35.806973],[139.884805,35.807092],[139.884767,35.807283],[139.884758,35.807367],[139.884742,35.807474],[139.884735,35.80758],[139.88473,35.807703],[139.88473,35.80786],[139.884733,35.808057],[139.88476,35.808343],[139.884789,35.808542],[139.884817,35.80871],[139.884855,35.808875],[139.884906,35.80907],[139.885007,35.809384],[139.885087,35.809586],[139.885152,35.80973],[139.885222,35.809852],[139.885292,35.809971],[139.885356,35.810073],[139.885424,35.810161],[139.88556,35.810328],[139.885654,35.810436],[139.885737,35.810537],[139.8859,35.810688],[139.886493,35.81125],[139.886705,35.811437],[139.886851,35.811592],[139.886974,35.811712],[139.887346,35.812063],[139.88756,35.812272],[139.887771,35.812493],[139.887935,35.812678],[139.888075,35.812855],[139.888144,35.812965],[139.888208,35.813077],[139.888309,35.813292],[139.888389,35.813518],[139.888446,35.813704],[139.888514,35.813986],[139.888546,35.81418],[139.888566,35.814325],[139.888595,35.814638],[139.888613,35.814962],[139.888631,35.815323],[139.888645,35.815544],[139.888648,35.815623],[139.888647,35.815655],[139.888639,35.815701],[139.88863,35.815738],[139.888614,35.815772],[139.888588,35.815808],[139.888554,35.815849],[139.888522,35.815875],[139.888479,35.815904],[139.888441,35.815926],[139.888261,35.816024],[139.887822,35.816245],[139.88773,35.816295],[139.887671,35.816336],[139.887629,35.816372],[139.887586,35.816419],[139.887552,35.816471],[139.887531,35.816517],[139.887519,35.816551],[139.887504,35.8166],[139.887496,35.816643],[139.887495,35.816682],[139.887503,35.81673],[139.887523,35.816794],[139.887544,35.816839],[139.887593,35.816904],[139.887837,35.817211],[139.887848,35.817226],[139.888001,35.817421],[139.888096,35.817541],[139.888277,35.817777],[139.888426,35.817971],[139.888451,35.818016],[139.88846,35.818051],[139.888457,35.818088],[139.888446,35.818136],[139.888422,35.81819],[139.888368,35.818311],[139.888246,35.818615],[139.888093,35.818962],[139.887911,35.819364],[139.887477,35.820266],[139.887348,35.820543],[139.887263,35.820703],[139.887219,35.820808],[139.886907,35.821472],[139.886726,35.821888],[139.886644,35.82209],[139.886572,35.822286],[139.886556,35.822327],[139.886508,35.822459],[139.886408,35.822769],[139.886391,35.822823],[139.886276,35.823278],[139.886223,35.823497],[139.886147,35.823914],[139.886058,35.824404],[139.885983,35.824805],[139.885935,35.825125],[139.88588,35.825568],[139.885849,35.826038],[139.88583,35.826286],[139.885832,35.826678],[139.885838,35.826821],[139.885839,35.827135],[139.885852,35.827492],[139.885869,35.827762],[139.885896,35.828014],[139.885918,35.828213],[139.885969,35.828616],[139.886068,35.829328],[139.886119,35.829706],[139.886172,35.830092],[139.886202,35.830305],[139.886206,35.830372],[139.886182,35.830418],[139.886169,35.830478],[139.886096,35.83094],[139.886097,35.830991],[139.886135,35.831229],[139.886208,35.831402],[139.886286,35.831574],[139.88636,35.831755],[139.886397,35.831798],[139.886416,35.831842],[139.886456,35.832115],[139.886469,35.832201],[139.886504,35.832405],[139.886515,35.83256],[139.886532,35.833523],[139.886551,35.834088],[139.886548,35.834375],[139.886561,35.834663],[139.886569,35.834911],[139.886594,35.835197],[139.886618,35.835477],[139.886626,35.835565],[139.886669,35.835898],[139.886683,35.836002],[139.886712,35.836286],[139.886769,35.8367],[139.886817,35.837093],[139.886879,35.837577],[139.886936,35.838055],[139.887004,35.838606],[139.887111,35.839387],[139.887163,35.839746],[139.887222,35.840098],[139.887357,35.840744],[139.887488,35.841342],[139.887536,35.841559],[139.887588,35.841785],[139.887644,35.842007],[139.887754,35.842429],[139.887827,35.842729],[139.887831,35.842758],[139.887943,35.843198],[139.887957,35.843268],[139.888006,35.84346],[139.888052,35.843673],[139.88809,35.843885],[139.888102,35.843954],[139.888116,35.844033],[139.888125,35.844097],[139.888129,35.844117],[139.888146,35.844132],[139.888169,35.844137],[139.888191,35.844128],[139.888205,35.844111],[139.888201,35.844075],[139.888191,35.844009],[139.88816,35.843642],[139.888152,35.843542],[139.88819,35.843438],[139.888197,35.843391],[139.88818,35.843209],[139.888147,35.842991],[139.88815,35.842957],[139.888161,35.842937],[139.888188,35.842931],[139.888208,35.842937],[139.888224,35.842966],[139.888237,35.843013],[139.888337,35.8434],[139.888398,35.84378],[139.888431,35.844018],[139.888453,35.844201],[139.888417,35.844294],[139.888442,35.844452],[139.888456,35.844548],[139.888487,35.844667],[139.888508,35.844809],[139.888537,35.845035],[139.888555,35.84516],[139.888595,35.845242],[139.888639,35.845339],[139.888696,35.845628],[139.888729,35.845951],[139.888786,35.84605],[139.888804,35.84612],[139.888818,35.846198],[139.888875,35.846644],[139.888901,35.846837],[139.888945,35.847099],[139.889022,35.847502],[139.889107,35.8479],[139.889118,35.848001],[139.889106,35.848101],[139.889096,35.848161],[139.889081,35.848337],[139.889079,35.848409],[139.889079,35.848494],[139.889063,35.848869],[139.889061,35.849048],[139.889063,35.849224],[139.889075,35.84941],[139.88909,35.849561],[139.889101,35.849654],[139.88911,35.849734],[139.88914,35.849898],[139.889174,35.850103],[139.889206,35.850246],[139.889265,35.850368],[139.889359,35.850525],[139.889449,35.850676],[139.889539,35.850806],[139.889702,35.851025],[139.890037,35.851464],[139.890379,35.851888],[139.890578,35.852127],[139.890946,35.852574],[139.891035,35.852683],[139.891042,35.852692],[139.891232,35.852956],[139.891373,35.853168],[139.891504,35.853381],[139.891617,35.853575],[139.891716,35.853752],[139.891825,35.853945],[139.891885,35.854078],[139.891961,35.854226],[139.892011,35.854326],[139.892103,35.854534],[139.892165,35.854678],[139.892229,35.854833],[139.892354,35.85515],[139.892698,35.856031],[139.893036,35.856916],[139.893401,35.857869],[139.893951,35.859298],[139.894491,35.860728],[139.894792,35.861515],[139.894828,35.86162],[139.894867,35.861741],[139.895332,35.862982],[139.895355,35.863061],[139.895443,35.863272],[139.895482,35.863394],[139.89554,35.863604],[139.895576,35.863821],[139.895524,35.863852],[139.895539,35.863979],[139.895537,35.864091],[139.895479,35.864269],[139.895417,35.864393],[139.895323,35.864545],[139.895307,35.864638],[139.895297,35.864683],[139.89532,35.864917],[139.895331,35.865127],[139.895348,35.86523],[139.895396,35.86531],[139.895442,35.865396],[139.895479,35.865486],[139.89551,35.865574],[139.895525,35.865713],[139.895508,35.865856],[139.895567,35.865941],[139.895492,35.866256],[139.895391,35.866815],[139.895233,35.867414],[139.895046,35.867987],[139.89475,35.868739],[139.894236,35.869978],[139.893878,35.8709],[139.893472,35.8717],[139.892987,35.872212],[139.892902,35.87234],[139.892234,35.873356],[139.891608,35.874401],[139.891296,35.875176],[139.890891,35.875923],[139.890649,35.876458],[139.890242,35.877575],[139.889999,35.878473],[139.88981,35.879364],[139.889661,35.880257],[139.889595,35.880899],[139.889474,35.882801],[139.889354,35.883611],[139.889192,35.884305],[139.888999,35.88503],[139.888796,35.885606],[139.888531,35.886317],[139.888245,35.886961],[139.887971,35.88755],[139.887787,35.887945],[139.887156,35.88917],[139.88709,35.889295],[139.885974,35.891443],[139.885693,35.891942],[139.88522,35.892743],[139.884997,35.893107],[139.884668,35.893635],[139.884518,35.893803],[139.884283,35.894183],[139.883973,35.894655],[139.883702,35.895065],[139.883444,35.895452],[139.883103,35.89592],[139.882741,35.89641],[139.882702,35.896465],[139.882675,35.8965],[139.882283,35.897058],[139.882181,35.897219],[139.881695,35.897861],[139.881349,35.898307],[139.881064,35.898694],[139.880666,35.89924],[139.880303,35.899738],[139.879065,35.901417],[139.878459,35.902232],[139.878178,35.902619],[139.877874,35.90303],[139.877643,35.903354],[139.876534,35.904866],[139.876376,35.905082],[139.875998,35.905585],[139.875487,35.906267],[139.875213,35.90663],[139.875117,35.906759],[139.874974,35.906931],[139.874777,35.907183],[139.874544,35.90748],[139.87397,35.908233],[139.873748,35.908499],[139.873449,35.908869],[139.873243,35.909113],[139.873077,35.909322],[139.872773,35.909688],[139.872484,35.910048],[139.872345,35.910223],[139.87203,35.910578],[139.871896,35.91074],[139.871724,35.910947],[139.871642,35.911056],[139.871355,35.911387],[139.870866,35.911982],[139.870721,35.912104],[139.870426,35.912374],[139.870318,35.91249],[139.870282,35.912527],[139.870369,35.912576],[139.874204,35.91475],[139.874286,35.914794],[139.874251,35.914828],[139.874083,35.915038],[139.873988,35.915169],[139.873878,35.915325],[139.873845,35.91542],[139.873815,35.915441],[139.873762,35.915477],[139.873602,35.915599],[139.873501,35.915757],[139.873443,35.915866],[139.873363,35.915966],[139.873339,35.915986],[139.873154,35.916089],[139.87311,35.916116],[139.872932,35.916331],[139.872516,35.9168],[139.872097,35.917337],[139.871702,35.91798],[139.871691,35.918003],[139.871353,35.918725],[139.87131,35.918838],[139.87098,35.919638],[139.870606,35.920669],[139.870278,35.92169],[139.869966,35.922504],[139.869318,35.92379],[139.869113,35.92418],[139.868986,35.924471],[139.868201,35.925872],[139.867468,35.927092],[139.867077,35.92769],[139.866866,35.928014],[139.866292,35.928755],[139.865679,35.929379],[139.865072,35.929996],[139.864613,35.930414],[139.864412,35.930616],[139.863547,35.931396],[139.863162,35.93174],[139.862736,35.932067],[139.862232,35.932433],[139.861742,35.932735],[139.860135,35.933692],[139.859,35.934237],[139.858058,35.934653],[139.856836,35.935204],[139.856638,35.9353],[139.856534,35.935352],[139.855187,35.936093],[139.85413,35.936656],[139.853776,35.93685],[139.853166,35.937132],[139.852793,35.937289],[139.852617,35.937368],[139.852315,35.937496],[139.851889,35.93768],[139.851852,35.937696],[139.851366,35.937884],[139.851041,35.938003],[139.850407,35.93833],[139.850023,35.938575],[139.84978,35.938742],[139.849445,35.939011],[139.849099,35.939314],[139.848839,35.939559],[139.848734,35.939657],[139.848426,35.939977],[139.84836,35.940045],[139.848356,35.940049],[139.848322,35.940089],[139.848283,35.940134],[139.848257,35.940167],[139.848069,35.940408],[139.84784,35.940746],[139.847377,35.941675],[139.847197,35.942051],[139.846936,35.942593],[139.846753,35.942944],[139.846513,35.943319],[139.846335,35.943603],[139.846201,35.943787],[139.846132,35.943884],[139.846098,35.94393],[139.845834,35.944257],[139.845334,35.944911],[139.845067,35.945271],[139.844882,35.945537],[139.844477,35.946149],[139.843932,35.947051],[139.843383,35.947997],[139.843334,35.948081],[139.843114,35.948465],[139.84278,35.949034],[139.842362,35.949781],[139.842227,35.950034],[139.841569,35.951321],[139.840981,35.95245],[139.840334,35.953583],[139.839965,35.954292],[139.839723,35.954794],[139.839407,35.955538],[139.839247,35.955917],[139.838926,35.95661],[139.838553,35.957402],[139.838384,35.957764],[139.83807,35.958399],[139.837473,35.959614],[139.837398,35.959788],[139.837332,35.959948],[139.837224,35.960216],[139.837142,35.960453],[139.836983,35.961015],[139.836926,35.961318],[139.836919,35.961365],[139.836844,35.96192],[139.836788,35.962314],[139.836756,35.962755],[139.836724,35.963425],[139.836709,35.963785],[139.836767,35.964376],[139.836824,35.964869],[139.836841,35.965121],[139.836815,35.965522],[139.836718,35.966038],[139.836478,35.966791],[139.836315,35.96725],[139.836173,35.96763],[139.836041,35.967926],[139.835868,35.968259],[139.835634,35.968677],[139.83541,35.969027],[139.835083,35.969448],[139.834942,35.969611],[139.834569,35.970003],[139.834057,35.970477],[139.833539,35.970874],[139.832985,35.971196],[139.832383,35.971511],[139.831914,35.97174],[139.830762,35.972295],[139.83023,35.972568],[139.829701,35.972913],[139.829445,35.97312],[139.829214,35.973336],[139.828949,35.973638],[139.828815,35.973795],[139.82859,35.974075],[139.828326,35.974489],[139.82809,35.974951],[139.827961,35.975248],[139.827911,35.975392],[139.827825,35.975655],[139.827702,35.976094],[139.827534,35.976916],[139.82748,35.97736],[139.827438,35.977813],[139.827426,35.978153],[139.827445,35.978547],[139.827487,35.978893],[139.827467,35.978945],[139.827458,35.979093],[139.827472,35.979265],[139.827427,35.979395],[139.827439,35.979477],[139.827473,35.979531],[139.827574,35.979675],[139.827618,35.979819],[139.827691,35.980035],[139.827705,35.980169],[139.827717,35.980337],[139.827771,35.980884],[139.82779,35.981146],[139.827808,35.981454],[139.827831,35.981822],[139.827821,35.982179],[139.827807,35.98237],[139.827794,35.982555],[139.827735,35.982899],[139.827667,35.983201],[139.827598,35.983481],[139.827463,35.983868],[139.827312,35.984217],[139.827047,35.984638],[139.82687,35.984849],[139.82665,35.98509],[139.826369,35.985381],[139.825996,35.985762],[139.825199,35.986585],[139.824848,35.986946],[139.823682,35.988164],[139.82336,35.988525],[139.822931,35.989037],[139.821901,35.990296],[139.821452,35.990847],[139.821,35.991405],[139.82076,35.991839],[139.820501,35.992197],[139.820306,35.992436],[139.820182,35.992589],[139.819693,35.993067],[139.819559,35.993175],[139.819165,35.993656],[139.818581,35.994459],[139.818488,35.994637],[139.818319,35.994954],[139.818076,35.995651],[139.817926,35.996208],[139.817817,35.996675],[139.817733,35.997033],[139.817681,35.997418],[139.817675,35.99765],[139.817682,35.997879],[139.817708,35.998184],[139.817728,35.998353],[139.817767,35.998534],[139.817823,35.998798],[139.817907,35.999094],[139.817999,35.999432],[139.818124,35.999799],[139.818232,36.000101],[139.818374,36.000422],[139.818758,36.001175],[139.819047,36.001785],[139.819215,36.002148],[139.81939,36.002622],[139.819545,36.003235],[139.819705,36.004304],[139.819701,36.004565],[139.819671,36.005112],[139.819629,36.005632],[139.819586,36.00663],[139.819559,36.007094],[139.819436,36.00827],[139.819346,36.008983],[139.819252,36.009565],[139.819013,36.011197],[139.818876,36.011959],[139.81868,36.013066],[139.818547,36.013866],[139.818444,36.014617],[139.818437,36.014783],[139.818005,36.017186],[139.817814,36.018265],[139.817773,36.018465],[139.817713,36.018801],[139.817613,36.019389],[139.817566,36.019588],[139.817424,36.020387],[139.817342,36.020859],[139.817301,36.021129],[139.817258,36.021622],[139.817222,36.022022],[139.817174,36.022289],[139.817185,36.022628],[139.817207,36.022815],[139.817253,36.023209],[139.817325,36.023547],[139.817459,36.023982],[139.817566,36.024279],[139.81772,36.024689],[139.817828,36.024964],[139.817951,36.025249],[139.818184,36.025857],[139.818251,36.026024],[139.818622,36.026821],[139.81882,36.027256],[139.819024,36.027667],[139.819201,36.028029],[139.819276,36.028199],[139.819788,36.029558],[139.819874,36.029689],[139.819881,36.029926],[139.819911,36.030098],[139.819944,36.030354],[139.819946,36.030661],[139.819911,36.031289],[139.819907,36.031328],[139.819861,36.031718],[139.819827,36.032035],[139.819805,36.032306],[139.819721,36.032659],[139.819641,36.032934],[139.819542,36.033203],[139.819391,36.033592],[139.819072,36.034279],[139.819002,36.034413],[139.818895,36.034639],[139.818773,36.034866],[139.818704,36.034844],[139.814386,36.033563],[139.814352,36.033555],[139.814315,36.033642],[139.814306,36.033668],[139.8143,36.033688],[139.814277,36.033733],[139.81419,36.033899],[139.814163,36.03395],[139.813872,36.034485],[139.813704,36.034774],[139.813548,36.035029],[139.813383,36.035267],[139.812608,36.036326],[139.811508,36.037557],[139.811194,36.03784],[139.809908,36.038807],[139.809471,36.039124],[139.809118,36.039401],[139.80775,36.040375],[139.807068,36.040761],[139.806198,36.041243],[139.806023,36.041343],[139.805741,36.04151],[139.805297,36.041803],[139.804808,36.042134],[139.804185,36.042637],[139.804069,36.04273],[139.802158,36.044396],[139.801779,36.044775],[139.80122,36.045344],[139.799903,36.046747],[139.799381,36.047309],[139.798759,36.04796],[139.798664,36.048059],[139.798604,36.048115],[139.797008,36.0496],[139.796477,36.050145],[139.796154,36.050499],[139.796058,36.050605],[139.795552,36.051211],[139.795032,36.051848],[139.793985,36.053131],[139.79348,36.053719],[139.793266,36.05393],[139.793243,36.053963],[139.792785,36.054381],[139.792367,36.054729],[139.792336,36.054755],[139.791927,36.055084],[139.791184,36.055623],[139.790984,36.055764],[139.790979,36.055767],[139.790974,36.055771],[139.790936,36.055801],[139.790493,36.056154],[139.790059,36.056579],[139.788912,36.057735],[139.788178,36.058577],[139.787549,36.059363],[139.787532,36.059383],[139.78653,36.060792],[139.78589,36.061784],[139.783996,36.06464],[139.78373,36.065086],[139.783593,36.065317],[139.782268,36.067583],[139.781326,36.069401],[139.780751,36.070942],[139.779981,36.073483],[139.779165,36.076198],[139.778311,36.07903],[139.778263,36.079234],[139.777932,36.080633],[139.777751,36.081136],[139.777735,36.081181],[139.777732,36.081227],[139.777701,36.081682],[139.777346,36.083255],[139.777239,36.083685],[139.776894,36.084936],[139.776862,36.085118],[139.776696,36.085715],[139.776391,36.086768],[139.776315,36.08696],[139.776187,36.087428],[139.776145,36.087569],[139.77595,36.088354],[139.7759,36.088487],[139.775734,36.089037],[139.775709,36.089131],[139.775378,36.090241],[139.775,36.091434],[139.774947,36.091593],[139.774769,36.092161],[139.774703,36.092344],[139.774533,36.092934],[139.774464,36.093294],[139.774428,36.093512],[139.774406,36.093695],[139.774386,36.094025],[139.774376,36.094271],[139.77438,36.094517],[139.774393,36.09484],[139.774407,36.095157],[139.774474,36.095653],[139.774559,36.096045],[139.774813,36.096937],[139.775362,36.098649],[139.775645,36.099623],[139.775675,36.099733],[139.775728,36.099903],[139.775956,36.100693],[139.775986,36.100834],[139.776018,36.100974],[139.776043,36.101084],[139.776036,36.101104],[139.776009,36.101125],[139.775968,36.101152],[139.775921,36.101229],[139.775903,36.101281],[139.775909,36.101336],[139.775929,36.101391],[139.775968,36.101439],[139.776062,36.10153],[139.776101,36.10158],[139.776057,36.101583],[139.775879,36.101605],[139.775212,36.101716],[139.775191,36.102585],[139.775181,36.102768],[139.775148,36.102947],[139.775115,36.103069],[139.775101,36.103116],[139.775088,36.103147],[139.775068,36.103206],[139.774959,36.10318],[139.773615,36.102831],[139.773509,36.102806],[139.77348,36.102897],[139.773404,36.103044],[139.773336,36.103142],[139.773185,36.103349],[139.772436,36.104728],[139.772339,36.104929],[139.772323,36.104973],[139.772196,36.105278],[139.77211,36.105486],[139.772032,36.105654],[139.77198,36.105708],[139.771933,36.105743],[139.771879,36.105771],[139.771819,36.105789],[139.771363,36.105845],[139.7713,36.105862],[139.771263,36.105885],[139.77122,36.105921],[139.770995,36.106133],[139.770919,36.106205],[139.770879,36.106238],[139.770924,36.106277],[139.770781,36.10645],[139.769918,36.107969],[139.769705,36.108121],[139.769245,36.108394],[139.768968,36.108547],[139.768706,36.108676],[139.768439,36.108803],[139.768255,36.108887],[139.768,36.108999],[139.767489,36.109211],[139.767211,36.109319],[139.766874,36.109428],[139.766419,36.109579],[139.76593,36.109745],[139.765634,36.109856],[139.765327,36.109988],[139.765069,36.110116],[139.764813,36.110258],[139.764702,36.110325],[139.764429,36.110495],[139.764154,36.110687],[139.764075,36.110749],[139.763895,36.110895],[139.763631,36.111121],[139.76357,36.111185],[139.763333,36.111422],[139.763169,36.111601],[139.762198,36.112682],[139.762132,36.112754],[139.761903,36.113047],[139.761844,36.113136],[139.761684,36.113421],[139.761617,36.113526],[139.761571,36.113652],[139.761493,36.11383],[139.761438,36.113973],[139.761375,36.114156],[139.761306,36.114384],[139.761227,36.114668],[139.761056,36.115282],[139.76099,36.115528],[139.76093,36.115737],[139.760781,36.116087],[139.760554,36.116528],[139.760265,36.116976],[139.759712,36.117843],[139.759319,36.118441],[139.758853,36.119146],[139.758519,36.119657],[139.758233,36.12005],[139.75791,36.120408],[139.757708,36.120637],[139.757442,36.120917],[139.757159,36.121186],[139.756791,36.121504],[139.756559,36.121701],[139.756475,36.12177],[139.756282,36.121915],[139.756111,36.122017],[139.755917,36.122077],[139.754619,36.122386],[139.754166,36.122685],[139.754107,36.122769],[139.753618,36.123655],[139.753555,36.123771],[139.753361,36.123913],[139.75286,36.124206],[139.752771,36.124247],[139.751492,36.124886],[139.750253,36.125487],[139.749588,36.125793],[139.748869,36.12609],[139.748149,36.126371],[139.747397,36.126648],[139.746908,36.126793],[139.746474,36.126916],[139.746052,36.12704],[139.745594,36.127163],[139.744872,36.127337],[139.744111,36.127512],[139.743282,36.127691],[139.742784,36.127787],[139.742374,36.127852],[139.741962,36.12791],[139.740882,36.128058],[139.73905,36.128295],[139.737163,36.128549],[139.73615,36.128679],[139.735772,36.128745],[139.734581,36.128868],[139.733838,36.12895],[139.732591,36.129095],[139.731743,36.129173],[139.731498,36.129185],[139.731324,36.129217],[139.729574,36.129408],[139.728987,36.129478],[139.728302,36.12957],[139.727899,36.129631],[139.727328,36.129724],[139.726965,36.12979],[139.726315,36.129915],[139.72535,36.130105],[139.723679,36.130435],[139.721752,36.130764],[139.721069,36.130866],[139.720427,36.130989],[139.720111,36.131055],[139.719595,36.131156],[139.719323,36.13113],[139.718113,36.131062],[139.717857,36.131138],[139.716895,36.131834],[139.71675,36.131881],[139.716682,36.131945],[139.716483,36.131998],[139.715049,36.132356],[139.713934,36.132649],[139.71382,36.13268],[139.713612,36.132733],[139.712783,36.132948],[139.711891,36.133191],[139.711305,36.133391],[139.710689,36.133634],[139.710284,36.133814],[139.709916,36.134004],[139.709692,36.134118],[139.709338,36.134315],[139.708825,36.134589],[139.708247,36.134952],[139.708101,36.13506],[139.707707,36.135369],[139.707297,36.135751],[139.707019,36.136041],[139.706781,36.136287],[139.706657,36.136431],[139.706411,36.136761],[139.70626,36.136962],[139.705815,36.137554],[139.705646,36.137775],[139.705587,36.137888],[139.705335,36.138365],[139.705281,36.138391],[139.705231,36.138441],[139.705197,36.138433],[139.704922,36.138968],[139.704567,36.139798],[139.704264,36.14044],[139.70413,36.140691],[139.703994,36.140961],[139.703926,36.141043],[139.703742,36.141369],[139.703694,36.141453],[139.703638,36.141549],[139.703508,36.141755],[139.703482,36.141791],[139.703391,36.141937],[139.703327,36.142027],[139.703278,36.142085],[139.70323,36.142152],[139.703193,36.14222],[139.70309,36.142333],[139.702982,36.142439],[139.702703,36.142658],[139.702583,36.142751],[139.702393,36.142868],[139.702232,36.142954],[139.701383,36.143417],[139.701032,36.143606],[139.70091,36.143667],[139.700813,36.143702],[139.700737,36.143728],[139.700686,36.143738],[139.700608,36.143743],[139.700541,36.143744],[139.700462,36.143738],[139.700392,36.14372],[139.700317,36.143698],[139.700243,36.143664],[139.700164,36.14362],[139.700085,36.143563],[139.700015,36.143503],[139.699904,36.143429],[139.699818,36.143353],[139.69972,36.143265],[139.699683,36.143231],[139.699214,36.14278],[139.699099,36.142678],[139.69894,36.142533],[139.698812,36.142415],[139.698762,36.142386],[139.698723,36.142377],[139.698682,36.142372],[139.698636,36.142376],[139.698602,36.142386],[139.698559,36.142413],[139.698316,36.142607],[139.698157,36.142731],[139.697953,36.142884],[139.697801,36.142989],[139.697724,36.14303],[139.697647,36.143072],[139.697262,36.143259],[139.697187,36.143296],[139.697138,36.143318],[139.696509,36.143613],[139.696406,36.143661],[139.696053,36.143821],[139.695966,36.143863],[139.69601,36.143911],[139.696028,36.14393],[139.696169,36.144133],[139.696242,36.144213],[139.696429,36.144417],[139.696698,36.14473],[139.696966,36.145049],[139.697192,36.145356],[139.69724,36.145426],[139.697431,36.145687],[139.697628,36.145843],[139.697662,36.145861],[139.697696,36.145865],[139.697739,36.145901],[139.697906,36.146044],[139.697873,36.146103],[139.697826,36.146148],[139.69781,36.146165],[139.697728,36.146235],[139.69766,36.146316],[139.697619,36.146332],[139.697467,36.146257],[139.696951,36.146504],[139.696903,36.14652],[139.696797,36.146587],[139.696702,36.146702],[139.696635,36.146833],[139.695935,36.148246],[139.695902,36.148363],[139.695784,36.148485],[139.694734,36.149287],[139.694458,36.14949],[139.693951,36.149883],[139.693646,36.150145],[139.69335,36.150424],[139.693059,36.150726],[139.692864,36.150951],[139.692751,36.15109],[139.692681,36.15118],[139.692584,36.1513],[139.692452,36.151465],[139.692319,36.151676],[139.692215,36.151834],[139.692159,36.151943],[139.69156,36.153126],[139.691456,36.153336],[139.691357,36.153506],[139.691264,36.153656],[139.69113,36.153852],[139.690918,36.154111],[139.690767,36.154275],[139.690605,36.154441],[139.690492,36.154531],[139.690419,36.154602],[139.69026,36.154733],[139.690049,36.154878],[139.689748,36.155099],[139.689408,36.155296],[139.689057,36.155507],[139.688525,36.155779],[139.687889,36.156086],[139.686402,36.156784],[139.68597,36.156978],[139.686227,36.156951],[139.686744,36.156847],[139.688025,36.156539],[139.688122,36.156541],[139.688202,36.156566],[139.688056,36.156647],[139.687491,36.156928],[139.687088,36.157116],[139.686525,36.157356],[139.686079,36.157536],[139.685338,36.15785],[139.685222,36.157871],[139.685117,36.157901],[139.685014,36.157961],[139.684714,36.158096],[139.684028,36.158382],[139.683716,36.158513],[139.683311,36.158684],[139.682662,36.158952],[139.682002,36.159233],[139.681121,36.159609],[139.680476,36.159884],[139.680293,36.159944],[139.680171,36.159965],[139.679312,36.160352],[139.678575,36.16068],[139.677456,36.161184],[139.676875,36.161436],[139.676745,36.1615],[139.676617,36.161502],[139.675277,36.161699],[139.675152,36.161715],[139.675074,36.161706],[139.674935,36.161766],[139.674844,36.161805],[139.672865,36.162647],[139.669863,36.163946],[139.66975,36.163997],[139.66875,36.164419],[139.666854,36.165218],[139.666592,36.165326],[139.666378,36.165411],[139.665709,36.165678],[139.665575,36.165739],[139.665081,36.165939],[139.664682,36.166105],[139.663766,36.166462],[139.663496,36.166568],[139.663265,36.166666],[139.660015,36.168002],[139.655075,36.17004],[139.653085,36.170848],[139.651879,36.171366],[139.648958,36.172613],[139.647578,36.173216],[139.647489,36.173242],[139.646298,36.173328],[139.646243,36.173349],[139.646274,36.173289],[139.646863,36.172694],[139.646928,36.172625],[139.646948,36.17258],[139.646934,36.17256],[139.646914,36.172545],[139.646613,36.17234],[139.646528,36.172291],[139.646433,36.172244],[139.64633,36.17221],[139.646229,36.172191],[139.646145,36.172182],[139.646012,36.172185],[139.645768,36.172199],[139.64556,36.17221],[139.645491,36.172209],[139.645423,36.172193],[139.645116,36.172311],[139.644974,36.172077],[139.644958,36.172033],[139.644952,36.172001],[139.644943,36.171939],[139.644931,36.171901],[139.644869,36.171764],[139.644625,36.171413],[139.644601,36.171403],[139.644575,36.171404],[139.644536,36.171349],[139.64398,36.1705],[139.643966,36.170507],[139.643929,36.170523],[139.643909,36.170531],[139.643646,36.170153],[139.643542,36.170067],[139.643283,36.16988],[139.643111,36.169787],[139.643058,36.169755],[139.643109,36.169731],[139.643164,36.169713],[139.643594,36.169981],[139.643727,36.170079],[139.643858,36.170188],[139.644065,36.170387],[139.644181,36.170516],[139.644293,36.170652],[139.644359,36.170749],[139.644548,36.171051],[139.644719,36.171312],[139.644957,36.17168],[139.650794,36.180758],[139.650925,36.18095],[139.651067,36.18115],[139.65139,36.181601],[139.651521,36.181767],[139.651713,36.181995],[139.651885,36.182216],[139.651943,36.182291],[139.652016,36.182245],[139.652063,36.182216],[139.6521,36.182179],[139.652124,36.182145],[139.652126,36.182107],[139.652116,36.182078],[139.652091,36.182039],[139.652058,36.182012],[139.652016,36.181989],[139.65193,36.181946],[139.651849,36.181902],[139.651802,36.181868],[139.651757,36.181833],[139.651699,36.181772],[139.651612,36.18168],[139.651519,36.181564],[139.651431,36.181443],[139.651303,36.181262],[139.651177,36.181067],[139.650969,36.18072],[139.650926,36.180647],[139.650661,36.180757],[139.650119,36.179893],[139.650067,36.17982],[139.649971,36.17969],[139.649844,36.179493],[139.649836,36.179475],[139.649818,36.17945],[139.649809,36.179436],[139.649146,36.17971],[139.64913,36.179712],[139.649029,36.17972],[139.648898,36.179754],[139.647282,36.180073],[139.64713,36.180087],[139.646689,36.180279],[139.645583,36.180743],[139.64442,36.181227],[139.643866,36.181461],[139.643126,36.181771],[139.64264,36.181977],[139.64216,36.182189],[139.642097,36.182224],[139.641901,36.18231],[139.64079,36.182847],[139.640264,36.183099],[139.639223,36.183617],[139.638155,36.184123],[139.637205,36.184547],[139.63655,36.184813],[139.635505,36.185226],[139.63421,36.185699],[139.633357,36.186018],[139.63222,36.186439],[139.631462,36.186732],[139.631328,36.186783],[139.630745,36.187005],[139.629984,36.187298],[139.62939,36.187549],[139.62915,36.187665],[139.628789,36.18784],[139.62806,36.188217],[139.627649,36.188441],[139.627475,36.188542],[139.627302,36.188639],[139.626436,36.189207],[139.626002,36.189507],[139.625341,36.189985],[139.625111,36.190153],[139.623871,36.190982],[139.623477,36.19122],[139.623086,36.191448],[139.622757,36.191633],[139.621823,36.192169],[139.621773,36.192195],[139.621527,36.192312],[139.620415,36.192945],[139.620251,36.193026],[139.620063,36.193103],[139.619893,36.193162],[139.619713,36.193217],[139.619495,36.193269],[139.619292,36.193315],[139.619096,36.193359],[139.618916,36.193411],[139.618744,36.193478],[139.618576,36.193553],[139.618406,36.193645],[139.618175,36.193807],[139.617904,36.194017],[139.617529,36.194325],[139.614886,36.196421],[139.614467,36.196776],[139.613847,36.197262],[139.613439,36.197567],[139.612792,36.198066],[139.612016,36.19869],[139.611748,36.19892],[139.611268,36.199342],[139.61115,36.199455],[139.611102,36.199517],[139.610983,36.19963],[139.610865,36.199759],[139.610831,36.199788],[139.61058,36.200092],[139.610289,36.200503],[139.610109,36.200806],[139.610024,36.200948],[139.609788,36.201427],[139.609628,36.201759],[139.609093,36.202835],[139.60892,36.203139],[139.608575,36.203584],[139.608385,36.203805],[139.608285,36.203907],[139.607864,36.204289],[139.607783,36.204353],[139.607455,36.204594],[139.607137,36.204812],[139.606627,36.205172],[139.60606,36.205556],[139.605309,36.206065],[139.604686,36.206488],[139.604634,36.206523],[139.604133,36.20687],[139.603111,36.207556],[139.60268,36.207818],[139.60224,36.208108],[139.601994,36.208243],[139.601682,36.208429],[139.601362,36.20859],[139.601103,36.208719],[139.600574,36.208966],[139.599817,36.209282],[139.599201,36.209515],[139.598725,36.209679],[139.597518,36.210074],[139.595934,36.210581],[139.594602,36.211009],[139.593483,36.211329],[139.592538,36.2116],[139.591779,36.21178],[139.590541,36.212118],[139.590379,36.21215],[139.590172,36.21217],[139.58998,36.212173],[139.588902,36.212173],[139.588414,36.212209],[139.587793,36.212262],[139.585984,36.212451],[139.585043,36.212522],[139.584091,36.212574],[139.583876,36.212585],[139.583705,36.212582],[139.583319,36.212566],[139.583038,36.21254],[139.582742,36.212498],[139.582044,36.212323],[139.581828,36.212233],[139.581424,36.212059],[139.581172,36.211934],[139.580928,36.211794],[139.580473,36.211494],[139.580154,36.211308],[139.579543,36.211049],[139.579315,36.210955],[139.578638,36.210687],[139.578021,36.210432],[139.577524,36.21018],[139.574353,36.208468],[139.573772,36.208293],[139.573457,36.208218],[139.573162,36.20813],[139.572945,36.208112],[139.572873,36.208099],[139.572855,36.208072],[139.572769,36.208028],[139.572358,36.207884],[139.572232,36.20781],[139.572243,36.207787],[139.572252,36.207765],[139.572062,36.207571],[139.5716,36.207161],[139.57135,36.206975],[139.571275,36.206891],[139.570917,36.206743],[139.569795,36.206282],[139.568746,36.205868],[139.5677,36.205478],[139.567227,36.205322],[139.566554,36.205133],[139.565818,36.204936],[139.564421,36.204604],[139.564328,36.204586],[139.563242,36.204376],[139.562339,36.20422],[139.560924,36.204017],[139.560102,36.203912],[139.559788,36.203871],[139.558437,36.203694],[139.557454,36.203574],[139.557265,36.203556],[139.556525,36.203459],[139.554974,36.203291],[139.553872,36.20316],[139.553625,36.203131],[139.552596,36.202996],[139.551582,36.202829],[139.550816,36.202666],[139.550091,36.202483],[139.5496,36.20234],[139.549008,36.202168],[139.548092,36.201867],[139.546985,36.201472],[139.546208,36.201165],[139.54524,36.200744],[139.544832,36.200561],[139.544257,36.200304],[139.543325,36.199841],[139.542805,36.19959],[139.54132,36.198873],[139.540044,36.198293],[139.539589,36.198091],[139.538961,36.197823],[139.538479,36.197634],[139.53794,36.197423],[139.53698,36.197065],[139.536067,36.196749],[139.534486,36.196236],[139.533209,36.195839],[139.530869,36.195152],[139.530812,36.195132],[139.530758,36.195114],[139.53075,36.195139],[139.530764,36.195158],[139.530799,36.195183],[139.531168,36.195335],[139.531423,36.195481],[139.531602,36.195572],[139.532253,36.195893],[139.532274,36.195905],[139.532289,36.195922],[139.532296,36.195951],[139.53229,36.195987],[139.531664,36.195813],[139.531602,36.195813],[139.531166,36.195811],[139.530692,36.195731],[139.530152,36.195651],[139.52934,36.195531],[139.529043,36.195458],[139.528447,36.195276],[139.527986,36.195076],[139.527678,36.194943],[139.52726,36.194754],[139.527154,36.194708],[139.526815,36.194689],[139.526719,36.194692],[139.526685,36.194679],[139.526668,36.194662],[139.52664,36.194646],[139.526085,36.194588],[139.52576,36.194554],[139.525642,36.194493],[139.525187,36.194343],[139.524238,36.194115],[139.523788,36.19405],[139.523586,36.194002],[139.523501,36.19399],[139.523053,36.193976],[139.522115,36.193973],[139.521141,36.193991],[139.520653,36.194026],[139.520005,36.194094],[139.519255,36.194174],[139.518776,36.19423],[139.518421,36.194277],[139.517242,36.194412],[139.516887,36.194451],[139.516142,36.194514],[139.51604,36.194552],[139.515315,36.194771],[139.514,36.195146],[139.513938,36.195172],[139.513965,36.195195],[139.51398,36.195208],[139.513991,36.195219],[139.513999,36.195262],[139.514019,36.195415],[139.514098,36.195927],[139.514152,36.196273],[139.514102,36.196266],[139.513587,36.196329],[139.513348,36.196382],[139.51325,36.196417],[139.513182,36.196457],[139.513121,36.196499],[139.513053,36.196553],[139.512953,36.196666],[139.512901,36.196716],[139.512852,36.196756],[139.512809,36.196786],[139.512502,36.196951],[139.512463,36.196972],[139.512189,36.197117],[139.512173,36.197054],[139.511801,36.196218],[139.51083,36.196495],[139.510575,36.196281],[139.510538,36.196256],[139.510501,36.196229],[139.510227,36.196328],[139.509418,36.196528],[139.508778,36.196694],[139.508682,36.196731],[139.508304,36.196912],[139.507596,36.197198],[139.507153,36.197348],[139.506531,36.197506],[139.506004,36.197598],[139.505445,36.197676],[139.504708,36.197728],[139.504565,36.19773],[139.5045,36.197738],[139.50442,36.197738],[139.504351,36.197736],[139.5043,36.197731],[139.504014,36.197731],[139.503582,36.197706],[139.5032,36.197687],[139.502287,36.197596],[139.501415,36.197478],[139.500442,36.197322],[139.500276,36.197288],[139.499637,36.197145],[139.497889,36.196724],[139.496552,36.196436],[139.494894,36.196158],[139.494277,36.196049],[139.494187,36.196045],[139.493779,36.195971],[139.493711,36.195947],[139.492042,36.195573],[139.489135,36.19493],[139.489098,36.194922],[139.488181,36.194708],[139.488089,36.194684],[139.487782,36.194604],[139.4875,36.194508],[139.487113,36.194345],[139.486549,36.194103],[139.486279,36.194011],[139.485935,36.193911],[139.485704,36.193859],[139.485593,36.193837],[139.484957,36.193746],[139.484611,36.193712],[139.483799,36.193651],[139.483247,36.193576],[139.483204,36.193571],[139.482686,36.193508],[139.482445,36.193496],[139.482219,36.19349],[139.481665,36.193494],[139.480597,36.193518],[139.479046,36.193522],[139.478929,36.193516],[139.47883,36.19351],[139.478727,36.193501],[139.478604,36.193488],[139.477218,36.193245],[139.476146,36.193062],[139.475093,36.192857],[139.474605,36.192766],[139.473871,36.192621],[139.473669,36.192583],[139.473552,36.192579],[139.473403,36.192596],[139.473165,36.192607],[139.473058,36.192608],[139.472983,36.192608],[139.472909,36.192595],[139.472885,36.192621],[139.472862,36.192635],[139.472836,36.192644],[139.4728,36.192648],[139.472762,36.192644],[139.47272,36.192628],[139.472676,36.192605],[139.472615,36.19258],[139.472509,36.192544],[139.472428,36.192524],[139.472341,36.192508],[139.472222,36.192494],[139.472053,36.192483],[139.471732,36.192474],[139.471639,36.19247],[139.471551,36.192473],[139.471453,36.192482],[139.471363,36.192444],[139.471304,36.192418],[139.471204,36.192428],[139.471109,36.192429],[139.47102,36.192425],[139.470548,36.19241],[139.469814,36.192399],[139.469486,36.1924],[139.469352,36.192399],[139.469184,36.1924],[139.4689,36.192406],[139.468425,36.192415],[139.467739,36.192441],[139.467078,36.192477],[139.46635,36.19253],[139.46576,36.192588],[139.464982,36.192678],[139.464709,36.192717],[139.464432,36.192753],[139.4637,36.192868],[139.463427,36.192914],[139.462998,36.192994],[139.46257,36.19308],[139.4617,36.19327],[139.460802,36.193495],[139.460631,36.193539],[139.459707,36.193799],[139.459,36.194025],[139.458148,36.194314],[139.4573,36.194626],[139.456751,36.194833],[139.456333,36.194991],[139.456271,36.195013],[139.455969,36.195128],[139.455542,36.195288],[139.455155,36.195434],[139.4549,36.195532],[139.454645,36.19563],[139.454492,36.195688],[139.453709,36.195984],[139.452928,36.196287],[139.452579,36.196434],[139.452207,36.196595],[139.451512,36.196912],[139.451445,36.196942],[139.450632,36.19732],[139.450309,36.197472],[139.449562,36.197818],[139.448588,36.198268],[139.447697,36.19868],[139.447473,36.198788],[139.447342,36.198844],[139.446797,36.199101],[139.4462,36.199396],[139.445883,36.199567],[139.445807,36.199608],[139.445441,36.199818],[139.445171,36.199979],[139.444616,36.200326],[139.444352,36.200502],[139.444133,36.200669],[139.443871,36.200882],[139.443574,36.20113],[139.443207,36.20145],[139.443101,36.201547],[139.442857,36.201783],[139.442648,36.201999],[139.442475,36.202166],[139.44241,36.202224],[139.442355,36.202272],[139.442261,36.202346],[139.442169,36.202413],[139.442063,36.202481],[139.441846,36.202615],[139.441709,36.202692],[139.441611,36.202745],[139.441335,36.202885],[139.44089,36.203102],[139.440668,36.203208],[139.440326,36.203378],[139.440079,36.203517],[139.439829,36.203663],[139.43961,36.203797],[139.439267,36.204015],[139.43894,36.204227],[139.438689,36.204395],[139.438279,36.204676],[139.438022,36.20485],[139.437865,36.204958],[139.437595,36.205138],[139.437235,36.205377],[139.436992,36.205534],[139.436766,36.20568],[139.436378,36.20593],[139.436151,36.206071],[139.435888,36.206237],[139.435527,36.206473],[139.435327,36.206606],[139.435084,36.206769],[139.435011,36.206816],[139.434639,36.207064],[139.434246,36.207329],[139.43399,36.207504],[139.433828,36.207617],[139.433725,36.207691],[139.433658,36.207738],[139.433583,36.207793],[139.433392,36.20794],[139.433208,36.208076],[139.432811,36.20839],[139.432446,36.208684],[139.431342,36.209572],[139.430662,36.210109],[139.430053,36.210586],[139.429081,36.211338],[139.428486,36.211782],[139.428432,36.211831],[139.428258,36.211958],[139.428084,36.212085],[139.428046,36.212103],[139.427915,36.212193],[139.427143,36.212752],[139.426649,36.213111],[139.426499,36.213228],[139.426187,36.213479],[139.425349,36.21417],[139.42508,36.214405],[139.424844,36.214644],[139.424384,36.215191],[139.423915,36.21577],[139.423839,36.21586],[139.423779,36.215954],[139.423526,36.216325],[139.423408,36.216502],[139.423234,36.216759],[139.423065,36.216994],[139.422904,36.217207],[139.422788,36.217363],[139.422653,36.21754],[139.42256,36.217652],[139.42252,36.217702],[139.422375,36.217867],[139.422247,36.217991],[139.422154,36.218082],[139.422052,36.218167],[139.421944,36.218246],[139.421802,36.218341],[139.421656,36.218436],[139.42142,36.218581],[139.421004,36.218823],[139.420784,36.218937],[139.42055,36.219049],[139.420118,36.219253],[139.419972,36.219319],[139.419893,36.219361],[139.419749,36.219423],[139.419431,36.219583],[139.419223,36.219701],[139.418988,36.219834],[139.418675,36.220013],[139.417848,36.220526],[139.417587,36.220697],[139.417359,36.220846],[139.417309,36.22089],[139.417143,36.221005],[139.416968,36.221118],[139.416902,36.221145],[139.416131,36.221667],[139.415052,36.222394],[139.414522,36.222756],[139.41357,36.223416],[139.413126,36.223743],[139.413063,36.223829],[139.412837,36.224005],[139.412728,36.224053],[139.412395,36.224309],[139.411932,36.224647],[139.410637,36.225597],[139.409294,36.226567],[139.408514,36.227159],[139.407855,36.227654],[139.407621,36.227821],[139.407504,36.227911],[139.407459,36.22795],[139.407398,36.227993],[139.407277,36.228081],[139.406073,36.228946],[139.405428,36.229402],[139.404855,36.229805],[139.404599,36.229971],[139.403894,36.230387],[139.403579,36.23057],[139.402328,36.231319],[139.401888,36.231593],[139.40175,36.231677],[139.401556,36.231791],[139.401206,36.231996],[139.401119,36.232022],[139.400971,36.232098],[139.40077,36.232184],[139.400251,36.2324],[139.400123,36.232453],[139.399839,36.232572],[139.39965,36.232669],[139.399549,36.232727],[139.399471,36.232777],[139.3994,36.232824],[139.399342,36.232872],[139.39928,36.232921],[139.399188,36.233001],[139.39908,36.233098],[139.399049,36.233127],[139.399019,36.233148],[139.398955,36.233171],[139.398762,36.23323],[139.398664,36.233262],[139.398624,36.233275],[139.398524,36.23333],[139.398485,36.233356],[139.398451,36.233387],[139.398282,36.233469],[139.397837,36.233703],[139.397173,36.234043],[139.39623,36.234506],[139.39529,36.234971],[139.39455,36.235335],[139.393454,36.235908],[139.39294,36.236182],[139.392583,36.236368],[139.391692,36.236829],[139.391179,36.237099],[139.391137,36.23713],[139.391051,36.237178],[139.390963,36.237223],[139.390903,36.237246],[139.390715,36.237345],[139.390446,36.237484],[139.387989,36.238772],[139.387921,36.238805],[139.387836,36.238838],[139.387459,36.239038],[139.387388,36.23907],[139.387306,36.239107],[139.387263,36.239127],[139.386729,36.239377],[139.38595,36.239731],[139.384906,36.240214],[139.38483,36.240236],[139.384627,36.240329],[139.384424,36.240422],[139.384359,36.240466],[139.383761,36.240741],[139.383018,36.241084],[139.382148,36.241487],[139.381735,36.24168],[139.381328,36.241862],[139.381067,36.241971],[139.381032,36.242035],[139.380989,36.242058],[139.380908,36.242102],[139.380706,36.242212],[139.380676,36.242228],[139.3806,36.242267],[139.38076,36.242488],[139.380906,36.242695],[139.380961,36.242783],[139.380993,36.242843],[139.381056,36.243035],[139.381091,36.243147],[139.381111,36.243261],[139.38112,36.243408],[139.381117,36.243542],[139.381106,36.243654],[139.381097,36.243701],[139.381091,36.243736],[139.381065,36.243847],[139.381016,36.243974],[139.380967,36.244098],[139.380887,36.244265],[139.380788,36.244384],[139.380678,36.244366],[139.380604,36.244353],[139.379969,36.244245],[139.379866,36.244225],[139.379798,36.244201],[139.379744,36.24417],[139.379697,36.244117],[139.379676,36.244066],[139.379659,36.24401],[139.379664,36.243787],[139.3796,36.243787],[139.379501,36.243786],[139.379487,36.243818],[139.379477,36.243848],[139.379452,36.243905],[139.379383,36.244074],[139.379263,36.244321],[139.379157,36.244529],[139.378926,36.244933],[139.378728,36.245247],[139.3784,36.245717],[139.378251,36.245911],[139.378095,36.246109],[139.377947,36.246285],[139.37767,36.246594],[139.377446,36.246832],[139.377284,36.246988],[139.377122,36.247141],[139.376906,36.247332],[139.376759,36.247442],[139.37667,36.247504],[139.376592,36.247552],[139.37608,36.247838],[139.375902,36.247922],[139.37573,36.247991],[139.375545,36.248061],[139.37517,36.248166],[139.37441,36.24833],[139.374338,36.248369],[139.37381,36.248757],[139.373805,36.248827],[139.373828,36.248965],[139.373832,36.249058],[139.373785,36.249196],[139.37362,36.249554],[139.373422,36.249777],[139.373361,36.249863],[139.373344,36.249955],[139.373354,36.250039],[139.373388,36.250116],[139.373473,36.250261],[139.373509,36.250315],[139.373102,36.25049],[139.372937,36.25056],[139.372883,36.250583],[139.372845,36.250587],[139.372829,36.250547],[139.372712,36.250315],[139.372682,36.250218],[139.372683,36.250114],[139.3727,36.25005],[139.37273,36.24998],[139.373092,36.249534],[139.373175,36.249416],[139.373214,36.249345],[139.373265,36.24927],[139.373289,36.249179],[139.373282,36.249108],[139.373279,36.249027],[139.373242,36.248973],[139.3732,36.248898],[139.373108,36.248794],[139.373063,36.248764],[139.373009,36.248742],[139.372955,36.248724],[139.372886,36.248723],[139.372646,36.248775],[139.372195,36.248859],[139.371805,36.248909],[139.371674,36.248912],[139.371503,36.24891],[139.370412,36.249114],[139.370226,36.249162],[139.370096,36.249219],[139.370006,36.249243],[139.369921,36.249243],[139.369843,36.249228],[139.369698,36.249189],[139.369523,36.249162],[139.369251,36.249135],[139.368508,36.249065],[139.368277,36.249069],[139.368189,36.249075],[139.3681,36.249088],[139.367984,36.249106],[139.367886,36.24913],[139.367829,36.249146],[139.367813,36.249133],[139.36737,36.248667],[139.367355,36.248652],[139.367292,36.248588],[139.367045,36.24836],[139.366844,36.248174],[139.366562,36.247963],[139.366456,36.247861],[139.366335,36.247749],[139.366258,36.247637],[139.36619,36.247526],[139.366143,36.247377],[139.366104,36.247054],[139.365871,36.247015],[139.365313,36.246923],[139.364777,36.246831],[139.364545,36.246862],[139.364211,36.246918],[139.364037,36.246943],[139.363756,36.247001],[139.363429,36.247038],[139.363347,36.247041],[139.363163,36.247071],[139.362985,36.24711],[139.362662,36.247167],[139.362386,36.247207],[139.362292,36.247209],[139.361877,36.247269],[139.361195,36.247364],[139.360998,36.247399],[139.360654,36.247437],[139.36049,36.247444],[139.360281,36.24749],[139.360144,36.24752],[139.360077,36.247531],[139.360019,36.247541],[139.360053,36.247488],[139.36007,36.247433],[139.360071,36.247392],[139.36041,36.247322],[139.360407,36.247289],[139.360425,36.247236],[139.360182,36.247264],[139.358093,36.247569],[139.35709,36.247681],[139.356237,36.247759],[139.355309,36.247824],[139.354569,36.247854],[139.353465,36.247846],[139.352963,36.247842],[139.352592,36.247827],[139.351969,36.247792],[139.351505,36.247755],[139.350644,36.247668],[139.349687,36.247538],[139.348561,36.247354],[139.348356,36.247317],[139.348153,36.247271],[139.346521,36.246925],[139.344858,36.246547],[139.343742,36.246268],[139.342305,36.245872],[139.339228,36.244978],[139.337855,36.244604],[139.337422,36.244487],[139.337346,36.244466],[139.337304,36.244456],[139.337257,36.244444],[139.337162,36.244423],[139.336913,36.244377],[139.336813,36.244364],[139.336714,36.244354],[139.336546,36.244349],[139.336382,36.244356],[139.336233,36.244371],[139.336073,36.244399],[139.335908,36.244439],[139.335735,36.244493],[139.335508,36.244587],[139.335355,36.244667],[139.335183,36.244778],[139.335078,36.244869],[139.334887,36.245059],[139.334779,36.245191],[139.33474,36.245235],[139.334679,36.245303],[139.33455,36.245463],[139.334119,36.245998],[139.333568,36.246678],[139.333374,36.24691],[139.332726,36.24749],[139.332462,36.247728],[139.332413,36.247765],[139.332042,36.248043],[139.331989,36.248075],[139.331931,36.248114],[139.331777,36.248227],[139.331689,36.248292],[139.330639,36.24905],[139.32987,36.249504],[139.329443,36.249765],[139.328843,36.250126],[139.328782,36.250153],[139.328709,36.250193],[139.328687,36.250162],[139.328678,36.250124],[139.328333,36.249463],[139.328289,36.249383],[139.328343,36.249362],[139.328372,36.249351],[139.3284,36.249339],[139.328599,36.249255],[139.328749,36.249193],[139.328971,36.249096],[139.329389,36.248858],[139.330103,36.248449],[139.330314,36.248279],[139.330693,36.247996],[139.331357,36.247562],[139.331568,36.247349],[139.331646,36.247273],[139.332306,36.246618],[139.332334,36.246593],[139.332425,36.246511],[139.332518,36.246404],[139.332579,36.246287],[139.333623,36.244042],[139.333703,36.243877],[139.333798,36.243674],[139.333843,36.24357],[139.333857,36.243474],[139.333847,36.243436],[139.333824,36.243387],[139.333792,36.243341],[139.333763,36.243313],[139.33371,36.243278],[139.333622,36.243247],[139.333096,36.243081],[139.332503,36.242886],[139.332053,36.242741],[139.331309,36.242506],[139.330334,36.242205],[139.329329,36.24191],[139.328666,36.241736],[139.328543,36.241704],[139.328431,36.24168],[139.328027,36.241587],[139.327538,36.241484],[139.326501,36.241287],[139.325746,36.241159],[139.32504,36.241055],[139.324107,36.240916],[139.323163,36.24078],[139.322413,36.240681],[139.321585,36.240571],[139.320963,36.240494],[139.320391,36.240433],[139.319861,36.240388],[139.319523,36.240366],[139.319067,36.240344],[139.31854,36.240321],[139.31796,36.240309],[139.317371,36.240311],[139.317229,36.240311],[139.317088,36.240314],[139.316837,36.240323],[139.316492,36.240331],[139.31606,36.240352],[139.315651,36.240373],[139.315328,36.240399],[139.314836,36.240446],[139.314637,36.24048],[139.314038,36.240574],[139.313656,36.240645],[139.31314,36.240755],[139.312319,36.240963],[139.312238,36.240985],[139.312131,36.241016],[139.312081,36.241067],[139.312025,36.241104],[139.311849,36.241167],[139.311679,36.241238],[139.311582,36.24131],[139.311495,36.241403],[139.311396,36.241429],[139.311006,36.241543],[139.310896,36.241577],[139.31076,36.241602],[139.31051,36.241615],[139.31026,36.24162],[139.31006,36.241632],[139.309988,36.241652],[139.308714,36.242016],[139.30744,36.242445],[139.305206,36.243298],[139.303224,36.244053],[139.301922,36.244529],[139.301444,36.244723],[139.300223,36.245145],[139.298146,36.245902],[139.29608,36.2466],[139.2952,36.246926],[139.294041,36.247385],[139.292459,36.248034],[139.291765,36.248299],[139.29128,36.248482],[139.290567,36.248704],[139.289798,36.248917],[139.28858,36.24924],[139.286631,36.249726],[139.286565,36.249737],[139.286491,36.249749],[139.283921,36.250308],[139.28257,36.250624],[139.281491,36.250884],[139.279699,36.251324],[139.277965,36.251691],[139.275656,36.25218],[139.275043,36.252306],[139.274802,36.252364],[139.274358,36.25247],[139.273917,36.252592],[139.273485,36.252687],[139.273441,36.252693],[139.273379,36.252705],[139.273354,36.25271],[139.273298,36.25272],[139.27323,36.252737],[139.273157,36.252751],[139.273093,36.252757],[139.272208,36.252938],[139.272031,36.252938],[139.268935,36.253549],[139.268714,36.253592],[139.266877,36.253969],[139.26476,36.254354],[139.263759,36.254556],[139.263423,36.254669],[139.263243,36.254754],[139.263084,36.254867],[139.262871,36.255039],[139.261843,36.256095],[139.261328,36.256629],[139.26108,36.256872],[139.260717,36.257191],[139.260532,36.257342],[139.260267,36.257534],[139.259839,36.257835],[139.259581,36.258015],[139.259316,36.258227],[139.259137,36.258417],[139.258994,36.258586],[139.258792,36.258853],[139.258607,36.259117],[139.25847,36.259285],[139.258301,36.25947],[139.258184,36.259568],[139.258017,36.259695],[139.25784,36.259813],[139.257704,36.259877],[139.257477,36.259972],[139.256802,36.260191],[139.256069,36.260409],[139.254708,36.260824],[139.254444,36.26092],[139.254154,36.261037],[139.253935,36.261119],[139.253846,36.261169],[139.253813,36.261227],[139.253717,36.261273],[139.253624,36.261323],[139.253513,36.261397],[139.253237,36.261599],[139.25294,36.261837],[139.252869,36.261909],[139.252782,36.261937],[139.252422,36.262242],[139.252403,36.262259],[139.252335,36.262217],[139.252327,36.262211],[139.251974,36.261951],[139.251741,36.261805],[139.250883,36.261169],[139.250837,36.261136],[139.25081,36.261117],[139.250844,36.261092],[139.25092,36.261036],[139.251019,36.260964],[139.251035,36.260952],[139.251114,36.26088],[139.251145,36.260848],[139.251139,36.260823],[139.25119,36.260786],[139.251256,36.260722],[139.251667,36.26026],[139.251781,36.260125],[139.252027,36.259831],[139.252185,36.259633],[139.252263,36.259483],[139.252341,36.259311],[139.252385,36.259172],[139.252407,36.259059],[139.252416,36.258953],[139.252412,36.258871],[139.252081,36.25729],[139.252013,36.256947],[139.252008,36.256923],[139.251943,36.256591],[139.25189,36.256597],[139.251822,36.256608],[139.251751,36.25662],[139.251327,36.256695],[139.251231,36.256709],[139.251157,36.256713],[139.251089,36.256712],[139.251046,36.256711],[139.250879,36.256707],[139.250753,36.256711],[139.250522,36.256747],[139.250324,36.25679],[139.250291,36.256793],[139.250104,36.256811],[139.249887,36.256819],[139.249761,36.256809],[139.249555,36.256793],[139.249414,36.256801],[139.249371,36.256808],[139.249311,36.256816],[139.249235,36.256842],[139.248986,36.256923],[139.248926,36.256936],[139.248868,36.25694],[139.248669,36.256932],[139.248514,36.256937],[139.248389,36.256949],[139.248323,36.256957],[139.24827,36.256963],[139.247976,36.256998],[139.247866,36.257018],[139.247786,36.257031],[139.247715,36.257037],[139.247596,36.257036],[139.247488,36.25703],[139.247382,36.257034],[139.247277,36.257046],[139.247064,36.257074],[139.246796,36.257156],[139.246539,36.257217],[139.246215,36.257246],[139.245846,36.257211],[139.245774,36.257167],[139.245705,36.257173],[139.244223,36.257329],[139.244186,36.257333],[139.244121,36.257333],[139.243992,36.257344],[139.240301,36.257684],[139.236498,36.258],[139.231575,36.258423],[139.231515,36.258428],[139.231476,36.258431],[139.226769,36.258829],[139.226607,36.258843],[139.226507,36.258853],[139.226257,36.258877],[139.224916,36.259011],[139.224723,36.25903],[139.224087,36.259106],[139.223539,36.259185],[139.223393,36.259206],[139.222562,36.2593],[139.22202,36.259357],[139.219368,36.259617],[139.218566,36.259685],[139.218303,36.259707],[139.218088,36.259725],[139.21739,36.259784],[139.21574,36.259927],[139.214664,36.260015],[139.213861,36.260083],[139.213135,36.260162],[139.212222,36.26023],[139.210897,36.260343],[139.21081,36.260351],[139.210737,36.260357],[139.209782,36.260449],[139.208776,36.260568],[139.206704,36.260883],[139.206299,36.260959],[139.205563,36.261133],[139.204862,36.261317],[139.204818,36.261329],[139.204718,36.261355],[139.204655,36.261372],[139.204646,36.261375],[139.204562,36.261397],[139.204398,36.261444],[139.203539,36.261726],[139.203078,36.261877],[139.202855,36.261953],[139.201916,36.262282],[139.201325,36.262518],[139.200475,36.262874],[139.199599,36.263274],[139.19916,36.263492],[139.198205,36.263984],[139.197442,36.26439],[139.197129,36.264578],[139.196182,36.26512],[139.195457,36.265532],[139.195185,36.265693],[139.195175,36.265699],[139.19507,36.265769],[139.195118,36.265781],[139.195198,36.26575],[139.195489,36.265577],[139.195482,36.265607],[139.195443,36.265668],[139.194855,36.266248],[139.194626,36.266383],[139.194327,36.266575],[139.194135,36.26669],[139.193986,36.266747],[139.193865,36.266794],[139.193372,36.26694],[139.192962,36.267016],[139.192905,36.267024],[139.192315,36.267366],[139.192101,36.26749],[139.191871,36.26762],[139.190926,36.268167],[139.189577,36.26897],[139.188873,36.269377],[139.187098,36.270483],[139.186976,36.270559],[139.186794,36.270687],[139.186101,36.271121],[139.18391,36.27256],[139.181951,36.273917],[139.181229,36.274428],[139.181168,36.27447],[139.179538,36.275653],[139.178419,36.276488],[139.177843,36.276933],[139.177135,36.277471],[139.175117,36.279118],[139.174186,36.279904],[139.173376,36.280682],[139.173232,36.280828],[139.173077,36.280992],[139.173066,36.281004],[139.170431,36.283772],[139.169938,36.284312],[139.169496,36.284854],[139.169425,36.284943],[139.169371,36.285011],[139.168914,36.285566],[139.168441,36.286232],[139.168002,36.286898],[139.167713,36.287347],[139.167365,36.287887],[139.166881,36.288659],[139.166865,36.288686],[139.166159,36.289848],[139.166078,36.289986],[139.166032,36.29005],[139.166001,36.290111],[139.16596,36.290176],[139.165914,36.290223],[139.165659,36.290554],[139.16563,36.290593],[139.16559,36.290572],[139.160516,36.287894],[139.160472,36.287871],[139.160456,36.287862],[139.159772,36.287498],[139.159409,36.28731],[139.159301,36.287255],[139.159243,36.287228],[139.159152,36.287193],[139.159079,36.28724],[139.158979,36.287316],[139.158581,36.287655],[139.158377,36.287835],[139.158041,36.288131],[139.158066,36.288171],[139.158111,36.288409],[139.158133,36.288557],[139.158169,36.288806],[139.158165,36.288861],[139.15815,36.288898],[139.158163,36.288917],[139.158168,36.288937],[139.15817,36.289013],[139.158171,36.289032],[139.158139,36.289054],[139.158012,36.289172],[139.157853,36.289314],[139.157678,36.289496],[139.157548,36.289632],[139.157401,36.289821],[139.157319,36.289934],[139.157224,36.290073],[139.157135,36.290237],[139.157015,36.290473],[139.156952,36.290755],[139.156777,36.291829],[139.15674,36.291969],[139.156627,36.292402],[139.156551,36.292678],[139.156253,36.293683],[139.156216,36.293809],[139.156203,36.293852],[139.156183,36.293901],[139.156144,36.294022],[139.156001,36.294439],[139.155954,36.29458],[139.155837,36.294667],[139.155713,36.294785],[139.155445,36.295008],[139.155158,36.295246],[139.155076,36.29533],[139.154983,36.295456],[139.154975,36.295474],[139.154884,36.295843],[139.154821,36.296019],[139.154641,36.296446],[139.154499,36.296873],[139.154469,36.297176],[139.154465,36.297213],[139.154452,36.297395],[139.154451,36.297422],[139.154393,36.298931],[139.154357,36.29942],[139.154355,36.299527],[139.154354,36.299556],[139.154353,36.299579],[139.154341,36.299819],[139.15434,36.299838],[139.154324,36.300097],[139.154309,36.300183],[139.154301,36.300231],[139.154298,36.300275],[139.154227,36.300842],[139.154199,36.30109],[139.154178,36.301189],[139.154113,36.301392],[139.154034,36.301574],[139.153927,36.301712],[139.15382,36.301804],[139.153604,36.301994],[139.153383,36.302151],[139.153068,36.302365],[139.152742,36.302567],[139.152577,36.302672],[139.151905,36.303217],[139.151578,36.303437],[139.151181,36.303704],[139.151109,36.303741],[139.150973,36.303804],[139.15089,36.303838],[139.150821,36.30387],[139.150581,36.304019],[139.150522,36.304063],[139.150418,36.304145],[139.150329,36.304212],[139.15014,36.304353],[139.149412,36.304927],[139.149379,36.304953],[139.149278,36.305046],[139.149214,36.305096],[139.149017,36.305215],[139.148897,36.305267],[139.148546,36.305388],[139.147988,36.305595],[139.147932,36.305607],[139.147887,36.305604],[139.147585,36.305551],[139.147484,36.305533],[139.147396,36.305526],[139.147287,36.305522],[139.147069,36.305526],[139.14686,36.305534],[139.146734,36.305542],[139.146623,36.305552],[139.146508,36.305568],[139.146396,36.305585],[139.146302,36.305603],[139.146141,36.305637],[139.145998,36.305668],[139.145958,36.305675],[139.145878,36.305684],[139.145775,36.3057],[139.145748,36.305708],[139.145572,36.305757],[139.145528,36.305765],[139.145493,36.305771],[139.145459,36.305775],[139.145426,36.305777],[139.145374,36.305774],[139.145142,36.305764],[139.145101,36.305763],[139.14502,36.305766],[139.14492,36.305775],[139.144802,36.305794],[139.144519,36.305839],[139.143929,36.30595],[139.143681,36.306008],[139.143545,36.306046],[139.143176,36.306154],[139.142672,36.306309],[139.142615,36.30633],[139.142233,36.306493],[139.141983,36.30658],[139.14158,36.306701],[139.141094,36.306845],[139.140954,36.306897],[139.1406,36.307059],[139.140198,36.307238],[139.13952,36.307538],[139.13922,36.307653],[139.139083,36.307702],[139.138986,36.307732],[139.137828,36.308087],[139.13781,36.308092],[139.137771,36.308104],[139.136686,36.308295],[139.136576,36.308321],[139.136503,36.30835],[139.136398,36.308397],[139.136319,36.308435],[139.136232,36.308486],[139.136132,36.308547],[139.135883,36.308712],[139.135564,36.308915],[139.135532,36.308943],[139.135324,36.309113],[139.13521,36.30922],[139.135084,36.309359],[139.134935,36.309576],[139.134892,36.309638],[139.134859,36.309677],[139.134784,36.30974],[139.134692,36.309792],[139.134554,36.309864],[139.133829,36.310178],[139.132202,36.310863],[139.131485,36.311153],[139.131136,36.311295],[139.130404,36.311595],[139.129638,36.31191],[139.129365,36.312031],[139.129035,36.31216],[139.128494,36.31239],[139.128302,36.312443],[139.128165,36.312466],[139.128002,36.312486],[139.127012,36.312562],[139.126965,36.312566],[139.126968,36.312581],[139.126983,36.312588],[139.127028,36.312594],[139.127075,36.312599],[139.127673,36.312585],[139.127699,36.312592],[139.127724,36.312609],[139.12773,36.312621],[139.127726,36.312639],[139.127711,36.312649],[139.127679,36.312655],[139.127553,36.312639],[139.127487,36.312636],[139.127229,36.312646],[139.126891,36.312667],[139.12668,36.312683],[139.12658,36.312711],[139.126459,36.312778],[139.126372,36.312811],[139.126299,36.312821],[139.125998,36.312841],[139.125899,36.312818],[139.125771,36.312761],[139.125678,36.312737],[139.12552,36.312747],[139.125401,36.312757],[139.125308,36.312762],[139.125142,36.312756],[139.124967,36.312761],[139.124784,36.312774],[139.124592,36.312793],[139.124379,36.312804],[139.124155,36.312819],[139.123948,36.312839],[139.123759,36.31285],[139.123629,36.312857],[139.123456,36.312854],[139.123274,36.312846],[139.123101,36.312836],[139.122924,36.312825],[139.122336,36.312775],[139.122259,36.31277],[139.122251,36.312784],[139.122238,36.312815],[139.122223,36.31284],[139.122198,36.312862],[139.122174,36.312873],[139.122143,36.312877],[139.122114,36.312877],[139.122089,36.312869],[139.122065,36.312858],[139.121974,36.312815],[139.121901,36.312787],[139.121237,36.312662],[139.120698,36.31256],[139.120425,36.312545],[139.12016,36.312519],[139.119554,36.312485],[139.119142,36.312488],[139.118908,36.312482],[139.118613,36.312475],[139.118596,36.312463],[139.118594,36.312445],[139.118461,36.31245],[139.118031,36.312493],[139.117954,36.312503],[139.117845,36.312511],[139.117367,36.312537],[139.117045,36.312544],[139.116882,36.312551],[139.116725,36.312572],[139.116598,36.3126],[139.116465,36.312634],[139.1164,36.312655],[139.116196,36.312721],[139.116009,36.312791],[139.115593,36.312976],[139.115194,36.313161],[139.114966,36.31327],[139.114758,36.313381],[139.114612,36.313463],[139.114396,36.313584],[139.114322,36.313625],[139.114218,36.313685],[139.113945,36.31383],[139.113651,36.314019],[139.113254,36.314296],[139.11265,36.314747],[139.112131,36.315138],[139.1118,36.315391],[139.111723,36.315447],[139.111552,36.315559],[139.111506,36.315584],[139.111469,36.315599],[139.111418,36.315612],[139.111363,36.315622],[139.111316,36.315629],[139.110929,36.315664],[139.110282,36.315717],[139.110033,36.315727],[139.10998,36.315732],[139.109916,36.315733],[139.108637,36.315756],[139.108309,36.315743],[139.107307,36.315579],[139.107103,36.31556],[139.106909,36.315566],[139.106538,36.315594],[139.106133,36.315641],[139.105495,36.315821],[139.104924,36.316032],[139.104317,36.31629],[139.103981,36.316421],[139.103497,36.316616],[139.102796,36.316864],[139.10195,36.317115],[139.101693,36.317234],[139.101443,36.317334],[139.101059,36.317503],[139.100962,36.317541],[139.100931,36.317551],[139.1009,36.317554],[139.100867,36.317563],[139.10083,36.317571],[139.100781,36.317582],[139.100749,36.317594],[139.100717,36.317611],[139.10069,36.317628],[139.100673,36.317646],[139.100655,36.317667],[139.100636,36.317695],[139.100543,36.318049],[139.100509,36.318138],[139.100079,36.318464],[139.099901,36.318633],[139.099724,36.318816],[139.099573,36.318962],[139.099443,36.319055],[139.099319,36.319139],[139.099237,36.319187],[139.099166,36.319225],[139.09904,36.319282],[139.098935,36.319329],[139.098855,36.319361],[139.098759,36.319383],[139.098479,36.319442],[139.098424,36.319453],[139.098361,36.319465],[139.097864,36.319556],[139.097462,36.319616],[139.09671,36.319846],[139.096643,36.319866],[139.096519,36.319902],[139.096416,36.31995],[139.096331,36.319981],[139.095207,36.32032],[139.095168,36.320332],[139.09513,36.320345],[139.095068,36.320366],[139.093881,36.320737],[139.093831,36.320752],[139.093774,36.320764],[139.092317,36.321097],[139.092243,36.321114],[139.092127,36.32114],[139.091614,36.321256],[139.091486,36.321293],[139.091409,36.321327],[139.091342,36.321369],[139.090674,36.321994],[139.090651,36.322015],[139.09053,36.322129],[139.090367,36.322286],[139.090238,36.322437],[139.090224,36.322452],[139.089802,36.32294],[139.08955,36.323331],[139.089414,36.323565],[139.089273,36.323975],[139.089155,36.324438],[139.089131,36.324544],[139.089109,36.324587],[139.089055,36.324649],[139.088989,36.32472],[139.088883,36.324808],[139.088811,36.324862],[139.088627,36.324967],[139.08802,36.325282],[139.087173,36.325707],[139.086854,36.325868],[139.086375,36.326109],[139.085841,36.326378],[139.085782,36.326407],[139.085711,36.326442],[139.084546,36.32703],[139.0845,36.327053],[139.084447,36.327083],[139.083815,36.32742],[139.083206,36.327697],[139.083103,36.327742],[139.083,36.327795],[139.082864,36.32786],[139.082785,36.327902],[139.082203,36.328186],[139.081888,36.328326],[139.081598,36.328434],[139.081276,36.328541],[139.080395,36.328812],[139.080172,36.328917],[139.079794,36.329113],[139.079742,36.329163],[139.079667,36.329236],[139.079573,36.329313],[139.079488,36.3294],[139.079465,36.329421],[139.079187,36.32959],[139.078878,36.329744],[139.078746,36.329779],[139.078654,36.329817],[139.078273,36.329969],[139.078182,36.330013],[139.077816,36.330153],[139.077546,36.330265],[139.07744,36.33031],[139.077383,36.330333],[139.077282,36.330342],[139.076996,36.330652],[139.076914,36.330802],[139.076778,36.331329],[139.076675,36.331782],[139.076625,36.331889],[139.076499,36.33203],[139.075875,36.332716],[139.075681,36.332977],[139.075414,36.333501],[139.075362,36.333486],[139.074147,36.333454],[139.073889,36.333442],[139.073591,36.333465],[139.073357,36.333474],[139.073247,36.333489],[139.073167,36.333501],[139.072743,36.33359],[139.072679,36.333585],[139.072613,36.33358],[139.07253,36.333416],[139.072522,36.333374],[139.072771,36.332145],[139.072931,36.331421],[139.073047,36.330838],[139.073116,36.33057],[139.073129,36.3305],[139.073094,36.330499],[139.072963,36.330502],[139.072936,36.330502],[139.072379,36.330508],[139.07221,36.330522],[139.071651,36.330596],[139.070359,36.330777],[139.069763,36.330856],[139.069545,36.330882],[139.069336,36.330905],[139.069156,36.330911],[139.068815,36.330911],[139.068453,36.330914],[139.068728,36.329304],[139.068146,36.3293],[139.06732,36.329147],[139.067228,36.329139],[139.067211,36.329183],[139.06713,36.329165],[139.066416,36.329129],[139.065885,36.329026],[139.065644,36.328967],[139.065561,36.328921],[139.065401,36.328919],[139.064868,36.32891],[139.064636,36.32892],[139.064332,36.328909],[139.063597,36.328947],[139.063099,36.328902],[139.063248,36.328606],[139.063062,36.328569],[139.062614,36.328563],[139.062188,36.328571],[139.062125,36.32858],[139.062046,36.328591],[139.061674,36.328035],[139.061634,36.327976],[139.061379,36.327538],[139.061158,36.327185],[139.06113,36.327146],[139.061046,36.327183],[139.061004,36.327196],[139.06095,36.327203],[139.060884,36.3272],[139.060715,36.327171],[139.060655,36.327166],[139.060648,36.327176],[139.060613,36.327306],[139.060601,36.327366],[139.060568,36.327393],[139.060494,36.32743],[139.060159,36.327593],[139.059814,36.327786],[139.059473,36.328001],[139.058911,36.328392],[139.058895,36.328404],[139.058694,36.328565],[139.058418,36.328786],[139.058333,36.328859],[139.058171,36.328998],[139.058099,36.329051],[139.057983,36.329136],[139.057772,36.329261],[139.05753,36.329381],[139.057523,36.329627],[139.057473,36.329661],[139.057106,36.330092],[139.056965,36.330364],[139.056833,36.330598],[139.056691,36.33079],[139.056553,36.330935],[139.056379,36.33109],[139.056157,36.331245],[139.055945,36.331355],[139.055736,36.331447],[139.055524,36.331517],[139.055236,36.3316],[139.053857,36.331868],[139.053449,36.331967],[139.053182,36.332055],[139.052897,36.332164],[139.052615,36.332298],[139.052353,36.332451],[139.052161,36.332587],[139.051738,36.332956],[139.051492,36.333152],[139.051308,36.333303],[139.051203,36.333375],[139.05111,36.33343],[139.050958,36.333514],[139.050873,36.333557],[139.050545,36.333669],[139.049987,36.333855],[139.049402,36.334025],[139.048042,36.334423],[139.046898,36.334764],[139.04635,36.334924],[139.04616,36.334973],[139.046073,36.335015],[139.045963,36.335065],[139.045875,36.335124],[139.045733,36.335225],[139.045601,36.33533],[139.045453,36.335468],[139.045303,36.335651],[139.045142,36.335891],[139.044633,36.336721],[139.044548,36.336855],[139.044442,36.336979],[139.044303,36.337098],[139.044154,36.337204],[139.044008,36.337281],[139.043863,36.337325],[139.043699,36.337365],[139.042764,36.337551],[139.042691,36.337566],[139.041433,36.337804],[139.040917,36.337905],[139.040503,36.33798],[139.040155,36.338018],[139.039777,36.338056],[139.039622,36.338061],[139.039187,36.338053],[139.038824,36.338088],[139.038542,36.338132],[139.038303,36.338186],[139.038085,36.338264],[139.037768,36.338385],[139.037669,36.338429],[139.037361,36.338298],[139.037313,36.338363],[139.036365,36.337995],[139.03563,36.337697],[139.035134,36.337496],[139.034545,36.337247],[139.034159,36.337099],[139.03376,36.336958],[139.033693,36.336938],[139.033373,36.336839],[139.032973,36.336735],[139.032206,36.336573],[139.031873,36.336503],[139.030587,36.336218],[139.029081,36.335956],[139.028037,36.335766],[139.027855,36.335729],[139.027661,36.335691],[139.026967,36.335538],[139.026167,36.335386],[139.025663,36.335283],[139.025193,36.335195],[139.024716,36.335113],[139.024515,36.335081],[139.024493,36.335077],[139.024287,36.33504],[139.024257,36.335035],[139.022354,36.334705],[139.020322,36.334395],[139.019906,36.334327],[139.019036,36.334181],[139.018584,36.334105],[139.01774,36.333964],[139.016163,36.333686],[139.016069,36.33367],[139.015349,36.333548],[139.015154,36.333521],[139.015017,36.333504],[139.0149,36.333495],[139.014778,36.333492],[139.014686,36.333489],[139.014115,36.333487],[139.013662,36.333483],[139.013477,36.333481],[139.01349,36.333403],[139.013499,36.333311],[139.013499,36.333294],[139.013507,36.333181],[139.013541,36.332926],[139.013545,36.332907],[139.013564,36.332797],[139.01361,36.332537],[139.01367,36.332297],[139.013676,36.332269],[139.013778,36.331833],[139.013797,36.33174],[139.013807,36.331707],[139.013818,36.331664],[139.014059,36.330664],[139.014078,36.330576],[139.014122,36.330298],[139.014175,36.329878],[139.014183,36.329832],[139.014261,36.329333],[139.014296,36.329106],[139.014303,36.32906],[139.014326,36.328911],[139.014357,36.328715],[139.014388,36.32852],[139.014426,36.328241],[139.014445,36.328106],[139.014239,36.328127],[139.014014,36.32812],[139.013597,36.328106],[139.01337,36.328086],[139.012583,36.32805],[139.0121,36.328036],[139.01201,36.328039],[139.011526,36.328066],[139.011349,36.328074],[139.010831,36.328123],[139.010149,36.328198],[139.009848,36.328221],[139.009665,36.328182],[139.009688,36.328025],[139.009716,36.327834],[139.009607,36.327827],[139.009262,36.327789],[139.009366,36.327055],[139.009441,36.326486],[139.009065,36.32645],[139.009123,36.326016],[139.009126,36.325973],[139.009073,36.32597],[139.008338,36.325948],[139.007065,36.325886],[139.006957,36.325882],[139.006842,36.325876],[139.006305,36.325859],[139.0057,36.325845],[139.005621,36.325842],[139.005545,36.325841],[139.004669,36.32583],[139.004384,36.325826],[139.004304,36.325817],[139.004313,36.325741],[139.00436,36.325366],[139.004479,36.324474],[139.004495,36.324364],[139.004415,36.324375],[139.004164,36.32439],[139.003926,36.324365],[139.002955,36.324259],[139.002936,36.324257],[139.002799,36.324247],[139.002812,36.324122],[139.002849,36.323819],[139.002879,36.323576],[139.002921,36.323377],[139.00295,36.323278],[139.002999,36.323179],[139.003049,36.323084],[139.003113,36.323],[139.003184,36.322919],[139.00327,36.322839],[139.003345,36.322784],[139.003241,36.322697],[139.003124,36.322646],[139.003094,36.322685],[139.003018,36.322762],[139.002965,36.322797],[139.002899,36.32281],[139.002724,36.322773],[139.002676,36.322756]]}}