{"type": "FeatureCollection", "features": [{"type": "Feature", "properties": {"name": "港43", "tier": 5, "attribution": "東京都建設局「自転車走行空間について」(CC BY 4.0)", "dataset": "recommended_route"}, "geometry": {"type": "LineString", "coordinates": [[139.75038, 35.657804], [139.750031, 35.657862], [139.748131, 35.658129], [139.747918, 35.658154], [139.747718, 35.658171], [139.747531, 35.658162], [139.747081, 35.658137], [139.746993, 35.658149], [139.747056, 35.658454], [139.746931, 35.658471], [139.746793, 35.658512], [139.746631, 35.658554], [139.746368, 35.658671]]}}, {"type": "Feature", "properties": {"name": "港42", "tier": 5, "attribution": "東京都建設局「自転車走行空間について」(CC BY 4.0)", "dataset": "recommended_route"}, "geometry": {"type": "LineString", "coordinates": [[139.748593, 35.670419], [139.748605, 35.670361], [139.748605, 35.670336], [139.748555, 35.670286], [139.748055, 35.669894], [139.74758, 35.669536], [139.74723, 35.669278], [139.747143, 35.669211], [139.747085, 35.66916]]}}, {"type": "Feature", "properties": {"name": "品7-2", "tier": 5, "attribution": "東京都建設局「自転車走行空間について」(CC BY 4.0)", "dataset": "recommended_route"}, "geometry": {"type": "LineString", "coordinates": [[139.739422, 35.596485], [139.739184, 35.595894], [139.739159, 35.595827], [139.739047, 35.595511], [139.738884, 35.595269], [139.738784, 35.595111], [139.738259, 35.594244], [139.738072, 35.593927], [139.737897, 35.593669], [139.737847, 35.593594]]}}, {"type": "Feature", "properties": {"name": "品7-3", "tier": 5, "attribution": "東京都建設局「自転車走行空間について」(CC BY 4.0)", "dataset": "recommended_route"}, "geometry": {"type": "LineString", "coordinates": [[139.737847, 35.593594], [139.737734, 35.593477], [139.737497, 35.593211], [139.737097, 35.592586], [139.73691, 35.592269], [139.736697, 35.591903], [139.73646, 35.591411]]}}, {"type": "Feature", "properties": {"name": "大7", "tier": 5, "attribution": "東京都建設局「自転車走行空間について」(CC BY 4.0)", "dataset": "recommended_route"}, "geometry": {"type": "LineString", "coordinates": [[139.730873, 35.584737], [139.73111, 35.585187], [139.731373, 35.58567], [139.731635, 35.586111], [139.731898, 35.58657], [139.73201, 35.58677], [139.732098, 35.586928], [139.732248, 35.58722], [139.73231, 35.58732]]}}, {"type": "Feature", "properties": {"name": "品10", "tier": 5, "attribution": "東京都建設局「自転車走行空間について」(CC BY 4.0)", "dataset": "recommended_route"}, "geometry": {"type": "LineString", "coordinates": [[139.73231, 35.58732], [139.732335, 35.58742], [139.732348, 35.587461], [139.732435, 35.587836], [139.732498, 35.588036], [139.73276, 35.588878], [139.732898, 35.589336], [139.73301, 35.589711], [139.733123, 35.590094], [139.733248, 35.590453], [139.733272, 35.590544], [139.733297, 35.590636], [139.733385, 35.590886], [139.733472, 35.591219], [139.733597, 35.591611], [139.733722, 35.592069], [139.73386, 35.592486], [139.733985, 35.592919]]}}, {"type": "Feature", "properties": {"name": "江47", "tier": 5, "attribution": "東京都建設局「自転車走行空間について」(CC BY 4.0)", "dataset": "recommended_route"}, "geometry": {"type": "LineString", "coordinates": [[139.858846, 35.664055], [139.858734, 35.663064], [139.858659, 35.662497], [139.858646, 35.662422]]}}, {"type": "Feature", "properties": {"name": "江27", "tier": 5, "attribution": "東京都建設局「自転車走行空間について」(CC BY 4.0)", "dataset": "recommended_route"}, "geometry": {"type": "LineString", "coordinates": [[139.85689, 35.662926], [139.856871, 35.662847], [139.856821, 35.662772], [139.856746, 35.662664], [139.856709, 35.662614], [139.856696, 35.662564], [139.856709, 35.662447], [139.857071, 35.661139], [139.857434, 35.659706], [139.857472, 35.659606], [139.857809, 35.659031], [139.858084, 35.658506], [139.858134, 35.658423], [139.858171, 35.658323], [139.858171, 35.658223], [139.858172, 35.658131], [139.858084, 35.657748], [139.858059, 35.657573], [139.858047, 35.657448], [139.858072, 35.657339], [139.858309, 35.656864], [139.85829, 35.653473], [139.858289, 35.653417]]}}, {"type": "Feature", "properties": {"name": "江28", "tier": 5, "attribution": "東京都建設局「自転車走行空間について」(CC BY 4.0)", "dataset": "recommended_route"}, "geometry": {"type": "LineString", "coordinates": [[139.858289, 35.653417], [139.858285, 35.653183], [139.858109, 35.652956], [139.858109, 35.651832], [139.856233, 35.650502], [139.856181, 35.647079], [139.857625, 35.646744]]}}, {"type": "Feature", "properties": {"name": "江29", "tier": 5, "attribution": "東京都建設局「自転車走行空間について」(CC BY 4.0)", "dataset": "recommended_route"}, "geometry": {"type": "LineString", "coordinates": [[139.857625, 35.646744], [139.85735, 35.645355]]}}, {"type": "Feature", "properties": {"name": "三4", "tier": 5, "attribution": "東京都建設局「自転車走行空間について」(CC BY 4.0)", "dataset": "recommended_route"}, "geometry": {"type": "LineString", "coordinates": [[139.530248, 35.679465], [139.530651, 35.676384], [139.534038, 35.672439], [139.535891, 35.671219], [139.537473, 35.669566], [139.541984, 35.666678], [139.542411, 35.665858], [139.543129, 35.665421]]}}, {"type": "Feature", "properties": {"name": "千11", "tier": 5, "attribution": "東京都建設局「自転車走行空間について」(CC BY 4.0)", "dataset": "recommended_route"}, "geometry": {"type": "LineString", "coordinates": [[139.753549, 35.677698], [139.752864, 35.676707], [139.751541, 35.674706], [139.750504, 35.673042], [139.749916, 35.671585], [139.749359, 35.670412]]}}, {"type": "Feature", "properties": {"name": "千10-1", "tier": 5, "attribution": "東京都建設局「自転車走行空間について」(CC BY 4.0)", "dataset": "recommended_route"}, "geometry": {"type": "LineString", "coordinates": [[139.761251, 35.685695], [139.761066, 35.685386], [139.760737, 35.684936], [139.76053, 35.684624], [139.76047, 35.68451], [139.760003, 35.683121], [139.759827, 35.682844], [139.759582, 35.682471], [139.759113, 35.681755], [139.757678, 35.679517]]}}, {"type": "Feature", "properties": {"name": "中16-1", "tier": 5, "attribution": "東京都建設局「自転車走行空間について」(CC BY 4.0)", "dataset": "recommended_route"}, "geometry": {"type": "LineString", "coordinates": [[139.778122, 35.676662], [139.777377, 35.675449], [139.77687, 35.674616]]}}, {"type": "Feature", "properties": {"name": "中29", "tier": 5, "attribution": "東京都建設局「自転車走行空間について」(CC BY 4.0)", "dataset": "recommended_route"}, "geometry": {"type": "LineString", "coordinates": [[139.780172, 35.679942], [139.779496, 35.678855], [139.77904, 35.678136], [139.778502, 35.677253], [139.778152, 35.676711], [139.778122, 35.676662]]}}, {"type": "Feature", "properties": {"name": "中28", "tier": 5, "attribution": "東京都建設局「自転車走行空間について」(CC BY 4.0)", "dataset": "recommended_route"}, "geometry": {"type": "LineString", "coordinates": [[139.775734, 35.681621], [139.7751, 35.680594], [139.77466, 35.679887], [139.774639, 35.679853], [139.774637, 35.67985], [139.773824, 35.678535]]}}, {"type": "Feature", "properties": {"name": "中15-1", "tier": 5, "attribution": "東京都建設局「自転車走行空間について」(CC BY 4.0)", "dataset": "recommended_route"}, "geometry": {"type": "LineString", "coordinates": [[139.773824, 35.678535], [139.773049, 35.677275], [139.772489, 35.676386], [139.771504, 35.674777], [139.770904, 35.673866], [139.770853, 35.673795], [139.770164, 35.672987], [139.767365, 35.669934], [139.767009, 35.669536], [139.76684, 35.669367], [139.766143, 35.668783], [139.764988, 35.667835], [139.764904, 35.66782], [139.764491, 35.66747], [139.764179, 35.667228], [139.764041, 35.667137], [139.763329, 35.666753], [139.763129, 35.666662], [139.762942, 35.666595], [139.762758, 35.666563]]}}, {"type": "Feature", "properties": {"name": "港40", "tier": 5, "attribution": "東京都建設局「自転車走行空間について」(CC BY 4.0)", "dataset": "recommended_route"}, "geometry": {"type": "LineString", "coordinates": [[139.762758, 35.666563], [139.762704, 35.666553], [139.762567, 35.666537], [139.762217, 35.66652], [139.761529, 35.666495], [139.761292, 35.666512], [139.761092, 35.666537], [139.760917, 35.666587], [139.760654, 35.666628], [139.760567, 35.666662]]}}, {"type": "Feature", "properties": {"name": "港39", "tier": 5, "attribution": "東京都建設局「自転車走行空間について」(CC BY 4.0)", "dataset": "recommended_route"}, "geometry": {"type": "LineString", "coordinates": [[139.760567, 35.666662], [139.760392, 35.666737], [139.760067, 35.66687], [139.759829, 35.666953], [139.759367, 35.667112], [139.758904, 35.66727], [139.758542, 35.667387], [139.757591, 35.66768], [139.755092, 35.66849], [139.751686, 35.669616], [139.749359, 35.670412]]}}, {"type": "Feature", "properties": {"name": "港38", "tier": 5, "attribution": "東京都建設局「自転車走行空間について」(CC BY 4.0)", "dataset": "recommended_route"}, "geometry": {"type": "LineString", "coordinates": [[139.745804, 35.67033], [139.745901, 35.670144], [139.746074, 35.669963], [139.746636, 35.669528], [139.746896, 35.669338], [139.747132, 35.669115], [139.747606, 35.668534], [139.747901, 35.668135], [139.748036, 35.667925]]}}, {"type": "Feature", "properties": {"name": "港37-1", "tier": 5, "attribution": "東京都建設局「自転車走行空間について」(CC BY 4.0)", "dataset": "recommended_route"}, "geometry": {"type": "LineString", "coordinates": [[139.745804, 35.67033], [139.746375, 35.670276], [139.746783, 35.67024], [139.747252, 35.670239], [139.747709, 35.670262], [139.748272, 35.670389], [139.748627, 35.6705], [139.748835, 35.670536], [139.749093, 35.670518], [139.749359, 35.670412]]}}, {"type": "Feature", "properties": {"name": "千2-1", "tier": 5, "attribution": "東京都建設局「自転車走行空間について」(CC BY 4.0)", "dataset": "recommended_route"}, "geometry": {"type": "LineString", "coordinates": [[139.753962, 35.673717], [139.754771, 35.674939], [139.755865, 35.676636]]}}, {"type": "Feature", "properties": {"name": "港41", "tier": 5, "attribution": "東京都建設局「自転車走行空間について」(CC BY 4.0)", "dataset": "recommended_route"}, "geometry": {"type": "LineString", "coordinates": [[139.75008, 35.666045], [139.750405, 35.666053], [139.75053, 35.666045], [139.750655, 35.66602], [139.750855, 35.66597], [139.751343, 35.665803], [139.75178, 35.665662], [139.75213, 35.665545], [139.75248, 35.665428], [139.75288, 35.665295], [139.75333, 35.665137], [139.753467, 35.665087], [139.75378, 35.664978], [139.754042, 35.66487], [139.754367, 35.664728], [139.75473, 35.664595], [139.75571, 35.66426], [139.757366, 35.663726], [139.757551, 35.663675], [139.757669, 35.663649], [139.757864, 35.663629]]}}, {"type": "Feature", "properties": {"name": "中7", "tier": 5, "attribution": "東京都建設局「自転車走行空間について」(CC BY 4.0)", "dataset": "recommended_route"}, "geometry": {"type": "LineString", "coordinates": [[139.779438, 35.660533], [139.780459, 35.661242], [139.782446, 35.662675], [139.78344, 35.663387], [139.78445, 35.664102]]}}, {"type": "Feature", "properties": {"name": "中8", "tier": 5, "attribution": "東京都建設局「自転車走行空間について」(CC BY 4.0)", "dataset": "recommended_route"}, "geometry": {"type": "LineString", "coordinates": [[139.78445, 35.664102], [139.784874, 35.664405]]}}, {"type": "Feature", "properties": {"name": "東22-2", "tier": 5, "attribution": "東京都建設局「自転車走行空間について」(CC BY 4.0)", "dataset": "recommended_route"}, "geometry": {"type": "LineString", "coordinates": [[139.779928, 35.639353], [139.780239, 35.638112]]}}, {"type": "Feature", "properties": {"name": "東2", "tier": 5, "attribution": "東京都建設局「自転車走行空間について」(CC BY 4.0)", "dataset": "recommended_route"}, "geometry": {"type": "LineString", "coordinates": [[139.801383, 35.64966], [139.801402, 35.649606], [139.801608, 35.648106], [139.801708, 35.647348], [139.801939, 35.645631], [139.802233, 35.64364], [139.802296, 35.643232], [139.802439, 35.642123], [139.802564, 35.641253]]}}, {"type": "Feature", "properties": {"name": "東5-3", "tier": 5, "attribution": "東京都建設局「自転車走行空間について」(CC BY 4.0)", "dataset": "recommended_route"}, "geometry": {"type": "LineString", "coordinates": [[139.792507, 35.643833], [139.795059, 35.640648]]}}, {"type": "Feature", "properties": {"name": "東5-1", "tier": 5, "attribution": "東京都建設局「自転車走行空間について」(CC BY 4.0)", "dataset": "recommended_route"}, "geometry": {"type": "LineString", "coordinates": [[139.795059, 35.640648], [139.79554, 35.640054], [139.796503, 35.638857], [139.796721, 35.638594]]}}, {"type": "Feature", "properties": {"name": "文5", "tier": 5, "attribution": "東京都建設局「自転車走行空間について」(CC BY 4.0)", "dataset": "recommended_route"}, "geometry": {"type": "LineString", "coordinates": [[139.747429, 35.703258], [139.749034, 35.703219], [139.750535, 35.70312], [139.751022, 35.703083], [139.751947, 35.702983], [139.753538, 35.702853], [139.75377, 35.702817], [139.754344, 35.702669], [139.755434, 35.702368]]}}, {"type": "Feature", "properties": {"name": "台22", "tier": 5, "attribution": "東京都建設局「自転車走行空間について」(CC BY 4.0)", "dataset": "recommended_route"}, "geometry": {"type": "LineString", "coordinates": [[139.778176, 35.712165], [139.778488, 35.712082], [139.778926, 35.711999], [139.779213, 35.71194], [139.779663, 35.711857], [139.780063, 35.711782], [139.780126, 35.711766], [139.780676, 35.711666], [139.781525, 35.711524], [139.782063, 35.711424], [139.78305, 35.711249], [139.783575, 35.711149], [139.783938, 35.711091], [139.7846, 35.710974], [139.784988, 35.710899], [139.785113, 35.710882], [139.785913, 35.710732], [139.786325, 35.710657], [139.786888, 35.710574]]}}, {"type": "Feature", "properties": {"name": "台23", "tier": 5, "attribution": "東京都建設局「自転車走行空間について」(CC BY 4.0)", "dataset": "recommended_route"}, "geometry": {"type": "LineString", "coordinates": [[139.791431, 35.70967], [139.7915, 35.709658], [139.79225, 35.709483], [139.7925, 35.709416], [139.79285, 35.709333], [139.7931, 35.709274], [139.793525, 35.709199], [139.793724, 35.709166], [139.794337, 35.709074], [139.795224, 35.708941], [139.796162, 35.708824]]}}, {"type": "Feature", "properties": {"name": "台21-2", "tier": 5, "attribution": "東京都建設局「自転車走行空間について」(CC BY 4.0)", "dataset": "recommended_route"}, "geometry": {"type": "LineString", "coordinates": [[139.792643, 35.716053], [139.792601, 35.715214], [139.792585, 35.715021], [139.792557, 35.714384], [139.792449, 35.713778], [139.792231, 35.712582], [139.792048, 35.711645], [139.792006, 35.711428], [139.791962, 35.711258], [139.791694, 35.710463], [139.791431, 35.70967], [139.791137, 35.708354]]}}, {"type": "Feature", "properties": {"name": "台21-3", "tier": 5, "attribution": "東京都建設局「自転車走行空間について」(CC BY 4.0)", "dataset": "recommended_route"}, "geometry": {"type": "LineString", "coordinates": [[139.791137, 35.708354], [139.790981, 35.707429], [139.790762, 35.706091], [139.790419, 35.704608], [139.790263, 35.703958], [139.789981, 35.702817], [139.789988, 35.702508]]}}, {"type": "Feature", "properties": {"name": "墨7", "tier": 5, "attribution": "東京都建設局「自転車走行空間について」(CC BY 4.0)", "dataset": "recommended_route"}, "geometry": {"type": "LineString", "coordinates": [[139.813654, 35.70905], [139.81186, 35.708962], [139.811067, 35.708921], [139.810267, 35.708883], [139.808555, 35.708825], [139.806823, 35.70872], [139.805605, 35.708662], [139.804361, 35.708587], [139.803205, 35.708525], [139.802261, 35.7085], [139.802193, 35.708491], [139.800561, 35.708166], [139.798835, 35.707797], [139.798512, 35.707716], [139.798511, 35.707717], [139.798362, 35.707833], [139.798274, 35.707858]]}}, {"type": "Feature", "properties": {"name": "江62", "tier": 5, "attribution": "東京都建設局「自転車走行空間について」(CC BY 4.0)", "dataset": "recommended_route"}, "geometry": {"type": "LineString", "coordinates": [[139.87234, 35.652216], [139.872346, 35.652269], [139.872414, 35.653336], [139.872502, 35.65439], [139.872602, 35.65584], [139.872833, 35.659206], [139.872914, 35.660239], [139.87292, 35.660393], [139.873039, 35.662127], [139.873101, 35.663002]]}}, {"type": "Feature", "properties": {"name": "調4", "tier": 5, "attribution": "東京都建設局「自転車走行空間について」(CC BY 4.0)", "dataset": "recommended_route"}, "geometry": {"type": "LineString", "coordinates": [[139.548724, 35.681848], [139.548702, 35.681794], [139.54829, 35.680856], [139.548096, 35.680406], [139.547209, 35.678344], [139.546509, 35.676715], [139.545803, 35.675086], [139.544747, 35.672645], [139.544547, 35.672156], [139.544513, 35.67207], [139.544476, 35.671955], [139.544453, 35.671845], [139.544429, 35.67167], [139.544459, 35.671133], [139.544603, 35.669737], [139.54462, 35.669442], [139.544453, 35.668066]]}}, {"type": "Feature", "properties": {"name": "三5", "tier": 5, "attribution": "東京都建設局「自転車走行空間について」(CC BY 4.0)", "dataset": "recommended_route"}, "geometry": {"type": "LineString", "coordinates": [[139.544453, 35.668066], [139.544358, 35.667376], [139.544314, 35.667228], [139.543947, 35.666545], [139.54346, 35.665779], [139.543258, 35.665468], [139.543158, 35.665298]]}}, {"type": "Feature", "properties": {"name": "三6", "tier": 5, "attribution": "東京都建設局「自転車走行空間について」(CC BY 4.0)", "dataset": "recommended_route"}, "geometry": {"type": "LineString", "coordinates": [[139.548724, 35.681848], [139.548677, 35.681852], [139.548228, 35.68187], [139.548092, 35.681868], [139.547942, 35.681868], [139.547743, 35.681856], [139.54614, 35.68174], [139.544996, 35.681669], [139.54319, 35.681531], [139.541378, 35.681398], [139.539966, 35.681294], [139.539352, 35.681242], [139.538728, 35.681227], [139.537641, 35.68126], [139.536747, 35.681319], [139.535485, 35.681385], [139.535227, 35.681393]]}}, {"type": "Feature", "properties": {"name": "東22-3", "tier": 5, "attribution": "東京都建設局「自転車走行空間について」(CC BY 4.0)", "dataset": "recommended_route"}, "geometry": {"type": "LineString", "coordinates": [[139.780239, 35.638112], [139.780379, 35.637749], [139.780544, 35.63737], [139.780738, 35.637098], [139.781311, 35.636377], [139.781991, 35.635548], [139.782548, 35.635162], [139.783319, 35.63487], [139.784204, 35.63472], [139.784249, 35.634711]]}}, {"type": "Feature", "properties": {"name": "台6", "tier": 5, "attribution": "東京都建設局「自転車走行空間について」(CC BY 4.0)", "dataset": "recommended_route"}, "geometry": {"type": "LineString", "coordinates": [[139.786888, 35.710574], [139.7876, 35.710441], [139.7878, 35.710399], [139.788262, 35.710316], [139.789037, 35.710158], [139.789762, 35.710016], [139.790487, 35.709866], [139.791362, 35.709683], [139.791431, 35.70967]]}}, {"type": "Feature", "properties": {"name": "三1", "tier": 5, "attribution": "東京都建設局「自転車走行空間について」(CC BY 4.0)", "dataset": "recommended_route"}, "geometry": {"type": "LineString", "coordinates": [[139.535227, 35.681393], [139.533847, 35.681489], [139.532979, 35.681535], [139.531944, 35.681588], [139.531492, 35.681618], [139.5306, 35.681666], [139.530401, 35.6817], [139.53021, 35.681747], [139.530009, 35.681829], [139.528809, 35.682454]]}}, {"type": "Feature", "properties": {"name": "港61", "tier": 5, "attribution": "東京都建設局「自転車走行空間について」(CC BY 4.0)", "dataset": "recommended_route"}, "geometry": {"type": "LineString", "coordinates": [[139.775367, 35.627958], [139.776036, 35.627125]]}}, {"type": "Feature", "properties": {"name": "東26", "tier": 5, "attribution": "東京都建設局「自転車走行空間について」(CC BY 4.0)", "dataset": "recommended_route"}, "geometry": {"type": "LineString", "coordinates": [[139.776505, 35.626545], [139.777348, 35.625416]]}}, {"type": "Feature", "properties": {"name": "平成23年度までの整備済み箇所", "tier": 5, "attribution": "東京都建設局「自転車走行空間について」(CC BY 4.0)", "dataset": "priority_section"}, "geometry": {"type": "LineString", "coordinates": [[139.542585, 35.663592], [139.542635, 35.6638], [139.54282, 35.664487], [139.542958, 35.664883], [139.543158, 35.665316], [139.543358, 35.665633], [139.544197, 35.666959], [139.544339, 35.667348], [139.544388, 35.667576], [139.544607, 35.669458], [139.544602, 35.669737], [139.54446, 35.671051], [139.544447, 35.671845], [139.544474, 35.672019], [139.544543, 35.672177], [139.548729, 35.681849]]}}, {"type": "Feature", "properties": {"name": "平成23年度までの整備済み箇所", "tier": 5, "attribution": "東京都建設局「自転車走行空間について」(CC BY 4.0)", "dataset": "priority_section"}, "geometry": {"type": "LineString", "coordinates": [[139.447267, 35.685846], [139.447229, 35.686521], [139.447229, 35.686821], [139.447204, 35.687154], [139.447142, 35.688479], [139.447142, 35.688654], [139.447117, 35.689187], [139.447079, 35.689895], [139.447042, 35.69062], [139.447004, 35.691354], [139.446979, 35.692045], [139.446942, 35.692753], [139.446904, 35.69357], [139.446804, 35.696086], [139.446766, 35.696786], [139.446741, 35.697495], [139.446716, 35.698069], [139.446704, 35.698353]]}}, {"type": "Feature", "properties": {"name": "平成23年度までの整備済み箇所", "tier": 5, "attribution": "東京都建設局「自転車走行空間について」(CC BY 4.0)", "dataset": "priority_section"}, "geometry": {"type": "LineString", "coordinates": [[139.538985, 35.677882], [139.53906, 35.677565], [139.539172, 35.676957], [139.539222, 35.676548], [139.539247, 35.676332], [139.53926, 35.675515]]}}, {"type": "Feature", "properties": {"name": "平成23年度までの整備済み箇所", "tier": 5, "attribution": "東京都建設局「自転車走行空間について」(CC BY 4.0)", "dataset": "priority_section"}, "geometry": {"type": "LineString", "coordinates": [[139.68426, 35.683267], [139.683872, 35.683042], [139.683297, 35.682717], [139.682972, 35.682525], [139.68261, 35.682325], [139.68241, 35.682209], [139.68201, 35.681984], [139.680873, 35.681317], [139.680623, 35.6812], [139.68041, 35.681117], [139.679598, 35.680825], [139.676898, 35.679909], [139.675398, 35.679367], [139.675048, 35.679242], [139.674723, 35.679125], [139.674236, 35.678942], [139.672473, 35.678309], [139.671711, 35.678051], [139.670649, 35.677651], [139.670436, 35.677559], [139.669074, 35.677059], [139.668899, 35.676992], [139.668461, 35.676842], [139.667736, 35.676584], [139.667187, 35.676384], [139.666612, 35.676176], [139.665649, 35.675842], [139.664949, 35.675592], [139.664362, 35.675376], [139.663149, 35.674909], [139.662974, 35.674842]]}}, {"type": "Feature", "properties": {"name": "平成23年度までの整備済み箇所", "tier": 5, "attribution": "東京都建設局「自転車走行空間について」(CC BY 4.0)", "dataset": "priority_section"}, "geometry": {"type": "LineString", "coordinates": [[139.842007, 35.735031], [139.842119, 35.734922], [139.842832, 35.734089], [139.842994, 35.733889], [139.843694, 35.733123], [139.843769, 35.733031], [139.843969, 35.732798], [139.844294, 35.732431], [139.844532, 35.732173], [139.844769, 35.731923], [139.844932, 35.731715], [139.845419, 35.731165], [139.845682, 35.730881], [139.845932, 35.73059], [139.846294, 35.730165], [139.846657, 35.729748], [139.846907, 35.729465], [139.847144, 35.729198], [139.847269, 35.729073], [139.847994, 35.728257], [139.848044, 35.728198], [139.848994, 35.72724], [139.849057, 35.727182], [139.849369, 35.726865], [139.849469, 35.726782], [139.849619, 35.726615], [139.850307, 35.725924], [139.850369, 35.725865], [139.850769, 35.725474], [139.850819, 35.725407], [139.851144, 35.725074], [139.851269, 35.724965], [139.851856, 35.724365], [139.852219, 35.724007], [139.852656, 35.723574], [139.852919, 35.723307], [139.853244, 35.722982], [139.854119, 35.722099], [139.854894, 35.721332], [139.855181, 35.721049], [139.855719, 35.720508], [139.856081, 35.720133], [139.856256, 35.719958], [139.856556, 35.719683], [139.856919, 35.719291], [139.856968, 35.71924]]}}, {"type": "Feature", "properties": {"name": "平成23年度までの整備済み箇所", "tier": 5, "attribution": "東京都建設局「自転車走行空間について」(CC BY 4.0)", "dataset": "priority_section"}, "geometry": {"type": "LineString", "coordinates": [[139.797434, 35.708257], [139.796749, 35.708608], [139.796637, 35.708666], [139.796537, 35.708716], [139.796412, 35.708766], [139.796324, 35.708791], [139.796162, 35.708824]]}}, {"type": "Feature", "properties": {"name": "平成23年度までの整備済み箇所", "tier": 5, "attribution": "東京都建設局「自転車走行空間について」(CC BY 4.0)", "dataset": "priority_section"}, "geometry": {"type": "LineString", "coordinates": [[139.813654, 35.70905], [139.813529, 35.709065], [139.813354, 35.709064], [139.812548, 35.709], [139.811062, 35.708924], [139.808556, 35.708821], [139.803205, 35.708521], [139.802261, 35.708499], [139.802005, 35.708475], [139.798512, 35.707716], [139.798362, 35.707833], [139.798274, 35.707858], [139.798099, 35.707933], [139.797449, 35.70825], [139.797434, 35.708257]]}}, {"type": "Feature", "properties": {"name": "平成23年度までの整備済み箇所", "tier": 5, "attribution": "東京都建設局「自転車走行空間について」(CC BY 4.0)", "dataset": "priority_section"}, "geometry": {"type": "LineString", "coordinates": [[139.783938, 35.711091], [139.783575, 35.711149], [139.78305, 35.711249], [139.782063, 35.711424], [139.781525, 35.711524], [139.780675, 35.711666], [139.780126, 35.711766], [139.780063, 35.711782], [139.779663, 35.711857], [139.779213, 35.71194], [139.778926, 35.711999], [139.778488, 35.712082], [139.778176, 35.712165]]}}, {"type": "Feature", "properties": {"name": "平成23年度までの整備済み箇所", "tier": 5, "attribution": "東京都建設局「自転車走行空間について」(CC BY 4.0)", "dataset": "priority_section"}, "geometry": {"type": "LineString", "coordinates": [[139.793101, 35.673187], [139.792314, 35.67352], [139.792064, 35.673645], [139.792014, 35.67367], [139.791901, 35.673736], [139.791726, 35.673845], [139.791576, 35.673936], [139.791364, 35.674086], [139.791239, 35.67417], [139.791101, 35.674261], [139.790989, 35.674328], [139.790764, 35.67447], [139.790739, 35.674495], [139.790639, 35.67457], [139.790064, 35.67502], [139.789851, 35.675186], [139.789589, 35.675378], [139.789314, 35.675603], [139.788926, 35.675936], [139.788814, 35.676011]]}}, {"type": "Feature", "properties": {"name": "平成23年度までの整備済み箇所", "tier": 5, "attribution": "東京都建設局「自転車走行空間について」(CC BY 4.0)", "dataset": "priority_section"}, "geometry": {"type": "LineString", "coordinates": [[139.873955, 35.715833], [139.874192, 35.716092], [139.87463, 35.716533], [139.87503, 35.7169], [139.875467, 35.717325], [139.87733, 35.719066], [139.877355, 35.719091], [139.87748, 35.719225], [139.87753, 35.719275], [139.878092, 35.719783], [139.878179, 35.719875], [139.878579, 35.720258], [139.878954, 35.720608], [139.879042, 35.720691], [139.880042, 35.72165], [139.880142, 35.721725], [139.880767, 35.722308], [139.880979, 35.722508]]}}, {"type": "Feature", "properties": {"name": "平成23年度までの整備済み箇所", "tier": 5, "attribution": "東京都建設局「自転車走行空間について」(CC BY 4.0)", "dataset": "priority_section"}, "geometry": {"type": "LineString", "coordinates": [[139.747525, 35.784674], [139.747587, 35.784824], [139.7477, 35.78514], [139.747812, 35.785307], [139.748, 35.785515], [139.748287, 35.785799]]}}, {"type": "Feature", "properties": {"name": "平成23年度までの整備済み箇所", "tier": 5, "attribution": "東京都建設局「自転車走行空間について」(CC BY 4.0)", "dataset": "priority_section"}, "geometry": {"type": "LineString", "coordinates": [[139.755911, 35.801964], [139.755619, 35.802306]]}}, {"type": "Feature", "properties": {"name": "平成23年度までの整備済み箇所", "tier": 5, "attribution": "東京都建設局「自転車走行空間について」(CC BY 4.0)", "dataset": "priority_section"}, "geometry": {"type": "LineString", "coordinates": [[139.889701, 35.783568], [139.889813, 35.783176], [139.889863, 35.783043], [139.889876, 35.782968], [139.890151, 35.782143], [139.890201, 35.781952], [139.890226, 35.781768], [139.890238, 35.781568], [139.890213, 35.781335], [139.890176, 35.78116], [139.890101, 35.780952], [139.890013, 35.780768], [139.889738, 35.780318], [139.889626, 35.78016], [139.889451, 35.77996], [139.889288, 35.779768], [139.889063, 35.779568], [139.888851, 35.779402], [139.888576, 35.779235], [139.888126, 35.778985], [139.887239, 35.778502], [139.886901, 35.778327], [139.886514, 35.778127], [139.886314, 35.77801], [139.885801, 35.777702], [139.885289, 35.777419], [139.884251, 35.776827], [139.883951, 35.776635], [139.883076, 35.776019], [139.882639, 35.775719], [139.882302, 35.775435], [139.882052, 35.775227], [139.881727, 35.774952], [139.881339, 35.774577], [139.880939, 35.774177], [139.880252, 35.773336], [139.880052, 35.773052], [139.879639, 35.772411], [139.87919, 35.771619], [139.87894, 35.771136], [139.878802, 35.770836], [139.878552, 35.770286], [139.878515, 35.770203], [139.878502, 35.770128], [139.878527, 35.770028], [139.87854, 35.769944], [139.878527, 35.769878], [139.878452, 35.769778], [139.87839, 35.769719], [139.878277, 35.769678], [139.878177, 35.769644], [139.878102, 35.769603], [139.878002, 35.769494], [139.877977, 35.769444], [139.87789, 35.769228], [139.877865, 35.769136], [139.877815, 35.768853], [139.87779, 35.768603], [139.877777, 35.768511], [139.877765, 35.768269], [139.877765, 35.768153], [139.877777, 35.768061], [139.877802, 35.767978], [139.877877, 35.767803], [139.877915, 35.767686], [139.877965, 35.767545], [139.87799, 35.767353], [139.87804, 35.76702], [139.878077, 35.766886], [139.878215, 35.766611], [139.87859, 35.766011], [139.878815, 35.765611], [139.879077, 35.765112], [139.879352, 35.764487], [139.879415, 35.76427], [139.87949, 35.764003], [139.879502, 35.763778], [139.879527, 35.763478], [139.879527, 35.762978], [139.879552, 35.762753], [139.879577, 35.762578], [139.879652, 35.762295], [139.879852, 35.761712], [139.88014, 35.760979], [139.88029, 35.760629], [139.880415, 35.760354], [139.880452, 35.760237], [139.880515, 35.760012], [139.880565, 35.759762], [139.880615, 35.759487], [139.88064, 35.759187], [139.880665, 35.758987], [139.880677, 35.758604], [139.880665, 35.758162], [139.880678, 35.758029], [139.880715, 35.757904], [139.880778, 35.757679], [139.88094, 35.757237], [139.88099, 35.757087], [139.88104, 35.756987], [139.881228, 35.756679], [139.881465, 35.756371], [139.882253, 35.755271], [139.882928, 35.754396], [139.883403, 35.753738], [139.883715, 35.753255], [139.88374, 35.753221], [139.883752, 35.753205], [139.883815, 35.75313], [139.88389, 35.753021], [139.884515, 35.752288], [139.884677, 35.752096], [139.885502, 35.75108], [139.885702, 35.750813], [139.885927, 35.750572], [139.886402, 35.749988], [139.88684, 35.749497], [139.887077, 35.749263], [139.887377, 35.748988], [139.887777, 35.748647], [139.888202, 35.748322], [139.889027, 35.747697], [139.88934, 35.74748], [139.88979, 35.747172], [139.890077, 35.746997], [139.890602, 35.746697], [139.890715, 35.746622], [139.890815, 35.746522], [139.890852, 35.746447], [139.890877, 35.746355], [139.890877, 35.74623], [139.89089, 35.745972], [139.890902, 35.745897], [139.89094, 35.745705], [139.89099, 35.745397], [139.891027, 35.745122], [139.891052, 35.744956], [139.891065, 35.744881], [139.891065, 35.744439], [139.891077, 35.744314], [139.891115, 35.744097], [139.891165, 35.743856], [139.891265, 35.743547], [139.891315, 35.743364], [139.891415, 35.743089], [139.891677, 35.742464], [139.89184, 35.742098], [139.891877, 35.741956], [139.891877, 35.741873], [139.891915, 35.741264], [139.891915, 35.741223], [139.89194, 35.740698], [139.891952, 35.740556], [139.891977, 35.740156], [139.892002, 35.739989], [139.89204, 35.739856], [139.89209, 35.739656], [139.892127, 35.739573], [139.892152, 35.739514], [139.892215, 35.739439], [139.89229, 35.739356], [139.89244, 35.739198], [139.892477, 35.739131], [139.892502, 35.739048], [139.892515, 35.738956], [139.892515, 35.73879], [139.892515, 35.73874], [139.892515, 35.738598], [139.892515, 35.738456], [139.892515, 35.738406], [139.892527, 35.73829], [139.892552, 35.738198], [139.892602, 35.738106], [139.89264, 35.738048], [139.892677, 35.73794], [139.892677, 35.737906], [139.892715, 35.737731], [139.892715, 35.737615], [139.892702, 35.737073], [139.892765, 35.736531], [139.89279, 35.736456], [139.892803, 35.736348], [139.89284, 35.736207], [139.89294, 35.735865], [139.893128, 35.73534], [139.893165, 35.735215], [139.893203, 35.735032], [139.89324, 35.73494], [139.893328, 35.734532], [139.893353, 35.734448], [139.893415, 35.734298], [139.893478, 35.734165], [139.893615, 35.73354], [139.89364, 35.733374], [139.893728, 35.733032], [139.893803, 35.732699], [139.89384, 35.732532], [139.893865, 35.732299], [139.893865, 35.731682], [139.893865, 35.731415], [139.89389, 35.731182], [139.89389, 35.73094], [139.893915, 35.730715], [139.89394, 35.729882], [139.893965, 35.729541], [139.894015, 35.728966], [139.894115, 35.728332], [139.894265, 35.727707], [139.89444, 35.727141], [139.89479, 35.726183], [139.89509, 35.725466], [139.895128, 35.725349], [139.895228, 35.725083], [139.895503, 35.724283], [139.895653, 35.723783], [139.895765, 35.723383], [139.895865, 35.722975], [139.895915, 35.722833], [139.896003, 35.722583], [139.89619, 35.722191], [139.896453, 35.721691], [139.89669, 35.721325], [139.89694, 35.720975], [139.897165, 35.720675], [139.897665, 35.720083], [139.897828, 35.719908], [139.898053, 35.719658], [139.89899, 35.718833], [139.899965, 35.71805], [139.900803, 35.717334], [139.901953, 35.7163], [139.902403, 35.715892], [139.903003, 35.715451], [139.903428, 35.715142], [139.90394, 35.714792], [139.904203, 35.714609], [139.904665, 35.714276], [139.90564, 35.713551], [139.90589, 35.713343], [139.905952, 35.713276], [139.906015, 35.713176], [139.906052, 35.713101], [139.90609, 35.713001], [139.90609, 35.712951], [139.90609, 35.712876], [139.906302, 35.712584], [139.90669, 35.712126], [139.906977, 35.711793], [139.907102, 35.711626], [139.907152, 35.711526], [139.90719, 35.711451], [139.907252, 35.711318], [139.907265, 35.711209], [139.907265, 35.711126], [139.90724, 35.710893], [139.907215, 35.710734], [139.907215, 35.710635], [139.907215, 35.710551], [139.90724, 35.710418], [139.907265, 35.710268], [139.90729, 35.710201], [139.907353, 35.710101], [139.907415, 35.710035], [139.907478, 35.70996], [139.90774, 35.709768], [139.907803, 35.709718], [139.907852, 35.709643], [139.90789, 35.709576], [139.907903, 35.70951], [139.907915, 35.70936], [139.907865, 35.709151], [139.907903, 35.709068], [139.907953, 35.708985], [139.908028, 35.708876], [139.90809, 35.708826], [139.908203, 35.708743], [139.90834, 35.708668], [139.908765, 35.708485], [139.908927, 35.708401], [139.909265, 35.708118], [139.90969, 35.707768], [139.909852, 35.707627], [139.909927, 35.707585], [139.91004, 35.707493], [139.910127, 35.707435], [139.910277, 35.707352], [139.910527, 35.707218], [139.910802, 35.707068], [139.911077, 35.706918], [139.911315, 35.706785], [139.911365, 35.70676], [139.911702, 35.706593], [139.91179, 35.70656], [139.911965, 35.70651], [139.912615, 35.706427], [139.912727, 35.706402], [139.912815, 35.706377], [139.912877, 35.70631], [139.913477, 35.705643], [139.913677, 35.705469], [139.914352, 35.704877], [139.914602, 35.704635], [139.914965, 35.704244], [139.91539, 35.703744], [139.915577, 35.703544], [139.91579, 35.703252], [139.915902, 35.703085], [139.916002, 35.702894], [139.916202, 35.702494], [139.916302, 35.702244], [139.91639, 35.702052], [139.916427, 35.702011], [139.916602, 35.701852], [139.91709, 35.700769], [139.917327, 35.700202], [139.91764, 35.699461], [139.91774, 35.699169], [139.917802, 35.698978], [139.91784, 35.698811], [139.917852, 35.698686], [139.91784, 35.698536], [139.917802, 35.698386], [139.917752, 35.698253], [139.91769, 35.698128], [139.917365, 35.697528], [139.917265, 35.697361], [139.916665, 35.696411], [139.91659, 35.696286], [139.916502, 35.69617], [139.916327, 35.69597], [139.916027, 35.695636], [139.915565, 35.695103], [139.91499, 35.694453], [139.914503, 35.69377], [139.914365, 35.693603], [139.91374, 35.692987], [139.91354, 35.692762], [139.912415, 35.691403], [139.911953, 35.690837], [139.911803, 35.690628], [139.911716, 35.690512], [139.911691, 35.690437], [139.911641, 35.690303], [139.911628, 35.690195], [139.911628, 35.68982], [139.911591, 35.689737], [139.911541, 35.689645], [139.910503, 35.68862], [139.910366, 35.688529], [139.910228, 35.688462], [139.909903, 35.688362], [139.909503, 35.68827], [139.909303, 35.688204], [139.909153, 35.688095], [139.909053, 35.687929], [139.908991, 35.687812], [139.908916, 35.687504], [139.908878, 35.687354], [139.908816, 35.687237], [139.908703, 35.687062], [139.908503, 35.686795], [139.908304, 35.686554], [139.907704, 35.685846], [139.907529, 35.685646], [139.907329, 35.685446], [139.907066, 35.685221], [139.906841, 35.685071], [139.906566, 35.684904], [139.906129, 35.684679], [139.905704, 35.684479], [139.905341, 35.684337], [139.905116, 35.684254], [139.904754, 35.684154], [139.904004, 35.683979], [139.903292, 35.683812], [139.902742, 35.683721], [139.902504, 35.683687], [139.901929, 35.683612], [139.901142, 35.683504], [139.900492, 35.683437], [139.900017, 35.683404], [139.899717, 35.683379], [139.898879, 35.683346], [139.898567, 35.683354], [139.897092, 35.683446], [139.896955, 35.683454], [139.896805, 35.683496], [139.896642, 35.683554], [139.896405, 35.683654], [139.896267, 35.683737], [139.89603, 35.683887], [139.895955, 35.683921], [139.89588, 35.683945], [139.895767, 35.683987], [139.895655, 35.683995], [139.895567, 35.683987], [139.895492, 35.68397], [139.895192, 35.683895], [139.894792, 35.683829], [139.89448, 35.683745], [139.894142, 35.68367], [139.893405, 35.683529], [139.89298, 35.683446], [139.892767, 35.683379], [139.892455, 35.683221], [139.891805, 35.682912], [139.891655, 35.682846], [139.89123, 35.682679], [139.89083, 35.682512], [139.890555, 35.682421], [139.890405, 35.682379], [139.890218, 35.682337], [139.890018, 35.682312], [139.88988, 35.682296], [139.88983, 35.682287], [139.889668, 35.682246], [139.889568, 35.682221], [139.88953, 35.682204], [139.889368, 35.682137], [139.889343, 35.682129], [139.88893, 35.681912], [139.888743, 35.681812], [139.888518, 35.681687], [139.888105, 35.681462], [139.887668, 35.681179], [139.887481, 35.681071], [139.887281, 35.680954], [139.887081, 35.680804], [139.886868, 35.680621], [139.886706, 35.680454], [139.886556, 35.680329], [139.886393, 35.680246], [139.886143, 35.680154], [139.885831, 35.680054], [139.885368, 35.679921], [139.885268, 35.679896], [139.885243, 35.679654], [139.885256, 35.679546], [139.885306, 35.679421], [139.885331, 35.679321], [139.885356, 35.678971], [139.885381, 35.678229], [139.885393, 35.678071], [139.885393, 35.677396], [139.885406, 35.676946], [139.885356, 35.676704], [139.885281, 35.676346], [139.885093, 35.675521], [139.884981, 35.675105], [139.884931, 35.675021], [139.884881, 35.67498], [139.884744, 35.67493], [139.884694, 35.674896], [139.884656, 35.674821], [139.884556, 35.674396], [139.884419, 35.673755], [139.884394, 35.673688], [139.884344, 35.673646], [139.884256, 35.673596], [139.884106, 35.67348], [139.883819, 35.67323], [139.883569, 35.673013], [139.883506, 35.672946], [139.883469, 35.67288], [139.883444, 35.672805], [139.883381, 35.672605], [139.883306, 35.672338], [139.883256, 35.672088], [139.883256, 35.671972], [139.883281, 35.671847], [139.883394, 35.671622], [139.883506, 35.67138], [139.883669, 35.671038], [139.883719, 35.670922], [139.883744, 35.670822], [139.883744, 35.670747], [139.883731, 35.67053], [139.883706, 35.670247], [139.883694, 35.669897], [139.883681, 35.669597], [139.883631, 35.668839], [139.883644, 35.668664], [139.883681, 35.668439], [139.883756, 35.668005], [139.883831, 35.667647], [139.883869, 35.667539], [139.884256, 35.666814], [139.884331, 35.666655], [139.884369, 35.666555], [139.884669, 35.666022], [139.884719, 35.665897]]}}, {"type": "Feature", "properties": {"name": "平成23年度までの整備済み箇所", "tier": 5, "attribution": "東京都建設局「自転車走行空間について」(CC BY 4.0)", "dataset": "priority_section"}, "geometry": {"type": "LineString", "coordinates": [[139.512662, 35.688544], [139.519098, 35.687338], [139.520392, 35.686955], [139.520872, 35.686791], [139.521343, 35.686559], [139.522361, 35.685948], [139.523395, 35.68534]]}}, {"type": "Feature", "properties": {"name": "平成23年度までの整備済み箇所", "tier": 5, "attribution": "東京都建設局「自転車走行空間について」(CC BY 4.0)", "dataset": "priority_section"}, "geometry": {"type": "LineString", "coordinates": [[139.543188, 35.681524], [139.546985, 35.681804], [139.547943, 35.681875], [139.548455, 35.681869], [139.548782, 35.681845], [139.553564, 35.681485], [139.556292, 35.681235], [139.557895, 35.681144], [139.558764, 35.681157]]}}, {"type": "Feature", "properties": {"name": "平成23年度までの整備済み箇所", "tier": 5, "attribution": "東京都建設局「自転車走行空間について」(CC BY 4.0)", "dataset": "priority_section"}, "geometry": {"type": "LineString", "coordinates": [[139.789827, 35.702381], [139.789956, 35.702691], [139.790419, 35.704608], [139.790762, 35.706091], [139.791137, 35.708354], [139.79148, 35.709857], [139.791962, 35.711252], [139.792453, 35.713777], [139.792559, 35.714407], [139.792725, 35.717771], [139.792723, 35.718602], [139.792695, 35.718703], [139.791235, 35.721315], [139.791197, 35.721445], [139.790745, 35.728808]]}}, {"type": "Feature", "properties": {"name": "平成23年度までの整備済み箇所", "tier": 5, "attribution": "東京都建設局「自転車走行空間について」(CC BY 4.0)", "dataset": "priority_section"}, "geometry": {"type": "LineString", "coordinates": [[139.795056, 35.640646], [139.796776, 35.638503]]}}, {"type": "Feature", "properties": {"name": "平成23年度までの整備済み箇所", "tier": 5, "attribution": "東京都建設局「自転車走行空間について」(CC BY 4.0)", "dataset": "priority_section"}, "geometry": {"type": "MultiLineString", "coordinates": [[[139.442107, 35.766972], [139.441727, 35.766973]], [[139.441273, 35.766996], [139.441192, 35.767012], [139.441035, 35.767047], [139.440883, 35.767117], [139.440872, 35.767123]], [[139.43998, 35.767757], [139.439955, 35.767777], [139.439917, 35.767858], [139.439916, 35.767916]], [[139.43813, 35.768964], [139.438096, 35.768887], [139.438022, 35.76825], [139.437956, 35.768118], [139.437782, 35.768005], [139.437754, 35.767996]], [[139.436803, 35.767746], [139.436281, 35.767462], [139.436265, 35.767457]], [[139.436255, 35.767455], [139.436171, 35.767431], [139.43562, 35.767432]], [[139.434375, 35.767432], [139.434358, 35.767432], [139.434306, 35.767447]], [[139.434019, 35.767533], [139.433945, 35.767555], [139.433737, 35.767601], [139.433414, 35.767623], [139.433271, 35.76761]], [[139.433071, 35.767547], [139.432897, 35.76743], [139.432627, 35.767079], [139.432228, 35.766708], [139.432063, 35.766635], [139.432029, 35.766628]], [[139.431657, 35.766589], [139.431543, 35.766603], [139.430832, 35.766863], [139.430695, 35.766907]], [[139.428978, 35.767316], [139.428944, 35.767315], [139.42873, 35.767256], [139.42834, 35.767048], [139.428032, 35.766882], [139.427897, 35.766838]], [[139.425675, 35.767397], [139.42555, 35.76743], [139.425181, 35.767564], [139.42499, 35.767589], [139.424876, 35.767584], [139.424733, 35.767538], [139.424498, 35.767434], [139.42431, 35.767359]], [[139.422609, 35.767912], [139.422475, 35.768], [139.422311, 35.768057], [139.422192, 35.768073], [139.422089, 35.76807], [139.421965, 35.768032], [139.421836, 35.767948], [139.42172, 35.767835], [139.421619, 35.767669], [139.421462, 35.767518], [139.421277, 35.76739], [139.42102, 35.767243], [139.420699, 35.766947], [139.420247, 35.766394], [139.420196, 35.766329], [139.420054, 35.766236], [139.419795, 35.766154], [139.419588, 35.766147], [139.418911, 35.766245], [139.418748, 35.766262], [139.418516, 35.766324], [139.418344, 35.766383], [139.418074, 35.766503], [139.417972, 35.76652], [139.41784, 35.766512], [139.417751, 35.766466], [139.41768, 35.766394], [139.417641, 35.766316], [139.417633, 35.766231], [139.417659, 35.76611], [139.4178, 35.765791], [139.41782, 35.765707], [139.417816, 35.76564], [139.417785, 35.765441], [139.417776, 35.76541], [139.417677, 35.765167], [139.417618, 35.765067], [139.417564, 35.765025], [139.417495, 35.764994], [139.417315, 35.764944], [139.417343, 35.765649], [139.41676, 35.765657], [139.416511, 35.765708], [139.416366, 35.76578], [139.416273, 35.765884], [139.41621, 35.766128], [139.416147, 35.76662], [139.416103, 35.766768], [139.416018, 35.766891], [139.415713, 35.767167], [139.415567, 35.767234], [139.415402, 35.767262], [139.415301, 35.767267], [139.414786, 35.767218], [139.414471, 35.767242], [139.414045, 35.767362]], [[139.413107, 35.768273], [139.413104, 35.768274], [139.412771, 35.768286], [139.412156, 35.768196], [139.41198, 35.768183], [139.411831, 35.768209], [139.411288, 35.768515], [139.410961, 35.768634], [139.410351, 35.768807], [139.409752, 35.768945], [139.409558, 35.768961], [139.409389, 35.768949], [139.409503, 35.768782], [139.407557, 35.768688], [139.40741, 35.768682], [139.407189, 35.768692], [139.406524, 35.76881], [139.405876, 35.768966], [139.40571, 35.769057]], [[139.404636, 35.769385], [139.40463, 35.769385]], [[139.404105, 35.76927], [139.403281, 35.76869], [139.403149, 35.768643], [139.40287, 35.768615], [139.401962, 35.768821], [139.401806, 35.768824], [139.401637, 35.768796], [139.400653, 35.768511], [139.400553, 35.768459], [139.400472, 35.768386], [139.400286, 35.768155], [139.400079, 35.767864], [139.400015, 35.767762], [139.39999, 35.767695], [139.399881, 35.767203], [139.399835, 35.76707], [139.399786, 35.766981], [139.399706, 35.766896], [139.399315, 35.76655], [139.39868, 35.766043], [139.39862, 35.765991], [139.398535, 35.765885], [139.398477, 35.765758], [139.398431, 35.764992], [139.398397, 35.76483], [139.398307, 35.764693], [139.398206, 35.764609], [139.397949, 35.764497], [139.397236, 35.764392], [139.396847, 35.764383], [139.396167, 35.764521], [139.395933, 35.764442], [139.395506, 35.764411], [139.395375, 35.764382], [139.395218, 35.764322], [139.394659, 35.764041], [139.394524, 35.763995], [139.394379, 35.763957], [139.393961, 35.76389], [139.393745, 35.763842], [139.393068, 35.76366], [139.392952, 35.76363], [139.392852, 35.763619], [139.392655, 35.763607], [139.392523, 35.76359], [139.392421, 35.763554], [139.392199, 35.763446]], [[139.391792, 35.763145], [139.391765, 35.763088], [139.391754, 35.762985], [139.391758, 35.762914], [139.391772, 35.762893], [139.391815, 35.762871], [139.39189, 35.762847], [139.392188, 35.76282], [139.39231, 35.762811], [139.392424, 35.762784], [139.392558, 35.762677], [139.392701, 35.762529], [139.392777, 35.762471], [139.392866, 35.762432], [139.393003, 35.762421], [139.393145, 35.762444], [139.393245, 35.762445], [139.393323, 35.762436], [139.393521, 35.762359], [139.393594, 35.76235], [139.393677, 35.762351], [139.393741, 35.76236], [139.393856, 35.762443], [139.393987, 35.762568], [139.394066, 35.762663], [139.394157, 35.762813], [139.394221, 35.762871], [139.394332, 35.76292], [139.394789, 35.763074], [139.394863, 35.763088], [139.394931, 35.76307], [139.395005, 35.763027], [139.395164, 35.762784], [139.395207, 35.762752], [139.395241, 35.762739], [139.395324, 35.762735], [139.39544, 35.762737], [139.395619, 35.76277], [139.395702, 35.762816], [139.395821, 35.762911], [139.395907, 35.762997], [139.395976, 35.76305], [139.396026, 35.763065], [139.396096, 35.763069], [139.396182, 35.763049], [139.397044, 35.762788], [139.397629, 35.762554], [139.397705, 35.762542], [139.397809, 35.762551], [139.398059, 35.762693], [139.398117, 35.762703], [139.398191, 35.762701], [139.398244, 35.76269], [139.398714, 35.762488], [139.39916, 35.762237], [139.399273, 35.762194], [139.399356, 35.762179], [139.399853, 35.762217], [139.400176, 35.762222], [139.400326, 35.762206], [139.400449, 35.762173], [139.400731, 35.76206], [139.400813, 35.762001], [139.40106, 35.761775], [139.401136, 35.761738], [139.401377, 35.7617], [139.40149, 35.761667], [139.401765, 35.76149], [139.402051, 35.761401], [139.402197, 35.761332], [139.402344, 35.761248], [139.402421, 35.761229], [139.402689, 35.761224], [139.403132, 35.761346], [139.403314, 35.761466], [139.403548, 35.761599], [139.403739, 35.761753], [139.404004, 35.762051], [139.40406, 35.762109], [139.404123, 35.762142], [139.404193, 35.762156], [139.404445, 35.762176], [139.404628, 35.762216], [139.404812, 35.762291], [139.40488, 35.762295], [139.405021, 35.762289], [139.405141, 35.762252], [139.405242, 35.762208], [139.405317, 35.762151], [139.405674, 35.761772], [139.40583, 35.761637], [139.405941, 35.761589], [139.406074, 35.761551], [139.406173, 35.761524], [139.406253, 35.761475], [139.406345, 35.76139], [139.406578, 35.761222], [139.406718, 35.761176], [139.406817, 35.76115], [139.406962, 35.761144], [139.407073, 35.761157], [139.407133, 35.761167], [139.407242, 35.761209], [139.407386, 35.761294], [139.407512, 35.761435], [139.407656, 35.761579], [139.407767, 35.761649], [139.407938, 35.761722], [139.408241, 35.761801], [139.408377, 35.761851], [139.40843, 35.761891], [139.408515, 35.76197], [139.408596, 35.762022], [139.408695, 35.762063], [139.408821, 35.762078], [139.408926, 35.76207], [139.409023, 35.762031], [139.409294, 35.761869], [139.409558, 35.761666], [139.409632, 35.761634], [139.410333, 35.761502], [139.410481, 35.761507], [139.410687, 35.761556], [139.410891, 35.761576], [139.410979, 35.761581], [139.411077, 35.761579], [139.411202, 35.761559], [139.411546, 35.761474], [139.411787, 35.761444], [139.412025, 35.761385], [139.412154, 35.761366], [139.412319, 35.761368], [139.412416, 35.761357], [139.412511, 35.761328], [139.412945, 35.760878], [139.413038, 35.760838], [139.413763, 35.760622], [139.41437, 35.760252], [139.414491, 35.760252], [139.415166, 35.760362], [139.415191, 35.760248], [139.415175, 35.759916], [139.41513, 35.759835], [139.414941, 35.759592], [139.414785, 35.759406], [139.414789, 35.759362], [139.414824, 35.759281], [139.415176, 35.758924], [139.4153, 35.758758], [139.415373, 35.758712], [139.415564, 35.758613], [139.415836, 35.758419], [139.416279, 35.758179], [139.416345, 35.758133], [139.416391, 35.75808], [139.416449, 35.757987], [139.416621, 35.757659], [139.416704, 35.757555], [139.416757, 35.757522], [139.416829, 35.757502], [139.417651, 35.757497], [139.41777, 35.757515], [139.417877, 35.757548], [139.41798, 35.75759], [139.418049, 35.75765], [139.418239, 35.757883], [139.418342, 35.75796], [139.418488, 35.758048], [139.418867, 35.758197], [139.418939, 35.75821], [139.419015, 35.758199], [139.419343, 35.75796], [139.41951, 35.757822], [139.419882, 35.757623], [139.420004, 35.757589], [139.420103, 35.75759], [139.420234, 35.7576], [139.420584, 35.757671], [139.421042, 35.757798], [139.421214, 35.757871], [139.421419, 35.757972], [139.421619, 35.758118], [139.421784, 35.758253], [139.422165, 35.758727], [139.422286, 35.758852], [139.422478, 35.759202], [139.422549, 35.759294], [139.42281, 35.759517], [139.422896, 35.759561], [139.423018, 35.759582], [139.423509, 35.759574], [139.423655, 35.759539], [139.423842, 35.75946], [139.423919, 35.759409], [139.423986, 35.759344], [139.424048, 35.759237], [139.424123, 35.759057], [139.424238, 35.75891], [139.424313, 35.758851], [139.424761, 35.758587], [139.424846, 35.758528], [139.425038, 35.758317], [139.425085, 35.758232], [139.425203, 35.757884], [139.425252, 35.757787], [139.425289, 35.757721], [139.425365, 35.757683], [139.425471, 35.757633], [139.425587, 35.757586], [139.425725, 35.757557], [139.425851, 35.757551], [139.425994, 35.757563], [139.426497, 35.757767], [139.426957, 35.757883], [139.42731, 35.757948], [139.427384, 35.757984], [139.427461, 35.758076], [139.427843, 35.758605], [139.428156, 35.759187], [139.428228, 35.759259], [139.428319, 35.75932], [139.42843, 35.75936], [139.428522, 35.759369], [139.429258, 35.759305], [139.429378, 35.759316], [139.429459, 35.759343], [139.429525, 35.759379], [139.429641, 35.75951], [139.429839, 35.759812], [139.42998, 35.760101], [139.430124, 35.760452], [139.430161, 35.760509], [139.430218, 35.760554], [139.430297, 35.760577], [139.43038, 35.760579], [139.43072, 35.760478], [139.431066, 35.760347], [139.431403, 35.76016], [139.431547, 35.760111], [139.431838, 35.760097], [139.432423, 35.760034], [139.432563, 35.760041], [139.433399, 35.760181], [139.433814, 35.760264], [139.433972, 35.760297], [139.434071, 35.760331], [139.434176, 35.760389], [139.434389, 35.760608], [139.434605, 35.760851], [139.434688, 35.760903], [139.434782, 35.760927], [139.434893, 35.760939], [139.435041, 35.760918], [139.435157, 35.76086], [139.435781, 35.76038], [139.435944, 35.760271], [139.436065, 35.760232], [139.436172, 35.760212], [139.436352, 35.760216], [139.436747, 35.760268], [139.437361, 35.760406], [139.437469, 35.760419], [139.437769, 35.760415], [139.437931, 35.760397], [139.438015, 35.760358], [139.438145, 35.760218], [139.438193, 35.760172], [139.438279, 35.760132], [139.43851, 35.760065], [139.439402, 35.759867], [139.439466, 35.75983], [139.439503, 35.759799], [139.439554, 35.75969], [139.43964, 35.75898], [139.439675, 35.758815], [139.439778, 35.758618], [139.439862, 35.758526], [139.440497, 35.758067], [139.440565, 35.757993], [139.440595, 35.757931], [139.440608, 35.757825], [139.440531, 35.757578], [139.440507, 35.757469], [139.440508, 35.757367], [139.440526, 35.757265], [139.440575, 35.757164], [139.440637, 35.757087], [139.440945, 35.756824], [139.441079, 35.756749], [139.441857, 35.756407], [139.442499, 35.756075], [139.442652, 35.755981], [139.442772, 35.755887], [139.442926, 35.755792]]]}}, {"type": "Feature", "properties": {"name": "平成23年度までの整備済み箇所", "tier": 5, "attribution": "東京都建設局「自転車走行空間について」(CC BY 4.0)", "dataset": "priority_section"}, "geometry": {"type": "LineString", "coordinates": [[139.500998, 35.730742], [139.501448, 35.730517], [139.501485, 35.730509], [139.505735, 35.728684], [139.506935, 35.728151], [139.50751, 35.727892], [139.508072, 35.727659], [139.509672, 35.726967], [139.509722, 35.726926], [139.509872, 35.726868], [139.511022, 35.726384], [139.511697, 35.726084], [139.511985, 35.725959], [139.512635, 35.725676], [139.51391, 35.725109], [139.514159, 35.725026], [139.514272, 35.725001], [139.514559, 35.724851], [139.514697, 35.724784], [139.517309, 35.723651], [139.519609, 35.72266], [139.520284, 35.722385], [139.520497, 35.722268], [139.520747, 35.722152], [139.521896, 35.721643], [139.522221, 35.721468], [139.522284, 35.721418], [139.523496, 35.720868], [139.523946, 35.720652], [139.52418, 35.720553]]}}, {"type": "Feature", "properties": {"name": "平成23年度までの整備済み箇所", "tier": 5, "attribution": "東京都建設局「自転車走行空間について」(CC BY 4.0)", "dataset": "priority_section"}, "geometry": {"type": "LineString", "coordinates": [[139.52418, 35.720553], [139.524221, 35.720535], [139.524809, 35.720293], [139.525846, 35.719885], [139.526221, 35.719777], [139.526671, 35.71961], [139.527821, 35.719102], [139.528396, 35.718844], [139.530646, 35.71786], [139.531721, 35.717411], [139.531996, 35.717286], [139.532733, 35.716969], [139.533946, 35.716452], [139.534246, 35.716294], [139.534633, 35.716127], [139.537046, 35.715069], [139.53942, 35.714061], [139.541183, 35.713294], [139.541458, 35.713161]]}}, {"type": "Feature", "properties": {"name": "平成23年度までの整備済み箇所", "tier": 5, "attribution": "東京都建設局「自転車走行空間について」(CC BY 4.0)", "dataset": "priority_section"}, "geometry": {"type": "LineString", "coordinates": [[139.442926, 35.755792], [139.443582, 35.755497], [139.44375, 35.755473], [139.444064, 35.755338], [139.444714, 35.75513], [139.445089, 35.754963], [139.445876, 35.754622], [139.446251, 35.754447], [139.446801, 35.754213], [139.446851, 35.754188], [139.446964, 35.754138], [139.447639, 35.753839], [139.447764, 35.753747], [139.448089, 35.753614], [139.449014, 35.753214], [139.449614, 35.752955], [139.449864, 35.752839], [139.450126, 35.75278], [139.451476, 35.752197], [139.451613, 35.752097], [139.451963, 35.751822], [139.452901, 35.751397], [139.453326, 35.751406], [139.455088, 35.750639], [139.455588, 35.750406], [139.456538, 35.749997], [139.458963, 35.748956], [139.46035, 35.748356], [139.460925, 35.748114], [139.461413, 35.747906], [139.46185, 35.747723], [139.46195, 35.747673], [139.462013, 35.747639], [139.462088, 35.747581], [139.462138, 35.747556], [139.462163, 35.747531], [139.462563, 35.747364], [139.463225, 35.747073], [139.463825, 35.746806], [139.464038, 35.746715], [139.464088, 35.746706], [139.464225, 35.746698], [139.464263, 35.74669], [139.4643, 35.746673], [139.465, 35.746356], [139.4651, 35.746315], [139.465963, 35.745956], [139.466313, 35.745806], [139.466925, 35.745556], [139.4673, 35.745398], [139.467737, 35.745215], [139.467887, 35.745148], [139.467912, 35.745123], [139.46795, 35.745073], [139.467987, 35.745048], [139.468037, 35.745015], [139.468137, 35.744965], [139.469087, 35.744557], [139.469425, 35.744415], [139.469875, 35.744232], [139.47055, 35.743932], [139.470912, 35.743773], [139.4712, 35.743648], [139.471462, 35.74354], [139.471725, 35.743432], [139.472025, 35.743298], [139.47285, 35.74294], [139.474012, 35.742432], [139.474324, 35.742299], [139.474399, 35.742265], [139.474562, 35.742182], [139.474624, 35.742149], [139.475237, 35.741899], [139.475337, 35.741865], [139.475449, 35.741832], [139.475537, 35.74179], [139.475649, 35.741749], [139.475962, 35.741607], [139.476399, 35.741415], [139.476762, 35.741265], [139.477187, 35.741074], [139.477537, 35.740924], [139.477949, 35.74074], [139.478274, 35.740607], [139.478637, 35.740449], [139.478699, 35.740424], [139.478724, 35.740399], [139.478774, 35.740357], [139.478987, 35.740166], [139.479062, 35.740116], [139.479137, 35.740066], [139.479224, 35.740024], [139.479287, 35.740007], [139.479374, 35.739991], [139.479662, 35.739966], [139.479737, 35.739966], [139.479787, 35.739957], [139.479862, 35.739916], [139.479974, 35.739866], [139.480062, 35.739824], [139.480087, 35.739816], [139.480549, 35.739616], [139.480912, 35.739457], [139.481124, 35.739366], [139.481262, 35.739299], [139.481612, 35.739132], [139.482336, 35.738816], [139.483349, 35.738399], [139.483649, 35.738274], [139.484099, 35.738074], [139.484311, 35.737983], [139.484686, 35.737816], [139.485374, 35.737524], [139.485899, 35.737291], [139.486336, 35.737108], [139.486386, 35.737091], [139.487149, 35.736758], [139.487561, 35.736558], [139.487724, 35.736483], [139.488024, 35.736358], [139.488149, 35.736308], [139.488724, 35.736041], [139.488886, 35.735974], [139.489111, 35.735883], [139.489211, 35.735866], [139.489311, 35.735833], [139.489411, 35.735791], [139.489574, 35.7357], [139.489674, 35.735658], [139.489961, 35.735533], [139.490136, 35.73545], [139.490223, 35.735408], [139.490598, 35.73525], [139.492473, 35.73445], [139.492773, 35.734325], [139.492836, 35.7343], [139.492911, 35.73425], [139.493123, 35.734141], [139.493361, 35.734033], [139.494786, 35.733425], [139.496473, 35.732692], [139.496811, 35.73255], [139.498548, 35.7318], [139.49896, 35.731617], [139.500023, 35.731167], [139.500998, 35.730742]]}}, {"type": "Feature", "properties": {"name": "平成23年度までの整備済み箇所", "tier": 5, "attribution": "東京都建設局「自転車走行空間について」(CC BY 4.0)", "dataset": "priority_section"}, "geometry": {"type": "LineString", "coordinates": [[139.625387, 35.758487], [139.622706, 35.758481], [139.622346, 35.75849], [139.622061, 35.758533], [139.621791, 35.758586], [139.6214, 35.758704], [139.621151, 35.758826], [139.620947, 35.758903], [139.620788, 35.758928], [139.620437, 35.758991]]}}, {"type": "Feature", "properties": {"name": "平成23年度までの整備済み箇所", "tier": 5, "attribution": "東京都建設局「自転車走行空間について」(CC BY 4.0)", "dataset": "priority_section"}, "geometry": {"type": "LineString", "coordinates": [[139.70676, 35.741174], [139.705309, 35.739456], [139.704968, 35.739069], [139.704232, 35.738414], [139.703265, 35.737577], [139.70084, 35.735392], [139.700588, 35.735186], [139.700311, 35.734848], [139.700114, 35.734563], [139.699873, 35.734132], [139.699395, 35.733107], [139.698172, 35.730665], [139.697277, 35.728843], [139.69678, 35.728011], [139.695628, 35.726312], [139.694564, 35.724619], [139.69439, 35.724386], [139.694106, 35.724043], [139.69264, 35.72253]]}}, {"type": "Feature", "properties": {"name": "平成23年度までの整備済み箇所", "tier": 5, "attribution": "東京都建設局「自転車走行空間について」(CC BY 4.0)", "dataset": "priority_section"}, "geometry": {"type": "MultiLineString", "coordinates": [[[139.68168, 35.69066], [139.681657, 35.690391], [139.681672, 35.690132], [139.681763, 35.689771], [139.68189, 35.689478], [139.682022, 35.689233], [139.682289, 35.688864], [139.684747, 35.68646], [139.684814, 35.686374]], [[139.68824, 35.68237], [139.688434, 35.68217], [139.688651, 35.68192], [139.688707, 35.681821], [139.688746, 35.681707], [139.688822, 35.681448], [139.688858, 35.681247], [139.688829, 35.681073], [139.68862, 35.679299], [139.688562, 35.67904], [139.688453, 35.678711], [139.688047, 35.677654], [139.687945, 35.677352], [139.68789, 35.677097], [139.687869, 35.67682], [139.687696, 35.67175], [139.687691, 35.671551], [139.687733, 35.671076], [139.687838, 35.670142], [139.687927, 35.667698], [139.687973, 35.66666], [139.687973, 35.66646], [139.687948, 35.666144], [139.68781, 35.664861], [139.687785, 35.664552], [139.687773, 35.664311], [139.68776, 35.664111], [139.687748, 35.663444], [139.687735, 35.663286], [139.68771, 35.663111], [139.687592, 35.662468], [139.687599, 35.662233], [139.687674, 35.661948], [139.68786, 35.661661], [139.687985, 35.661494], [139.688522, 35.660848]]]}}, {"type": "Feature", "properties": {"name": "平成23年度までの整備済み箇所", "tier": 5, "attribution": "東京都建設局「自転車走行空間について」(CC BY 4.0)", "dataset": "priority_section"}, "geometry": {"type": "MultiLineString", "coordinates": [[[139.69264, 35.72253], [139.689238, 35.719018], [139.688483, 35.718224], [139.688295, 35.718], [139.688099, 35.717688], [139.687959, 35.717447], [139.682914, 35.706649], [139.682684, 35.706098], [139.682335, 35.703321], [139.68229, 35.702499], [139.682409, 35.702056], [139.682554, 35.701676], [139.68286, 35.701042], [139.683013, 35.700669], [139.683047, 35.700378], [139.682942, 35.697162], [139.68177, 35.691165], [139.681686, 35.690734], [139.68168, 35.69066]], [[139.684814, 35.686374], [139.686329, 35.684429], [139.688175, 35.682437], [139.68824, 35.68237]]]}}, {"type": "Feature", "properties": {"name": "平成23年度までの整備済み箇所", "tier": 5, "attribution": "東京都建設局「自転車走行空間について」(CC BY 4.0)", "dataset": "priority_section"}, "geometry": {"type": "LineString", "coordinates": [[139.688524, 35.660845], [139.688783, 35.660443], [139.690799, 35.65798], [139.690909, 35.657788], [139.690974, 35.657631]]}}, {"type": "Feature", "properties": {"name": "平成23年度までの整備済み箇所", "tier": 5, "attribution": "東京都建設局「自転車走行空間について」(CC BY 4.0)", "dataset": "priority_section"}, "geometry": {"type": "MultiLineString", "coordinates": [[[139.725543, 35.692183], [139.725793, 35.692142], [139.726006, 35.692092], [139.726193, 35.692017], [139.726493, 35.691875], [139.727156, 35.691542], [139.727343, 35.69145], [139.727568, 35.691367], [139.727831, 35.6913], [139.728093, 35.69125], [139.728331, 35.691217], [139.729468, 35.691125], [139.729943, 35.691075], [139.730243, 35.691059], [139.730531, 35.69105], [139.730843, 35.691067], [139.731143, 35.691092], [139.731543, 35.691142], [139.731868, 35.6912], [139.732193, 35.691275], [139.732643, 35.691384], [139.734155, 35.691717], [139.734305, 35.691767], [139.734518, 35.691834], [139.73473, 35.691917], [139.73518, 35.692158], [139.735418, 35.692292], [139.73563, 35.692425], [139.735805, 35.692558], [139.736155, 35.692833], [139.736555, 35.693133], [139.736805, 35.693333], [139.73698, 35.693475], [139.737142, 35.693617], [139.73733, 35.6938], [139.73753, 35.693992], [139.737767, 35.694267], [139.738405, 35.695033], [139.738567, 35.695258], [139.73873, 35.695483], [139.739255, 35.696283], [139.739567, 35.696741], [139.73968, 35.696875], [139.740342, 35.697591], [139.740529, 35.697816], [139.740929, 35.698325], [139.741104, 35.698558], [139.741517, 35.699025], [139.741917, 35.699474], [139.742717, 35.700424], [139.743691, 35.70176], [139.743798, 35.701867]], [[139.744054, 35.702121], [139.744181, 35.702248], [139.744666, 35.702608], [139.744847, 35.702708], [139.745004, 35.702767]]]}}, {"type": "Feature", "properties": {"name": "平成23年度までの整備済み箇所", "tier": 5, "attribution": "東京都建設局「自転車走行空間について」(CC BY 4.0)", "dataset": "priority_section"}, "geometry": {"type": "LineString", "coordinates": [[139.745004, 35.702767], [139.745092, 35.7028], [139.745747, 35.703051], [139.746118, 35.703155], [139.74645, 35.703215], [139.746829, 35.703247], [139.747429, 35.703257], [139.748519, 35.703246], [139.750535, 35.703124], [139.751947, 35.702983], [139.753519, 35.702865], [139.754117, 35.702737], [139.755553, 35.702358]]}}, {"type": "Feature", "properties": {"name": "平成23年度までの整備済み箇所", "tier": 5, "attribution": "東京都建設局「自転車走行空間について」(CC BY 4.0)", "dataset": "priority_section"}, "geometry": {"type": "LineString", "coordinates": [[139.743798, 35.701867], [139.744054, 35.702121]]}}, {"type": "Feature", "properties": {"name": "平成23年度までの整備済み箇所", "tier": 5, "attribution": "東京都建設局「自転車走行空間について」(CC BY 4.0)", "dataset": "priority_section"}, "geometry": {"type": "LineString", "coordinates": [[139.755918, 35.676784], [139.757669, 35.679519], [139.759966, 35.683107], [139.760447, 35.684484], [139.760559, 35.684722], [139.760689, 35.684942], [139.761066, 35.685417], [139.761224, 35.685701], [139.761624, 35.687204], [139.761629, 35.687234], [139.761234, 35.688415], [139.760962, 35.689227], [139.760816, 35.689435]]}}, {"type": "Feature", "properties": {"name": "平成23年度までの整備済み箇所", "tier": 5, "attribution": "東京都建設局「自転車走行空間について」(CC BY 4.0)", "dataset": "priority_section"}, "geometry": {"type": "LineString", "coordinates": [[139.743053, 35.670927], [139.743462, 35.670829], [139.744918, 35.670529], [139.745872, 35.670343], [139.746199, 35.670305], [139.746786, 35.670239], [139.747254, 35.67024], [139.747552, 35.670271], [139.747856, 35.670321], [139.748669, 35.67052], [139.748878, 35.670554], [139.749033, 35.670549], [139.749123, 35.670528], [139.751579, 35.669659], [139.758542, 35.667387], [139.758904, 35.66727], [139.759367, 35.667112], [139.759829, 35.666953], [139.760067, 35.66687], [139.760392, 35.666737], [139.760654, 35.666628], [139.760917, 35.666587], [139.761092, 35.666537], [139.761292, 35.666512], [139.761529, 35.666495], [139.762217, 35.66652], [139.762567, 35.666537], [139.762704, 35.666553], [139.762938, 35.666594], [139.76313, 35.666653], [139.764073, 35.667108], [139.76421, 35.667211], [139.764942, 35.667793], [139.766881, 35.669435], [139.767197, 35.669763], [139.770887, 35.67382], [139.772122, 35.675818], [139.773066, 35.677346], [139.776904, 35.683511], [139.777015, 35.683683], [139.776678, 35.687127]]}}, {"type": "Feature", "properties": {"name": "平成23年度までの整備済み箇所", "tier": 5, "attribution": "東京都建設局「自転車走行空間について」(CC BY 4.0)", "dataset": "priority_section"}, "geometry": {"type": "LineString", "coordinates": [[139.775025, 35.670259], [139.775199, 35.670485], [139.776859, 35.674616], [139.778152, 35.676711], [139.77834, 35.676994], [139.778365, 35.677028], [139.778502, 35.677253], [139.778665, 35.677519], [139.778777, 35.677702], [139.77889, 35.677894], [139.77904, 35.678136], [139.780127, 35.679899]]}}, {"type": "Feature", "properties": {"name": "平成23年度までの整備済み箇所", "tier": 5, "attribution": "東京都建設局「自転車走行空間について」(CC BY 4.0)", "dataset": "priority_section"}, "geometry": {"type": "LineString", "coordinates": [[139.872343, 35.65216], [139.872921, 35.660238]]}}, {"type": "Feature", "properties": {"name": "平成23年度までの整備済み箇所", "tier": 5, "attribution": "東京都建設局「自転車走行空間について」(CC BY 4.0)", "dataset": "priority_section"}, "geometry": {"type": "LineString", "coordinates": [[139.752523, 35.805372], [139.751199, 35.80668], [139.751111, 35.806763], [139.751036, 35.806838], [139.750974, 35.806905], [139.750608, 35.80728]]}}, {"type": "Feature", "properties": {"name": "平成23年度までの整備済み箇所", "tier": 5, "attribution": "東京都建設局「自転車走行空間について」(CC BY 4.0)", "dataset": "priority_section"}, "geometry": {"type": "LineString", "coordinates": [[139.459542, 35.686038], [139.459727, 35.688077], [139.459942, 35.689976], [139.459998, 35.690833], [139.45999, 35.692913], [139.460028, 35.694328]]}}, {"type": "Feature", "properties": {"name": "平成23年度までの整備済み箇所", "tier": 5, "attribution": "東京都建設局「自転車走行空間について」(CC BY 4.0)", "dataset": "priority_section"}, "geometry": {"type": "LineString", "coordinates": [[139.673507, 35.780805], [139.673595, 35.781419], [139.673592, 35.781796], [139.674112, 35.785819]]}}]}