{"type":"FeatureCollection","features":[{"type":"Feature","properties":{"id":150807012,"highway":"service"},"geometry":{"type":"LineString","coordinates":[[139.270676,34.404435],[139.270708,34.404417],[139.270721,34.40439],[139.270733,34.404343],[139.270744,34.404236],[139.270759,34.404163],[139.270779,34.40413],[139.27085,34.404065],[139.270939,34.404005],[139.271002,34.403953],[139.271042,34.403913],[139.271068,34.403846],[139.271084,34.403727],[139.271106,34.403632],[139.271117,34.403552],[139.27111,34.403496],[139.271082,34.403403]]}},{"type":"Feature","properties":{"id":150807201,"highway":"service"},"geometry":{"type":"LineString","coordinates":[[139.272699,34.40416],[139.273099,34.404751],[139.273703,34.405605]]}},{"type":"Feature","properties":{"id":150807306,"highway":"service"},"geometry":{"type":"LineString","coordinates":[[139.269242,34.402112],[139.269352,34.402239],[139.269411,34.402304],[139.269512,34.402401],[139.269645,34.402513],[139.269847,34.402679],[139.269926,34.402747],[139.269993,34.402814],[139.270027,34.402867],[139.270049,34.402912],[139.270063,34.40296],[139.270084,34.403078],[139.270118,34.403265],[139.270134,34.403389],[139.270155,34.403481],[139.270187,34.403551],[139.270304,34.403742],[139.270339,34.403803],[139.270408,34.403933],[139.270492,34.404119],[139.270556,34.404239],[139.270676,34.404435],[139.27075,34.404527],[139.270776,34.404553],[139.2708,34.404575],[139.27087,34.404623],[139.271028,34.404711],[139.271197,34.404783],[139.271358,34.404848],[139.27151,34.404891],[139.271695,34.40493],[139.271795,34.404948],[139.272046,34.404967],[139.272134,34.404974],[139.272273,34.40497],[139.272416,34.404961],[139.27257,34.404933],[139.272769,34.40488],[139.272903,34.404838],[139.273051,34.404775],[139.273099,34.404751],[139.273179,34.404689],[139.273218,34.40463],[139.273231,34.404593],[139.273231,34.404554],[139.27322,34.404458],[139.2732,34.404412],[139.273167,34.404243],[139.273166,34.4042],[139.273173,34.40415],[139.273213,34.404108],[139.273265,34.404082],[139.273348,34.404062],[139.273436,34.404048],[139.273502,34.404049],[139.273596,34.404048],[139.273664,34.40404],[139.27372,34.404025],[139.273758,34.403988],[139.273774,34.403953],[139.273774,34.403912],[139.273686,34.403757],[139.273633,34.403679],[139.273603,34.403613],[139.273594,34.403547],[139.273594,34.403478],[139.273601,34.403433],[139.273624,34.40339],[139.273719,34.403204]]}},{"type":"Feature","properties":{"id":150807581,"highway":"service"},"geometry":{"type":"LineString","coordinates":[[139.27042,34.40103],[139.270647,34.400961],[139.270917,34.400868],[139.2712,34.40076],[139.271314,34.400723],[139.27145,34.400693],[139.271612,34.400667],[139.271972,34.40066],[139.272326,34.40066],[139.272596,34.400681],[139.272684,34.400692],[139.272939,34.40074],[139.273042,34.400765],[139.273348,34.400863],[139.273593,34.400983],[139.273889,34.401136],[139.274359,34.401386],[139.274498,34.401486],[139.274629,34.401638],[139.274739,34.401786],[139.274848,34.401986],[139.274884,34.402049],[139.27498,34.402225],[139.275112,34.402525],[139.275138,34.402603],[139.275177,34.40273],[139.275196,34.402888],[139.275203,34.403015],[139.275191,34.403112],[139.275184,34.403199],[139.275164,34.403296],[139.275128,34.403399],[139.275097,34.403475],[139.275007,34.403622],[139.274912,34.403744],[139.274793,34.40391],[139.274702,34.404043],[139.274664,34.404114],[139.27465,34.404168],[139.274647,34.40425],[139.274663,34.404356],[139.274672,34.404474],[139.274667,34.404552],[139.274641,34.404654],[139.274559,34.404828],[139.274474,34.404958],[139.274339,34.405123],[139.274217,34.405261],[139.274157,34.405309],[139.273944,34.405461],[139.273703,34.405605],[139.273557,34.40568],[139.273343,34.405776],[139.27325,34.405812],[139.27302,34.405887],[139.272925,34.405913],[139.272792,34.405949],[139.272676,34.405973],[139.272588,34.40599],[139.27246,34.40601],[139.272337,34.40602],[139.272239,34.406031],[139.272082,34.406037],[139.271969,34.406039],[139.271874,34.40604],[139.271745,34.40604],[139.271537,34.406025],[139.271395,34.406002],[139.271268,34.405981],[139.271189,34.405966],[139.271061,34.405937],[139.270932,34.405895],[139.270841,34.405863],[139.270719,34.405817],[139.270526,34.405726],[139.270332,34.405625],[139.270159,34.405518],[139.269987,34.405383],[139.269811,34.405227],[139.269677,34.405081],[139.269311,34.404645],[139.269197,34.404498],[139.269064,34.404253],[139.26903,34.404162],[139.268964,34.403965],[139.268934,34.403887],[139.268879,34.403675],[139.268865,34.403604],[139.268846,34.403483],[139.268835,34.403408],[139.269106,34.4034],[139.269767,34.403395],[139.270134,34.403389]]}},{"type":"Feature","properties":{"id":438180032,"highway":"secondary"},"geometry":{"type":"LineString","coordinates":[[139.276235,34.410593],[139.2755,34.410429],[139.275151,34.410301],[139.274706,34.409965],[139.274481,34.409721],[139.274272,34.409398],[139.274068,34.408827],[139.274003,34.40842],[139.273918,34.406862],[139.273853,34.405127],[139.273757,34.40345],[139.273671,34.40194],[139.273596,34.400351],[139.273537,34.399112],[139.273429,34.397049],[139.273354,34.395416],[139.273231,34.393698],[139.273199,34.392738],[139.273145,34.391149],[139.273118,34.389962],[139.273097,34.389258],[139.273129,34.388617],[139.273204,34.388174],[139.27337,34.387638],[139.273789,34.386293],[139.273864,34.385947],[139.273891,34.385761],[139.273892,34.385584]]}},{"type":"Feature","properties":{"id":439463631,"highway":"secondary"},"geometry":{"type":"LineString","coordinates":[[139.280688,34.415487],[139.280507,34.415433],[139.280352,34.415403],[139.280051,34.415366],[139.27986,34.415328],[139.279707,34.415267],[139.279581,34.415177],[139.279513,34.415103],[139.279467,34.415014],[139.279392,34.414751],[139.279292,34.414427],[139.279289,34.414329],[139.279296,34.414165],[139.27932,34.413981],[139.279348,34.413789],[139.279387,34.413615],[139.279439,34.413455],[139.279533,34.413278],[139.279685,34.413037],[139.279824,34.412792],[139.279841,34.412767],[139.279931,34.412635],[139.280063,34.412424],[139.280155,34.41228],[139.280249,34.412167],[139.280395,34.412023],[139.280633,34.411798],[139.280689,34.411725],[139.280705,34.411663],[139.2807,34.411594],[139.280676,34.411526],[139.280611,34.411448],[139.279906,34.410957],[139.27971,34.410811],[139.279603,34.4107],[139.279324,34.410375],[139.279161,34.410241],[139.279018,34.410171],[139.278864,34.410144],[139.278697,34.410148],[139.278472,34.410219],[139.278282,34.410321],[139.278102,34.410432],[139.277887,34.410555],[139.277718,34.410629],[139.277506,34.410686]]}},{"type":"Feature","properties":{"id":439641494,"highway":"secondary"},"geometry":{"type":"LineString","coordinates":[[139.281369,34.418863],[139.281333,34.418688],[139.281341,34.41848],[139.2814,34.418099],[139.28148,34.41767],[139.281529,34.417232],[139.281537,34.41696],[139.281502,34.416734],[139.281413,34.416455],[139.28129,34.416152],[139.281134,34.415909],[139.280912,34.415628],[139.280688,34.415487]]}},{"type":"Feature","properties":{"id":439641495,"highway":"secondary"},"geometry":{"type":"LineString","coordinates":[[139.279581,34.415177],[139.279535,34.415263],[139.279648,34.415693],[139.279664,34.415719],[139.279699,34.415775],[139.279846,34.415914],[139.280109,34.416117],[139.280251,34.416246],[139.280301,34.416316],[139.280361,34.416401],[139.280452,34.416615],[139.28075,34.417363],[139.280761,34.417452],[139.280757,34.417476],[139.280742,34.417562],[139.280655,34.4177],[139.28053,34.417848]]}},{"type":"Feature","properties":{"id":439641496,"highway":"secondary"},"geometry":{"type":"LineString","coordinates":[[139.283196,34.422413],[139.283093,34.422141],[139.282911,34.421739],[139.282746,34.421338],[139.282546,34.420953],[139.282309,34.420578],[139.281894,34.419928],[139.281645,34.419504],[139.281508,34.419274],[139.281443,34.419163],[139.281369,34.418863]]}},{"type":"Feature","properties":{"id":439641497,"highway":"secondary"},"geometry":{"type":"LineString","coordinates":[[139.279292,34.414427],[139.279261,34.414512],[139.279226,34.414589],[139.279184,34.414656],[139.279148,34.414698],[139.278653,34.414864],[139.27861,34.414876],[139.278562,34.414882],[139.278514,34.414879],[139.278471,34.414877],[139.278435,34.414867],[139.278396,34.414844],[139.27836,34.414805],[139.278333,34.414763],[139.278319,34.414715],[139.278306,34.414664],[139.278287,34.414582],[139.278274,34.414533],[139.278252,34.414471],[139.278227,34.414407],[139.27817,34.414327],[139.277849,34.413997],[139.277795,34.413961],[139.277758,34.413952],[139.27772,34.413945],[139.277662,34.413941],[139.277512,34.413975],[139.277218,34.414054],[139.277045,34.414107],[139.276909,34.414157],[139.276789,34.414215],[139.276583,34.41432],[139.276423,34.414406],[139.275754,34.414751],[139.275409,34.414933],[139.275387,34.414941],[139.275325,34.414965],[139.27522,34.414989],[139.275103,34.414998],[139.274749,34.414954],[139.274681,34.414932],[139.274602,34.414882],[139.274497,34.414791],[139.274419,34.414764],[139.274249,34.414759],[139.274147,34.414773],[139.274033,34.414812],[139.273937,34.414865],[139.273757,34.415032],[139.273735,34.415087],[139.273731,34.415215]]}},{"type":"Feature","properties":{"id":439641498,"highway":"secondary"},"geometry":{"type":"LineString","coordinates":[[139.279148,34.414698],[139.27924,34.41474],[139.279286,34.414775],[139.279341,34.414857],[139.279377,34.414927],[139.279421,34.414983],[139.279467,34.415014]]}},{"type":"Feature","properties":{"id":439757540,"highway":"unclassified"},"geometry":{"type":"LineString","coordinates":[[139.282125,34.423368],[139.282338,34.42334],[139.282463,34.423303],[139.282535,34.423265],[139.282601,34.423198],[139.282632,34.423138],[139.282626,34.422687],[139.282641,34.422619],[139.282657,34.422585],[139.282681,34.422548],[139.282765,34.422519],[139.283196,34.422413]]}},{"type":"Feature","properties":{"id":439757541,"highway":"unclassified"},"geometry":{"type":"LineString","coordinates":[[139.281894,34.419928],[139.281597,34.420024],[139.281563,34.420056],[139.281548,34.420105],[139.281547,34.420164],[139.281563,34.420241],[139.281622,34.420375],[139.281814,34.420748],[139.282035,34.421117],[139.282201,34.421479],[139.282382,34.421876],[139.282557,34.422264],[139.282681,34.422548]]}},{"type":"Feature","properties":{"id":439757543,"highway":"unclassified"},"geometry":{"type":"LineString","coordinates":[[139.283462,34.423211],[139.283196,34.422413]]}},{"type":"Feature","properties":{"id":439757544,"highway":"unclassified"},"geometry":{"type":"LineString","coordinates":[[139.280395,34.412023],[139.280595,34.412323],[139.280779,34.412505],[139.281088,34.412771],[139.281214,34.412948],[139.281305,34.413052],[139.28142,34.413202],[139.28149,34.41345],[139.281531,34.413501],[139.281589,34.413537],[139.281638,34.413554],[139.281681,34.413554],[139.281756,34.413541],[139.281801,34.413508],[139.281842,34.413466],[139.281866,34.413424],[139.281866,34.413359],[139.281823,34.413267],[139.281809,34.413198],[139.281852,34.413121],[139.281952,34.41305],[139.282708,34.412853],[139.283027,34.412713],[139.283499,34.412607],[139.284211,34.412511],[139.284693,34.412446],[139.28553,34.412386]]}},{"type":"Feature","properties":{"id":439757545,"highway":"unclassified"},"geometry":{"type":"LineString","coordinates":[[139.281597,34.420024],[139.281478,34.41977],[139.281309,34.419533]]}},{"type":"Feature","properties":{"id":439757546,"highway":"unclassified"},"geometry":{"type":"LineString","coordinates":[[139.282035,34.421117],[139.282546,34.420953],[139.282816,34.420857]]}},{"type":"Feature","properties":{"id":439757547,"highway":"unclassified"},"geometry":{"type":"LineString","coordinates":[[139.283259,34.42117],[139.282746,34.421338],[139.282201,34.421479]]}},{"type":"Feature","properties":{"id":439757551,"highway":"unclassified"},"geometry":{"type":"LineString","coordinates":[[139.27703,34.41481],[139.277942,34.415066],[139.278124,34.415117],[139.278492,34.414958],[139.278514,34.414879]]}},{"type":"Feature","properties":{"id":439757552,"highway":"unclassified"},"geometry":{"type":"LineString","coordinates":[[139.281814,34.420748],[139.282309,34.420578],[139.282538,34.420487],[139.282626,34.420397],[139.28285,34.420265]]}},{"type":"Feature","properties":{"id":439757553,"highway":"unclassified"},"geometry":{"type":"LineString","coordinates":[[139.281878,34.421983],[139.282382,34.421876],[139.282911,34.421739],[139.28342,34.421622],[139.283435,34.421586],[139.283379,34.421403],[139.283259,34.42117],[139.283128,34.420917]]}},{"type":"Feature","properties":{"id":439757554,"highway":"unclassified"},"geometry":{"type":"LineString","coordinates":[[139.283074,34.420772],[139.28285,34.420265],[139.282537,34.419565],[139.282437,34.419431],[139.282298,34.419288],[139.282201,34.419173],[139.282011,34.418894],[139.281972,34.418884]]}},{"type":"Feature","properties":{"id":439757556,"highway":"unclassified"},"geometry":{"type":"LineString","coordinates":[[139.282557,34.422264],[139.283093,34.422141],[139.283548,34.422038],[139.283585,34.422008],[139.283556,34.421887],[139.283565,34.42185],[139.283592,34.42183],[139.283703,34.421807]]}},{"type":"Feature","properties":{"id":440065306,"highway":"unclassified"},"geometry":{"type":"LineString","coordinates":[[139.279931,34.412635],[139.279895,34.412543],[139.279841,34.412213],[139.279825,34.412191],[139.279761,34.412218],[139.279507,34.412421],[139.279328,34.412513],[139.279109,34.412622],[139.278776,34.412815],[139.278377,34.41312],[139.278298,34.413171],[139.278127,34.413242],[139.277883,34.4133],[139.27767,34.413355],[139.277544,34.413369],[139.277434,34.413385],[139.277248,34.41344],[139.276436,34.413708],[139.275999,34.413863],[139.275837,34.413941],[139.275161,34.414271]]}},{"type":"Feature","properties":{"id":440065310,"highway":"tertiary"},"geometry":{"type":"LineString","coordinates":[[139.281889,34.401188],[139.281909,34.401025],[139.281893,34.400822],[139.281845,34.400662],[139.281783,34.400483],[139.281711,34.400306],[139.281601,34.400135],[139.281354,34.399852],[139.279688,34.398456],[139.279552,34.398334],[139.279393,34.398168],[139.279259,34.397991],[139.279096,34.397697],[139.278994,34.397449],[139.278892,34.39717],[139.278849,34.396907],[139.27886,34.396459],[139.278854,34.396302],[139.278841,34.396099],[139.278811,34.395888],[139.278567,34.395131]]}},{"type":"Feature","properties":{"id":440065313,"highway":"unclassified"},"geometry":{"type":"LineString","coordinates":[[139.284211,34.412511],[139.284311,34.412238],[139.284307,34.412169],[139.284282,34.412119],[139.284234,34.412086],[139.284154,34.412064],[139.28393,34.412047],[139.28383,34.412023],[139.283599,34.411882],[139.28355,34.411837],[139.283483,34.411732],[139.283431,34.411668],[139.283353,34.411632],[139.2832,34.411603],[139.282959,34.411585],[139.282881,34.411576],[139.282782,34.411547],[139.282686,34.411513],[139.282506,34.411448],[139.28219,34.41133],[139.281942,34.411199],[139.28169,34.411034],[139.281406,34.41085],[139.281164,34.410642],[139.280919,34.410372],[139.28081,34.410285],[139.280729,34.410237],[139.280534,34.410134],[139.280337,34.410048]]}},{"type":"Feature","properties":{"id":440065328,"highway":"service"},"geometry":{"type":"LineString","coordinates":[[139.28596,34.408579],[139.285793,34.408615],[139.285705,34.40861],[139.285554,34.408561],[139.285471,34.408513],[139.285396,34.408477],[139.285318,34.408473],[139.28523,34.408493],[139.285074,34.408573],[139.285007,34.40859],[139.284919,34.408584],[139.284838,34.408542],[139.284817,34.408469],[139.284777,34.4084],[139.284736,34.408362],[139.284503,34.408285],[139.284382,34.408179],[139.284106,34.408104],[139.283999,34.408004],[139.284004,34.4079],[139.283792,34.40773],[139.283712,34.407701],[139.283621,34.407701],[139.28354,34.407747],[139.283476,34.407805],[139.283425,34.407827],[139.283336,34.407836],[139.283248,34.407814],[139.283151,34.407803],[139.283089,34.407827],[139.283012,34.4079],[139.282894,34.407955],[139.282781,34.40796],[139.282674,34.408028],[139.282529,34.408077],[139.282406,34.408159],[139.282285,34.40819],[139.282194,34.408188],[139.282089,34.408161],[139.281971,34.40811],[139.281901,34.408013]]}},{"type":"Feature","properties":{"id":440065332,"highway":"unclassified"},"geometry":{"type":"LineString","coordinates":[[139.284693,34.412446],[139.284722,34.412547],[139.284815,34.412629],[139.284868,34.412706],[139.284948,34.412853],[139.285032,34.412936],[139.284827,34.413201],[139.284717,34.41345],[139.28458,34.413571],[139.284419,34.413695],[139.284347,34.413737],[139.28403,34.413829],[139.283825,34.413823],[139.283751,34.413843],[139.283215,34.41407],[139.283085,34.414213],[139.283037,34.414245],[139.282973,34.41428],[139.282893,34.414324],[139.282892,34.414347],[139.282923,34.414362],[139.283005,34.414351],[139.283063,34.414343],[139.283243,34.41431],[139.283443,34.414303],[139.283529,34.414324],[139.283605,34.414369],[139.283668,34.414392],[139.28381,34.414424],[139.283855,34.41446],[139.283845,34.414486],[139.283775,34.414499],[139.283466,34.414539],[139.283392,34.414564],[139.283334,34.414603],[139.283222,34.41469],[139.283145,34.414779],[139.282861,34.415309],[139.282806,34.41537],[139.282813,34.415395],[139.282839,34.415403],[139.282906,34.415389],[139.283118,34.415251]]}},{"type":"Feature","properties":{"id":440065337,"highway":"tertiary"},"geometry":{"type":"LineString","coordinates":[[139.279018,34.410171],[139.279102,34.409932],[139.279104,34.409832],[139.279102,34.409724],[139.279088,34.409573],[139.279078,34.409432],[139.279075,34.409237],[139.279129,34.408958],[139.279324,34.408274],[139.279338,34.408181],[139.279327,34.408077],[139.279295,34.407982],[139.27922,34.40788],[139.279096,34.407776],[139.27863,34.407542],[139.278525,34.40748],[139.278474,34.407416],[139.278469,34.407352],[139.278496,34.407316],[139.278565,34.40729],[139.278716,34.407307],[139.279418,34.407537],[139.279996,34.407689],[139.280298,34.407778],[139.280511,34.407872],[139.280771,34.408002],[139.280963,34.408118],[139.281014,34.408139],[139.281082,34.408142],[139.281127,34.408127],[139.281152,34.408096],[139.281166,34.40805],[139.281162,34.408002],[139.281117,34.407944],[139.28091,34.407846],[139.280325,34.407575],[139.27913,34.407049],[139.279016,34.406991],[139.278835,34.406874],[139.278752,34.406801],[139.278611,34.406629],[139.278274,34.40623],[139.278186,34.406099],[139.278138,34.405948],[139.278138,34.405748],[139.27815,34.405655],[139.278186,34.405526],[139.278443,34.404704],[139.278502,34.404494],[139.278571,34.404235],[139.27859,34.404038],[139.278625,34.403777],[139.278641,34.403582],[139.278689,34.403377],[139.27888,34.403058],[139.279172,34.402631],[139.279352,34.402427],[139.279612,34.402184],[139.279764,34.402057],[139.28002,34.401869],[139.280331,34.40171],[139.280618,34.401622],[139.280808,34.401577],[139.28091,34.401563],[139.281012,34.401549],[139.281224,34.401535],[139.281406,34.401542],[139.281567,34.401515],[139.281728,34.401456],[139.281817,34.40138],[139.28186,34.401285],[139.281889,34.401188]]}},{"type":"Feature","properties":{"id":440065339,"highway":"unclassified"},"geometry":{"type":"LineString","coordinates":[[139.278186,34.405526],[139.278342,34.405562],[139.278433,34.405553],[139.278562,34.405498],[139.278648,34.405449],[139.278755,34.405423],[139.278895,34.405367],[139.279013,34.405305],[139.279109,34.405241],[139.279139,34.40515],[139.279114,34.405029],[139.279096,34.4049],[139.279093,34.404652],[139.279192,34.404537],[139.279275,34.404515],[139.279423,34.404524],[139.279517,34.404524],[139.279573,34.404506],[139.279616,34.40448],[139.279713,34.404466],[139.279796,34.404477],[139.27989,34.404493],[139.280002,34.404504],[139.280281,34.4044],[139.280343,34.404367],[139.28041,34.404256],[139.280442,34.40415],[139.280461,34.40403],[139.280541,34.403942],[139.280627,34.403924],[139.280697,34.403944],[139.280761,34.403988],[139.280847,34.404064],[139.280879,34.404199],[139.280909,34.404238],[139.281172,34.404362],[139.281223,34.404376],[139.281295,34.404362],[139.281413,34.404309],[139.28155,34.404174],[139.281596,34.404046],[139.281622,34.403982],[139.281679,34.403955],[139.281824,34.403957],[139.282132,34.40396],[139.282591,34.403997],[139.282695,34.404042],[139.282746,34.404088],[139.282955,34.404267],[139.283014,34.404303],[139.283106,34.404329],[139.283205,34.404351],[139.283264,34.404342],[139.283344,34.404314],[139.283382,34.404263],[139.283393,34.404194],[139.283339,34.404123],[139.283277,34.404066],[139.283248,34.404022],[139.283245,34.403968],[139.283256,34.403918],[139.283256,34.40388],[139.283191,34.403811],[139.283154,34.403725],[139.283111,34.403546],[139.283151,34.403225],[139.283178,34.403172],[139.283253,34.403106],[139.283293,34.403055],[139.283283,34.402995],[139.28321,34.402827],[139.283143,34.402521],[139.283242,34.402374]]}},{"type":"Feature","properties":{"id":440065340,"highway":"unclassified"},"geometry":{"type":"LineString","coordinates":[[139.281817,34.40138],[139.281903,34.401385],[139.282061,34.401312],[139.282203,34.40121],[139.282294,34.401115],[139.282337,34.401029],[139.282342,34.400845],[139.282511,34.400663],[139.282604,34.400519]]}},{"type":"Feature","properties":{"id":440065341,"highway":"unclassified"},"geometry":{"type":"LineString","coordinates":[[139.281082,34.408142],[139.281175,34.408266],[139.281286,34.408473],[139.281568,34.408854],[139.281763,34.409193],[139.281962,34.409435],[139.282174,34.409621],[139.282481,34.409889],[139.282772,34.409997],[139.283534,34.410283],[139.283659,34.4103],[139.283908,34.410311],[139.28434,34.410351],[139.284848,34.410359],[139.285071,34.410349],[139.285143,34.410336],[139.285202,34.410305],[139.28529,34.410219],[139.285385,34.410076],[139.285514,34.409902],[139.285756,34.409629],[139.285798,34.409592],[139.285886,34.409546],[139.286062,34.409455],[139.286117,34.409413],[139.286141,34.409341],[139.286137,34.409248],[139.286069,34.408981],[139.286061,34.408897],[139.285982,34.408677],[139.28596,34.408579],[139.28595,34.408472],[139.285971,34.408387],[139.286035,34.408293],[139.286131,34.40821],[139.286263,34.408155],[139.287192,34.408007],[139.28734,34.40795],[139.28742,34.407872],[139.287445,34.407735],[139.287455,34.407051],[139.287464,34.40698],[139.287463,34.406922],[139.287444,34.406883],[139.287403,34.406838],[139.286938,34.406531],[139.286461,34.406208],[139.286381,34.406147],[139.286323,34.406075],[139.286309,34.406007],[139.286332,34.405896],[139.286446,34.405612],[139.286481,34.405468],[139.286481,34.405351],[139.286422,34.405202],[139.286071,34.40455],[139.285813,34.4042],[139.285529,34.40389],[139.285466,34.403797],[139.285388,34.403685],[139.285368,34.403606],[139.285369,34.403435],[139.285371,34.403278],[139.285369,34.403179],[139.28534,34.403107],[139.285238,34.403014],[139.284853,34.402845],[139.28392,34.402415],[139.283847,34.402389],[139.28379,34.402381],[139.283242,34.402374],[139.282383,34.402254],[139.282263,34.402248],[139.282183,34.402254],[139.282113,34.402287],[139.28195,34.402407],[139.28185,34.402479],[139.281787,34.402498],[139.281701,34.402508],[139.281547,34.402506],[139.281457,34.402506],[139.28136,34.402535],[139.281178,34.402602],[139.281111,34.402613],[139.281036,34.402615],[139.280957,34.402598],[139.28058,34.402484],[139.280532,34.402459],[139.280457,34.402411],[139.280221,34.40224],[139.280159,34.402192],[139.280056,34.402146],[139.279888,34.402093],[139.279764,34.402057]]}},{"type":"Feature","properties":{"id":443010693,"highway":"service"},"geometry":{"type":"LineString","coordinates":[[139.279269,34.416601],[139.279773,34.416315],[139.279904,34.416277],[139.280109,34.416117]]}},{"type":"Feature","properties":{"id":443111551,"highway":"unclassified"},"geometry":{"type":"LineString","coordinates":[[139.262893,34.373456],[139.262886,34.373614],[139.262827,34.3737],[139.262717,34.373764],[139.262291,34.373864],[139.262221,34.373915],[139.262218,34.374006],[139.262312,34.374054],[139.262516,34.374032],[139.263205,34.37391],[139.263404,34.374014],[139.263527,34.374063],[139.263951,34.374099],[139.264015,34.374129],[139.264039,34.374189],[139.263913,34.374225],[139.263634,34.374218],[139.263535,34.374253],[139.263302,34.374415],[139.26317,34.374455],[139.2628,34.374515],[139.262709,34.374579],[139.262722,34.37469],[139.262934,34.374949],[139.263017,34.375004],[139.263342,34.374995],[139.263886,34.375327],[139.264122,34.375803],[139.264203,34.375834],[139.264297,34.375796],[139.264439,34.375688],[139.264616,34.375484],[139.264721,34.375487],[139.264857,34.375537],[139.265281,34.375878],[139.265362,34.375993],[139.265477,34.376051],[139.265726,34.37612],[139.265866,34.376109],[139.265952,34.37604],[139.265968,34.375932],[139.265844,34.375721],[139.265887,34.375613],[139.266,34.375544],[139.266134,34.375549],[139.266397,34.375633],[139.266671,34.376011],[139.266689,34.37614],[139.266684,34.376387],[139.266582,34.376793],[139.266496,34.376855],[139.26637,34.376886],[139.266271,34.376866],[139.266003,34.376775],[139.26589,34.376786],[139.265831,34.376866],[139.265989,34.377111],[139.265968,34.377198],[139.265831,34.37745],[139.265834,34.37753],[139.265936,34.37766],[139.266045,34.377849],[139.266284,34.378034],[139.266303,34.378258],[139.266539,34.378398],[139.266815,34.378473],[139.266965,34.378497],[139.26707,34.378572],[139.267145,34.378858],[139.267253,34.379011],[139.267234,34.379139],[139.267164,34.379274],[139.266764,34.379531],[139.266657,34.379679],[139.266622,34.379912],[139.266437,34.380339],[139.266185,34.380733],[139.265917,34.380959],[139.265898,34.381105],[139.26593,34.381191],[139.266115,34.381501],[139.266113,34.381601],[139.266052,34.381668],[139.265917,34.38182],[139.265757,34.38196],[139.265692,34.382017],[139.265635,34.382128],[139.265649,34.382201],[139.265729,34.38228],[139.265732,34.382371],[139.265675,34.382488],[139.265598,34.382513],[139.26516,34.382526],[139.265077,34.382579],[139.265064,34.38269],[139.265083,34.38292],[139.264981,34.383077],[139.264825,34.383259],[139.264887,34.383327],[139.264973,34.38331],[139.265109,34.383181],[139.265386,34.383079],[139.265571,34.383079],[139.26563,34.383148],[139.26559,34.38321],[139.265426,34.383254],[139.265297,34.383283],[139.264839,34.383845],[139.264691,34.383874],[139.264316,34.383845],[139.263975,34.383768],[139.263742,34.383775],[139.263637,34.383812],[139.263074,34.384064],[139.262939,34.38408],[139.2624,34.384102],[139.262336,34.384151],[139.262333,34.384211],[139.262331,34.384273],[139.262389,34.384309],[139.262406,34.384319],[139.262669,34.384436],[139.263082,34.385156],[139.263111,34.385207],[139.26383,34.385636],[139.264203,34.385654],[139.26456,34.385753],[139.264629,34.385737],[139.264721,34.385716],[139.264798,34.385676],[139.264825,34.385585],[139.264763,34.385534],[139.264433,34.385432],[139.264393,34.385359],[139.264479,34.385286],[139.264621,34.385317],[139.265075,34.385399],[139.265418,34.385362],[139.265568,34.385382],[139.265651,34.385466],[139.265734,34.38557],[139.265895,34.385623],[139.266043,34.385636],[139.266193,34.385623],[139.266389,34.385523],[139.266523,34.385517],[139.266652,34.385565],[139.266743,34.385652],[139.266917,34.385787],[139.267151,34.385882],[139.267746,34.385851],[139.267907,34.385913],[139.268014,34.386004],[139.268121,34.386179],[139.268215,34.386336],[139.268253,34.386521],[139.268663,34.387055],[139.268881,34.387143],[139.268991,34.387254],[139.269052,34.387398],[139.269208,34.387527],[139.269484,34.387754],[139.269723,34.388299],[139.270039,34.388629],[139.270037,34.388695],[139.269943,34.388737],[139.269862,34.388711],[139.269696,34.388483],[139.269473,34.38833],[139.269393,34.388131],[139.26909,34.388031],[139.268953,34.388073],[139.268894,34.388155],[139.268763,34.388345],[139.268682,34.388341],[139.268602,34.38831],[139.268299,34.388294],[139.26824,34.388246],[139.268229,34.387872],[139.268184,34.387844],[139.268124,34.387808],[139.268001,34.387816],[139.26792,34.387883],[139.267902,34.387965],[139.267837,34.388117],[139.267676,34.388319],[139.267656,34.388385],[139.267561,34.388691],[139.267328,34.389184],[139.267357,34.389282],[139.26769,34.389729],[139.267861,34.389835],[139.268001,34.389917],[139.268044,34.389997],[139.268044,34.390315],[139.268116,34.390517],[139.268089,34.390572],[139.267953,34.390714],[139.267926,34.390816],[139.267859,34.390889],[139.267746,34.390962],[139.267725,34.391081],[139.267725,34.391333],[139.267676,34.391581],[139.267931,34.391975],[139.267974,34.392135],[139.267958,34.392478],[139.267872,34.392765],[139.267904,34.393044],[139.267996,34.393184],[139.268334,34.393308],[139.268578,34.39331],[139.268736,34.393347],[139.268948,34.3935],[139.26917,34.393606],[139.269251,34.39375],[139.26939,34.393814],[139.269591,34.393859],[139.269683,34.39381],[139.269731,34.393739],[139.269661,34.393569],[139.269658,34.393463],[139.269782,34.393396],[139.269935,34.393487],[139.270208,34.393604],[139.270326,34.393888],[139.270715,34.394363],[139.270715,34.394397],[139.270715,34.394456],[139.270643,34.394558],[139.270385,34.394744],[139.270351,34.394875],[139.27038,34.395069],[139.270477,34.395116],[139.27064,34.395116],[139.271493,34.395145],[139.271603,34.395213],[139.27167,34.395315],[139.27178,34.395379],[139.271885,34.39543],[139.271973,34.395574],[139.27196,34.395831],[139.271869,34.39593],[139.271796,34.395988],[139.27152,34.3962],[139.271528,34.39636],[139.271582,34.396519],[139.271657,34.396599],[139.272048,34.396745],[139.272161,34.396853],[139.272182,34.396957],[139.272228,34.397252],[139.272335,34.397573],[139.272295,34.397679],[139.272274,34.397809],[139.272341,34.397927],[139.272534,34.398288],[139.272743,34.39835],[139.272877,34.398442],[139.272966,34.398584],[139.273376,34.39935],[139.273491,34.399483],[139.273623,34.399522],[139.273802,34.399476],[139.273993,34.399507],[139.274038,34.399572],[139.274014,34.399697],[139.274012,34.399983],[139.274065,34.400288],[139.274224,34.400914],[139.274403,34.401134],[139.274449,34.401266],[139.274409,34.401357],[139.274359,34.401386],[139.274173,34.40157],[139.274189,34.401795],[139.274269,34.402065],[139.274272,34.402402],[139.274245,34.40278],[139.27435,34.402955],[139.274358,34.403088],[139.274237,34.403159],[139.274038,34.403194],[139.273878,34.403214],[139.273719,34.403204],[139.273564,34.403194],[139.273301,34.40309],[139.273009,34.40297],[139.272826,34.402917],[139.272485,34.402926],[139.2723,34.402933],[139.272056,34.402942]]}},{"type":"Feature","properties":{"id":719338561,"highway":"secondary"},"geometry":{"type":"LineString","coordinates":[[139.28136,34.41912],[139.281443,34.419163]]}},{"type":"Feature","properties":{"id":719338562,"highway":"secondary"},"geometry":{"type":"LineString","coordinates":[[139.28053,34.417848],[139.280497,34.417905],[139.280483,34.41797],[139.280497,34.418071],[139.280573,34.418237],[139.280849,34.418854],[139.280892,34.41892],[139.280925,34.418957],[139.280972,34.418989],[139.281063,34.419031],[139.281167,34.419049],[139.281278,34.419076],[139.28136,34.41912]]}},{"type":"Feature","properties":{"id":728293806,"highway":"service"},"geometry":{"type":"LineString","coordinates":[[139.2723,34.402933],[139.272978,34.401937]]}},{"type":"Feature","properties":{"id":807709224,"highway":"secondary"},"geometry":{"type":"LineString","coordinates":[[139.277506,34.410686],[139.277356,34.410719],[139.277163,34.410739],[139.276916,34.410744],[139.276721,34.410724],[139.276549,34.410686],[139.276235,34.410593]]}}]}