{"type":"FeatureCollection","features":[{"type":"Feature","properties":{"id":150596723,"highway":"service"},"geometry":{"type":"LineString","coordinates":[[139.282125,34.53169],[139.282112,34.531361],[139.28164,34.531333],[139.281608,34.531457],[139.281604,34.531492],[139.281503,34.531523],[139.281453,34.531524],[139.281255,34.531524],[139.280262,34.531447],[139.279643,34.531447],[139.279425,34.531464],[139.279204,34.531476],[139.278881,34.53143],[139.278637,34.531394],[139.278459,34.531397],[139.27839,34.531425],[139.27835,34.5315]]}},{"type":"Feature","properties":{"id":150596726,"highway":"service"},"geometry":{"type":"LineString","coordinates":[[139.271418,34.520376],[139.271296,34.520323],[139.27123,34.520278],[139.271194,34.520213],[139.271181,34.519789],[139.27116,34.519658],[139.271133,34.519619],[139.271082,34.519601],[139.271025,34.519597],[139.270966,34.519603],[139.270903,34.519639],[139.270876,34.519697],[139.270866,34.519803],[139.27086,34.520176]]}},{"type":"Feature","properties":{"id":150596728,"highway":"residential"},"geometry":{"type":"LineString","coordinates":[[139.278951,34.52954],[139.279014,34.529561],[139.279082,34.529555],[139.279206,34.529579],[139.27946,34.529685],[139.279629,34.529769],[139.279753,34.5298],[139.279877,34.5298],[139.280081,34.52978],[139.280401,34.529756],[139.280501,34.529741],[139.280639,34.529767],[139.280769,34.529851],[139.280881,34.529877],[139.280961,34.529881],[139.280999,34.529921]]}},{"type":"Feature","properties":{"id":150596733,"highway":"unclassified"},"geometry":{"type":"LineString","coordinates":[[139.274217,34.530796],[139.274221,34.530694],[139.274065,34.530482],[139.273623,34.530238],[139.273281,34.530058],[139.272705,34.52968],[139.272574,34.529576],[139.272507,34.529417],[139.272574,34.528774],[139.272575,34.528659],[139.272644,34.528566],[139.272752,34.52852],[139.272884,34.528535],[139.273253,34.528723],[139.273497,34.528795],[139.273731,34.528786],[139.273852,34.528774],[139.274018,34.528796],[139.274289,34.528912],[139.274618,34.529067],[139.274848,34.529184],[139.274954,34.529203],[139.275139,34.529193],[139.275582,34.52917],[139.275692,34.529185],[139.275962,34.529223],[139.276043,34.529257],[139.276049,34.529314],[139.276024,34.52942],[139.275998,34.529589],[139.275987,34.529724],[139.276076,34.529783],[139.276318,34.529842],[139.276684,34.529907],[139.276811,34.529898],[139.27702,34.529854],[139.277229,34.529822]]}},{"type":"Feature","properties":{"id":150596736,"highway":"service"},"geometry":{"type":"LineString","coordinates":[[139.27826,34.528766],[139.278314,34.528842],[139.278393,34.528866],[139.278459,34.528876],[139.278488,34.528896],[139.278476,34.529045],[139.278507,34.529073],[139.278547,34.529098],[139.278535,34.529185],[139.278516,34.52935]]}},{"type":"Feature","properties":{"id":150596737,"highway":"residential"},"geometry":{"type":"LineString","coordinates":[[139.279495,34.528682],[139.279611,34.528949],[139.279709,34.529173],[139.279745,34.529255],[139.279693,34.529278],[139.279591,34.529292],[139.279359,34.529323],[139.279145,34.529345],[139.278997,34.529426],[139.278983,34.52946],[139.278951,34.52954]]}},{"type":"Feature","properties":{"id":150596743,"highway":"unclassified"},"geometry":{"type":"LineString","coordinates":[[139.275944,34.530742],[139.275861,34.530821],[139.275487,34.53118],[139.275378,34.531241],[139.275247,34.531281],[139.275099,34.531275],[139.274962,34.531253],[139.274582,34.531132],[139.274446,34.53102],[139.274273,34.530849],[139.274217,34.530796],[139.274058,34.530746],[139.273932,34.530768],[139.273871,34.530819],[139.273797,34.530942],[139.273809,34.53105],[139.273859,34.531124],[139.273975,34.531192],[139.274175,34.531262],[139.274671,34.531434],[139.27497,34.531465],[139.275404,34.531497],[139.275621,34.531517],[139.275754,34.531529],[139.276073,34.531628],[139.276136,34.531716]]}},{"type":"Feature","properties":{"id":150596770,"highway":"residential"},"geometry":{"type":"LineString","coordinates":[[139.277889,34.528804],[139.277854,34.528956],[139.277871,34.529084],[139.277895,34.529393],[139.277884,34.529465],[139.277785,34.529631],[139.277753,34.529774],[139.277744,34.529884],[139.277751,34.52992],[139.277805,34.530112],[139.277826,34.530175],[139.277835,34.530202],[139.277867,34.530296],[139.277867,34.530392],[139.277795,34.530529],[139.277717,34.530629],[139.277659,34.530677]]}},{"type":"Feature","properties":{"id":150596774,"highway":"residential"},"geometry":{"type":"LineString","coordinates":[[139.277854,34.528956],[139.277669,34.529059],[139.277593,34.52916],[139.277521,34.529223],[139.277406,34.52932],[139.277258,34.52946],[139.277219,34.52951],[139.277213,34.529597],[139.277236,34.529792],[139.277229,34.529822],[139.277194,34.529924],[139.277147,34.53006],[139.277268,34.530299],[139.277303,34.530348],[139.277444,34.530489],[139.277659,34.530677]]}},{"type":"Feature","properties":{"id":150596787,"highway":"secondary"},"geometry":{"type":"LineString","coordinates":[[139.280192,34.532153],[139.280134,34.531803],[139.280044,34.531737],[139.279758,34.531629],[139.27953,34.531576],[139.279223,34.53159],[139.27899,34.53158],[139.27855,34.53152],[139.27835,34.5315],[139.278107,34.531476],[139.277774,34.531467],[139.277635,34.531463],[139.277178,34.531416],[139.277022,34.531363],[139.276923,34.531335],[139.276714,34.531241],[139.276494,34.531067],[139.27621,34.53086],[139.27603,34.530768],[139.275944,34.530742],[139.275872,34.530668],[139.275877,34.530612],[139.275929,34.530595],[139.276003,34.530612],[139.27608,34.530664],[139.276199,34.53077],[139.276368,34.530903],[139.276671,34.53104],[139.276989,34.531125],[139.277304,34.531165],[139.277481,34.531153],[139.277658,34.53104],[139.277753,34.530921],[139.277785,34.530864],[139.277875,34.530591],[139.277977,34.53039],[139.278015,34.530336],[139.27809,34.530267],[139.278126,34.530247],[139.278192,34.530211],[139.278304,34.530195],[139.278531,34.530228],[139.278641,34.530251],[139.278734,34.530271],[139.278935,34.530301],[139.279066,34.530301],[139.279363,34.530237],[139.280317,34.530058],[139.280802,34.529957],[139.280999,34.529921],[139.28106,34.529913],[139.281278,34.529886],[139.281677,34.529852],[139.281948,34.529796],[139.282257,34.529725],[139.28273,34.529546],[139.28299,34.529422],[139.283111,34.529353],[139.283229,34.529333],[139.28334,34.529367],[139.283433,34.529392],[139.283556,34.529374],[139.283606,34.529336],[139.283653,34.529257],[139.283665,34.529178],[139.283618,34.529079],[139.28356,34.529038],[139.283465,34.529024],[139.283371,34.529033],[139.28328,34.529075],[139.283177,34.529117],[139.283079,34.529126],[139.282989,34.529109],[139.282581,34.528957],[139.282321,34.528866],[139.282088,34.528847],[139.281921,34.528877],[139.281799,34.528892],[139.281603,34.52888],[139.281445,34.528822],[139.281333,34.528714],[139.281212,34.528602],[139.281016,34.528512],[139.280718,34.528471]]}},{"type":"Feature","properties":{"id":150596795,"highway":"unclassified"},"geometry":{"type":"LineString","coordinates":[[139.271542,34.518974],[139.271486,34.518918],[139.271455,34.518841],[139.271445,34.518746],[139.271458,34.518636],[139.271455,34.51847],[139.271404,34.51832],[139.271378,34.518201],[139.271372,34.518057],[139.27145,34.517841],[139.271556,34.517666],[139.271628,34.517601],[139.271717,34.517507],[139.271762,34.517375],[139.271793,34.517247],[139.271906,34.517102],[139.272064,34.517073],[139.272146,34.516982],[139.272231,34.516875],[139.272288,34.516821],[139.27237,34.516711],[139.272449,34.516574],[139.272489,34.516478],[139.272563,34.516357],[139.272689,34.516248],[139.272862,34.516137],[139.273012,34.516034],[139.273118,34.515997],[139.273329,34.515935],[139.273584,34.515913],[139.273706,34.51589],[139.273839,34.515794],[139.273935,34.515719],[139.274118,34.515564],[139.274288,34.515479],[139.274552,34.515369],[139.274758,34.515329],[139.274953,34.515295],[139.275134,34.515209],[139.275295,34.515134],[139.275338,34.515113],[139.275453,34.515054],[139.275668,34.51495],[139.27587,34.514875],[139.276098,34.514801],[139.276353,34.514766],[139.276558,34.514761],[139.276688,34.514733],[139.276772,34.514735],[139.277152,34.51473],[139.277718,34.514643],[139.278279,34.51435],[139.278547,34.514321],[139.279164,34.514239],[139.279505,34.514288],[139.279615,34.514474],[139.279556,34.514661],[139.279175,34.514838],[139.278845,34.514949],[139.278547,34.51502],[139.278298,34.515157],[139.278201,34.515266],[139.278048,34.515437],[139.277885,34.51568],[139.277705,34.515777],[139.277504,34.515812],[139.27737,34.515835],[139.277236,34.515866],[139.277037,34.515855],[139.276916,34.516007],[139.276726,34.516014],[139.276478,34.51596],[139.276349,34.515968],[139.275959,34.516065],[139.275722,34.516222],[139.275663,34.516228],[139.275468,34.516217],[139.275178,34.516264]]}},{"type":"Feature","properties":{"id":150596812,"highway":"secondary"},"geometry":{"type":"LineString","coordinates":[[139.276662,34.516276],[139.276865,34.5163],[139.278137,34.51631],[139.278496,34.516222],[139.278633,34.516197],[139.279006,34.516177],[139.279285,34.516224],[139.27958,34.516206],[139.279947,34.516076],[139.280215,34.515981],[139.280575,34.51601],[139.281457,34.516648],[139.281718,34.516858],[139.281865,34.517128],[139.282254,34.517769],[139.282455,34.518363],[139.282493,34.518589],[139.282447,34.518823],[139.282466,34.519037],[139.282659,34.519216],[139.282836,34.519424],[139.283075,34.520233],[139.283214,34.520529],[139.283308,34.520741],[139.283364,34.521267],[139.283429,34.521585],[139.283531,34.521773],[139.283597,34.521911],[139.283651,34.522025],[139.283794,34.522228],[139.283842,34.522374],[139.283812,34.522509],[139.283737,34.522578],[139.283716,34.522642],[139.283736,34.522708],[139.283788,34.522754],[139.283883,34.52279],[139.283968,34.522792],[139.28405,34.522773],[139.284094,34.522739],[139.284135,34.522656],[139.284168,34.522558],[139.284182,34.522431],[139.284176,34.522353],[139.28407,34.522087],[139.284003,34.521888],[139.284022,34.521707],[139.284027,34.521537],[139.284081,34.521434],[139.284134,34.521391],[139.284233,34.52138],[139.284322,34.521395],[139.284384,34.521484],[139.284386,34.521559],[139.284343,34.521775],[139.284311,34.522138],[139.284392,34.52227],[139.284453,34.522441],[139.284453,34.522613],[139.284338,34.522743],[139.28426,34.522898],[139.284284,34.522958],[139.284338,34.523003],[139.284414,34.523028],[139.284519,34.523009],[139.284624,34.522937],[139.284759,34.522792],[139.284857,34.522624],[139.284842,34.522461],[139.284756,34.521892],[139.284821,34.521504],[139.284931,34.521307],[139.285021,34.52127],[139.285073,34.521249],[139.285194,34.521298],[139.285231,34.52138],[139.285414,34.522502],[139.285457,34.522761],[139.285545,34.523073],[139.285524,34.523218],[139.285454,34.523431],[139.285355,34.523623],[139.285014,34.523769],[139.284773,34.523859],[139.284397,34.524144],[139.284263,34.524266],[139.284268,34.524407],[139.284342,34.524454],[139.284418,34.524451],[139.284614,34.524398],[139.284947,34.524239],[139.285253,34.52401],[139.285682,34.523864],[139.285934,34.523718],[139.286269,34.523446],[139.286417,34.523185],[139.2865,34.522984],[139.286814,34.522743],[139.287028,34.522624],[139.287189,34.522427],[139.287441,34.522001],[139.287549,34.52168],[139.287567,34.5213],[139.287651,34.521033],[139.287771,34.520847],[139.287956,34.520763],[139.288208,34.520721],[139.288436,34.520763],[139.288603,34.520907],[139.288678,34.5214],[139.288705,34.52159],[139.288825,34.521716],[139.288946,34.521988],[139.288935,34.522396],[139.288817,34.523017],[139.288737,34.523287],[139.288597,34.523466],[139.288455,34.523647],[139.288337,34.523877],[139.288305,34.52412],[139.288316,34.524334],[139.288249,34.524527],[139.288138,34.524697],[139.288069,34.524803],[139.287112,34.525587],[139.286865,34.525773],[139.286578,34.525928],[139.286299,34.526056],[139.286119,34.526151],[139.285998,34.526348],[139.285902,34.526458],[139.284735,34.527167],[139.28459,34.527311],[139.284518,34.527448],[139.284392,34.527567],[139.283118,34.527897],[139.282954,34.527908],[139.282756,34.527872],[139.282503,34.527855],[139.282375,34.527907],[139.282175,34.527974],[139.282022,34.528],[139.281872,34.528031],[139.281676,34.528167],[139.281541,34.528237],[139.281499,34.528259],[139.281351,34.528257],[139.281139,34.528255],[139.28091,34.528328],[139.280718,34.528471],[139.280504,34.528506],[139.279757,34.528619],[139.279495,34.528682],[139.279336,34.528677],[139.279152,34.528645],[139.279,34.528663],[139.278793,34.528693],[139.278743,34.528691],[139.278612,34.528684],[139.278436,34.52868],[139.278326,34.528722],[139.27826,34.528766],[139.278072,34.528804],[139.277889,34.528804],[139.277788,34.528769],[139.277622,34.528762],[139.277238,34.528745],[139.277077,34.528746],[139.276959,34.528769],[139.276774,34.528767],[139.276621,34.528701],[139.276553,34.528603],[139.276438,34.5285],[139.276242,34.528409],[139.276016,34.528294],[139.275784,34.528112],[139.275602,34.527992],[139.275366,34.52787],[139.275261,34.527769],[139.275229,34.527659],[139.275216,34.527508],[139.275208,34.527413],[139.275189,34.52727],[139.275148,34.527146],[139.275012,34.526973],[139.27493,34.526824],[139.274832,34.526521],[139.27471,34.52636],[139.27456,34.526227],[139.274285,34.526038],[139.273672,34.525718],[139.27301,34.525437],[139.272418,34.525185],[139.272263,34.525059],[139.271938,34.524719],[139.27175,34.524566],[139.271681,34.524412],[139.271455,34.524317],[139.271273,34.524266],[139.271147,34.524142],[139.270983,34.52382],[139.270777,34.523413],[139.270632,34.523347],[139.270297,34.523154],[139.27013,34.523011],[139.269953,34.522708],[139.269881,34.522584],[139.26972,34.522472],[139.269438,34.522326],[139.269358,34.522184],[139.269323,34.522054],[139.269275,34.521689],[139.269334,34.521603],[139.26946,34.521601],[139.269564,34.521645],[139.269626,34.521747],[139.269811,34.522133],[139.269964,34.522286],[139.270168,34.522407],[139.270849,34.522772],[139.271233,34.522964],[139.271378,34.523141],[139.271539,34.5233],[139.271713,34.523389],[139.272579,34.5237],[139.273625,34.524012],[139.273859,34.524025],[139.274111,34.523985],[139.274312,34.523994],[139.274535,34.524074],[139.274795,34.524111],[139.275192,34.524089],[139.275337,34.524071],[139.275402,34.524034],[139.275419,34.52395],[139.275406,34.523886],[139.27531,34.523804],[139.275125,34.523815],[139.274945,34.523888],[139.274738,34.523904],[139.274569,34.523813],[139.27439,34.523709],[139.274199,34.523689],[139.274036,34.523667],[139.273886,34.523598],[139.273513,34.523391],[139.273116,34.523024],[139.273049,34.522867],[139.272901,34.522739],[139.2727,34.522622],[139.272542,34.5225],[139.272394,34.522266],[139.272265,34.522074],[139.272048,34.521862],[139.271936,34.521678],[139.271858,34.521375],[139.27182,34.521037],[139.271694,34.52077],[139.271418,34.520376],[139.271305,34.520153],[139.271316,34.519941],[139.27145,34.519579],[139.271517,34.51934],[139.271532,34.519133],[139.271542,34.518974],[139.271547,34.518898],[139.271643,34.518662],[139.271804,34.518335],[139.271944,34.518076],[139.272188,34.517758],[139.272362,34.517493],[139.272544,34.517289],[139.272679,34.517176],[139.272933,34.51692],[139.273255,34.516706],[139.27365,34.516558],[139.273987,34.516507],[139.27446,34.516357],[139.274878,34.516312],[139.275178,34.516264],[139.275463,34.516261],[139.275736,34.516339],[139.2759,34.516348],[139.276149,34.516273],[139.276334,34.516233],[139.276662,34.516276]]}},{"type":"Feature","properties":{"id":444551494,"highway":"service"},"geometry":{"type":"LineString","coordinates":[[139.280192,34.532153],[139.279127,34.531749],[139.278392,34.531788],[139.277457,34.53177],[139.277305,34.531766],[139.276514,34.531671],[139.276216,34.531704],[139.276136,34.531716],[139.27549,34.531808]]}},{"type":"Feature","properties":{"id":483670140,"highway":"service"},"geometry":{"type":"LineString","coordinates":[[139.280264,34.529446],[139.2799,34.529421],[139.279828,34.529379],[139.279745,34.529255]]}},{"type":"Feature","properties":{"id":483670142,"highway":"service"},"geometry":{"type":"LineString","coordinates":[[139.277751,34.52992],[139.277832,34.529893],[139.277898,34.529868],[139.278159,34.529757],[139.278313,34.529715],[139.278355,34.529668],[139.278473,34.529658],[139.278592,34.529639],[139.278785,34.529568],[139.278829,34.529558],[139.278951,34.52954]]}},{"type":"Feature","properties":{"id":483670144,"highway":"service"},"geometry":{"type":"LineString","coordinates":[[139.277521,34.529223],[139.277439,34.529138],[139.277382,34.529106],[139.277335,34.529113],[139.277123,34.529165],[139.276806,34.529255],[139.276633,34.529333],[139.276527,34.529351],[139.276325,34.529287],[139.275952,34.529181],[139.275752,34.529161],[139.275692,34.529185]]}},{"type":"Feature","properties":{"id":483670145,"highway":"residential"},"geometry":{"type":"LineString","coordinates":[[139.277785,34.530864],[139.277724,34.530791],[139.277659,34.530677]]}},{"type":"Feature","properties":{"id":511975630,"highway":"service"},"geometry":{"type":"LineString","coordinates":[[139.280514,34.53428],[139.280192,34.532153]]}},{"type":"Feature","properties":{"id":511975631,"highway":"service"},"geometry":{"type":"LineString","coordinates":[[139.27549,34.531808],[139.275736,34.533195]]}},{"type":"Feature","properties":{"id":512498859,"highway":"service"},"geometry":{"type":"LineString","coordinates":[[139.281954,34.529027],[139.282265,34.52891],[139.282321,34.528866]]}},{"type":"Feature","properties":{"id":512498860,"highway":"service"},"geometry":{"type":"LineString","coordinates":[[139.284466,34.528841],[139.284456,34.528961],[139.283976,34.529155],[139.283796,34.529097],[139.283656,34.529074],[139.283618,34.529079]]}},{"type":"Feature","properties":{"id":512498861,"highway":"service"},"geometry":{"type":"LineString","coordinates":[[139.275629,34.528366],[139.27585,34.528408],[139.275972,34.528446],[139.276159,34.528469],[139.276333,34.528498],[139.276393,34.528517],[139.276438,34.5285]]}},{"type":"Feature","properties":{"id":512532527,"highway":"service"},"geometry":{"type":"LineString","coordinates":[[139.279709,34.529497],[139.279432,34.529422],[139.279254,34.529406],[139.279143,34.529417],[139.279065,34.529457],[139.278983,34.52946]]}},{"type":"Feature","properties":{"id":512606755,"highway":"service"},"geometry":{"type":"LineString","coordinates":[[139.278502,34.530073],[139.278575,34.530105],[139.278734,34.530233],[139.278734,34.530271]]}},{"type":"Feature","properties":{"id":512997321,"highway":"service"},"geometry":{"type":"LineString","coordinates":[[139.28185,34.528562],[139.281541,34.528237]]}},{"type":"Feature","properties":{"id":512997336,"highway":"service"},"geometry":{"type":"LineString","coordinates":[[139.275453,34.515054],[139.275354,34.514921],[139.275339,34.514815]]}},{"type":"Feature","properties":{"id":513186986,"highway":"service"},"geometry":{"type":"LineString","coordinates":[[139.277147,34.530614],[139.277127,34.530467],[139.277213,34.53039],[139.277303,34.530348]]}},{"type":"Feature","properties":{"id":513186993,"highway":"service"},"geometry":{"type":"LineString","coordinates":[[139.28072,34.529098],[139.280601,34.529127],[139.280401,34.52914],[139.280293,34.529114],[139.279709,34.529173]]}},{"type":"Feature","properties":{"id":513868245,"highway":"service"},"geometry":{"type":"LineString","coordinates":[[139.275213,34.528729],[139.275111,34.5288],[139.275139,34.529193]]}},{"type":"Feature","properties":{"id":513868246,"highway":"service"},"geometry":{"type":"LineString","coordinates":[[139.275676,34.528952],[139.275582,34.52917]]}}]}