{"type":"FeatureCollection","features":[{"type":"Feature","properties":{"id":127637467,"highway":"primary"},"geometry":{"type":"LineString","coordinates":[[139.297186,36.895551],[139.297263,36.895686],[139.297326,36.895883],[139.297319,36.895956],[139.297289,36.896013],[139.297235,36.896091],[139.296808,36.896581],[139.296654,36.896846],[139.296521,36.897121],[139.296423,36.897415],[139.296276,36.898005],[139.296219,36.898337],[139.296121,36.898788],[139.296108,36.898935],[139.296108,36.899786],[139.296127,36.899926],[139.296163,36.900079],[139.296206,36.900225],[139.296219,36.900279]]}},{"type":"Feature","properties":{"id":127637468,"highway":"primary"},"geometry":{"type":"LineString","coordinates":[[139.295506,36.902431],[139.295516,36.902478],[139.295529,36.902518],[139.295552,36.902572],[139.295572,36.902616],[139.2956,36.902658],[139.295631,36.902695],[139.295669,36.902736],[139.295703,36.902766]]}},{"type":"Feature","properties":{"id":369165836,"highway":"primary"},"geometry":{"type":"LineString","coordinates":[[139.295808,36.902062],[139.295678,36.90216],[139.295589,36.902246],[139.295519,36.902344],[139.295506,36.902431]]}},{"type":"Feature","properties":{"id":429287579,"highway":"primary"},"geometry":{"type":"LineString","coordinates":[[139.296219,36.900279],[139.296346,36.900811],[139.296388,36.901104],[139.296388,36.901396],[139.296374,36.90147],[139.296323,36.90156],[139.296188,36.901711],[139.296068,36.901828],[139.295808,36.902062]]}}]}