{"type":"FeatureCollection","features":[{"type":"Feature","properties":{"id":92516438,"highway":"secondary"},"geometry":{"type":"LineString","coordinates":[[139.208524,36.673941],[139.208487,36.674066]]}},{"type":"Feature","properties":{"id":173343619,"highway":"primary"},"geometry":{"type":"LineString","coordinates":[[139.215027,36.611178],[139.219788,36.611493]]}},{"type":"Feature","properties":{"id":173343620,"highway":"primary"},"geometry":{"type":"LineString","coordinates":[[139.221145,36.612337],[139.221836,36.613524],[139.221856,36.613787],[139.221816,36.613899],[139.221748,36.614013],[139.221593,36.614137],[139.221462,36.614273],[139.221371,36.61445],[139.221354,36.614573],[139.221436,36.61479],[139.22161,36.614932],[139.221865,36.615003],[139.222066,36.614998],[139.222348,36.614978],[139.222551,36.614959],[139.22317,36.614908],[139.223397,36.614866],[139.223845,36.614888],[139.224102,36.614947],[139.224993,36.61521],[139.22531,36.615273],[139.225551,36.615281],[139.225758,36.615203],[139.225955,36.615029],[139.226104,36.614816],[139.226365,36.614477],[139.226626,36.614229],[139.226999,36.613966],[139.227204,36.613777],[139.227335,36.61361],[139.227372,36.613457],[139.227324,36.613309],[139.227225,36.613155],[139.227059,36.613029],[139.22636,36.612587],[139.225722,36.612099],[139.225585,36.611944],[139.22554,36.611873],[139.225512,36.611806],[139.225486,36.61165],[139.225502,36.611558],[139.225548,36.611447],[139.225702,36.611135],[139.225746,36.610898],[139.225784,36.610718],[139.225787,36.610566],[139.225773,36.61035],[139.225843,36.610245],[139.225887,36.610162],[139.225943,36.61009],[139.226024,36.61003],[139.226242,36.609989],[139.226462,36.61],[139.226649,36.610081],[139.226774,36.610247],[139.22681,36.610399],[139.226813,36.610724],[139.226882,36.610942],[139.227002,36.611128],[139.227199,36.611283],[139.22757,36.611376],[139.228067,36.611371],[139.228609,36.611504],[139.228748,36.61153],[139.229074,36.611545],[139.229259,36.611503],[139.229516,36.611404],[139.229732,36.611239],[139.2299,36.611078],[139.231127,36.609852],[139.231271,36.609718],[139.231441,36.609624],[139.231571,36.609567],[139.231708,36.609542],[139.23187,36.609551],[139.232039,36.609553],[139.232424,36.609589],[139.232721,36.609602],[139.2329,36.609584],[139.233075,36.609552],[139.233237,36.609503],[139.233423,36.609412],[139.233526,36.609332],[139.233684,36.609172],[139.233935,36.608827],[139.234244,36.608372],[139.234295,36.608254],[139.234307,36.608155],[139.234301,36.608053],[139.234184,36.607787],[139.234146,36.607729],[139.234125,36.607698],[139.234095,36.607614],[139.234079,36.60752],[139.234075,36.607451],[139.234086,36.607343],[139.234107,36.60726],[139.23419,36.607047],[139.234248,36.606902],[139.234252,36.606686],[139.234229,36.606567],[139.234173,36.606364],[139.234128,36.606238],[139.233719,36.605272],[139.233708,36.605147],[139.23375,36.605089],[139.233869,36.604976],[139.233976,36.604905],[139.234101,36.604875],[139.234274,36.604915],[139.235051,36.60541],[139.235142,36.605469],[139.235351,36.605481],[139.235511,36.605417],[139.235583,36.605306],[139.23559,36.60516],[139.23556,36.60502],[139.235355,36.604547],[139.235391,36.60433],[139.235386,36.604023],[139.235311,36.603593],[139.235346,36.603517],[139.235419,36.603454],[139.235638,36.603406],[139.235854,36.603421],[139.235981,36.603478],[139.236138,36.603529],[139.236272,36.603535],[139.236458,36.603517],[139.236589,36.603433],[139.236671,36.603269],[139.236675,36.603137],[139.236645,36.60293],[139.236578,36.602796],[139.23647,36.602721],[139.236067,36.60255],[139.235877,36.602475],[139.235798,36.602449],[139.235765,36.60238],[139.235791,36.602314],[139.235847,36.602272],[139.235948,36.602233],[139.236116,36.602164],[139.236325,36.602137],[139.236427,36.602115],[139.236517,36.602068],[139.236589,36.602012],[139.236615,36.601955],[139.236578,36.601862],[139.236507,36.601766],[139.235541,36.600659],[139.235459,36.600509],[139.234725,36.59912],[139.234676,36.599],[139.234706,36.598937],[139.234758,36.598869],[139.234893,36.598782],[139.235016,36.598725],[139.235105,36.598674],[139.235161,36.598593],[139.23515,36.598467],[139.235105,36.598351],[139.234751,36.59803],[139.234164,36.597653],[139.233802,36.59731],[139.233798,36.597195],[139.233813,36.597042],[139.233859,36.596939],[139.233973,36.596818],[139.234091,36.596736],[139.234236,36.596736],[139.234453,36.596805],[139.234624,36.596876],[139.23501,36.596961],[139.235202,36.596968],[139.235381,36.596944],[139.23553,36.596845],[139.235812,36.596478],[139.235875,36.596253],[139.23587,36.596067],[139.235833,36.595796],[139.235733,36.595039],[139.235364,36.594285],[139.23521,36.593903],[139.235149,36.593646],[139.235096,36.593478],[139.235,36.593345],[139.234857,36.593248],[139.234087,36.592905],[139.233724,36.59271],[139.233391,36.592524],[139.233238,36.592371],[139.233123,36.592181],[139.233028,36.591897],[139.23294,36.590875],[139.232903,36.590662],[139.232833,36.590462],[139.232501,36.58964],[139.232469,36.589575],[139.232321,36.589217],[139.23229,36.588806],[139.232309,36.588608],[139.233091,36.586486],[139.233207,36.58633],[139.233376,36.586252],[139.233518,36.586224],[139.233757,36.586236],[139.233996,36.586379],[139.234151,36.586618],[139.234587,36.587494],[139.234738,36.587602],[139.234858,36.587647],[139.235023,36.58764],[139.235137,36.587594],[139.235232,36.587507],[139.235274,36.587367],[139.235258,36.587198],[139.234915,36.586651],[139.234794,36.586397],[139.234761,36.586242],[139.2348,36.586059],[139.234905,36.585949],[139.235311,36.585673],[139.235437,36.585529],[139.235448,36.58538],[139.235362,36.585186],[139.234847,36.584176],[139.234562,36.58362],[139.234512,36.583501],[139.23443,36.583396],[139.234154,36.583172],[139.233982,36.583009],[139.233857,36.582841],[139.233718,36.582582],[139.233681,36.582447],[139.233722,36.582275],[139.233961,36.5816],[139.233971,36.581393],[139.233602,36.580842],[139.233423,36.580618],[139.233427,36.580542],[139.233488,36.580449],[139.233634,36.580365],[139.233722,36.580341],[139.234161,36.580408],[139.234236,36.580413],[139.234435,36.580274],[139.234455,36.580195]]}},{"type":"Feature","properties":{"id":199699982,"highway":"secondary"},"geometry":{"type":"LineString","coordinates":[[139.233935,36.608827],[139.233986,36.608835],[139.234048,36.608837],[139.234834,36.608677],[139.235,36.608645],[139.235056,36.608629],[139.235104,36.608592],[139.235149,36.608507],[139.235146,36.607885],[139.235058,36.607601],[139.235017,36.607459],[139.235027,36.607305],[139.235064,36.607188],[139.235166,36.607051],[139.235214,36.606988],[139.235523,36.60675],[139.235738,36.606525],[139.235895,36.606423],[139.236162,36.606314],[139.236327,36.606208],[139.236499,36.606032]]}},{"type":"Feature","properties":{"id":199699983,"highway":"secondary"},"geometry":{"type":"LineString","coordinates":[[139.256819,36.609627],[139.256888,36.609609],[139.256933,36.609591],[139.257003,36.609552],[139.257148,36.609423],[139.257169,36.60941],[139.257198,36.609403],[139.25739,36.609406],[139.257429,36.609391],[139.257455,36.609367],[139.257474,36.609338],[139.257477,36.609307],[139.257472,36.609256],[139.257441,36.609108],[139.257428,36.608911],[139.257375,36.608778],[139.257344,36.60866],[139.257341,36.608305],[139.257319,36.60826],[139.257295,36.608233],[139.257259,36.60821],[139.257216,36.608207],[139.25714,36.608216],[139.257059,36.608241],[139.256805,36.60835],[139.256766,36.608357],[139.256721,36.608346],[139.256678,36.608332],[139.256642,36.608308],[139.256613,36.608279],[139.256562,36.608146],[139.256525,36.608087],[139.256466,36.608002],[139.256413,36.607946],[139.256386,36.607911],[139.256381,36.607881],[139.256394,36.607845],[139.25642,36.607809],[139.256489,36.607736],[139.256507,36.607697],[139.256517,36.607654],[139.256521,36.607599],[139.256506,36.607489],[139.256485,36.607407],[139.256511,36.607356],[139.256572,36.607287],[139.256636,36.607218],[139.256685,36.607182],[139.256785,36.60715],[139.256896,36.607132],[139.257031,36.607136],[139.257149,36.607134],[139.257229,36.607112],[139.257293,36.607076],[139.257389,36.606977],[139.257431,36.606952],[139.257505,36.60694],[139.257582,36.606927],[139.257642,36.606895],[139.257686,36.606852],[139.257779,36.606749],[139.257835,36.606714],[139.257887,36.606691],[139.257956,36.606677],[139.258075,36.606686],[139.258145,36.606705],[139.258199,36.606733],[139.258262,36.606798],[139.258313,36.606886],[139.258359,36.606972],[139.258388,36.607002],[139.258433,36.607034],[139.258792,36.607181],[139.258856,36.607198],[139.259099,36.607216],[139.259217,36.607213],[139.259286,36.607181],[139.259355,36.607127],[139.259448,36.606968],[139.259477,36.606938],[139.259534,36.606909],[139.259842,36.606902],[139.259989,36.60685],[139.260059,36.606812],[139.260178,36.606699],[139.260268,36.60666],[139.260342,36.606638],[139.260405,36.606609],[139.260529,36.6065],[139.260588,36.606457],[139.26064,36.606435],[139.260693,36.606421],[139.260734,36.606421],[139.261428,36.606626],[139.261494,36.606635],[139.261616,36.606622],[139.261712,36.60662],[139.261799,36.606628],[139.262035,36.606678],[139.26218,36.606696],[139.262403,36.606707],[139.262535,36.6067],[139.262665,36.606681],[139.262856,36.606634],[139.263148,36.606553],[139.263495,36.606413],[139.263574,36.60637],[139.263631,36.606332],[139.263672,36.606286],[139.263713,36.606203],[139.263725,36.60613],[139.263707,36.606046],[139.263551,36.60582],[139.263482,36.605739],[139.263483,36.605693],[139.263495,36.60566],[139.263541,36.605625],[139.263744,36.605561],[139.264002,36.605497],[139.264065,36.605497],[139.264107,36.605506],[139.264331,36.605646],[139.264439,36.605689],[139.264534,36.605735],[139.264683,36.605838],[139.264726,36.605857],[139.264774,36.605858],[139.264803,36.605849],[139.264826,36.605828],[139.264835,36.605801],[139.264836,36.605759],[139.264824,36.605719],[139.264781,36.60561],[139.264757,36.60551],[139.264759,36.605368],[139.264777,36.605257],[139.264796,36.60521],[139.264828,36.605165],[139.264899,36.605105],[139.265079,36.605008],[139.26515,36.604968],[139.265243,36.60491],[139.265458,36.604749],[139.265598,36.604576],[139.265717,36.60435],[139.265814,36.604255],[139.265919,36.604193],[139.266086,36.604142],[139.266331,36.604103],[139.266645,36.604108],[139.266742,36.60412],[139.267022,36.604114],[139.267315,36.60408],[139.267525,36.604086],[139.267797,36.604187],[139.268,36.604272],[139.268077,36.604294],[139.268167,36.604289],[139.268237,36.604249],[139.268333,36.604116],[139.268403,36.604016],[139.268398,36.60398],[139.268335,36.603939],[139.268195,36.603872],[139.268172,36.603847],[139.268137,36.603788],[139.268118,36.603731],[139.268132,36.603652],[139.268175,36.603573],[139.268245,36.603494],[139.268467,36.60328],[139.268497,36.603241],[139.268523,36.603173],[139.268518,36.602891],[139.268522,36.602827],[139.268532,36.602769],[139.268635,36.602661],[139.268733,36.602588],[139.268893,36.60252],[139.26902,36.602475],[139.269202,36.602424],[139.26946,36.602373],[139.270018,36.602278],[139.270227,36.602205],[139.270284,36.602176]]}},{"type":"Feature","properties":{"id":199699984,"highway":"secondary"},"geometry":{"type":"LineString","coordinates":[[139.237636,36.604845],[139.237942,36.605032]]}},{"type":"Feature","properties":{"id":199699985,"highway":"secondary"},"geometry":{"type":"LineString","coordinates":[[139.237942,36.605032],[139.238136,36.60514],[139.238242,36.605234]]}},{"type":"Feature","properties":{"id":199699987,"highway":"secondary"},"geometry":{"type":"LineString","coordinates":[[139.240824,36.60465],[139.24089,36.604654],[139.241372,36.604698],[139.241452,36.604698],[139.241506,36.604682],[139.241624,36.604614],[139.241756,36.604549],[139.241852,36.604531],[139.242203,36.60452],[139.242545,36.604497],[139.242727,36.604478],[139.242884,36.604482],[139.243132,36.604431],[139.243241,36.60442],[139.243422,36.604457],[139.243637,36.604447],[139.24369,36.604458],[139.243745,36.604568],[139.243838,36.60478],[139.2441,36.605197],[139.244265,36.605362],[139.244387,36.60542],[139.244498,36.605498],[139.244614,36.605579],[139.24486,36.605648],[139.245023,36.605685]]}},{"type":"Feature","properties":{"id":199699989,"highway":"secondary"},"geometry":{"type":"LineString","coordinates":[[139.245023,36.605685],[139.245343,36.605922],[139.245594,36.606068],[139.245783,36.606192],[139.246097,36.606457],[139.246145,36.606483],[139.246181,36.606502],[139.24678,36.606684],[139.247067,36.606699],[139.247529,36.606801],[139.247885,36.60684],[139.24817,36.606818],[139.24845,36.606773],[139.248479,36.606761],[139.248779,36.606711],[139.249142,36.606711],[139.249372,36.606761],[139.249505,36.606818],[139.249743,36.607003],[139.250099,36.607285],[139.250351,36.60742],[139.250429,36.607445],[139.250489,36.607459],[139.250574,36.607482],[139.251077,36.607561],[139.251335,36.607651],[139.251496,36.607747],[139.251761,36.607949],[139.251938,36.608083],[139.252081,36.608127],[139.252251,36.60816],[139.252437,36.608181],[139.252623,36.608187],[139.25278,36.608176],[139.252866,36.608163],[139.252932,36.608144],[139.253046,36.608095],[139.253155,36.608061],[139.253255,36.608047],[139.253436,36.608059],[139.253652,36.608102],[139.253688,36.608106],[139.253841,36.608121],[139.254111,36.608127],[139.254261,36.608134],[139.254299,36.608138],[139.254347,36.608143],[139.254465,36.608175],[139.254631,36.608253],[139.254745,36.608315],[139.25492,36.608417],[139.255059,36.608511],[139.255141,36.60859],[139.255243,36.608624],[139.255449,36.608661],[139.255585,36.608686],[139.255707,36.608727],[139.25581,36.608772],[139.255887,36.608821],[139.255937,36.608862],[139.255963,36.608893],[139.255968,36.608924],[139.255972,36.609035],[139.255988,36.609086],[139.256011,36.609128],[139.256059,36.609182],[139.256238,36.60931],[139.256764,36.609596],[139.256819,36.609627]]}},{"type":"Feature","properties":{"id":199699990,"highway":"secondary"},"geometry":{"type":"LineString","coordinates":[[139.236499,36.606032],[139.236506,36.605971],[139.236517,36.605875],[139.236508,36.605801],[139.236512,36.60571],[139.236676,36.605393],[139.236736,36.60532],[139.236921,36.605255],[139.237077,36.605185],[139.237279,36.605074],[139.237431,36.60499],[139.23754,36.604912],[139.237636,36.604845]]}},{"type":"Feature","properties":{"id":199699991,"highway":"secondary"},"geometry":{"type":"LineString","coordinates":[[139.270284,36.602176],[139.270297,36.602172],[139.27042,36.602107],[139.270527,36.602035],[139.270678,36.601934],[139.270833,36.601854],[139.270995,36.60179],[139.271119,36.601758],[139.271292,36.60173],[139.27142,36.601706],[139.271725,36.601696],[139.271988,36.601687],[139.272187,36.601693],[139.272332,36.601699],[139.272405,36.601704],[139.272484,36.601731]]}},{"type":"Feature","properties":{"id":199699992,"highway":"secondary"},"geometry":{"type":"LineString","coordinates":[[139.277117,36.601739],[139.277037,36.601714],[139.276633,36.6015],[139.276243,36.601276],[139.276103,36.601218],[139.276087,36.601215],[139.27598,36.601191],[139.275528,36.601129],[139.274534,36.601004],[139.273549,36.600872],[139.273447,36.600877],[139.273314,36.60093],[139.27275,36.601129],[139.272688,36.601178],[139.272667,36.601194],[139.272523,36.601472]]}},{"type":"Feature","properties":{"id":199699993,"highway":"service"},"geometry":{"type":"LineString","coordinates":[[139.274182,36.602491],[139.273934,36.602424],[139.273797,36.602309],[139.272484,36.601731]]}},{"type":"Feature","properties":{"id":199700001,"highway":"service"},"geometry":{"type":"LineString","coordinates":[[139.240824,36.60465],[139.240833,36.604689],[139.240928,36.60485],[139.240957,36.604872],[139.240996,36.604883],[139.241081,36.60488],[139.241399,36.604857],[139.241488,36.604856],[139.241568,36.604863],[139.24178,36.604907],[139.241914,36.604966],[139.242138,36.605098],[139.242217,36.605148],[139.242471,36.605365],[139.242663,36.60558],[139.242694,36.605635],[139.242847,36.605988],[139.242899,36.606083],[139.242988,36.606171],[139.243155,36.606302],[139.243273,36.606378],[139.243342,36.606417],[139.243441,36.606468],[139.243538,36.606507],[139.24363,36.606532],[139.243709,36.606549],[139.243843,36.606558],[139.244138,36.606597],[139.244205,36.606634],[139.244205,36.606674],[139.244179,36.606787]]}},{"type":"Feature","properties":{"id":199700002,"highway":"unclassified"},"geometry":{"type":"LineString","coordinates":[[139.238199,36.603841],[139.238327,36.603752],[139.238364,36.603725],[139.238405,36.603715],[139.238474,36.60373],[139.238525,36.603782],[139.238593,36.604027],[139.23862,36.604073],[139.238664,36.604112],[139.238723,36.604134],[139.2388,36.604144],[139.23893,36.604134],[139.239091,36.604113],[139.239236,36.604124],[139.239337,36.604145],[139.239446,36.604159],[139.239628,36.604157],[139.239854,36.604107],[139.23997,36.604081],[139.24004,36.604035],[139.240113,36.60398],[139.240216,36.603657],[139.240549,36.603727]]}},{"type":"Feature","properties":{"id":199700005,"highway":"service"},"geometry":{"type":"LineString","coordinates":[[139.24407,36.607025],[139.244179,36.606787]]}},{"type":"Feature","properties":{"id":199700006,"highway":"residential"},"geometry":{"type":"LineString","coordinates":[[139.238242,36.605234],[139.238202,36.60529],[139.238187,36.605325]]}},{"type":"Feature","properties":{"id":199700007,"highway":"service"},"geometry":{"type":"LineString","coordinates":[[139.244608,36.605024],[139.244713,36.604812]]}},{"type":"Feature","properties":{"id":199700008,"highway":"residential"},"geometry":{"type":"LineString","coordinates":[[139.238222,36.605566],[139.238187,36.605325]]}},{"type":"Feature","properties":{"id":199700009,"highway":"residential"},"geometry":{"type":"LineString","coordinates":[[139.236821,36.606156],[139.236534,36.606046]]}},{"type":"Feature","properties":{"id":199700010,"highway":"unclassified"},"geometry":{"type":"LineString","coordinates":[[139.237971,36.603979],[139.238199,36.603841]]}},{"type":"Feature","properties":{"id":199700011,"highway":"residential"},"geometry":{"type":"LineString","coordinates":[[139.236534,36.606046],[139.236499,36.606032]]}},{"type":"Feature","properties":{"id":199700012,"highway":"service"},"geometry":{"type":"LineString","coordinates":[[139.275936,36.602606],[139.276001,36.602559],[139.277117,36.601739]]}},{"type":"Feature","properties":{"id":199700015,"highway":"service"},"geometry":{"type":"LineString","coordinates":[[139.260465,36.61293],[139.260325,36.612879],[139.260161,36.612779],[139.260045,36.612692],[139.259946,36.612592],[139.259877,36.612507],[139.259674,36.612341],[139.25965,36.612324],[139.259588,36.61228],[139.259479,36.61222],[139.259229,36.6121],[139.259046,36.611971],[139.258571,36.611572],[139.258532,36.611537],[139.258131,36.611179],[139.258003,36.611073]]}},{"type":"Feature","properties":{"id":199700027,"highway":"unclassified"},"geometry":{"type":"LineString","coordinates":[[139.237971,36.603979],[139.237923,36.604022],[139.237891,36.60408],[139.237858,36.604127],[139.237844,36.604156],[139.237826,36.604194],[139.237835,36.604271],[139.237864,36.604387],[139.237915,36.604478],[139.237923,36.604542],[139.237896,36.604604],[139.237844,36.604653],[139.237636,36.604845]]}},{"type":"Feature","properties":{"id":199700031,"highway":"service"},"geometry":{"type":"LineString","coordinates":[[139.244608,36.605024],[139.244552,36.605076],[139.244506,36.605084],[139.244397,36.605061],[139.244219,36.605002],[139.244149,36.604934],[139.243974,36.604832],[139.243896,36.604743],[139.243745,36.604568]]}},{"type":"Feature","properties":{"id":199701469,"highway":"primary"},"geometry":{"type":"LineString","coordinates":[[139.220275,36.611657],[139.220364,36.611694],[139.220721,36.611909],[139.220983,36.612122],[139.221145,36.612337]]}},{"type":"Feature","properties":{"id":199701480,"highway":"unclassified"},"geometry":{"type":"LineString","coordinates":[[139.21975,36.612084],[139.219772,36.612376],[139.219675,36.612574],[139.219597,36.612692],[139.2195,36.61272],[139.219115,36.612681],[139.218982,36.612664],[139.21885,36.612669],[139.218767,36.612698],[139.218647,36.612782],[139.218584,36.612861]]}},{"type":"Feature","properties":{"id":199701493,"highway":"unclassified"},"geometry":{"type":"LineString","coordinates":[[139.206042,36.611775],[139.206061,36.61186],[139.206104,36.611931],[139.206176,36.611984],[139.206253,36.612013],[139.206324,36.612032],[139.206398,36.612041],[139.206457,36.612047],[139.206501,36.612068],[139.206532,36.61211],[139.206532,36.612165],[139.206536,36.612384],[139.20646,36.612596],[139.20646,36.612776],[139.206481,36.612956],[139.206474,36.613233],[139.206439,36.613463],[139.206369,36.613678],[139.206386,36.613744],[139.206418,36.613807],[139.206541,36.613983],[139.206569,36.614008],[139.206602,36.614014],[139.206729,36.613963],[139.206855,36.613927],[139.206927,36.613933],[139.206995,36.614027]]}},{"type":"Feature","properties":{"id":199701497,"highway":"unclassified"},"geometry":{"type":"LineString","coordinates":[[139.206995,36.614027],[139.207141,36.614257]]}},{"type":"Feature","properties":{"id":199701507,"highway":"unclassified"},"geometry":{"type":"LineString","coordinates":[[139.220092,36.611602],[139.219735,36.611891],[139.21975,36.612084]]}},{"type":"Feature","properties":{"id":199701512,"highway":"unclassified"},"geometry":{"type":"LineString","coordinates":[[139.213864,36.614629],[139.213801,36.614523],[139.213773,36.614489],[139.213703,36.614444],[139.213535,36.614404],[139.213249,36.614404],[139.213095,36.614438],[139.212397,36.614799],[139.212257,36.614849],[139.212159,36.614872],[139.21195,36.614894],[139.211356,36.614894],[139.211188,36.614939],[139.210923,36.615024],[139.210846,36.615041],[139.210664,36.615052],[139.210106,36.615052],[139.209968,36.615036],[139.209799,36.615002],[139.20957,36.614902],[139.209454,36.614863],[139.209312,36.614845],[139.208938,36.61478],[139.2089,36.614765],[139.208858,36.614739],[139.208281,36.614269],[139.208218,36.614223],[139.20818,36.614206],[139.208124,36.614198],[139.208032,36.614208],[139.207838,36.614258],[139.207566,36.6143],[139.207378,36.614319],[139.207246,36.614317],[139.207141,36.614257]]}},{"type":"Feature","properties":{"id":199701522,"highway":"unclassified"},"geometry":{"type":"LineString","coordinates":[[139.213383,36.611479],[139.213255,36.611361],[139.213168,36.611322],[139.213063,36.611333],[139.212815,36.61151],[139.212634,36.611582],[139.211854,36.611873]]}},{"type":"Feature","properties":{"id":199701529,"highway":"unclassified"},"geometry":{"type":"LineString","coordinates":[[139.218584,36.612861],[139.218532,36.612919],[139.218492,36.612996],[139.218497,36.61307],[139.218523,36.613136],[139.218585,36.613183],[139.218757,36.61321],[139.218803,36.613242],[139.218807,36.613319],[139.218717,36.613593],[139.218647,36.613638],[139.218612,36.613649],[139.218263,36.613694],[139.218082,36.613739],[139.217802,36.613846],[139.217662,36.613846],[139.217592,36.613807],[139.21755,36.613768],[139.217376,36.61343],[139.217292,36.613345],[139.217195,36.613295],[139.217103,36.613295],[139.216975,36.613334],[139.216771,36.613421],[139.216651,36.613478],[139.216552,36.61348],[139.216455,36.613436],[139.21598,36.613064],[139.215973,36.612991],[139.216175,36.61285],[139.216483,36.612641],[139.216518,36.612579],[139.216497,36.612337],[139.216476,36.612258],[139.216448,36.612219],[139.216385,36.612179],[139.215813,36.611931],[139.21568,36.611942],[139.215603,36.611964],[139.215512,36.611971],[139.215428,36.611992],[139.215226,36.611992],[139.21496,36.611954],[139.214834,36.611959],[139.214681,36.612005],[139.214311,36.612179],[139.214165,36.612266],[139.213844,36.612277],[139.213659,36.612229],[139.213612,36.612194],[139.213596,36.612149],[139.213606,36.612087],[139.213727,36.611872],[139.21375,36.611841],[139.213764,36.611812],[139.213765,36.611777],[139.213728,36.611752],[139.213684,36.611751],[139.213647,36.611755],[139.213444,36.611836],[139.213187,36.611961],[139.213024,36.612077],[139.21295,36.612217],[139.212757,36.612349],[139.212623,36.61248],[139.212586,36.612536],[139.212494,36.612671],[139.212321,36.613001],[139.212245,36.613088],[139.212132,36.613185],[139.212042,36.613238],[139.211958,36.61327],[139.211872,36.613289],[139.211761,36.613304],[139.211639,36.613304],[139.211549,36.613293],[139.211111,36.613198]]}},{"type":"Feature","properties":{"id":199848307,"highway":"unclassified"},"geometry":{"type":"LineString","coordinates":[[139.207938,36.665059],[139.207919,36.664764],[139.207882,36.664509],[139.207803,36.664302],[139.2077,36.664095],[139.207609,36.663937],[139.207458,36.663749],[139.207214,36.66353],[139.207098,36.663426],[139.206867,36.663281],[139.206429,36.663092]]}},{"type":"Feature","properties":{"id":199848311,"highway":"service"},"geometry":{"type":"LineString","coordinates":[[139.24323,36.607246],[139.243265,36.607237],[139.243318,36.60724],[139.243502,36.607254],[139.243707,36.60724],[139.243906,36.607198],[139.243965,36.607178],[139.243998,36.60715],[139.244028,36.607104],[139.24407,36.607025]]}},{"type":"Feature","properties":{"id":199848421,"highway":"residential"},"geometry":{"type":"LineString","coordinates":[[139.21536,36.699471],[139.213838,36.698508],[139.213494,36.698852],[139.213416,36.698986],[139.213211,36.699227],[139.212594,36.698909],[139.212459,36.698784],[139.212384,36.698672],[139.212258,36.698573],[139.211748,36.698214],[139.211526,36.698051],[139.21144,36.697972]]}},{"type":"Feature","properties":{"id":199848438,"highway":"residential"},"geometry":{"type":"LineString","coordinates":[[139.200093,36.655637],[139.200543,36.655455],[139.200648,36.655455],[139.201004,36.655562],[139.201136,36.655601],[139.201269,36.655663],[139.20143,36.655764],[139.201807,36.656226],[139.202024,36.656542],[139.2021,36.65675],[139.202142,36.657038],[139.202163,36.657364],[139.202191,36.657544],[139.202212,36.657798],[139.202253,36.658243],[139.202345,36.65867],[139.202407,36.658845],[139.202442,36.658935]]}},{"type":"Feature","properties":{"id":199848554,"highway":"unclassified"},"geometry":{"type":"LineString","coordinates":[[139.208785,36.668621],[139.209169,36.668029]]}},{"type":"Feature","properties":{"id":199848556,"highway":"unclassified"},"geometry":{"type":"LineString","coordinates":[[139.206429,36.663092],[139.206113,36.66301]]}},{"type":"Feature","properties":{"id":199848557,"highway":"unclassified"},"geometry":{"type":"LineString","coordinates":[[139.205803,36.662961],[139.20527,36.662902]]}},{"type":"Feature","properties":{"id":199848558,"highway":"residential"},"geometry":{"type":"LineString","coordinates":[[139.238222,36.605566],[139.238225,36.605648],[139.238227,36.605691],[139.238203,36.60575],[139.238146,36.60581],[139.238129,36.605873]]}},{"type":"Feature","properties":{"id":199848584,"highway":"tertiary"},"geometry":{"type":"LineString","coordinates":[[139.20906,36.698272],[139.208408,36.69782]]}},{"type":"Feature","properties":{"id":199848589,"highway":"unclassified"},"geometry":{"type":"LineString","coordinates":[[139.211541,36.673299],[139.211807,36.673667],[139.212215,36.673961]]}},{"type":"Feature","properties":{"id":199848591,"highway":"unclassified"},"geometry":{"type":"LineString","coordinates":[[139.210664,36.682153],[139.212049,36.682421]]}},{"type":"Feature","properties":{"id":199848608,"highway":"unclassified"},"geometry":{"type":"LineString","coordinates":[[139.212159,36.69648],[139.212729,36.695886]]}},{"type":"Feature","properties":{"id":199848637,"highway":"unclassified"},"geometry":{"type":"LineString","coordinates":[[139.209407,36.698283],[139.209757,36.697794],[139.209968,36.697498],[139.210113,36.697371],[139.210287,36.697218],[139.210407,36.697161],[139.210574,36.697107],[139.210652,36.697122],[139.210764,36.697216],[139.210827,36.697339],[139.211024,36.697635],[139.211185,36.697792],[139.211385,36.69796],[139.21144,36.697972],[139.21146,36.697924],[139.211458,36.697889],[139.211351,36.697693],[139.211356,36.697648],[139.211386,36.697598],[139.211551,36.697415],[139.21182,36.697164],[139.211928,36.696861],[139.211994,36.696665],[139.212159,36.69648]]}},{"type":"Feature","properties":{"id":199848755,"highway":"unclassified"},"geometry":{"type":"LineString","coordinates":[[139.20527,36.662902],[139.205089,36.662908],[139.204926,36.662881],[139.204811,36.662815],[139.204712,36.662709],[139.204719,36.662608],[139.204761,36.66249],[139.204859,36.662287],[139.204887,36.662203],[139.20488,36.662084],[139.204847,36.661903],[139.204756,36.661698],[139.204624,36.661424],[139.204433,36.660923],[139.204426,36.660845],[139.204559,36.660726],[139.205104,36.660486],[139.205108,36.660406],[139.20502,36.660292],[139.204887,36.660202],[139.204663,36.660078],[139.204391,36.659948],[139.203838,36.659673],[139.203398,36.659505],[139.203127,36.659447],[139.202987,36.65943],[139.202792,36.659363],[139.202637,36.659267],[139.202477,36.659126],[139.202435,36.659059],[139.202442,36.65894],[139.202442,36.658935],[139.202575,36.658676],[139.202588,36.658356],[139.202616,36.658164],[139.202728,36.657724],[139.202749,36.657145],[139.202729,36.656824],[139.202697,36.656623],[139.202663,36.65647],[139.202647,36.656399],[139.202639,36.656338],[139.202639,36.656297],[139.202659,36.656269],[139.202699,36.656266],[139.202752,36.656286],[139.202802,36.65633],[139.202843,36.656394],[139.202891,36.656477],[139.202944,36.656604],[139.202979,36.656722],[139.203042,36.657246],[139.203057,36.657395],[139.20307,36.657528],[139.203117,36.657995],[139.203168,36.65835],[139.203238,36.658721],[139.203302,36.658845],[139.203425,36.658937],[139.203637,36.659008],[139.203832,36.659042],[139.204313,36.659053],[139.20469,36.659103],[139.204845,36.659105],[139.204949,36.659095],[139.205017,36.659078],[139.205079,36.659027],[139.20516,36.658923],[139.20518,36.658853],[139.205171,36.658571],[139.205194,36.658508],[139.205509,36.657967],[139.20553,36.657888],[139.20556,36.657604],[139.205574,36.657536],[139.205618,36.657493],[139.20566,36.657483],[139.205717,36.657488],[139.20576,36.657502],[139.205808,36.657546],[139.205843,36.657598],[139.205857,36.657637],[139.205865,36.657685],[139.205907,36.658169],[139.205928,36.658389],[139.205963,36.658463],[139.206039,36.658558],[139.206263,36.658806],[139.206368,36.65898],[139.206396,36.65907],[139.206507,36.659307],[139.206549,36.659363],[139.206703,36.659492],[139.206801,36.659616],[139.206875,36.659912],[139.206898,36.659972],[139.206925,36.660012],[139.206956,36.66004],[139.206994,36.66005],[139.207031,36.660046],[139.207061,36.660026],[139.207089,36.660001],[139.207101,36.659958],[139.207091,36.659916],[139.207033,36.659811],[139.207018,36.659767],[139.206989,36.65965],[139.206938,36.659511],[139.206804,36.659298],[139.206717,36.659076],[139.206641,36.658708],[139.206431,36.658232],[139.206389,36.657989],[139.206375,36.657905],[139.206369,36.657877],[139.206347,36.657758],[139.206305,36.657623],[139.206305,36.657533],[139.20634,36.657252],[139.206396,36.657066],[139.206417,36.656953],[139.206424,36.656733],[139.206487,36.656407],[139.206605,36.656091],[139.206619,36.65568],[139.206674,36.655539],[139.206878,36.655337],[139.20724,36.654784],[139.207569,36.654396],[139.207786,36.654283],[139.208491,36.653962],[139.20946,36.653321],[139.209603,36.653206],[139.209622,36.653159],[139.209626,36.653064],[139.209603,36.653005],[139.209553,36.652965],[139.209483,36.652954],[139.209085,36.65296],[139.208931,36.652937],[139.208785,36.652942],[139.208624,36.652982],[139.20847,36.652987],[139.208352,36.652965],[139.208233,36.652902],[139.207954,36.652722],[139.207632,36.652605],[139.207527,36.652531],[139.20708,36.652002],[139.207045,36.651919],[139.207057,36.651828],[139.207282,36.651522],[139.207422,36.651353],[139.207505,36.65125],[139.20752,36.651132],[139.207523,36.650993],[139.207505,36.650858],[139.207429,36.650476],[139.207258,36.649486],[139.207192,36.649343],[139.207116,36.649208],[139.207024,36.649028],[139.206975,36.648949],[139.206718,36.648487],[139.206476,36.648025],[139.206431,36.647884],[139.206319,36.64762],[139.206047,36.647406],[139.205768,36.647135],[139.205649,36.647056],[139.205237,36.646888],[139.205121,36.646848],[139.205048,36.64682],[139.204964,36.646764],[139.204923,36.646696],[139.204838,36.646395],[139.204793,36.646279],[139.204736,36.646203],[139.204441,36.646009],[139.204196,36.645879],[139.203945,36.645812],[139.203784,36.645739],[139.203463,36.645558],[139.203288,36.645479],[139.203134,36.64544],[139.203113,36.645438],[139.202806,36.645406],[139.202655,36.645403],[139.20238,36.645569],[139.202331,36.64562],[139.202248,36.645677],[139.202164,36.645694],[139.20166,36.645716],[139.201478,36.645739],[139.201339,36.645806],[139.201192,36.645868],[139.201094,36.645879],[139.200632,36.645894],[139.200503,36.645875],[139.200326,36.6458],[139.200207,36.645766],[139.200075,36.645761],[139.199894,36.645772],[139.199573,36.645778],[139.199475,36.645761],[139.199349,36.645703],[139.19907,36.645451],[139.199035,36.645383],[139.199049,36.64526],[139.199237,36.644556],[139.199307,36.644415],[139.199391,36.644308],[139.199545,36.6442],[139.200055,36.643902],[139.200296,36.643748],[139.200335,36.643693],[139.200362,36.64361],[139.200369,36.643355],[139.20039,36.643282],[139.200474,36.643034],[139.200509,36.64291],[139.200488,36.642803],[139.200383,36.64259],[139.200348,36.642403],[139.20032,36.642302],[139.200236,36.642172],[139.200097,36.64202],[139.199965,36.64187],[139.199817,36.641676],[139.199709,36.641526],[139.199636,36.641407],[139.199538,36.641306],[139.19944,36.641232],[139.199084,36.641074],[139.198873,36.640992],[139.198567,36.640872],[139.198358,36.64081],[139.198148,36.64077],[139.197261,36.640782],[139.197135,36.640753],[139.196996,36.640686],[139.196856,36.640596],[139.196451,36.640187],[139.196383,36.640148],[139.196081,36.640072],[139.196004,36.640044],[139.19578,36.639937],[139.195535,36.639807],[139.195452,36.639779],[139.195145,36.639728],[139.195047,36.639706],[139.194872,36.639678],[139.194684,36.639627],[139.19455,36.639571],[139.194487,36.639533],[139.194417,36.639498],[139.194054,36.639266],[139.193874,36.639188],[139.193727,36.639165],[139.193454,36.639143],[139.193207,36.639103],[139.193154,36.639069],[139.19291,36.638872],[139.192727,36.638669],[139.192566,36.638534],[139.192483,36.638483],[139.192394,36.638421],[139.192343,36.638331],[139.192231,36.638168],[139.191987,36.637959],[139.191847,36.637853],[139.191791,36.637836],[139.191387,36.63783],[139.191254,36.637813],[139.191171,36.637779],[139.19108,36.637717],[139.190933,36.637571],[139.190773,36.637447],[139.190514,36.637295],[139.190165,36.637025],[139.19006,36.63698],[139.189864,36.63694],[139.189593,36.6369]]}},{"type":"Feature","properties":{"id":199848835,"highway":"unclassified"},"geometry":{"type":"LineString","coordinates":[[139.209169,36.668029],[139.20931,36.667824],[139.209372,36.667771],[139.209448,36.667715],[139.209626,36.667618]]}},{"type":"Feature","properties":{"id":199848836,"highway":"unclassified"},"geometry":{"type":"LineString","coordinates":[[139.203042,36.662808],[139.204158,36.662561]]}},{"type":"Feature","properties":{"id":199848841,"highway":"unclassified"},"geometry":{"type":"LineString","coordinates":[[139.211349,36.699868],[139.211455,36.699869],[139.211687,36.699952],[139.211997,36.700109],[139.212093,36.700214],[139.212142,36.700278],[139.212171,36.700317],[139.212171,36.700558],[139.212227,36.700885],[139.212353,36.701133],[139.212541,36.701392],[139.212605,36.701454],[139.212766,36.701588],[139.21291,36.701665],[139.212978,36.701702],[139.213188,36.701781],[139.213355,36.701833],[139.213454,36.701859],[139.213858,36.701912],[139.21423,36.701973],[139.214258,36.701988],[139.214403,36.702071],[139.215156,36.702198],[139.215252,36.702246],[139.215274,36.702274],[139.215429,36.702479],[139.215521,36.702556],[139.215597,36.702591],[139.215969,36.702687],[139.216087,36.702717],[139.216245,36.702764],[139.216249,36.703012],[139.216259,36.70311],[139.216259,36.703294],[139.216225,36.703346],[139.216173,36.70337]]}},{"type":"Feature","properties":{"id":199848844,"highway":"service"},"geometry":{"type":"LineString","coordinates":[[139.21279,36.685473],[139.212678,36.685485],[139.212543,36.685594],[139.212503,36.685704],[139.212469,36.685798],[139.21242,36.686022],[139.212443,36.686332],[139.212621,36.686558],[139.21257,36.686612]]}},{"type":"Feature","properties":{"id":199848917,"highway":"tertiary"},"geometry":{"type":"LineString","coordinates":[[139.20906,36.698272],[139.209144,36.698333],[139.209407,36.698283],[139.209807,36.698476],[139.210189,36.69869],[139.210275,36.698738],[139.210365,36.698813],[139.210526,36.698989],[139.21073,36.699259],[139.210878,36.69942],[139.21099,36.699524],[139.211253,36.699735],[139.211311,36.69979],[139.211349,36.699868],[139.211328,36.699997],[139.211222,36.700162],[139.210809,36.700493],[139.210693,36.700587],[139.210519,36.700729],[139.210364,36.700889],[139.210226,36.701033],[139.209927,36.701351],[139.209696,36.701544],[139.209611,36.701647],[139.20953,36.701756],[139.209504,36.701833],[139.20954,36.70221],[139.209566,36.702473],[139.209489,36.702578],[139.209301,36.702801],[139.209233,36.702903],[139.209166,36.702992],[139.209119,36.703099],[139.209107,36.703235],[139.209116,36.703619],[139.209143,36.704034],[139.20918,36.704432],[139.209209,36.704743],[139.209249,36.705118],[139.209169,36.705222]]}},{"type":"Feature","properties":{"id":199848930,"highway":"unclassified"},"geometry":{"type":"LineString","coordinates":[[139.209489,36.667416],[139.209626,36.667618],[139.210109,36.668107],[139.210238,36.668254],[139.21032,36.668347],[139.210662,36.668617],[139.210799,36.668752],[139.210905,36.668833],[139.211436,36.669137],[139.211668,36.669395],[139.212045,36.669772],[139.21236,36.670049],[139.212373,36.670065],[139.212381,36.670077],[139.212376,36.670365],[139.212492,36.670527],[139.212519,36.670662],[139.212441,36.670896],[139.212418,36.671067],[139.212278,36.671219],[139.212273,36.67136],[139.212326,36.671672],[139.212435,36.671974],[139.212516,36.672386],[139.212551,36.672465],[139.212621,36.672538],[139.212866,36.672651],[139.212901,36.672674],[139.212984,36.672721],[139.213004,36.672828]]}},{"type":"Feature","properties":{"id":199848971,"highway":"unclassified"},"geometry":{"type":"LineString","coordinates":[[139.205803,36.662961],[139.205967,36.662986],[139.206069,36.662996],[139.206113,36.66301]]}},{"type":"Feature","properties":{"id":199849017,"highway":"residential"},"geometry":{"type":"LineString","coordinates":[[139.212643,36.677141],[139.213235,36.676728],[139.213403,36.676398],[139.213573,36.675787]]}},{"type":"Feature","properties":{"id":199849082,"highway":"unclassified"},"geometry":{"type":"LineString","coordinates":[[139.21266,36.683342],[139.212883,36.683144],[139.21303,36.683032],[139.213562,36.682722],[139.213694,36.682609],[139.213778,36.682474],[139.213813,36.68235],[139.21382,36.682035],[139.213763,36.681427],[139.213784,36.681354],[139.213805,36.681326],[139.213945,36.681032],[139.214226,36.680895],[139.214261,36.680833],[139.214229,36.680554],[139.214098,36.680291],[139.214009,36.680109],[139.213955,36.679983],[139.213847,36.679699],[139.213784,36.679492],[139.213733,36.6791],[139.213548,36.678863],[139.213321,36.678505],[139.213265,36.678357],[139.21317,36.678275],[139.213086,36.678188],[139.212893,36.678103],[139.212739,36.677996],[139.212613,36.677861],[139.212571,36.677788],[139.212557,36.677658],[139.212561,36.677607],[139.212575,36.677439],[139.212631,36.677263],[139.212631,36.677217],[139.212643,36.677141],[139.212639,36.676932],[139.212576,36.676774],[139.212562,36.676763],[139.212506,36.676599],[139.212499,36.67647],[139.212527,36.676352],[139.212639,36.675726],[139.212681,36.675421],[139.212634,36.675366],[139.212701,36.675216],[139.212792,36.674856],[139.212907,36.674653],[139.213037,36.674484],[139.213078,36.674386]]}},{"type":"Feature","properties":{"id":199849087,"highway":"residential"},"geometry":{"type":"LineString","coordinates":[[139.211994,36.696665],[139.212299,36.696848],[139.212632,36.69682],[139.213482,36.697453],[139.213783,36.697693],[139.21439,36.698262],[139.21483,36.69877],[139.215293,36.699331],[139.21536,36.699471],[139.21544,36.699659],[139.215447,36.699783],[139.215419,36.699896],[139.215359,36.699932],[139.215291,36.699963],[139.215215,36.69999],[139.215142,36.69999],[139.215016,36.69996],[139.214933,36.699946],[139.214841,36.699948],[139.214771,36.699978],[139.214578,36.700178],[139.214559,36.700233],[139.214578,36.700315],[139.214607,36.700417],[139.214715,36.700572],[139.214953,36.700752],[139.215218,36.700875],[139.215333,36.70093],[139.215364,36.700975],[139.215382,36.701055],[139.215376,36.701114],[139.215291,36.701178],[139.215209,36.701198],[139.215128,36.701201],[139.214961,36.701151],[139.214563,36.700872],[139.214498,36.700829],[139.2144,36.700744],[139.21428,36.700644],[139.214184,36.700609],[139.214109,36.700598],[139.214075,36.7006],[139.214009,36.700604],[139.213957,36.700627],[139.213766,36.700832],[139.213102,36.701342],[139.21291,36.701665]]}},{"type":"Feature","properties":{"id":199849143,"highway":"residential"},"geometry":{"type":"LineString","coordinates":[[139.212755,36.687925],[139.212542,36.687741],[139.212376,36.68753],[139.212293,36.687293],[139.212243,36.687059],[139.212228,36.68694]]}},{"type":"Feature","properties":{"id":199849159,"highway":"residential"},"geometry":{"type":"LineString","coordinates":[[139.199127,36.654882],[139.199273,36.654934],[139.199387,36.654933],[139.199597,36.655086],[139.200029,36.655553],[139.200093,36.655637]]}},{"type":"Feature","properties":{"id":199849165,"highway":"residential"},"geometry":{"type":"LineString","coordinates":[[139.205121,36.646848],[139.205083,36.646955],[139.20509,36.647124],[139.205147,36.647314],[139.205202,36.647462],[139.205283,36.647724]]}},{"type":"Feature","properties":{"id":199849166,"highway":"residential"},"geometry":{"type":"LineString","coordinates":[[139.205283,36.647724],[139.205342,36.647986],[139.205363,36.648194],[139.205376,36.648577],[139.205398,36.648758],[139.205474,36.649067]]}},{"type":"Feature","properties":{"id":199849167,"highway":"unclassified"},"geometry":{"type":"LineString","coordinates":[[139.204158,36.662561],[139.2043,36.662524],[139.204427,36.662439],[139.204579,36.662266],[139.204722,36.662142],[139.204847,36.661903]]}},{"type":"Feature","properties":{"id":199849192,"highway":"residential"},"geometry":{"type":"LineString","coordinates":[[139.212929,36.695676],[139.213328,36.695926],[139.213439,36.696008],[139.213661,36.696363],[139.213705,36.696458],[139.213722,36.696524],[139.213716,36.696704],[139.213723,36.696755],[139.213738,36.696812],[139.213871,36.696988],[139.21423,36.697335],[139.214745,36.697834],[139.21486,36.697978],[139.214969,36.698143],[139.21537,36.69856],[139.216351,36.699765],[139.216447,36.699995],[139.216559,36.700165],[139.216709,36.700289],[139.217287,36.70062],[139.217845,36.700935],[139.217973,36.701079],[139.218096,36.701341],[139.218476,36.701405],[139.218835,36.701437],[139.219279,36.701512],[139.219701,36.701619],[139.220003,36.70173],[139.220121,36.701774],[139.220511,36.701973],[139.220778,36.702144],[139.22103,36.702315],[139.221272,36.70248],[139.221405,36.702539],[139.221575,36.702577],[139.221785,36.702588],[139.22195,36.70262],[139.22209,36.702684],[139.222267,36.702764],[139.222463,36.702753],[139.222812,36.702678],[139.223244,36.702545],[139.223355,36.70248],[139.22342,36.702437],[139.223425,36.702363],[139.223388,36.702282],[139.223355,36.702218],[139.223355,36.702138],[139.223414,36.702032],[139.22342,36.70193],[139.22335,36.701839],[139.223067,36.701587],[139.222948,36.701448],[139.222873,36.7013],[139.222837,36.701144],[139.222757,36.700983],[139.222659,36.70089],[139.22253,36.700809],[139.22236,36.700782],[139.222097,36.700772],[139.222007,36.700767],[139.221952,36.700735],[139.221958,36.700675],[139.222027,36.700612],[139.222257,36.700515],[139.222552,36.700227]]}},{"type":"Feature","properties":{"id":199849197,"highway":"unclassified"},"geometry":{"type":"LineString","coordinates":[[139.212049,36.682421],[139.212288,36.682464],[139.212387,36.682497],[139.212464,36.682559],[139.212573,36.682742],[139.212622,36.683058],[139.21266,36.683342],[139.212773,36.683989],[139.21283,36.684347],[139.212847,36.684562],[139.21282,36.684666],[139.212681,36.684834],[139.212618,36.684919],[139.21262,36.685082],[139.21279,36.685473],[139.21292,36.685774],[139.213067,36.686119],[139.213204,36.686505],[139.213247,36.686969],[139.21324,36.687048],[139.21319,36.687183],[139.213033,36.687593],[139.212755,36.687925],[139.212735,36.688078],[139.212715,36.688225],[139.212722,36.688422],[139.212794,36.688755],[139.212892,36.688855],[139.212983,36.689092],[139.2131,36.689424],[139.213104,36.68964],[139.213115,36.68996],[139.213058,36.690426],[139.213072,36.690478],[139.213083,36.69058],[139.213149,36.690709],[139.213176,36.690935],[139.213217,36.691092],[139.213183,36.691157],[139.212855,36.691398],[139.212722,36.691584],[139.212525,36.692028],[139.212404,36.692378],[139.212332,36.692582],[139.212366,36.692972],[139.212372,36.693271],[139.212424,36.693523],[139.212445,36.693788],[139.212456,36.693901],[139.212568,36.694325],[139.212638,36.694606],[139.212757,36.694855],[139.212908,36.695128],[139.212966,36.695293],[139.212993,36.695437],[139.212973,36.695547],[139.212929,36.695676],[139.212729,36.695886]]}},{"type":"Feature","properties":{"id":199849213,"highway":"residential"},"geometry":{"type":"LineString","coordinates":[[139.208559,36.699925],[139.208929,36.699997],[139.209212,36.699813],[139.209503,36.699706],[139.209999,36.699301],[139.210526,36.698989]]}},{"type":"Feature","properties":{"id":199849221,"highway":"residential"},"geometry":{"type":"LineString","coordinates":[[139.211541,36.694528],[139.211644,36.693868],[139.211722,36.693433],[139.211765,36.693195],[139.211758,36.692982],[139.211887,36.69288],[139.21216,36.692748],[139.212332,36.692582]]}},{"type":"Feature","properties":{"id":199849275,"highway":"unclassified"},"geometry":{"type":"LineString","coordinates":[[139.212215,36.673961],[139.212345,36.674104],[139.212436,36.674321],[139.212371,36.674608],[139.212289,36.674849],[139.21223,36.67513],[139.212307,36.675226],[139.212634,36.675366]]}},{"type":"Feature","properties":{"id":199849281,"highway":"tertiary"},"geometry":{"type":"LineString","coordinates":[[139.213078,36.674386],[139.213169,36.674015],[139.213261,36.673834],[139.213244,36.673653],[139.213202,36.673471],[139.21295,36.673164],[139.212903,36.673019],[139.213004,36.672828]]}},{"type":"Feature","properties":{"id":199849307,"highway":"service"},"geometry":{"type":"LineString","coordinates":[[139.238367,36.607415],[139.238121,36.607241],[139.237991,36.60705],[139.237944,36.606994],[139.237863,36.606856],[139.237799,36.606741],[139.237752,36.606686],[139.237736,36.606667],[139.237666,36.606588],[139.237523,36.606457]]}},{"type":"Feature","properties":{"id":199861998,"highway":"unclassified"},"geometry":{"type":"LineString","coordinates":[[139.209554,36.669218],[139.209754,36.669335],[139.209792,36.669384],[139.209786,36.669412],[139.209966,36.66949],[139.210242,36.669712],[139.210285,36.669767],[139.210354,36.66987],[139.21047,36.670042],[139.210526,36.670171],[139.210615,36.670373],[139.2107,36.670549],[139.210777,36.670709],[139.210824,36.670769],[139.210901,36.670922],[139.211011,36.671141],[139.21104,36.671265],[139.211048,36.671344],[139.211078,36.671528],[139.211079,36.67159],[139.211051,36.671653],[139.210989,36.671723],[139.210858,36.671918],[139.210758,36.672041]]}},{"type":"Feature","properties":{"id":199862005,"highway":"residential"},"geometry":{"type":"LineString","coordinates":[[139.205388,36.665605],[139.203766,36.664708],[139.203404,36.664507],[139.203311,36.664488],[139.203226,36.664509],[139.203163,36.664574],[139.202341,36.665357]]}},{"type":"Feature","properties":{"id":199862009,"highway":"unclassified"},"geometry":{"type":"LineString","coordinates":[[139.211541,36.673299],[139.211423,36.673029],[139.211402,36.67295],[139.211402,36.67286],[139.211367,36.672736],[139.211297,36.672623],[139.211192,36.672527],[139.211094,36.672465],[139.210821,36.672335],[139.210801,36.672279],[139.210808,36.672102],[139.210758,36.672041]]}},{"type":"Feature","properties":{"id":199862012,"highway":"tertiary"},"geometry":{"type":"LineString","coordinates":[[139.208551,36.67388],[139.208509,36.673812],[139.208369,36.673382],[139.208351,36.673298],[139.208356,36.673181],[139.208386,36.67306],[139.208438,36.672939],[139.20854,36.672763],[139.208802,36.672353],[139.208936,36.672189],[139.208962,36.672057]]}},{"type":"Feature","properties":{"id":199862016,"highway":"unclassified"},"geometry":{"type":"LineString","coordinates":[[139.207988,36.694086],[139.207924,36.694112],[139.207492,36.694278],[139.207286,36.694398],[139.207244,36.694483],[139.207237,36.69455],[139.207376,36.694815],[139.207674,36.69528],[139.207686,36.695335]]}},{"type":"Feature","properties":{"id":199862026,"highway":"residential"},"geometry":{"type":"LineString","coordinates":[[139.200831,36.675756],[139.201228,36.676153],[139.20172,36.676669],[139.202153,36.677005],[139.202376,36.677158],[139.202493,36.677236],[139.202957,36.67742]]}},{"type":"Feature","properties":{"id":199862028,"highway":"unclassified"},"geometry":{"type":"LineString","coordinates":[[139.207988,36.694086],[139.2078,36.693678],[139.207777,36.693537],[139.207769,36.693051],[139.207799,36.692743],[139.207874,36.692639],[139.208055,36.692455],[139.20818,36.692223],[139.208237,36.691942],[139.208242,36.691765],[139.208271,36.691705],[139.208397,36.691576]]}},{"type":"Feature","properties":{"id":199862042,"highway":"unclassified"},"geometry":{"type":"LineString","coordinates":[[139.201105,36.664238],[139.201053,36.664164],[139.200943,36.664002],[139.200711,36.663673],[139.200618,36.663415],[139.200532,36.663237],[139.20046,36.662998],[139.200412,36.662674],[139.200365,36.662031],[139.200398,36.66184],[139.200474,36.661644],[139.200507,36.66152],[139.200483,36.661376],[139.200474,36.661344],[139.200375,36.661276],[139.199965,36.66114]]}},{"type":"Feature","properties":{"id":199862043,"highway":"residential"},"geometry":{"type":"LineString","coordinates":[[139.207204,36.695114],[139.206985,36.695345],[139.206978,36.695373],[139.206964,36.695525],[139.207013,36.695728],[139.207068,36.695841],[139.207389,36.696387],[139.207536,36.696703],[139.207536,36.69686],[139.207501,36.696922],[139.20734,36.697111],[139.207289,36.697234],[139.207279,36.697344],[139.207329,36.69747],[139.207472,36.697678],[139.207562,36.697866],[139.20761,36.698074]]}},{"type":"Feature","properties":{"id":199862058,"highway":"unclassified"},"geometry":{"type":"LineString","coordinates":[[139.202043,36.687053],[139.202141,36.687143]]}},{"type":"Feature","properties":{"id":199862061,"highway":"unclassified"},"geometry":{"type":"LineString","coordinates":[[139.20633,36.666269],[139.206335,36.666484]]}},{"type":"Feature","properties":{"id":199862062,"highway":"unclassified"},"geometry":{"type":"LineString","coordinates":[[139.209241,36.682164],[139.209681,36.682091]]}},{"type":"Feature","properties":{"id":199862063,"highway":"unclassified"},"geometry":{"type":"LineString","coordinates":[[139.205873,36.672025],[139.205837,36.671885],[139.205854,36.671249],[139.205903,36.670981]]}},{"type":"Feature","properties":{"id":199862077,"highway":"unclassified"},"geometry":{"type":"LineString","coordinates":[[139.208125,36.697553],[139.208355,36.697518],[139.208586,36.69739],[139.208775,36.697235],[139.208896,36.697129],[139.208948,36.697001]]}},{"type":"Feature","properties":{"id":199862078,"highway":"residential"},"geometry":{"type":"LineString","coordinates":[[139.209464,36.680399],[139.208372,36.680298],[139.208217,36.680309]]}},{"type":"Feature","properties":{"id":199862080,"highway":"unclassified"},"geometry":{"type":"LineString","coordinates":[[139.208114,36.669794],[139.208443,36.670245]]}},{"type":"Feature","properties":{"id":199862084,"highway":"unclassified"},"geometry":{"type":"LineString","coordinates":[[139.203042,36.662808],[139.20296,36.66284],[139.202857,36.662998],[139.202749,36.663378],[139.20277,36.663652],[139.202811,36.663806],[139.202976,36.663935],[139.203178,36.664075],[139.203452,36.664171],[139.203758,36.664187],[139.204087,36.664267],[139.204269,36.664329],[139.204367,36.664402],[139.204533,36.664625],[139.204616,36.664687],[139.204993,36.664884],[139.205268,36.665217],[139.205579,36.665439],[139.205801,36.665659],[139.206128,36.665984],[139.20633,36.666269]]}},{"type":"Feature","properties":{"id":199862092,"highway":"unclassified"},"geometry":{"type":"LineString","coordinates":[[139.204277,36.672993],[139.204109,36.67304],[139.203766,36.67304],[139.20341,36.672978],[139.202934,36.672859],[139.202565,36.672752],[139.202334,36.672707],[139.202131,36.672713],[139.201838,36.672764],[139.2016,36.672831],[139.201306,36.672826],[139.201222,36.672792],[139.201096,36.672611],[139.200992,36.672471],[139.200929,36.672426],[139.200712,36.672345],[139.200628,36.672353],[139.200408,36.672424],[139.200251,36.672437],[139.200111,36.672403],[139.200006,36.672369],[139.199887,36.672302],[139.19981,36.672228],[139.199614,36.671986],[139.199294,36.671657],[139.199198,36.671579]]}},{"type":"Feature","properties":{"id":199862105,"highway":"unclassified"},"geometry":{"type":"LineString","coordinates":[[139.205903,36.670981],[139.205956,36.670167],[139.205942,36.669772]]}},{"type":"Feature","properties":{"id":199862106,"highway":"unclassified"},"geometry":{"type":"LineString","coordinates":[[139.208522,36.68225],[139.209241,36.682164]]}},{"type":"Feature","properties":{"id":199862110,"highway":"residential"},"geometry":{"type":"LineString","coordinates":[[139.204079,36.66644],[139.205388,36.665605]]}},{"type":"Feature","properties":{"id":199862114,"highway":"residential"},"geometry":{"type":"LineString","coordinates":[[139.205603,36.668074],[139.206831,36.667673]]}},{"type":"Feature","properties":{"id":199862118,"highway":"unclassified"},"geometry":{"type":"LineString","coordinates":[[139.209573,36.669658],[139.209594,36.669579],[139.209786,36.669412]]}},{"type":"Feature","properties":{"id":199862120,"highway":"tertiary"},"geometry":{"type":"LineString","coordinates":[[139.208962,36.672057],[139.208945,36.671823],[139.20885,36.671419]]}},{"type":"Feature","properties":{"id":199862134,"highway":"unclassified"},"geometry":{"type":"LineString","coordinates":[[139.207204,36.695114],[139.207146,36.695029],[139.207132,36.695013],[139.207048,36.694968],[139.206754,36.694872],[139.206684,36.694827],[139.206558,36.694674],[139.206202,36.694123],[139.206174,36.694044],[139.206167,36.693768],[139.206111,36.69366],[139.206013,36.693593],[139.205873,36.693514],[139.205824,36.693475],[139.205489,36.692668],[139.205496,36.692488],[139.205622,36.692117],[139.205797,36.69166],[139.205831,36.691514],[139.205873,36.69116],[139.205888,36.69072],[139.205881,36.690455],[139.205846,36.690325],[139.205797,36.690218],[139.205783,36.690135],[139.205804,36.689942],[139.205797,36.689796],[139.205762,36.689751],[139.205737,36.689731],[139.205706,36.689728],[139.205671,36.689732]]}},{"type":"Feature","properties":{"id":199862152,"highway":"unclassified"},"geometry":{"type":"LineString","coordinates":[[139.202141,36.687143],[139.202203,36.6872],[139.202343,36.687345],[139.202462,36.687498],[139.202574,36.687723],[139.202734,36.688185],[139.202776,36.688252],[139.202944,36.688433],[139.203,36.688517],[139.203,36.688523],[139.203014,36.688687],[139.202949,36.688958],[139.202958,36.689025],[139.203021,36.689063],[139.203076,36.689065],[139.203147,36.689035],[139.20321,36.68898],[139.20328,36.68885],[139.203315,36.688732],[139.203315,36.688573],[139.203287,36.688478],[139.203287,36.688286],[139.203378,36.688016],[139.203497,36.687813],[139.203553,36.687751],[139.203644,36.687695],[139.203853,36.687616],[139.204027,36.687617],[139.204146,36.687651],[139.204258,36.687718],[139.204342,36.687803],[139.204552,36.688179],[139.204796,36.688669],[139.20516,36.68926],[139.205195,36.68939],[139.205209,36.68961],[139.205189,36.689796],[139.205203,36.690135],[139.205231,36.690173],[139.205293,36.690225],[139.205405,36.690218],[139.205475,36.690157],[139.205608,36.68979],[139.205636,36.689762],[139.205671,36.689732]]}},{"type":"Feature","properties":{"id":199862178,"highway":"unclassified"},"geometry":{"type":"LineString","coordinates":[[139.205873,36.672025],[139.206258,36.671744],[139.206658,36.671491],[139.206873,36.671388],[139.20701,36.671344]]}},{"type":"Feature","properties":{"id":199862188,"highway":"unclassified"},"geometry":{"type":"LineString","coordinates":[[139.209681,36.682091],[139.209951,36.682068],[139.210164,36.682094],[139.210664,36.682153]]}},{"type":"Feature","properties":{"id":199862192,"highway":"unclassified"},"geometry":{"type":"LineString","coordinates":[[139.191793,36.673743],[139.1923,36.673678],[139.194233,36.673682],[139.194477,36.673688],[139.194508,36.673682],[139.194564,36.673638],[139.194635,36.673557],[139.194739,36.673473],[139.194846,36.673437],[139.195088,36.673428],[139.195433,36.67339],[139.195797,36.673362],[139.195979,36.673354],[139.19607,36.673346],[139.196229,36.673429],[139.196389,36.673528],[139.196643,36.673558],[139.197095,36.673521],[139.197279,36.673542],[139.197332,36.673548],[139.197866,36.67366],[139.19829,36.673746],[139.198789,36.673901],[139.199067,36.674055],[139.199342,36.674276],[139.199565,36.674592],[139.199859,36.674861],[139.200065,36.675069],[139.200117,36.675116],[139.200488,36.675513],[139.20058,36.675627],[139.200768,36.67574],[139.200831,36.675756],[139.201096,36.675843],[139.201892,36.676153],[139.202186,36.676272],[139.202581,36.676451],[139.202781,36.676565],[139.202935,36.676643],[139.203223,36.67678],[139.203557,36.676633]]}},{"type":"Feature","properties":{"id":199862199,"highway":"residential"},"geometry":{"type":"LineString","coordinates":[[139.205036,36.678888],[139.205177,36.678751],[139.205198,36.678674],[139.204798,36.677348],[139.204767,36.677232],[139.204771,36.677145],[139.204798,36.677014],[139.205056,36.676277],[139.205044,36.675631],[139.205038,36.675334],[139.205009,36.674388],[139.204989,36.674222],[139.204911,36.674048],[139.204429,36.673307],[139.204327,36.673149],[139.204277,36.672993]]}},{"type":"Feature","properties":{"id":199862202,"highway":"unclassified"},"geometry":{"type":"LineString","coordinates":[[139.205152,36.672482],[139.204752,36.672752],[139.204472,36.672899],[139.204379,36.672941],[139.204277,36.672993]]}},{"type":"Feature","properties":{"id":199862209,"highway":"unclassified"},"geometry":{"type":"LineString","coordinates":[[139.205873,36.672025],[139.205542,36.672229],[139.205291,36.672381],[139.205152,36.672482]]}},{"type":"Feature","properties":{"id":199862212,"highway":"residential"},"geometry":{"type":"LineString","coordinates":[[139.206335,36.666484],[139.205993,36.666261],[139.205388,36.665605]]}},{"type":"Feature","properties":{"id":199862214,"highway":"unclassified"},"geometry":{"type":"LineString","coordinates":[[139.205942,36.669772],[139.20594,36.669294],[139.205745,36.668759],[139.205655,36.668222],[139.205603,36.668074],[139.204079,36.66644]]}},{"type":"Feature","properties":{"id":199862220,"highway":"unclassified"},"geometry":{"type":"LineString","coordinates":[[139.208443,36.670245],[139.207831,36.670638],[139.207751,36.67069],[139.20706,36.671276],[139.20701,36.671344]]}},{"type":"Feature","properties":{"id":199862222,"highway":"unclassified"},"geometry":{"type":"LineString","coordinates":[[139.209083,36.696923],[139.209087,36.696812],[139.209182,36.696577],[139.209182,36.696297],[139.209189,36.696091]]}},{"type":"Feature","properties":{"id":199862235,"highway":"unclassified"},"geometry":{"type":"LineString","coordinates":[[139.207686,36.695335],[139.20769,36.695409],[139.207631,36.695445],[139.207522,36.695452],[139.207389,36.695368],[139.207291,36.695244],[139.207204,36.695114]]}},{"type":"Feature","properties":{"id":199862236,"highway":"unclassified"},"geometry":{"type":"LineString","coordinates":[[139.209554,36.669218],[139.20935,36.669117],[139.209112,36.668972],[139.208779,36.668684],[139.208785,36.668621]]}},{"type":"Feature","properties":{"id":199862237,"highway":"unclassified"},"geometry":{"type":"LineString","coordinates":[[139.202341,36.665357],[139.202021,36.664942],[139.201946,36.664808],[139.201678,36.664653],[139.201451,36.664558],[139.201253,36.664439],[139.201105,36.664238]]}},{"type":"Feature","properties":{"id":199862239,"highway":"unclassified"},"geometry":{"type":"LineString","coordinates":[[139.206335,36.666484],[139.206447,36.667015],[139.206579,36.667341],[139.206831,36.667673]]}},{"type":"Feature","properties":{"id":199862240,"highway":"unclassified"},"geometry":{"type":"LineString","coordinates":[[139.204079,36.66644],[139.202511,36.665575],[139.202341,36.665357]]}},{"type":"Feature","properties":{"id":199862245,"highway":"unclassified"},"geometry":{"type":"LineString","coordinates":[[139.209573,36.669658],[139.209624,36.669787],[139.209819,36.670275],[139.209868,36.670474],[139.209871,36.670488],[139.209859,36.67062],[139.209789,36.670729],[139.209668,36.670832],[139.209422,36.671107],[139.209296,36.671181],[139.209211,36.671231],[139.20885,36.671419]]}},{"type":"Feature","properties":{"id":199862246,"highway":"unclassified"},"geometry":{"type":"LineString","coordinates":[[139.20885,36.671419],[139.208546,36.671542],[139.208137,36.671609],[139.20785,36.671604],[139.207715,36.671602],[139.207539,36.671554],[139.207347,36.671475],[139.207124,36.671388],[139.20701,36.671344]]}},{"type":"Feature","properties":{"id":199862250,"highway":"unclassified"},"geometry":{"type":"LineString","coordinates":[[139.206831,36.667673],[139.207682,36.668918],[139.207884,36.669428],[139.208114,36.669794]]}},{"type":"Feature","properties":{"id":199862264,"highway":"unclassified"},"geometry":{"type":"LineString","coordinates":[[139.209189,36.696091],[139.209189,36.695785],[139.209156,36.695592],[139.209058,36.695219],[139.208913,36.694957],[139.208829,36.69483],[139.208642,36.694739],[139.208296,36.694429],[139.207988,36.694086]]}},{"type":"Feature","properties":{"id":199957922,"highway":"secondary"},"geometry":{"type":"LineString","coordinates":[[139.208458,36.683345],[139.208382,36.683711],[139.208362,36.683937],[139.208366,36.684173],[139.208391,36.684863],[139.208389,36.684946],[139.208358,36.685101],[139.208334,36.685185],[139.207985,36.68607],[139.207933,36.686278],[139.207899,36.686466],[139.207847,36.68671],[139.207805,36.686949],[139.207805,36.687042],[139.207817,36.687174],[139.207832,36.687256],[139.207898,36.68744],[139.207949,36.687644],[139.207964,36.687734],[139.207931,36.6878],[139.207879,36.687839],[139.207819,36.687866],[139.207711,36.687874],[139.207607,36.687869]]}},{"type":"Feature","properties":{"id":233027027,"highway":"trunk"},"geometry":{"type":"LineString","coordinates":[[139.210054,36.710877],[139.21007,36.710798],[139.210085,36.710644],[139.210085,36.710476],[139.210059,36.710324],[139.210024,36.710176],[139.209958,36.710021],[139.209381,36.709148],[139.209344,36.708876],[139.20937,36.708721],[139.20938,36.70852],[139.209453,36.708242],[139.209554,36.708079],[139.209684,36.707696],[139.209691,36.707475],[139.209495,36.706997],[139.209423,36.70674],[139.209449,36.706233],[139.209389,36.705997],[139.20928,36.705747],[139.209196,36.705472],[139.209169,36.705222],[139.209019,36.704379],[139.208984,36.703728],[139.208882,36.703204],[139.208745,36.702885],[139.208391,36.702209],[139.208245,36.701893],[139.208193,36.701701],[139.208161,36.701522],[139.208175,36.701333],[139.208221,36.701122],[139.208225,36.701107],[139.208491,36.700154],[139.208502,36.700115],[139.208559,36.699925],[139.208706,36.699453],[139.208712,36.699369],[139.208707,36.69919],[139.208619,36.698943]]}},{"type":"Feature","properties":{"id":311680703,"highway":"tertiary"},"geometry":{"type":"LineString","coordinates":[[139.208125,36.697553],[139.208408,36.69782]]}},{"type":"Feature","properties":{"id":315535838,"highway":"primary"},"geometry":{"type":"LineString","coordinates":[[139.198018,36.613865],[139.198342,36.613753],[139.1987,36.613669],[139.199531,36.613639],[139.199923,36.61361],[139.200277,36.613532],[139.200597,36.613424],[139.200873,36.613322],[139.201123,36.613167],[139.202582,36.612222],[139.203461,36.611751],[139.203731,36.611651],[139.204024,36.611592],[139.204326,36.611577],[139.204893,36.611598],[139.205372,36.611651],[139.205845,36.611728],[139.206042,36.611775],[139.20625,36.611823],[139.206541,36.611916],[139.206708,36.612041],[139.206798,36.612215],[139.207015,36.612728],[139.207172,36.612871],[139.207483,36.61306],[139.20777,36.613145],[139.208093,36.6132],[139.208692,36.613274],[139.20911,36.613319],[139.209695,36.613319],[139.210075,36.613292],[139.210407,36.613259],[139.210676,36.61325],[139.211111,36.613198],[139.211477,36.613107],[139.211794,36.612949],[139.212048,36.612769],[139.212223,36.612541],[139.213053,36.611699],[139.213383,36.611479],[139.213815,36.61132],[139.214225,36.611233],[139.215027,36.611178]]}},{"type":"Feature","properties":{"id":401008074,"highway":"primary"},"geometry":{"type":"LineString","coordinates":[[139.219788,36.611493],[139.220092,36.611602],[139.220275,36.611657]]}},{"type":"Feature","properties":{"id":501189650,"highway":"trunk"},"geometry":{"type":"LineString","coordinates":[[139.208619,36.698943],[139.208559,36.698869],[139.208317,36.698658],[139.208265,36.698582],[139.208165,36.697968]]}},{"type":"Feature","properties":{"id":501189651,"highway":"trunk"},"geometry":{"type":"LineString","coordinates":[[139.208165,36.697968],[139.208103,36.697708],[139.208125,36.697553],[139.208222,36.697443],[139.208406,36.69728],[139.208633,36.697176],[139.208948,36.697001],[139.209083,36.696923],[139.209321,36.696767],[139.209534,36.696522],[139.209709,36.696264],[139.209837,36.69597],[139.209902,36.695647],[139.209914,36.695269],[139.209832,36.694967],[139.209106,36.692824],[139.208848,36.692255],[139.208397,36.691576],[139.208093,36.691065],[139.207902,36.690726],[139.207813,36.690428],[139.207673,36.689757],[139.207543,36.688822],[139.207607,36.687869],[139.207579,36.686472],[139.20753,36.685396],[139.207522,36.684738],[139.207472,36.684515],[139.207361,36.684265],[139.207244,36.68394],[139.207209,36.683843],[139.207082,36.682423],[139.206938,36.681732],[139.206724,36.681218],[139.205893,36.679617],[139.205624,36.679398]]}},{"type":"Feature","properties":{"id":769415231,"highway":"residential"},"geometry":{"type":"LineString","coordinates":[[139.24323,36.607246],[139.242655,36.607023],[139.242588,36.606988],[139.242545,36.606948],[139.24239,36.606695],[139.242335,36.606644],[139.242293,36.606621],[139.242241,36.606603],[139.24217,36.606603],[139.241782,36.606666],[139.241596,36.606682],[139.241209,36.606684],[139.241126,36.606667],[139.241023,36.606636],[139.240373,36.606349],[139.24028,36.606274],[139.240212,36.606205],[139.240141,36.606094],[139.240072,36.606032],[139.23999,36.605981],[139.239748,36.605844],[139.239679,36.60581],[139.239573,36.605757],[139.239465,36.605724],[139.238879,36.605609],[139.238757,36.605609],[139.238683,36.605631],[139.238572,36.605675],[139.238204,36.605854],[139.238129,36.605873],[139.238034,36.605913],[139.237579,36.60609],[139.237445,36.60615],[139.237291,36.606179],[139.237086,36.606198],[139.236986,36.606196],[139.236876,36.606184],[139.236821,36.606156]]}},{"type":"Feature","properties":{"id":769415232,"highway":"secondary"},"geometry":{"type":"LineString","coordinates":[[139.238242,36.605234],[139.238272,36.605233],[139.238304,36.605223],[139.238502,36.605126],[139.238654,36.605061],[139.239196,36.604951],[139.239775,36.604858],[139.240189,36.604783],[139.24057,36.604689],[139.240635,36.604673],[139.240824,36.60465]]}},{"type":"Feature","properties":{"id":780417077,"highway":"residential"},"geometry":{"type":"LineString","coordinates":[[139.209737,36.672376],[139.210079,36.672338],[139.210152,36.672354],[139.210181,36.672374]]}},{"type":"Feature","properties":{"id":780424863,"highway":"unclassified"},"geometry":{"type":"LineString","coordinates":[[139.202455,36.68227],[139.201948,36.682193],[139.201458,36.681924],[139.201317,36.6818],[139.201271,36.681571],[139.201089,36.681341],[139.201002,36.681293],[139.200634,36.681309],[139.200542,36.681271],[139.200515,36.681213],[139.200515,36.681127],[139.200643,36.68087],[139.200675,36.680763],[139.200659,36.680656],[139.200595,36.68057],[139.200536,36.680436],[139.200547,36.680318],[139.200611,36.680168],[139.200875,36.679693],[139.20103,36.679554],[139.201041,36.679464],[139.201027,36.679396],[139.200843,36.679027],[139.200719,36.678789],[139.200704,36.678572],[139.200667,36.678215],[139.200676,36.678064],[139.20067,36.677871],[139.200547,36.677408],[139.200573,36.677064],[139.200531,36.676669],[139.200516,36.676491],[139.200474,36.676328],[139.20039,36.676097],[139.200247,36.675681],[139.200072,36.675411],[139.199887,36.675224],[139.199555,36.674889],[139.199445,36.674713],[139.199084,36.674582],[139.198904,36.674498],[139.198828,36.674229],[139.198789,36.673901]]}},{"type":"Feature","properties":{"id":780860638,"highway":"residential"},"geometry":{"type":"LineString","coordinates":[[139.211644,36.693868],[139.212456,36.693901]]}},{"type":"Feature","properties":{"id":780860642,"highway":"service"},"geometry":{"type":"LineString","coordinates":[[139.212503,36.685704],[139.212328,36.685456],[139.212211,36.685132],[139.212232,36.684908],[139.212332,36.684849],[139.212526,36.684849],[139.212618,36.684919]]}},{"type":"Feature","properties":{"id":780910056,"highway":"residential"},"geometry":{"type":"LineString","coordinates":[[139.207933,36.686278],[139.207843,36.68601],[139.207821,36.685695],[139.207806,36.685404],[139.207847,36.685112],[139.207791,36.684803],[139.207676,36.684274],[139.207676,36.684042],[139.207791,36.68346],[139.207791,36.683323],[139.207784,36.68324],[139.207676,36.682933],[139.207617,36.682592],[139.207532,36.682535],[139.207395,36.682535],[139.207361,36.682586],[139.207413,36.682972],[139.207302,36.683742],[139.207244,36.68394]]}},{"type":"Feature","properties":{"id":780910057,"highway":"residential"},"geometry":{"type":"LineString","coordinates":[[139.207395,36.682535],[139.207386,36.682502],[139.207406,36.682449]]}},{"type":"Feature","properties":{"id":780910058,"highway":"residential"},"geometry":{"type":"LineString","coordinates":[[139.207441,36.68237],[139.207465,36.682315],[139.207569,36.682101],[139.207569,36.68192],[139.207532,36.681617],[139.207472,36.681373],[139.207294,36.681067],[139.207235,36.68071],[139.207306,36.680273],[139.207376,36.680178],[139.207832,36.680239],[139.207879,36.680242],[139.208206,36.680259]]}},{"type":"Feature","properties":{"id":780910059,"highway":"residential"},"geometry":{"type":"LineString","coordinates":[[139.207406,36.682449],[139.207441,36.68237]]}},{"type":"Feature","properties":{"id":780910060,"highway":"service"},"geometry":{"type":"LineString","coordinates":[[139.207376,36.680178],[139.207153,36.679916],[139.207061,36.679749]]}},{"type":"Feature","properties":{"id":795286146,"highway":"secondary"},"geometry":{"type":"LineString","coordinates":[[139.208487,36.674066],[139.208263,36.67478],[139.208084,36.675347],[139.208027,36.675503],[139.208019,36.675527],[139.207912,36.675796],[139.207845,36.676069],[139.207699,36.676491],[139.207667,36.676599],[139.20764,36.676725],[139.207638,36.676842],[139.207625,36.676986],[139.207638,36.677079],[139.207651,36.677139],[139.207668,36.677209],[139.207698,36.677266],[139.207736,36.677339],[139.207821,36.677454],[139.208002,36.67768]]}},{"type":"Feature","properties":{"id":816533167,"highway":"secondary"},"geometry":{"type":"LineString","coordinates":[[139.210758,36.672041],[139.210725,36.672103],[139.210645,36.672178],[139.210575,36.672218],[139.210395,36.672285],[139.210181,36.672374],[139.210145,36.67241],[139.210107,36.672453],[139.209927,36.672737],[139.209892,36.672794],[139.209831,36.67286],[139.20966,36.673053],[139.209515,36.67316],[139.209414,36.673209],[139.209156,36.673317],[139.209027,36.673408],[139.208774,36.673611],[139.208657,36.67374],[139.208551,36.67388],[139.208524,36.673941]]}},{"type":"Feature","properties":{"id":816533170,"highway":"secondary"},"geometry":{"type":"LineString","coordinates":[[139.207911,36.67883],[139.207914,36.678891]]}},{"type":"Feature","properties":{"id":816533171,"highway":"secondary"},"geometry":{"type":"LineString","coordinates":[[139.207914,36.678891],[139.207949,36.679063],[139.207979,36.679211]]}},{"type":"Feature","properties":{"id":816533172,"highway":"secondary"},"geometry":{"type":"LineString","coordinates":[[139.208499,36.682522],[139.208496,36.682591]]}},{"type":"Feature","properties":{"id":816533173,"highway":"secondary"},"geometry":{"type":"LineString","coordinates":[[139.208496,36.682591],[139.208495,36.682656],[139.208472,36.683197],[139.208458,36.683345]]}},{"type":"Feature","properties":{"id":816533174,"highway":"secondary"},"geometry":{"type":"LineString","coordinates":[[139.208002,36.67768],[139.208063,36.677883],[139.208078,36.678089],[139.208069,36.678154],[139.207894,36.678631],[139.207906,36.678715],[139.207911,36.67883]]}},{"type":"Feature","properties":{"id":816533175,"highway":"secondary"},"geometry":{"type":"LineString","coordinates":[[139.207979,36.679211],[139.208206,36.680259],[139.208217,36.680309],[139.208371,36.681135],[139.208479,36.681714],[139.208513,36.68192],[139.208519,36.6821],[139.208522,36.68225],[139.208507,36.682386],[139.208499,36.682522]]}},{"type":"Feature","properties":{"id":1047018668,"highway":"residential"},"geometry":{"type":"LineString","coordinates":[[139.213838,36.698508],[139.213002,36.697952],[139.213439,36.697482],[139.213482,36.697453]]}},{"type":"Feature","properties":{"id":1047018669,"highway":"service"},"geometry":{"type":"LineString","coordinates":[[139.211351,36.697693],[139.211314,36.697658],[139.210893,36.696793]]}},{"type":"Feature","properties":{"id":1047018678,"highway":"residential"},"geometry":{"type":"LineString","coordinates":[[139.210189,36.69869],[139.210439,36.698243],[139.210629,36.697973]]}},{"type":"Feature","properties":{"id":1047018679,"highway":"residential"},"geometry":{"type":"LineString","coordinates":[[139.210113,36.697371],[139.210169,36.69742],[139.210388,36.69762],[139.210531,36.697743],[139.210566,36.697794],[139.210592,36.697853],[139.210617,36.697933],[139.210629,36.697973],[139.210667,36.698006],[139.210883,36.698196],[139.21102,36.698282],[139.211145,36.698401],[139.211238,36.698514],[139.211541,36.698785]]}},{"type":"Feature","properties":{"id":1047018680,"highway":"residential"},"geometry":{"type":"LineString","coordinates":[[139.211541,36.698785],[139.211992,36.699102],[139.212356,36.699396],[139.212556,36.699553],[139.212754,36.69979],[139.212829,36.69988],[139.214057,36.70052],[139.214075,36.7006]]}},{"type":"Feature","properties":{"id":1047018681,"highway":"residential"},"geometry":{"type":"LineString","coordinates":[[139.212754,36.69979],[139.212207,36.700264],[139.212142,36.700278]]}},{"type":"Feature","properties":{"id":1110658974,"highway":"service"},"geometry":{"type":"LineString","coordinates":[[139.252087,36.612922],[139.251957,36.61286],[139.251809,36.612766],[139.251779,36.612738],[139.251763,36.612706],[139.251765,36.612667],[139.251783,36.612627],[139.251821,36.612595],[139.251869,36.612577],[139.251933,36.612569],[139.251999,36.612579],[139.25219,36.612641],[139.252252,36.612656],[139.252312,36.612654],[139.252348,36.612644],[139.252416,36.612578],[139.252436,36.612545],[139.252449,36.612521],[139.252446,36.612491],[139.25243,36.612457],[139.252276,36.612271],[139.252038,36.612001],[139.251785,36.611758],[139.251516,36.611509],[139.251409,36.611442],[139.251225,36.61134],[139.251032,36.611238],[139.250832,36.611167],[139.250761,36.611139],[139.250637,36.611105],[139.250492,36.611082],[139.250416,36.611055],[139.250371,36.611031],[139.250341,36.610999],[139.250309,36.610952],[139.250262,36.610904],[139.250199,36.610861],[139.250131,36.610818],[139.250071,36.610789],[139.249367,36.610598],[139.249117,36.610523],[139.248987,36.61047],[139.248611,36.610254],[139.248391,36.610143],[139.248274,36.610075],[139.247973,36.609879],[139.247796,36.609708],[139.247692,36.609592],[139.247566,36.609479],[139.247412,36.609356],[139.24725,36.609242],[139.246685,36.608972],[139.24628,36.60877],[139.245948,36.608538],[139.245891,36.608492],[139.245847,36.608447],[139.245717,36.60827],[139.245643,36.608197],[139.245604,36.608167],[139.245501,36.608092],[139.245431,36.608055],[139.245367,36.608037],[139.245317,36.608029],[139.245195,36.608032],[139.244971,36.608018],[139.244877,36.608005],[139.244498,36.607915],[139.244365,36.607835],[139.244277,36.60778],[139.244063,36.607594],[139.243991,36.607542],[139.243917,36.6075],[139.243652,36.607408],[139.243316,36.607283],[139.24323,36.607246]]}},{"type":"Feature","properties":{"id":1489352811,"highway":"unclassified"},"geometry":{"type":"LineString","coordinates":[[139.207135,36.677661],[139.207433,36.677655],[139.207634,36.677636],[139.207821,36.677454]]}},{"type":"Feature","properties":{"id":1489352812,"highway":"unclassified"},"geometry":{"type":"LineString","coordinates":[[139.208027,36.675503],[139.208278,36.675533],[139.208339,36.675779],[139.208595,36.675829],[139.208732,36.675352],[139.209043,36.675178]]}},{"type":"Feature","properties":{"id":1489362383,"highway":"residential"},"geometry":{"type":"LineString","coordinates":[[139.207831,36.670638],[139.207638,36.670161]]}},{"type":"Feature","properties":{"id":1496082864,"highway":"service"},"geometry":{"type":"LineString","coordinates":[[139.209342,36.6672],[139.209178,36.667192],[139.209066,36.667068],[139.208843,36.666838],[139.208736,36.666618],[139.208492,36.666364]]}},{"type":"Feature","properties":{"id":1496082886,"highway":"service"},"geometry":{"type":"LineString","coordinates":[[139.209789,36.670729],[139.210064,36.671165]]}},{"type":"Feature","properties":{"id":1496082887,"highway":"service"},"geometry":{"type":"LineString","coordinates":[[139.209729,36.671475],[139.210112,36.671306],[139.210064,36.671165]]}},{"type":"Feature","properties":{"id":1496082898,"highway":"unclassified"},"geometry":{"type":"LineString","coordinates":[[139.207938,36.665059],[139.207959,36.665188],[139.208028,36.665289],[139.208435,36.665763],[139.208714,36.666129],[139.208917,36.666444],[139.209112,36.666827],[139.209206,36.667001],[139.209342,36.6672],[139.20944,36.667344]]}},{"type":"Feature","properties":{"id":1496082899,"highway":"unclassified"},"geometry":{"type":"LineString","coordinates":[[139.20944,36.667344],[139.209489,36.667416]]}},{"type":"Feature","properties":{"id":1496903975,"highway":"service"},"geometry":{"type":"LineString","coordinates":[[139.207124,36.671388],[139.207227,36.671306],[139.207565,36.671446],[139.207447,36.671248],[139.207227,36.671306]]}},{"type":"Feature","properties":{"id":1496903978,"highway":"service"},"geometry":{"type":"LineString","coordinates":[[139.210526,36.670171],[139.210202,36.670294]]}},{"type":"Feature","properties":{"id":1496903980,"highway":"service"},"geometry":{"type":"LineString","coordinates":[[139.21069,36.670553],[139.2107,36.670549],[139.210815,36.670498],[139.210847,36.670596]]}},{"type":"Feature","properties":{"id":1496903986,"highway":"service"},"geometry":{"type":"LineString","coordinates":[[139.209296,36.671181],[139.209247,36.670865],[139.209147,36.670584],[139.208764,36.670729]]}},{"type":"Feature","properties":{"id":1496912094,"highway":"trunk"},"geometry":{"type":"LineString","coordinates":[[139.205553,36.679339],[139.205376,36.679195],[139.205036,36.678888],[139.204767,36.678693],[139.204426,36.678381],[139.204079,36.678036],[139.203805,36.677582],[139.203696,36.677238],[139.203557,36.676633],[139.203391,36.675954],[139.20336,36.675887],[139.203303,36.675772],[139.203208,36.675659],[139.203107,36.675561],[139.202971,36.675464],[139.201381,36.674565],[139.199468,36.673533],[139.198982,36.673246],[139.198,36.672597],[139.196885,36.671889],[139.196662,36.671717],[139.196461,36.671531],[139.196357,36.671428],[139.195781,36.670645],[139.195315,36.670005]]}},{"type":"Feature","properties":{"id":1496912095,"highway":"trunk"},"geometry":{"type":"LineString","coordinates":[[139.205624,36.679398],[139.205553,36.679339]]}},{"type":"Feature","properties":{"id":1496912119,"highway":"service"},"geometry":{"type":"LineString","coordinates":[[139.212561,36.677607],[139.212313,36.677659],[139.212357,36.677379]]}},{"type":"Feature","properties":{"id":1496912120,"highway":"service"},"geometry":{"type":"LineString","coordinates":[[139.212313,36.677659],[139.212326,36.67781]]}},{"type":"Feature","properties":{"id":1530948592,"highway":"secondary"},"geometry":{"type":"LineString","coordinates":[[139.27249,36.601612],[139.272484,36.601731]]}},{"type":"Feature","properties":{"id":1530948593,"highway":"secondary"},"geometry":{"type":"LineString","coordinates":[[139.272523,36.601472],[139.27249,36.601612]]}},{"type":"Feature","properties":{"id":1531192014,"highway":"service"},"geometry":{"type":"LineString","coordinates":[[139.234184,36.607787],[139.234287,36.607834],[139.234372,36.607936],[139.234402,36.608025],[139.234406,36.608087],[139.234403,36.608125],[139.234374,36.608178],[139.234295,36.608254]]}},{"type":"Feature","properties":{"id":1531192018,"highway":"service"},"geometry":{"type":"LineString","coordinates":[[139.234146,36.607729],[139.234054,36.607752],[139.234009,36.607778],[139.233845,36.607959]]}},{"type":"Feature","properties":{"id":1558967964,"highway":"service"},"geometry":{"type":"LineString","coordinates":[[139.259176,36.611528],[139.258971,36.611383],[139.258899,36.611383],[139.258566,36.611512],[139.258532,36.611537]]}},{"type":"Feature","properties":{"id":1558967965,"highway":"service"},"geometry":{"type":"LineString","coordinates":[[139.258574,36.610922],[139.258127,36.611059],[139.258003,36.611073]]}},{"type":"Feature","properties":{"id":1558967966,"highway":"service"},"geometry":{"type":"LineString","coordinates":[[139.257368,36.610063],[139.257093,36.610189]]}},{"type":"Feature","properties":{"id":1558967968,"highway":"residential"},"geometry":{"type":"LineString","coordinates":[[139.258003,36.611073],[139.257721,36.610918],[139.257669,36.610884],[139.257585,36.610843],[139.25754,36.610803],[139.257502,36.610768],[139.257411,36.610678],[139.257273,36.610493],[139.257216,36.610408],[139.257154,36.610307],[139.257093,36.610189],[139.25708,36.610165],[139.256997,36.61005],[139.256968,36.609988],[139.256945,36.609892],[139.256892,36.609749],[139.256841,36.609667],[139.256819,36.609627]]}},{"type":"Feature","properties":{"id":1558967970,"highway":"service"},"geometry":{"type":"LineString","coordinates":[[139.260021,36.612106],[139.259851,36.6122],[139.25965,36.612324]]}},{"type":"Feature","properties":{"id":1558967979,"highway":"residential"},"geometry":{"type":"LineString","coordinates":[[139.237523,36.606457],[139.237611,36.606374],[139.237651,36.606278],[139.237672,36.606228],[139.237861,36.606046],[139.237993,36.605974],[139.238027,36.605936],[139.238034,36.605913]]}},{"type":"Feature","properties":{"id":1558967980,"highway":"service"},"geometry":{"type":"LineString","coordinates":[[139.237651,36.606278],[139.237482,36.606356]]}},{"type":"Feature","properties":{"id":1558967981,"highway":"service"},"geometry":{"type":"LineString","coordinates":[[139.237752,36.606686],[139.237904,36.606596],[139.238006,36.606451],[139.238001,36.606429],[139.237877,36.606315],[139.23789,36.606265],[139.237899,36.606225],[139.237857,36.60618],[139.237837,36.60617],[139.237651,36.606278]]}},{"type":"Feature","properties":{"id":1558967982,"highway":"residential"},"geometry":{"type":"LineString","coordinates":[[139.238225,36.605648],[139.238047,36.605628],[139.237953,36.60563],[139.237667,36.605711],[139.237248,36.605893],[139.237045,36.605989],[139.236923,36.606092],[139.236876,36.606184]]}},{"type":"Feature","properties":{"id":1558967985,"highway":"service"},"geometry":{"type":"LineString","coordinates":[[139.243286,36.603825],[139.243189,36.603824],[139.243104,36.603851],[139.242967,36.603902],[139.24244,36.604161],[139.242049,36.604358],[139.24195,36.60441],[139.241899,36.60443],[139.241801,36.604442],[139.2415,36.604484],[139.241281,36.604501],[139.240968,36.604495],[139.240832,36.604478],[139.240761,36.604481],[139.240724,36.604501],[139.240684,36.60454],[139.240645,36.604612],[139.240635,36.604673]]}},{"type":"Feature","properties":{"id":1558967990,"highway":"residential"},"geometry":{"type":"LineString","coordinates":[[139.236631,36.606478],[139.236782,36.606343],[139.236876,36.606184]]}},{"type":"Feature","properties":{"id":1558967991,"highway":"service"},"geometry":{"type":"LineString","coordinates":[[139.235968,36.610301],[139.235837,36.610295],[139.235741,36.610267],[139.235684,36.610264],[139.235642,36.610286],[139.235605,36.610335],[139.235565,36.610393],[139.235534,36.61042],[139.235481,36.610426],[139.235421,36.610422],[139.23524,36.610387],[139.235102,36.610363]]}},{"type":"Feature","properties":{"id":1558967992,"highway":"service"},"geometry":{"type":"LineString","coordinates":[[139.23499,36.611079],[139.23516,36.611],[139.235308,36.611027],[139.235356,36.611017],[139.235404,36.611],[139.235428,36.610966],[139.235446,36.610906],[139.235387,36.610815],[139.235314,36.610769],[139.235154,36.610702],[139.235123,36.610617],[139.235102,36.610363],[139.235109,36.610244],[139.235164,36.610156],[139.235255,36.61008],[139.235453,36.610003],[139.235707,36.609923],[139.236696,36.609586],[139.237072,36.609418],[139.237201,36.609327],[139.237275,36.609278],[139.237333,36.609222],[139.2375,36.608714],[139.237557,36.608519],[139.237547,36.608366],[139.237574,36.608122],[139.237546,36.607956],[139.237215,36.607379],[139.237173,36.607319],[139.23707,36.607196],[139.236886,36.607033],[139.236884,36.607032],[139.236764,36.606928],[139.236639,36.606827],[139.236616,36.606797],[139.236596,36.606764],[139.236571,36.606696],[139.236576,36.606592],[139.236631,36.606478]]}},{"type":"Feature","properties":{"id":1558967996,"highway":"service"},"geometry":{"type":"LineString","coordinates":[[139.236884,36.607032],[139.236762,36.607111],[139.236667,36.607213],[139.236589,36.607326],[139.236687,36.607936],[139.236704,36.608039],[139.236583,36.608251],[139.236748,36.608458],[139.236833,36.608638],[139.23685,36.608759],[139.236815,36.608998],[139.236818,36.609055],[139.236856,36.609105],[139.236971,36.609181],[139.237114,36.609272],[139.237201,36.609327]]}},{"type":"Feature","properties":{"id":1558967997,"highway":"service"},"geometry":{"type":"LineString","coordinates":[[139.235109,36.610244],[139.235045,36.610281],[139.235028,36.610552]]}},{"type":"Feature","properties":{"id":1558967998,"highway":"service"},"geometry":{"type":"LineString","coordinates":[[139.240216,36.603657],[139.240229,36.603593],[139.240336,36.603441],[139.240398,36.603382]]}},{"type":"Feature","properties":{"id":1558967999,"highway":"service"},"geometry":{"type":"LineString","coordinates":[[139.241501,36.606196],[139.241147,36.606263],[139.240952,36.606263],[139.240467,36.606201],[139.24033,36.606127],[139.240195,36.606045],[139.240072,36.606032]]}},{"type":"Feature","properties":{"id":1558968002,"highway":"service"},"geometry":{"type":"LineString","coordinates":[[139.244713,36.604812],[139.24477,36.604786],[139.245063,36.604707],[139.245201,36.604659],[139.245186,36.604539],[139.245165,36.604454],[139.245181,36.604411],[139.245244,36.604371],[139.245368,36.604362],[139.245436,36.60439],[139.245534,36.604472]]}},{"type":"Feature","properties":{"id":1558968003,"highway":"service"},"geometry":{"type":"LineString","coordinates":[[139.245467,36.605512],[139.245268,36.605399],[139.245159,36.605295],[139.24502,36.605235],[139.244846,36.605191],[139.244637,36.605126],[139.244552,36.605076]]}},{"type":"Feature","properties":{"id":1558968007,"highway":"service"},"geometry":{"type":"LineString","coordinates":[[139.243286,36.603825],[139.243349,36.603851],[139.24337,36.603894],[139.243402,36.603999],[139.243399,36.604071],[139.243355,36.604196]]}},{"type":"Feature","properties":{"id":1558968009,"highway":"service"},"geometry":{"type":"LineString","coordinates":[[139.24057,36.604689],[139.240552,36.604752],[139.240501,36.604845],[139.240469,36.604868],[139.24034,36.604922]]}}]}