{"type":"FeatureCollection","features":[{"type":"Feature","properties":{"id":37379748,"highway":"unclassified"},"geometry":{"type":"LineString","coordinates":[[139.384142,34.697488],[139.384137,34.697382],[139.384137,34.69716],[139.384113,34.696943],[139.384079,34.696673],[139.384036,34.696417],[139.383968,34.696219],[139.383942,34.696158],[139.383896,34.69605],[139.383746,34.695824],[139.383606,34.695664],[139.383385,34.695529],[139.383143,34.69536],[139.382984,34.695274]]}},{"type":"Feature","properties":{"id":150314530,"highway":"residential"},"geometry":{"type":"LineString","coordinates":[[139.398197,34.690775],[139.39814,34.690938],[139.398106,34.690983],[139.398038,34.691052],[139.397894,34.691243],[139.397635,34.691542],[139.397581,34.691615],[139.397533,34.691672],[139.39749,34.69173],[139.397331,34.691843]]}},{"type":"Feature","properties":{"id":150314943,"highway":"residential"},"geometry":{"type":"LineString","coordinates":[[139.393685,34.692841],[139.393571,34.692973],[139.393489,34.693069],[139.393482,34.693092],[139.393319,34.693272],[139.393127,34.693514],[139.392984,34.693678],[139.392882,34.693808],[139.392657,34.694072],[139.392321,34.694483],[139.392265,34.694551],[139.391825,34.695087],[139.391667,34.695278],[139.391566,34.695396],[139.391504,34.695486],[139.391249,34.69585]]}},{"type":"Feature","properties":{"id":150314976,"highway":"residential"},"geometry":{"type":"LineString","coordinates":[[139.397815,34.692649],[139.397802,34.692701],[139.397785,34.692743],[139.397704,34.693047],[139.397663,34.693306],[139.397594,34.693599],[139.397519,34.693785],[139.397477,34.693897],[139.397431,34.694003],[139.397383,34.694106],[139.397308,34.69432],[139.397308,34.694495],[139.397356,34.694658],[139.397356,34.694703]]}},{"type":"Feature","properties":{"id":150314977,"highway":"unclassified"},"geometry":{"type":"LineString","coordinates":[[139.393685,34.692841],[139.393632,34.69281],[139.393271,34.692647],[139.393121,34.692545],[139.392875,34.692337],[139.392635,34.692101],[139.392542,34.692076],[139.392022,34.692512],[139.391817,34.692647],[139.391742,34.692658],[139.391346,34.692393],[139.390563,34.691824],[139.390072,34.691436]]}},{"type":"Feature","properties":{"id":150314991,"highway":"unclassified"},"geometry":{"type":"LineString","coordinates":[[139.400782,34.694767],[139.400737,34.695385],[139.400662,34.695543],[139.400615,34.695583],[139.400492,34.695639],[139.400104,34.695639],[139.399886,34.69565],[139.39919,34.695819],[139.398836,34.695887],[139.398461,34.695943],[139.398031,34.695971],[139.397888,34.695987],[139.397847,34.696032],[139.39785,34.696072]]}},{"type":"Feature","properties":{"id":150315005,"highway":"residential"},"geometry":{"type":"LineString","coordinates":[[139.397331,34.691843],[139.397281,34.691863],[139.397131,34.69192],[139.396585,34.692105],[139.396446,34.692159],[139.39621,34.692247],[139.396135,34.692258],[139.396087,34.692275],[139.395944,34.692286],[139.395781,34.692303],[139.395214,34.692281],[139.394852,34.692365],[139.394327,34.692382],[139.394217,34.692359],[139.394119,34.692314]]}},{"type":"Feature","properties":{"id":150315120,"highway":"residential"},"geometry":{"type":"LineString","coordinates":[[139.392426,34.689892],[139.392663,34.690067],[139.392827,34.690297],[139.39299,34.690483],[139.393063,34.690629],[139.393138,34.690709],[139.393199,34.690782],[139.393345,34.690971],[139.393466,34.691199],[139.393554,34.691449],[139.393621,34.6916],[139.393776,34.691789],[139.393835,34.691915],[139.39393,34.692064],[139.393998,34.692165],[139.394062,34.692233],[139.394119,34.692314]]}},{"type":"Feature","properties":{"id":150315220,"highway":"unclassified"},"geometry":{"type":"LineString","coordinates":[[139.397356,34.694703],[139.397213,34.694743],[139.39711,34.694777],[139.396926,34.694906],[139.396483,34.695267],[139.396196,34.695453],[139.395951,34.695577],[139.395883,34.695599],[139.395521,34.695064],[139.395276,34.694681],[139.395235,34.694563],[139.395194,34.694236],[139.395146,34.694146],[139.394737,34.693633],[139.394552,34.693436],[139.394422,34.693328],[139.394171,34.693182],[139.393864,34.692946],[139.393685,34.692841]]}},{"type":"Feature","properties":{"id":150315289,"highway":"residential"},"geometry":{"type":"LineString","coordinates":[[139.397264,34.685135],[139.397027,34.685018]]}},{"type":"Feature","properties":{"id":150315309,"highway":"residential"},"geometry":{"type":"LineString","coordinates":[[139.395959,34.684993],[139.396087,34.68504]]}},{"type":"Feature","properties":{"id":150315312,"highway":"residential"},"geometry":{"type":"LineString","coordinates":[[139.396804,34.685361],[139.397027,34.685018]]}},{"type":"Feature","properties":{"id":150315318,"highway":"service"},"geometry":{"type":"LineString","coordinates":[[139.396333,34.687987],[139.397395,34.688242]]}},{"type":"Feature","properties":{"id":150315384,"highway":"residential"},"geometry":{"type":"LineString","coordinates":[[139.397022,34.68446],[139.397252,34.68445]]}},{"type":"Feature","properties":{"id":150315389,"highway":"residential"},"geometry":{"type":"LineString","coordinates":[[139.396087,34.68504],[139.396804,34.685361]]}},{"type":"Feature","properties":{"id":150315805,"highway":"residential"},"geometry":{"type":"LineString","coordinates":[[139.396312,34.68464],[139.396231,34.684792],[139.396087,34.68504]]}},{"type":"Feature","properties":{"id":150315819,"highway":"residential"},"geometry":{"type":"LineString","coordinates":[[139.397027,34.685018],[139.397137,34.684849],[139.397022,34.68446]]}},{"type":"Feature","properties":{"id":150315837,"highway":"residential"},"geometry":{"type":"LineString","coordinates":[[139.397027,34.685018],[139.396456,34.684708],[139.396312,34.68464]]}},{"type":"Feature","properties":{"id":150316133,"highway":"residential"},"geometry":{"type":"LineString","coordinates":[[139.387793,34.694714],[139.387163,34.694434],[139.387013,34.694329],[139.386965,34.694324],[139.386888,34.694366],[139.386359,34.6939],[139.386074,34.693649],[139.385819,34.693497]]}},{"type":"Feature","properties":{"id":150316223,"highway":"residential"},"geometry":{"type":"LineString","coordinates":[[139.401378,34.685054],[139.401387,34.68513],[139.401387,34.685221],[139.401393,34.685474],[139.401364,34.685514],[139.401307,34.685541],[139.401228,34.685591],[139.40114,34.685647],[139.401073,34.685706],[139.400938,34.685819],[139.400889,34.685868],[139.400848,34.685958],[139.400793,34.686257],[139.400773,34.686353],[139.400752,34.686398],[139.400707,34.686495],[139.40061,34.686583],[139.400445,34.686764],[139.400226,34.686867],[139.400063,34.687013],[139.399633,34.687412],[139.399424,34.68759],[139.399292,34.687724],[139.399235,34.6878],[139.399476,34.687926],[139.399516,34.688004],[139.399596,34.68816],[139.399616,34.688236],[139.399613,34.688317],[139.39956,34.688413],[139.399375,34.688738],[139.399266,34.688922],[139.399034,34.689321],[139.398938,34.689485],[139.398836,34.689643],[139.398836,34.68966],[139.398713,34.689868],[139.398706,34.689897],[139.398611,34.690043],[139.398386,34.690432],[139.398318,34.69055],[139.398208,34.690742],[139.398197,34.690775]]}},{"type":"Feature","properties":{"id":150316316,"highway":"residential"},"geometry":{"type":"LineString","coordinates":[[139.398563,34.694157],[139.398522,34.694084],[139.398242,34.693543],[139.397901,34.692821],[139.397815,34.692649]]}},{"type":"Feature","properties":{"id":150316326,"highway":"residential"},"geometry":{"type":"LineString","coordinates":[[139.397815,34.692649],[139.397806,34.69263],[139.397717,34.692433],[139.397697,34.692399],[139.397331,34.691843]]}},{"type":"Feature","properties":{"id":150316334,"highway":"residential"},"geometry":{"type":"LineString","coordinates":[[139.397022,34.68446],[139.39649,34.684499],[139.396429,34.684516],[139.396387,34.684516],[139.396312,34.68464]]}},{"type":"Feature","properties":{"id":150316361,"highway":"unclassified"},"geometry":{"type":"LineString","coordinates":[[139.395459,34.687537],[139.395615,34.687647],[139.396045,34.687843],[139.396333,34.687987]]}},{"type":"Feature","properties":{"id":150316380,"highway":"residential"},"geometry":{"type":"LineString","coordinates":[[139.396804,34.685361],[139.397102,34.685511],[139.397216,34.685584],[139.397312,34.685669],[139.397435,34.685795]]}},{"type":"Feature","properties":{"id":150316407,"highway":"unclassified"},"geometry":{"type":"LineString","coordinates":[[139.398563,34.694157],[139.398229,34.694309],[139.397908,34.694495],[139.397594,34.694636],[139.397356,34.694703]]}},{"type":"Feature","properties":{"id":150316614,"highway":"unclassified"},"geometry":{"type":"LineString","coordinates":[[139.392697,34.696143],[139.392582,34.696112],[139.392357,34.696039],[139.392234,34.696051],[139.392089,34.696005],[139.391249,34.69585]]}},{"type":"Feature","properties":{"id":150316769,"highway":"unclassified"},"geometry":{"type":"LineString","coordinates":[[139.39785,34.696072],[139.397852,34.69609],[139.397901,34.696157],[139.398051,34.696315],[139.398215,34.696512],[139.398229,34.696546],[139.398229,34.696687],[139.398181,34.696799],[139.398133,34.696935],[139.398126,34.697047],[139.398201,34.697222],[139.398242,34.697369],[139.398242,34.697521],[139.398174,34.697667],[139.398086,34.697763],[139.398017,34.697825],[139.397894,34.697932],[139.397785,34.698056],[139.397683,34.698224],[139.397594,34.698331],[139.397451,34.698438],[139.397192,34.698562],[139.397021,34.698596],[139.396844,34.69859],[139.396749,34.698573],[139.396544,34.698494],[139.396312,34.698494],[139.396142,34.698539],[139.395958,34.698624],[139.395821,34.698708],[139.395548,34.698934],[139.395466,34.698968],[139.395378,34.698945],[139.395248,34.698861],[139.395016,34.698675],[139.394676,34.698443],[139.394559,34.698342],[139.394457,34.698224],[139.394389,34.698078],[139.394381,34.697909],[139.394392,34.697848],[139.39443,34.697769],[139.394478,34.697701],[139.394532,34.697611],[139.394553,34.697563],[139.394566,34.697526],[139.394566,34.697462],[139.394559,34.697425],[139.394382,34.697205],[139.394321,34.697059],[139.394246,34.696923],[139.394096,34.696783],[139.394007,34.696726],[139.393912,34.696642],[139.39383,34.696523],[139.393823,34.69636],[139.393843,34.696304],[139.393912,34.696196],[139.393921,34.696167],[139.393919,34.696158],[139.393909,34.696146],[139.393884,34.696131],[139.393853,34.696125],[139.393804,34.696123],[139.393721,34.696129],[139.393291,34.696247],[139.393141,34.696247],[139.393004,34.696225],[139.392697,34.696143]]}},{"type":"Feature","properties":{"id":150316896,"highway":"residential"},"geometry":{"type":"LineString","coordinates":[[139.394119,34.692314],[139.394016,34.692329],[139.393959,34.692376],[139.393925,34.692433],[139.393864,34.692613],[139.393809,34.692714],[139.393685,34.692841]]}},{"type":"Feature","properties":{"id":150316916,"highway":"unclassified"},"geometry":{"type":"LineString","coordinates":[[139.40024,34.693775],[139.400111,34.693819],[139.399647,34.693931],[139.399197,34.694027],[139.399081,34.694044],[139.398911,34.694078],[139.398563,34.694157]]}},{"type":"Feature","properties":{"id":150317263,"highway":"unclassified"},"geometry":{"type":"LineString","coordinates":[[139.391249,34.69585],[139.390714,34.695672],[139.390005,34.695458],[139.389855,34.695402],[139.389787,34.695385],[139.389671,34.695346],[139.388665,34.694996],[139.387771,34.694755]]}},{"type":"Feature","properties":{"id":150317293,"highway":"residential"},"geometry":{"type":"LineString","coordinates":[[139.397356,34.694703],[139.397363,34.69512],[139.397397,34.69525],[139.397431,34.695351],[139.39754,34.695534],[139.397656,34.695718],[139.397669,34.695757],[139.39785,34.696072]]}},{"type":"Feature","properties":{"id":150317417,"highway":"residential"},"geometry":{"type":"LineString","coordinates":[[139.401106,34.693476],[139.400734,34.69311],[139.400304,34.692673],[139.399926,34.692287],[139.399639,34.691995],[139.39926,34.691655],[139.39875,34.691229],[139.398233,34.69079],[139.398197,34.690775]]}},{"type":"Feature","properties":{"id":150332088,"highway":"unclassified"},"geometry":{"type":"LineString","coordinates":[[139.379925,34.697285],[139.379964,34.697235],[139.380031,34.697178],[139.380137,34.697116],[139.380241,34.697081],[139.380345,34.697074],[139.380453,34.697077],[139.380596,34.697091],[139.380727,34.697126],[139.381337,34.697345],[139.381439,34.697404],[139.381514,34.697487],[139.381566,34.697556]]}},{"type":"Feature","properties":{"id":150332100,"highway":"secondary"},"geometry":{"type":"LineString","coordinates":[[139.397435,34.685795],[139.397527,34.685757],[139.397666,34.68572],[139.397878,34.685691],[139.39816,34.685661],[139.398419,34.685646],[139.398691,34.685617],[139.398928,34.68557],[139.399459,34.685424],[139.399699,34.685384],[139.400442,34.685298],[139.400684,34.685258],[139.400948,34.685192],[139.401378,34.685054]]}},{"type":"Feature","properties":{"id":150332123,"highway":"secondary"},"geometry":{"type":"LineString","coordinates":[[139.387793,34.694714],[139.387932,34.694413]]}},{"type":"Feature","properties":{"id":150332147,"highway":"secondary"},"geometry":{"type":"LineString","coordinates":[[139.382742,34.697867],[139.38291,34.697917],[139.383081,34.697939],[139.383152,34.697939],[139.383224,34.697934],[139.38332,34.697912],[139.383422,34.697877],[139.38353,34.697833],[139.38396,34.697591],[139.384142,34.697488],[139.384644,34.697205],[139.385022,34.696981],[139.385272,34.696842],[139.38539,34.696778],[139.385499,34.696734],[139.385726,34.69663],[139.385909,34.696536],[139.38601,34.696477],[139.386124,34.69639],[139.386652,34.695909],[139.38708,34.695528],[139.387356,34.695284],[139.387475,34.69518],[139.387549,34.695089],[139.38766,34.694938],[139.387771,34.694755],[139.387793,34.694714]]}},{"type":"Feature","properties":{"id":150332150,"highway":"secondary"},"geometry":{"type":"LineString","coordinates":[[139.382152,34.697653],[139.382742,34.697867]]}},{"type":"Feature","properties":{"id":150332159,"highway":"secondary"},"geometry":{"type":"LineString","coordinates":[[139.387932,34.694413],[139.388125,34.693888],[139.38829,34.693491]]}},{"type":"Feature","properties":{"id":150332163,"highway":"secondary"},"geometry":{"type":"LineString","coordinates":[[139.389055,34.691997],[139.389372,34.691818],[139.389705,34.691637],[139.390072,34.691436]]}},{"type":"Feature","properties":{"id":150332167,"highway":"secondary"},"geometry":{"type":"LineString","coordinates":[[139.390072,34.691436],[139.391012,34.690766],[139.391486,34.690464],[139.391906,34.690196],[139.392426,34.689892]]}},{"type":"Feature","properties":{"id":150332168,"highway":"secondary"},"geometry":{"type":"LineString","coordinates":[[139.375237,34.702271],[139.375372,34.702261],[139.375474,34.702231],[139.3756,34.702189],[139.375701,34.70214],[139.375903,34.701972],[139.376005,34.701886],[139.376116,34.701819],[139.37622,34.701764],[139.376437,34.70169],[139.376602,34.701636],[139.376721,34.701599],[139.376812,34.701564],[139.377185,34.701379],[139.377334,34.701302],[139.377465,34.701221],[139.377548,34.701154],[139.377608,34.701078],[139.37767,34.700947],[139.377741,34.700794],[139.377813,34.700621],[139.377875,34.700502],[139.377931,34.700421],[139.378055,34.700292],[139.378208,34.700149],[139.378344,34.700026],[139.37845,34.699905],[139.378529,34.699786],[139.378615,34.69963],[139.378838,34.699206]]}},{"type":"Feature","properties":{"id":150332170,"highway":"secondary"},"geometry":{"type":"LineString","coordinates":[[139.395459,34.687537],[139.396411,34.686653],[139.396651,34.686433],[139.397189,34.68594],[139.397315,34.685854],[139.397435,34.685795]]}},{"type":"Feature","properties":{"id":150332191,"highway":"secondary"},"geometry":{"type":"LineString","coordinates":[[139.38829,34.693491],[139.388387,34.693229],[139.388468,34.693014],[139.388482,34.692979],[139.388537,34.692848],[139.38858,34.692779],[139.388646,34.692673],[139.3889,34.692317],[139.388924,34.692239],[139.388846,34.69214]]}},{"type":"Feature","properties":{"id":150332194,"highway":"secondary"},"geometry":{"type":"LineString","coordinates":[[139.392426,34.689892],[139.39297,34.689541],[139.393405,34.68926],[139.393632,34.689102],[139.393852,34.688931],[139.39404,34.688763],[139.394282,34.688548],[139.394964,34.687956],[139.395378,34.687606],[139.395459,34.687537]]}},{"type":"Feature","properties":{"id":188016113,"highway":"secondary"},"geometry":{"type":"LineString","coordinates":[[139.378838,34.699206],[139.379071,34.698957],[139.379286,34.698794],[139.379507,34.698627],[139.379716,34.698528],[139.379776,34.698495],[139.37989,34.698433],[139.380121,34.698297],[139.380353,34.698168],[139.380593,34.698025],[139.380816,34.69791],[139.380907,34.697862],[139.381161,34.697722],[139.381401,34.697596],[139.381566,34.697556],[139.381737,34.697546]]}},{"type":"Feature","properties":{"id":198610234,"highway":"unclassified"},"geometry":{"type":"LineString","coordinates":[[139.390452,34.689799],[139.390173,34.689724],[139.390084,34.689594],[139.390098,34.689435],[139.390245,34.689325],[139.39069,34.68895],[139.390921,34.688778],[139.391259,34.688641],[139.391651,34.688513],[139.391965,34.688341],[139.392099,34.688297],[139.392512,34.688114],[139.39308,34.68799],[139.39374,34.687869],[139.394097,34.687821],[139.394443,34.687794],[139.394797,34.687781],[139.394971,34.687763],[139.395256,34.687646],[139.395378,34.687606]]}},{"type":"Feature","properties":{"id":201880787,"highway":"secondary"},"geometry":{"type":"LineString","coordinates":[[139.381737,34.697546],[139.381945,34.697579],[139.382152,34.697653]]}},{"type":"Feature","properties":{"id":201880788,"highway":"secondary"},"geometry":{"type":"LineString","coordinates":[[139.381737,34.697546],[139.381751,34.697428],[139.381796,34.697368],[139.383942,34.696158],[139.384359,34.695919],[139.384701,34.695693],[139.385024,34.695415],[139.385394,34.695025],[139.386213,34.694044],[139.386359,34.6939],[139.38662,34.693657],[139.386836,34.693457],[139.387331,34.693079],[139.387816,34.692781],[139.38794,34.692698],[139.388846,34.69214]]}},{"type":"Feature","properties":{"id":201880789,"highway":"unclassified"},"geometry":{"type":"LineString","coordinates":[[139.378838,34.699206],[139.378993,34.698902],[139.379112,34.698702],[139.379233,34.698554],[139.379374,34.698373],[139.379475,34.698232],[139.379516,34.69815],[139.379591,34.698003],[139.379697,34.69778],[139.379801,34.697504],[139.379895,34.697324],[139.379925,34.697285]]}},{"type":"Feature","properties":{"id":201880793,"highway":"unclassified"},"geometry":{"type":"LineString","coordinates":[[139.379516,34.69815],[139.379639,34.69833],[139.379776,34.698495]]}},{"type":"Feature","properties":{"id":242672173,"highway":"residential"},"geometry":{"type":"LineString","coordinates":[[139.391486,34.690464],[139.39173,34.690753],[139.391891,34.690945],[139.392069,34.69117],[139.392256,34.69141],[139.392387,34.691578],[139.392434,34.691668],[139.392485,34.691815],[139.392542,34.692076]]}},{"type":"Feature","properties":{"id":242672174,"highway":"residential"},"geometry":{"type":"LineString","coordinates":[[139.38858,34.692779],[139.389058,34.693254],[139.389363,34.693551],[139.389636,34.693763],[139.389899,34.693975],[139.390204,34.69417],[139.390322,34.694255],[139.390751,34.694382],[139.39137,34.694378],[139.391911,34.694467],[139.392265,34.694551]]}},{"type":"Feature","properties":{"id":242672188,"highway":"residential"},"geometry":{"type":"LineString","coordinates":[[139.393853,34.696125],[139.393683,34.6959],[139.39358,34.695774],[139.393629,34.695721],[139.39383,34.695649],[139.394072,34.695534]]}},{"type":"Feature","properties":{"id":242672193,"highway":"residential"},"geometry":{"type":"LineString","coordinates":[[139.392321,34.694483],[139.393064,34.694741],[139.393429,34.694969],[139.393706,34.695212],[139.393863,34.695344],[139.394072,34.695534],[139.394133,34.69559],[139.394414,34.695941],[139.394801,34.69643]]}},{"type":"Feature","properties":{"id":242672196,"highway":"service"},"geometry":{"type":"LineString","coordinates":[[139.385507,34.694152],[139.385634,34.693936],[139.385819,34.693497],[139.385924,34.693238],[139.386045,34.692971],[139.386233,34.69273],[139.38631,34.69263],[139.386344,34.692587],[139.386732,34.692074],[139.386935,34.691776],[139.387054,34.691698],[139.387876,34.692107]]}},{"type":"Feature","properties":{"id":242672202,"highway":"service"},"geometry":{"type":"LineString","coordinates":[[139.391588,34.692876],[139.391969,34.693036],[139.392181,34.693111],[139.392382,34.693195],[139.392455,34.693246]]}},{"type":"Feature","properties":{"id":242672203,"highway":"service"},"geometry":{"type":"LineString","coordinates":[[139.386233,34.69273],[139.385995,34.692634],[139.38584,34.692564],[139.385742,34.692451],[139.385714,34.692363]]}},{"type":"Feature","properties":{"id":684940659,"highway":"secondary"},"geometry":{"type":"LineString","coordinates":[[139.388846,34.69214],[139.389055,34.691997]]}}]}