{"type":"FeatureCollection","features":[{"type":"Feature","properties":{"id":138172507,"highway":"service"},"geometry":{"type":"LineString","coordinates":[[139.310218,36.609173],[139.310157,36.609212],[139.31009,36.609212],[139.310028,36.609189],[139.309973,36.609151],[139.309897,36.60908],[139.309785,36.608947],[139.309719,36.608905],[139.309575,36.608871],[139.30949,36.608853],[139.309432,36.608825],[139.309388,36.608789],[139.30934,36.608678],[139.309322,36.6086],[139.309329,36.608471]]}},{"type":"Feature","properties":{"id":138177801,"highway":"service"},"geometry":{"type":"LineString","coordinates":[[139.310218,36.609173],[139.31035,36.608726],[139.310373,36.608648],[139.310359,36.608562],[139.310307,36.60844],[139.310267,36.608291],[139.310111,36.608068],[139.309855,36.607619],[139.309716,36.607374],[139.309642,36.607264],[139.309582,36.607203],[139.309528,36.607151],[139.309457,36.607109],[139.309303,36.607093],[139.309173,36.607078],[139.309103,36.607063],[139.309045,36.607033],[139.308985,36.606985],[139.308917,36.606922],[139.308864,36.606873],[139.308803,36.606837],[139.308707,36.606805],[139.308604,36.60678],[139.308524,36.606757],[139.308476,36.606728],[139.308442,36.606687],[139.308433,36.606641],[139.308442,36.606608],[139.30857,36.606458],[139.308594,36.606416],[139.308601,36.606373],[139.308573,36.606325],[139.308491,36.606227],[139.308425,36.606158],[139.3084,36.606088],[139.308385,36.606052],[139.308393,36.605997],[139.308423,36.605925],[139.308458,36.605833],[139.308492,36.605732],[139.308522,36.605617],[139.308538,36.605505],[139.308555,36.605362],[139.308617,36.60512],[139.308739,36.604737],[139.308787,36.604612],[139.308801,36.604528],[139.308807,36.604438],[139.308785,36.604307],[139.308802,36.604242],[139.308841,36.604182],[139.308897,36.604157],[139.308967,36.604156],[139.309016,36.604175],[139.309047,36.604199],[139.309068,36.604239],[139.309074,36.604321],[139.30907,36.604413],[139.309042,36.604555],[139.309032,36.604645],[139.309058,36.6047],[139.30912,36.604739],[139.309205,36.604745],[139.309255,36.604726],[139.30929,36.604707],[139.309323,36.604655],[139.309327,36.604595],[139.309323,36.604313],[139.309292,36.604124],[139.30931,36.603958],[139.309335,36.603828],[139.309339,36.603783],[139.309321,36.603754],[139.309243,36.603706],[139.309121,36.603625],[139.309075,36.60359],[139.309054,36.603549],[139.309056,36.603506],[139.309083,36.603466],[139.309132,36.603441],[139.309355,36.6034],[139.309473,36.603369],[139.309503,36.603328],[139.309516,36.603263],[139.309501,36.603011],[139.309471,36.602906],[139.309452,36.602842],[139.309311,36.602538],[139.309209,36.602317],[139.309181,36.602258],[139.30911,36.602121],[139.30902,36.601879],[139.309006,36.601839],[139.308989,36.601762],[139.308987,36.601662],[139.309017,36.60152],[139.309082,36.601373],[139.309178,36.601206],[139.309299,36.601033],[139.309443,36.600885],[139.309612,36.600772],[139.309731,36.600704],[139.309756,36.600677],[139.309771,36.600622],[139.309763,36.600142],[139.30977,36.599906],[139.309772,36.599745],[139.309791,36.599662],[139.309832,36.599604],[139.309891,36.59957],[139.310136,36.599484],[139.310272,36.599452],[139.310377,36.599415],[139.310447,36.599383],[139.310595,36.599289],[139.310742,36.599181],[139.310818,36.599147],[139.311043,36.599069],[139.311147,36.599028],[139.311195,36.598983],[139.311349,36.598746],[139.311503,36.598546],[139.311533,36.598444],[139.311525,36.598066],[139.311532,36.597946],[139.311564,36.597878],[139.311701,36.597734],[139.311825,36.597625],[139.31196,36.597547],[139.312131,36.597518],[139.31242,36.597507],[139.312494,36.597484],[139.312534,36.597449],[139.312595,36.597357],[139.312758,36.597119],[139.312843,36.597014],[139.312925,36.596934],[139.313401,36.596602],[139.313541,36.596465],[139.313733,36.596305],[139.313862,36.59623],[139.313961,36.596154],[139.313996,36.596048],[139.313997,36.595931],[139.313992,36.595831],[139.313983,36.595739],[139.314016,36.595697],[139.314073,36.595673],[139.314156,36.595672],[139.314204,36.595694],[139.314222,36.595745],[139.314253,36.595813],[139.314268,36.595927],[139.314271,36.595986],[139.314262,36.596032],[139.314232,36.59609],[139.31419,36.596122],[139.314122,36.596188],[139.314043,36.596257],[139.314026,36.596291],[139.314042,36.59632],[139.314102,36.596362],[139.314173,36.596373],[139.314234,36.596367],[139.314331,36.596303],[139.31439,36.596213],[139.314454,36.59606],[139.314488,36.595985],[139.314499,36.595899],[139.314486,36.595807],[139.314457,36.595723],[139.314425,36.595641],[139.314387,36.595568],[139.314355,36.595495],[139.314363,36.595297],[139.314376,36.595219],[139.314431,36.595103],[139.314466,36.595026],[139.314472,36.594951],[139.314463,36.594829],[139.314464,36.594701],[139.31448,36.594664],[139.314543,36.594645],[139.314592,36.59465],[139.314641,36.594672],[139.314745,36.594818],[139.31499,36.595102],[139.315031,36.595145],[139.315091,36.595154],[139.315184,36.595162],[139.315265,36.595137]]}},{"type":"Feature","properties":{"id":138182922,"highway":"unclassified"},"geometry":{"type":"LineString","coordinates":[[139.332016,36.594895],[139.33205,36.594896],[139.332099,36.594907],[139.332141,36.594928],[139.332145,36.59495],[139.332137,36.594978],[139.33213,36.59502],[139.332136,36.59507],[139.332142,36.595115],[139.332141,36.595157],[139.332114,36.595215],[139.33207,36.595265],[139.332032,36.595331],[139.331895,36.595553],[139.331831,36.595716],[139.331804,36.59588],[139.331761,36.595975],[139.331635,36.596145],[139.331384,36.596405],[139.331286,36.596562],[139.331223,36.596759],[139.33123,36.597165],[139.331272,36.597429],[139.331356,36.597655],[139.331356,36.597756],[139.331244,36.597993],[139.331239,36.598096],[139.331294,36.598162],[139.33142,36.598229],[139.331507,36.598265],[139.331601,36.598302],[139.331625,36.598324],[139.331632,36.59835],[139.331632,36.598439],[139.331629,36.598518],[139.33165,36.598591],[139.331692,36.598624],[139.331769,36.598674],[139.331852,36.598736],[139.331871,36.598784],[139.33186,36.598855],[139.331754,36.599115],[139.331727,36.599178],[139.331701,36.59931],[139.331712,36.599347],[139.331742,36.599379],[139.331772,36.599401],[139.331807,36.599415],[139.33187,36.599429],[139.331914,36.59942],[139.331949,36.599397],[139.332022,36.599354],[139.332151,36.599261],[139.332181,36.599244],[139.332277,36.599196],[139.332349,36.599158],[139.332416,36.599143],[139.332474,36.599135],[139.332521,36.599139],[139.332559,36.59915],[139.332586,36.599178],[139.332584,36.599251],[139.332584,36.599373],[139.332586,36.59944],[139.332607,36.599495],[139.332705,36.599585],[139.332754,36.599649],[139.332789,36.599756],[139.332802,36.59993],[139.332819,36.599971],[139.332846,36.599994],[139.332884,36.600001],[139.332941,36.599976],[139.333,36.599938],[139.333072,36.599883],[139.333139,36.599831],[139.333206,36.599779],[139.333236,36.599752],[139.333287,36.599724],[139.333329,36.599727],[139.333367,36.599746],[139.333386,36.599774],[139.333398,36.599815],[139.333388,36.599916],[139.333389,36.600026],[139.333431,36.600206],[139.333515,36.600342],[139.334052,36.600763],[139.334151,36.600853],[139.334151,36.600886],[139.334124,36.600923],[139.334057,36.600927],[139.333964,36.600914],[139.333864,36.600854],[139.33379,36.600798],[139.333648,36.600691],[139.333543,36.600635],[139.333403,36.600589],[139.333294,36.600581],[139.333226,36.600604],[139.333189,36.600658],[139.333189,36.600715],[139.333211,36.600757],[139.333278,36.600798],[139.333578,36.600944],[139.333725,36.601063],[139.333802,36.601192],[139.333809,36.601356],[139.333746,36.601615],[139.333732,36.601863],[139.333704,36.601981],[139.333655,36.602059],[139.333525,36.602185],[139.333446,36.602264],[139.333426,36.602296],[139.333424,36.60234],[139.333508,36.602458],[139.333515,36.602571],[139.333459,36.602757],[139.333438,36.602926],[139.333466,36.603016],[139.333599,36.603079],[139.333711,36.60309],[139.333788,36.603074],[139.333858,36.603022],[139.333927,36.602853],[139.333962,36.602797],[139.333997,36.602757],[139.334056,36.602744],[139.334135,36.602775],[139.334172,36.60283],[139.334199,36.60292],[139.334213,36.60309],[139.33422,36.603395],[139.334262,36.603457],[139.334353,36.603495],[139.334444,36.603512],[139.334514,36.603552],[139.334556,36.60362],[139.334584,36.60371],[139.334584,36.603782],[139.334563,36.603885],[139.334527,36.604002],[139.334475,36.604142],[139.334424,36.604249],[139.334373,36.604367],[139.334376,36.604424],[139.334441,36.604495],[139.334506,36.604557],[139.334543,36.604617],[139.334543,36.604672],[139.334527,36.604695],[139.334509,36.604715],[139.334471,36.604745],[139.33442,36.604765],[139.334337,36.604757],[139.334272,36.60472],[139.334206,36.604657],[139.334117,36.604637],[139.33405,36.604675],[139.334005,36.604744],[139.333999,36.604799],[139.334011,36.604848],[139.334025,36.604875],[139.334088,36.604932],[139.334186,36.604972],[139.334297,36.604972],[139.334423,36.604944],[139.33462,36.604845],[139.334686,36.604804],[139.334775,36.60476],[139.334866,36.604747],[139.334907,36.604759],[139.334949,36.604802],[139.334962,36.604857],[139.334967,36.604925],[139.334973,36.605],[139.334961,36.605044],[139.334912,36.605118],[139.334751,36.605276],[139.334688,36.60536],[139.334639,36.605558],[139.334612,36.605603],[139.334402,36.605783],[139.334314,36.605869],[139.334304,36.605879],[139.334255,36.605952],[139.334213,36.606081],[139.334206,36.606233],[139.33423,36.606296],[139.334259,36.606355],[139.334297,36.606419],[139.334388,36.606493],[139.334514,36.606543],[139.334633,36.606543],[139.334695,36.606521],[139.3348,36.606453],[139.334977,36.606255],[139.335064,36.606178],[139.335146,36.606114],[139.335227,36.606126],[139.335259,36.606138],[139.335307,36.606178],[139.335363,36.606229],[139.335399,36.606261],[139.335451,36.60633],[139.335513,36.606421],[139.335549,36.606477],[139.335605,36.606559],[139.335653,36.606629],[139.335663,36.606671],[139.335646,36.606723],[139.33563,36.606755],[139.335602,36.606808],[139.335606,36.606878],[139.335613,36.606914],[139.335676,36.606973],[139.335734,36.607011],[139.335792,36.607022],[139.335918,36.607022],[139.336039,36.606973]]}},{"type":"Feature","properties":{"id":214263801,"highway":"unclassified"},"geometry":{"type":"LineString","coordinates":[[139.375675,36.627864],[139.375748,36.627837],[139.375825,36.627858],[139.375923,36.627954],[139.376216,36.628314],[139.376433,36.628494],[139.376677,36.628624],[139.376866,36.628686],[139.37697,36.628703],[139.37716,36.628691],[139.37723,36.628663],[139.377306,36.628618],[139.377355,36.628522],[139.377349,36.628427],[139.377236,36.628033],[139.377244,36.627954],[139.377265,36.627903],[139.377425,36.627807],[139.377571,36.627756],[139.377565,36.627683],[139.37746,36.627485],[139.377348,36.627203],[139.377334,36.626955],[139.377376,36.62681],[139.377401,36.626757]]}},{"type":"Feature","properties":{"id":1531292699,"highway":"unclassified"},"geometry":{"type":"LineString","coordinates":[[139.342148,36.606963],[139.342142,36.606894],[139.342122,36.606827],[139.34198,36.606702],[139.341895,36.606578],[139.341816,36.606359],[139.341693,36.606132],[139.34159,36.60598],[139.341421,36.605749],[139.34124,36.605631],[139.341071,36.605569],[139.340913,36.605514],[139.340805,36.605432],[139.340752,36.60539],[139.340698,36.605318],[139.340678,36.60528],[139.340652,36.605238],[139.34061,36.605143],[139.340558,36.605024],[139.340511,36.604915],[139.340488,36.604819],[139.340457,36.60474],[139.340435,36.60469],[139.340427,36.604647],[139.340411,36.604584],[139.340415,36.604539],[139.340433,36.6045],[139.34048,36.604462],[139.340503,36.604445],[139.340562,36.60439],[139.34062,36.604325],[139.340675,36.60427],[139.340693,36.604227],[139.340711,36.604174],[139.340711,36.604127],[139.340698,36.604075],[139.340685,36.604025],[139.340667,36.60397],[139.340666,36.60391],[139.340688,36.603845],[139.340728,36.603797],[139.340771,36.603739],[139.340813,36.603682],[139.34082,36.603552],[139.340792,36.603461],[139.340785,36.60336],[139.340806,36.60327],[139.340841,36.603185],[139.340841,36.60316],[139.340841,36.60309],[139.340771,36.602909],[139.34077,36.602732],[139.340756,36.602624],[139.34071,36.602535],[139.340751,36.602376],[139.340639,36.602227],[139.340635,36.602131],[139.34066,36.602053],[139.340685,36.602038],[139.340767,36.601998],[139.340876,36.601966]]}},{"type":"Feature","properties":{"id":1531292700,"highway":"unclassified"},"geometry":{"type":"LineString","coordinates":[[139.34199,36.607081],[139.342046,36.607052],[139.342114,36.607008],[139.342148,36.606963]]}},{"type":"Feature","properties":{"id":1531292703,"highway":"unclassified"},"geometry":{"type":"LineString","coordinates":[[139.342678,36.598789],[139.34252,36.598838],[139.342392,36.598886],[139.34234,36.598919],[139.342303,36.598965],[139.34224,36.599073],[139.342201,36.599173],[139.342187,36.599262],[139.342212,36.599327],[139.342309,36.599406],[139.342459,36.599502],[139.342539,36.599577],[139.342543,36.599674],[139.342489,36.599754],[139.342332,36.599876],[139.342285,36.599933],[139.342284,36.600008],[139.342324,36.600085],[139.342392,36.600182],[139.34274,36.600427],[139.342874,36.600545],[139.343031,36.600806],[139.343099,36.601002],[139.34316,36.601115],[139.343251,36.601213],[139.343525,36.60145],[139.343635,36.601486],[139.343981,36.601584],[139.344018,36.60163],[139.344015,36.601696],[139.343981,36.601798],[139.343929,36.601851],[139.343866,36.601923],[139.343793,36.601959],[139.343733,36.601977],[139.343625,36.601983],[139.343464,36.601962],[139.343377,36.601983],[139.343343,36.602031],[139.343322,36.602094],[139.343356,36.602174],[139.343468,36.602303],[139.343513,36.602491],[139.3435,36.602662],[139.343487,36.602722]]}},{"type":"Feature","properties":{"id":1531292707,"highway":"unclassified"},"geometry":{"type":"LineString","coordinates":[[139.343354,36.602898],[139.343311,36.602913],[139.343182,36.602917],[139.343089,36.6029],[139.342996,36.602841],[139.342774,36.602629],[139.342718,36.602598],[139.342637,36.602566],[139.342418,36.602485],[139.342379,36.602452],[139.341996,36.601969],[139.341921,36.601885],[139.341844,36.601833],[139.34169,36.601767],[139.34154,36.601655],[139.341467,36.601634],[139.341378,36.601654],[139.341312,36.601711],[139.34122,36.601818],[139.341146,36.601874],[139.341082,36.601905],[139.341001,36.601932],[139.340876,36.601966]]}},{"type":"Feature","properties":{"id":1531292708,"highway":"unclassified"},"geometry":{"type":"LineString","coordinates":[[139.343487,36.602722],[139.343354,36.602898]]}},{"type":"Feature","properties":{"id":1531292717,"highway":"unclassified"},"geometry":{"type":"LineString","coordinates":[[139.336199,36.606933],[139.336253,36.606838],[139.336281,36.606774],[139.336295,36.606481],[139.336407,36.606171],[139.336407,36.606059],[139.336169,36.605558],[139.336155,36.605484],[139.336146,36.605404],[139.336148,36.605327],[139.336175,36.605248],[139.336232,36.605145],[139.336484,36.604892],[139.336533,36.60483],[139.336561,36.60478],[139.336519,36.604447],[139.336536,36.604402],[139.336568,36.604374],[139.336624,36.604342],[139.336714,36.604317],[139.336826,36.604314],[139.336958,36.604317],[139.337154,36.604362],[139.337217,36.604397],[139.337475,36.604707],[139.337664,36.604819],[139.337908,36.604915],[139.338174,36.604963],[139.338368,36.604949],[139.338613,36.604915],[139.3389,36.604915],[139.338997,36.604937],[139.339101,36.604974],[139.339148,36.605019],[139.339172,36.605068],[139.339172,36.605145],[139.33911,36.605259],[139.338913,36.605439],[139.338885,36.605479],[139.338857,36.605619],[139.338775,36.605799],[139.338773,36.6058],[139.33876,36.605884],[139.338795,36.605986],[139.338913,36.606149],[139.339067,36.606318],[139.339151,36.606363],[139.339346,36.606408],[139.339625,36.606408],[139.339814,36.606374],[139.33994,36.606323],[139.34017,36.606199],[139.340285,36.606151],[139.340363,36.606149],[139.340443,36.606143],[139.340496,36.606146],[139.340523,36.606161],[139.340555,36.606192],[139.340563,36.606217],[139.340548,36.606251],[139.340525,36.606278],[139.3405,36.606301],[139.340467,36.606325],[139.340417,36.606361],[139.340352,36.606388],[139.3403,36.606401],[139.3402,36.606431],[139.340163,36.606449],[139.340131,36.606482],[139.340122,36.606512],[139.340136,36.606534],[139.340165,36.606559],[139.340221,36.606554],[139.34029,36.606543],[139.340372,36.606526],[139.340465,36.606503],[139.34056,36.606487],[139.340617,36.60647],[139.340715,36.606462],[139.340806,36.606464],[139.340946,36.606498],[139.34117,36.606611],[139.341575,36.606904],[139.341921,36.607079],[139.34199,36.607081]]}},{"type":"Feature","properties":{"id":1531292718,"highway":"unclassified"},"geometry":{"type":"LineString","coordinates":[[139.336039,36.606973],[139.336199,36.606933]]}}]}