{"type":"FeatureCollection","features":[{"type":"Feature","properties":{"id":69908376,"highway":"trunk"},"geometry":{"type":"LineString","coordinates":[[139.307702,36.876126],[139.307703,36.876034],[139.307702,36.875913],[139.30767,36.875697],[139.307542,36.875396],[139.307269,36.874908],[139.306936,36.874247],[139.306888,36.874144],[139.306807,36.874037],[139.306663,36.873883],[139.306019,36.873132],[139.305831,36.872943],[139.305686,36.872771],[139.305488,36.872522],[139.305236,36.872209],[139.305145,36.872093],[139.305016,36.871982],[139.304876,36.8719],[139.304726,36.871849],[139.303798,36.871612],[139.303492,36.871527],[139.303304,36.871467],[139.303176,36.871398],[139.303079,36.871338],[139.302967,36.871235],[139.302462,36.870737],[139.301679,36.870081],[139.301556,36.869969],[139.30147,36.869875],[139.301405,36.869784],[139.30132,36.869634],[139.301051,36.869188],[139.300976,36.869072],[139.300885,36.868986],[139.300762,36.86887],[139.300622,36.868763],[139.300472,36.868647],[139.300376,36.868557],[139.300102,36.868282],[139.299952,36.868149],[139.299839,36.868106],[139.299619,36.868042],[139.299437,36.867999],[139.299319,36.867943],[139.299222,36.867866],[139.299136,36.867767],[139.299045,36.867626],[139.298965,36.867424],[139.298884,36.867282],[139.298793,36.867115],[139.298648,36.866952],[139.298519,36.86681],[139.298375,36.866652],[139.298181,36.866415],[139.298064,36.866261],[139.297951,36.866076],[139.29787,36.865922],[139.297822,36.865776],[139.297785,36.865587],[139.297726,36.865287],[139.297715,36.864995]]}},{"type":"Feature","properties":{"id":69908407,"highway":"primary"},"geometry":{"type":"LineString","coordinates":[[139.307714,36.877992],[139.307727,36.878077],[139.307748,36.878257],[139.30783,36.878618],[139.307896,36.878969],[139.3079,36.879036],[139.307891,36.879111],[139.307864,36.879191],[139.30784,36.879241],[139.307701,36.879469],[139.307491,36.879823],[139.307459,36.879901],[139.307439,36.879977],[139.307423,36.880063],[139.307416,36.880134],[139.307432,36.880324],[139.307461,36.880586],[139.307465,36.880684],[139.307451,36.880808],[139.307428,36.880866],[139.307393,36.88093],[139.306862,36.881544],[139.306681,36.881726],[139.306272,36.881997],[139.306037,36.882225],[139.305974,36.882365],[139.305953,36.882578],[139.305904,36.882777],[139.305855,36.882868],[139.305806,36.882945],[139.305554,36.88321],[139.30549,36.883288],[139.305461,36.883355],[139.305441,36.88344],[139.305441,36.883777],[139.305441,36.88383],[139.30549,36.88424],[139.305483,36.884652],[139.305511,36.885103],[139.305504,36.885294],[139.305462,36.885407],[139.305175,36.885852],[139.305098,36.885933],[139.304951,36.886111],[139.304804,36.88624],[139.304474,36.886409],[139.30411,36.886612],[139.304061,36.886651],[139.303907,36.886776],[139.303598,36.887113],[139.30317,36.887553],[139.303065,36.88771],[139.302925,36.887998],[139.302833,36.888234],[139.302637,36.888685],[139.30242,36.889264],[139.302315,36.889467],[139.302013,36.889912],[139.301558,36.890525],[139.301342,36.890797],[139.30116,36.891077],[139.301117,36.891191],[139.30102,36.891619],[139.301017,36.891652]]}},{"type":"Feature","properties":{"id":70165795,"highway":"trunk"},"geometry":{"type":"LineString","coordinates":[[139.39345,36.822937],[139.39301,36.82353],[139.39285,36.823823],[139.392778,36.824124],[139.392575,36.825133],[139.392548,36.825284],[139.392532,36.825387],[139.392483,36.825481],[139.39243,36.82555],[139.392366,36.825601],[139.392274,36.82564],[139.392145,36.825674],[139.392038,36.825691],[139.391851,36.825679],[139.391604,36.825627],[139.390633,36.825468],[139.39052,36.825464],[139.390418,36.825464],[139.390311,36.825468],[139.390225,36.825481],[139.389769,36.825606],[139.38963,36.825631],[139.389501,36.825627],[139.389426,36.825601],[139.389372,36.825558],[139.389345,36.82549],[139.389319,36.82543],[139.38934,36.825335],[139.389372,36.825249],[139.389447,36.825185],[139.389597,36.825112],[139.389839,36.82503],[139.39008,36.824949],[139.390204,36.824884],[139.390289,36.824807],[139.390316,36.8247],[139.390332,36.824596],[139.390295,36.824459],[139.39022,36.824373],[139.390091,36.824309],[139.389946,36.824275],[139.389801,36.824266],[139.38963,36.824296],[139.389501,36.824339],[139.389394,36.824416],[139.389286,36.824541],[139.389066,36.82491],[139.388954,36.825013],[139.388884,36.825077],[139.388787,36.825125],[139.388702,36.825125],[139.388594,36.825112],[139.388492,36.825047],[139.388465,36.824953],[139.38846,36.824833],[139.388482,36.824717],[139.388567,36.824605],[139.388718,36.824489],[139.388814,36.824373],[139.388836,36.824292],[139.388814,36.82418],[139.388766,36.824064],[139.388686,36.824004],[139.388524,36.823982],[139.388396,36.823991],[139.388219,36.824043],[139.388015,36.824159],[139.387709,36.824365],[139.387564,36.824425],[139.387457,36.824459],[139.387334,36.824472],[139.387194,36.824455],[139.387092,36.824416],[139.386974,36.824335],[139.386856,36.82427],[139.386765,36.824244],[139.386626,36.824249],[139.386524,36.824266],[139.386432,36.824292],[139.386347,36.824335],[139.386298,36.824429],[139.386271,36.824528],[139.386223,36.824657],[139.386186,36.824768],[139.386111,36.824828],[139.386009,36.824889],[139.385885,36.824889],[139.38581,36.824871],[139.385687,36.82482],[139.384517,36.82412],[139.382731,36.823012],[139.38161,36.822239],[139.380997,36.82175],[139.380494,36.821397],[139.380202,36.821247],[139.380027,36.821167],[139.379868,36.821102],[139.3797,36.821055],[139.379473,36.82101],[139.379292,36.820993],[139.37907,36.820983],[139.378836,36.821004],[139.378533,36.82105],[139.378107,36.821131],[139.377946,36.82117],[139.37779,36.821251],[139.377656,36.82135],[139.377544,36.821436],[139.377436,36.821556],[139.377372,36.821681],[139.377313,36.821797],[139.377179,36.822299],[139.377125,36.822492],[139.377039,36.822664],[139.376959,36.822806],[139.376841,36.822948],[139.37668,36.823081],[139.376444,36.82324],[139.375838,36.823596],[139.375172,36.823871],[139.374658,36.824077],[139.374271,36.824206],[139.373762,36.824352],[139.373172,36.824494],[139.372367,36.824674],[139.372174,36.824725],[139.372002,36.824794],[139.371836,36.82488],[139.371691,36.824966],[139.371326,36.825181],[139.371101,36.825309],[139.370935,36.825374],[139.370736,36.825417],[139.370559,36.825443],[139.370361,36.82546],[139.370125,36.82546],[139.36991,36.825438],[139.369636,36.825395],[139.3694,36.825352],[139.369175,36.825305],[139.36903,36.825271],[139.368864,36.825206],[139.368682,36.825133],[139.368467,36.825026],[139.36829,36.82494],[139.36814,36.824846],[139.368016,36.824764],[139.367727,36.824545],[139.367636,36.824481],[139.367496,36.824416],[139.367335,36.824352],[139.365683,36.823751],[139.365382,36.823673],[139.365162,36.82363],[139.364985,36.823605],[139.364792,36.823583],[139.364594,36.82357],[139.364374,36.823557],[139.364202,36.823549],[139.364052,36.823549],[139.363864,36.823557],[139.363677,36.823592],[139.363344,36.823669],[139.362899,36.823806],[139.362416,36.823961],[139.362212,36.824025],[139.362067,36.82406],[139.361922,36.824073],[139.361799,36.824077],[139.361601,36.824064],[139.361365,36.824043],[139.361257,36.824034],[139.361161,36.824025],[139.361064,36.824025],[139.360946,36.824038],[139.360817,36.824064],[139.360667,36.824086],[139.360393,36.824133],[139.360088,36.824202],[139.359696,36.824283],[139.359374,36.82436],[139.358988,36.824476],[139.358693,36.824588],[139.358505,36.824661],[139.358393,36.824691],[139.358296,36.824704],[139.358119,36.824687],[139.358006,36.824648],[139.357802,36.824592],[139.357636,36.824519],[139.357438,36.824425],[139.357159,36.824275],[139.356912,36.824146],[139.356665,36.824017],[139.356333,36.823888],[139.35608,36.823794],[139.35585,36.823716],[139.355662,36.823639],[139.35541,36.823544],[139.355163,36.823467],[139.355029,36.823416],[139.354841,36.823343],[139.354686,36.823253],[139.354487,36.823128],[139.35423,36.822952],[139.354074,36.822823],[139.353897,36.822699],[139.353763,36.822587],[139.353629,36.822462],[139.353554,36.822359],[139.353468,36.822235],[139.35342,36.822158],[139.353388,36.82208],[139.353334,36.821939],[139.353291,36.821762],[139.353211,36.821462],[139.353146,36.821281],[139.353023,36.820951],[139.352974,36.820796],[139.352932,36.82065],[139.352915,36.820551],[139.352915,36.820457],[139.352937,36.820332],[139.352969,36.820195],[139.353114,36.81968],[139.353125,36.819577],[139.353109,36.819448],[139.353087,36.819336],[139.35305,36.819237],[139.352958,36.819104],[139.352873,36.819031],[139.352749,36.818962],[139.352492,36.818872],[139.352213,36.818761],[139.35195,36.818649],[139.351821,36.818572],[139.351709,36.81849],[139.351612,36.818421],[139.351494,36.818306],[139.351419,36.818194],[139.351333,36.818078],[139.351215,36.817829],[139.35107,36.81755],[139.351033,36.817459],[139.351011,36.817374],[139.351,36.817292],[139.351,36.817202],[139.351016,36.817107],[139.351054,36.816983],[139.351124,36.81685],[139.351188,36.816772],[139.351279,36.816708],[139.351381,36.816635],[139.351564,36.816545],[139.351735,36.816485],[139.351918,36.816424],[139.352111,36.81636],[139.352256,36.816308],[139.352374,36.816218],[139.352454,36.816133],[139.352519,36.816042],[139.352556,36.815956],[139.352545,36.815849],[139.352529,36.815754],[139.352492,36.815609],[139.352422,36.815527],[139.352374,36.815467],[139.352288,36.815411],[139.352181,36.815351],[139.352047,36.815317],[139.351671,36.815205],[139.35144,36.815123],[139.351338,36.81508],[139.351231,36.815024],[139.351156,36.814977],[139.351076,36.814913],[139.350995,36.814848],[139.350936,36.81478],[139.350856,36.814616],[139.350743,36.81438],[139.350673,36.814174],[139.350604,36.814054],[139.350523,36.813959],[139.350453,36.813891],[139.350357,36.813835],[139.350249,36.813783],[139.350142,36.813753],[139.350019,36.813745],[139.349847,36.813753],[139.349756,36.813775],[139.349627,36.813818],[139.349531,36.813882],[139.349413,36.813972],[139.349337,36.814045],[139.349166,36.814286],[139.349064,36.814488],[139.348967,36.814655],[139.348892,36.814793],[139.348817,36.814891],[139.348737,36.814982],[139.348646,36.815067],[139.348495,36.815183],[139.348356,36.815256],[139.348157,36.815291],[139.347937,36.815295],[139.347766,36.815269],[139.347642,36.815235],[139.34746,36.815175],[139.347272,36.815119],[139.34709,36.815046],[139.347015,36.814982],[139.34695,36.814909],[139.346934,36.814827],[139.346934,36.814745],[139.347009,36.814647],[139.347106,36.814604],[139.347229,36.814565],[139.347342,36.814552],[139.347465,36.814565],[139.347685,36.814586],[139.347851,36.814582],[139.348018,36.814535],[139.348109,36.814462],[139.348168,36.814393],[139.348195,36.814312],[139.348179,36.814217],[139.348163,36.814131],[139.348104,36.814015],[139.347991,36.813891],[139.347835,36.813822],[139.347717,36.813809],[139.347573,36.813809],[139.347444,36.813852],[139.347176,36.813938],[139.34695,36.814024],[139.346811,36.814084],[139.346666,36.81417],[139.346575,36.814239],[139.34643,36.814363],[139.346312,36.814543],[139.346146,36.81478],[139.345926,36.815162],[139.345832,36.815346],[139.345778,36.815402],[139.345722,36.815445],[139.345643,36.815481],[139.345559,36.815499],[139.345465,36.815491],[139.345388,36.815474],[139.345328,36.815438],[139.345282,36.815394],[139.345255,36.815351],[139.345233,36.815287],[139.345221,36.815227],[139.34523,36.815158],[139.34525,36.815098],[139.345309,36.814921],[139.345357,36.814793],[139.34541,36.814662],[139.345486,36.814538],[139.345581,36.814428],[139.345674,36.814333],[139.345781,36.814226],[139.345893,36.814114],[139.346049,36.813989],[139.346591,36.813573],[139.34682,36.813398],[139.346862,36.813352],[139.346892,36.81329],[139.346917,36.813203],[139.346915,36.813133],[139.346897,36.81304],[139.34684,36.812978],[139.346725,36.812914],[139.346626,36.812883],[139.346492,36.812879],[139.346347,36.812901],[139.346242,36.812952],[139.346135,36.813043],[139.346087,36.813141],[139.346022,36.813373],[139.345963,36.813536],[139.34591,36.813646],[139.345824,36.813736],[139.345738,36.813779],[139.345625,36.813818],[139.345491,36.813861],[139.344393,36.814205],[139.344308,36.814243],[139.343974,36.814451],[139.343861,36.814516],[139.343776,36.814547],[139.343705,36.81456],[139.343604,36.814564],[139.343173,36.814553],[139.343103,36.814571],[139.343027,36.814605],[139.34297,36.814665],[139.342929,36.814747],[139.342863,36.814861],[139.342804,36.814977],[139.342374,36.815785],[139.342031,36.816446],[139.341961,36.816551],[139.341899,36.816697],[139.341858,36.816826],[139.341824,36.816966],[139.341815,36.81707],[139.34185,36.817152],[139.341916,36.817249],[139.342541,36.818028],[139.343279,36.81882],[139.343401,36.818883],[139.344382,36.819191],[139.344573,36.819215],[139.344771,36.819183],[139.345776,36.81879],[139.345902,36.818776],[139.346026,36.818798],[139.346114,36.818858],[139.34616,36.818937],[139.346172,36.819029],[139.346123,36.81912],[139.345524,36.81984],[139.345482,36.819936],[139.34548,36.820092],[139.345646,36.820649],[139.345765,36.820832],[139.347231,36.822519],[139.3473,36.822615],[139.34731,36.82271],[139.347277,36.822777],[139.347177,36.822826],[139.347056,36.822834],[139.346928,36.822796],[139.34532,36.822196],[139.345093,36.822089],[139.344943,36.822009],[139.344216,36.821389],[139.344135,36.821256],[139.344108,36.821157],[139.344141,36.820976],[139.344248,36.820779],[139.344291,36.820672],[139.344324,36.820567],[139.344332,36.820462],[139.344269,36.820365],[139.344167,36.820319],[139.34404,36.820313],[139.343895,36.820342],[139.343756,36.8204],[139.343066,36.820652],[139.342383,36.820916],[139.341807,36.82117],[139.340541,36.822129],[139.340155,36.822337],[139.33886,36.822941],[139.338405,36.823108],[139.336755,36.823495],[139.336588,36.823494],[139.336448,36.823468],[139.336316,36.823428],[139.336215,36.823343],[139.335676,36.822225],[139.335603,36.82202],[139.33557,36.821836],[139.33558,36.820119],[139.335549,36.819953],[139.335504,36.819767],[139.335459,36.819629],[139.335424,36.819508],[139.335366,36.819405],[139.335286,36.819316],[139.335139,36.819207],[139.335032,36.819147],[139.334876,36.819078],[139.334651,36.819018],[139.334345,36.818978],[139.333964,36.81895],[139.333178,36.818876],[139.332035,36.818782],[139.331841,36.818764],[139.331737,36.818743],[139.331622,36.818702],[139.331512,36.818649],[139.33142,36.818588],[139.331314,36.818482],[139.331186,36.81834],[139.330489,36.817557],[139.330356,36.817473],[139.330192,36.81739],[139.33004,36.817325],[139.32772,36.816734],[139.327607,36.816691],[139.327543,36.816631],[139.327516,36.816549],[139.327504,36.816383],[139.327529,36.816233],[139.327592,36.816114],[139.327679,36.81603],[139.327807,36.815966],[139.328473,36.815832],[139.328712,36.815778],[139.328829,36.815731],[139.328936,36.815685],[139.329026,36.81562],[139.329088,36.815544],[139.329103,36.815483],[139.329108,36.815424],[139.329093,36.815351],[139.32853,36.813438],[139.328455,36.813229],[139.328364,36.813105],[139.328254,36.813005],[139.328121,36.812948],[139.327986,36.812903],[139.327848,36.812868],[139.32769,36.812851],[139.327476,36.812851],[139.327159,36.812865],[139.326427,36.812962],[139.326054,36.812966],[139.325861,36.812955],[139.325676,36.812912],[139.325519,36.812877],[139.325293,36.812797],[139.32501,36.812671],[139.324459,36.81235],[139.322892,36.811477],[139.322704,36.8114],[139.32256,36.811352],[139.322377,36.81134],[139.322248,36.811335],[139.322109,36.811357],[139.321969,36.811382],[139.321841,36.81143],[139.321685,36.811498],[139.319893,36.812538],[139.319743,36.812641],[139.319692,36.812705],[139.319636,36.8128],[139.319593,36.812933],[139.319582,36.813019],[139.319596,36.81313],[139.319633,36.813214],[139.319679,36.813283],[139.319775,36.813412],[139.319912,36.813551],[139.320068,36.813693],[139.320349,36.813929],[139.32088,36.814335],[139.321049,36.814475],[139.321157,36.814666],[139.321237,36.814876],[139.32123,36.814934]]}},{"type":"Feature","properties":{"id":70165920,"highway":"trunk"},"geometry":{"type":"LineString","coordinates":[[139.397676,36.817176],[139.39345,36.822937]]}},{"type":"Feature","properties":{"id":127637414,"highway":"trunk"},"geometry":{"type":"LineString","coordinates":[[139.32123,36.814934],[139.321192,36.815],[139.321147,36.815055],[139.321095,36.815098],[139.321029,36.81513]]}},{"type":"Feature","properties":{"id":127637415,"highway":"trunk"},"geometry":{"type":"LineString","coordinates":[[139.31986,36.814759],[139.319712,36.814701],[139.319581,36.814631],[139.319175,36.814359],[139.318987,36.814281],[139.318842,36.814221],[139.318745,36.814226],[139.318386,36.814354],[139.317962,36.814539],[139.317715,36.814629],[139.317554,36.814685],[139.31741,36.814681],[139.317308,36.814616],[139.31726,36.814509],[139.317158,36.814294],[139.317034,36.814024],[139.316932,36.81377],[139.316809,36.813447],[139.316747,36.813348],[139.316675,36.813289],[139.316546,36.813242],[139.316315,36.813208],[139.315881,36.813216],[139.315725,36.813186],[139.315586,36.8131],[139.314765,36.812482],[139.314637,36.812407],[139.314486,36.812349]]}},{"type":"Feature","properties":{"id":127637416,"highway":"trunk"},"geometry":{"type":"LineString","coordinates":[[139.313023,36.812222],[139.312895,36.812317],[139.312509,36.812855],[139.312417,36.812931],[139.312319,36.81298],[139.312163,36.813036],[139.312024,36.81304],[139.311926,36.813005],[139.311852,36.812963],[139.311756,36.812868],[139.311703,36.812773],[139.311675,36.812688],[139.311645,36.812498],[139.311648,36.812258],[139.311664,36.811971],[139.311718,36.811649],[139.312083,36.810382],[139.312115,36.810201],[139.312104,36.81006],[139.312045,36.809836],[139.311922,36.809639],[139.311815,36.809518],[139.311675,36.809381],[139.311482,36.809291],[139.311257,36.809213],[139.311005,36.809149],[139.310093,36.808917],[139.309857,36.808874],[139.309663,36.808857],[139.309524,36.80887],[139.309401,36.808909],[139.309208,36.808977],[139.308977,36.809115],[139.308687,36.809291],[139.30851,36.809381],[139.308387,36.809428],[139.308242,36.809463],[139.308027,36.809475],[139.307791,36.809467],[139.306504,36.809407],[139.306016,36.809372],[139.305903,36.809355],[139.305699,36.809312],[139.305517,36.809256],[139.303784,36.808681],[139.30336,36.808535],[139.302963,36.808367],[139.302733,36.808251],[139.302534,36.808153],[139.302432,36.808088],[139.302427,36.808007],[139.302454,36.807904],[139.302556,36.807831],[139.302743,36.807792],[139.30292,36.807779],[139.303205,36.807826],[139.304442,36.807978],[139.304832,36.808077],[139.304961,36.808098],[139.305078,36.808102],[139.305188,36.808081],[139.305279,36.808037],[139.305338,36.807972],[139.305367,36.807899],[139.305382,36.807817],[139.30538,36.807767],[139.305348,36.807698],[139.305282,36.807645],[139.305147,36.807599],[139.304868,36.807513],[139.303789,36.80719],[139.303119,36.807002],[139.302743,36.806903],[139.30255,36.80686],[139.30232,36.806821],[139.302143,36.806813],[139.301944,36.806804],[139.301633,36.806804],[139.301059,36.806834],[139.300882,36.806821],[139.3007,36.806787],[139.300533,36.806727],[139.300405,36.806649],[139.300206,36.806495],[139.298951,36.805752],[139.298811,36.805704],[139.298677,36.805683],[139.298548,36.805674],[139.29842,36.805692],[139.29828,36.805734],[139.29784,36.805846],[139.297701,36.805868],[139.297561,36.805868],[139.297433,36.805855],[139.297325,36.805855],[139.297143,36.80582],[139.296837,36.805734],[139.296242,36.805515],[139.296075,36.805434],[139.295974,36.805348],[139.295861,36.805232],[139.295694,36.805034],[139.295088,36.804214],[139.294377,36.803375],[139.294284,36.803265],[139.293919,36.802865],[139.293688,36.802655],[139.293506,36.80253],[139.293323,36.802414],[139.293189,36.802341],[139.293082,36.802255],[139.292937,36.802139],[139.292787,36.801998],[139.292631,36.801792],[139.292503,36.801632],[139.29239,36.801525],[139.292245,36.801414],[139.29209,36.801336],[139.291907,36.801246],[139.289912,36.800383],[139.289279,36.800078],[139.289096,36.79997],[139.288941,36.799854],[139.288774,36.7997],[139.288646,36.799562],[139.28856,36.799446],[139.28841,36.799304],[139.288281,36.799171],[139.288072,36.799038],[139.287803,36.798879],[139.287524,36.79878],[139.287256,36.798712],[139.286693,36.798566],[139.286275,36.798501],[139.286103,36.798488],[139.285915,36.798497],[139.28577,36.798523],[139.285599,36.798583],[139.28539,36.79869],[139.285223,36.798742],[139.2851,36.79878],[139.284939,36.798802],[139.284783,36.798785],[139.284445,36.798677],[139.284317,36.798591],[139.284231,36.798497],[139.284177,36.798329],[139.284054,36.797926],[139.283963,36.797659],[139.283882,36.79738],[139.283818,36.797127],[139.283727,36.796856],[139.283598,36.796534],[139.28341,36.796229],[139.283297,36.796083],[139.283195,36.795967],[139.283094,36.795894],[139.283002,36.795847],[139.282852,36.795812],[139.282632,36.795786],[139.282218,36.79577],[139.28181,36.795726],[139.281542,36.795701],[139.281435,36.795676],[139.281259,36.795633],[139.281107,36.795574],[139.28085,36.79545],[139.28051,36.795264],[139.27988,36.79497],[139.279478,36.794747],[139.279274,36.794669],[139.279022,36.794609],[139.278196,36.794446],[139.276758,36.794137],[139.275829,36.793903],[139.275369,36.793793],[139.274972,36.79366],[139.274795,36.793578],[139.274655,36.793497],[139.274516,36.793385],[139.273582,36.792637],[139.273464,36.79259],[139.273341,36.792556],[139.273223,36.792552],[139.27311,36.79256],[139.272971,36.792603],[139.272869,36.792655],[139.27267,36.792788],[139.272236,36.793016],[139.272129,36.793067],[139.272027,36.793101],[139.271893,36.793101],[139.271764,36.793084],[139.271657,36.793024],[139.271603,36.792955],[139.271533,36.792848],[139.271442,36.792668],[139.271378,36.792509],[139.271319,36.792367],[139.271238,36.792242],[139.271163,36.792144],[139.271083,36.792049],[139.270879,36.791894],[139.269865,36.791151],[139.269741,36.791087],[139.269586,36.791035],[139.269366,36.790984],[139.268631,36.790829],[139.268454,36.790782],[139.268298,36.790692],[139.267987,36.79052],[139.267386,36.79024],[139.267236,36.79021],[139.267118,36.790197],[139.266973,36.79021],[139.266866,36.790249],[139.26677,36.790343],[139.266641,36.790494],[139.266487,36.790692],[139.26611,36.791177],[139.266002,36.79128],[139.265911,36.791353],[139.265783,36.791409],[139.265686,36.791435],[139.265568,36.791448],[139.265402,36.791443],[139.265208,36.791426],[139.264956,36.791405],[139.263739,36.791134],[139.263202,36.791022],[139.262607,36.790898],[139.262382,36.790859],[139.26214,36.790812],[139.261909,36.790795],[139.261673,36.790795],[139.261593,36.7908],[139.261407,36.790812],[139.260909,36.790844],[139.260801,36.790844],[139.260705,36.790836],[139.260633,36.790832],[139.260558,36.790817],[139.260502,36.7908],[139.260435,36.790774],[139.260332,36.790723],[139.260196,36.790623],[139.260097,36.79053],[139.260035,36.790453],[139.259978,36.790342],[139.259874,36.790154],[139.25977,36.78997],[139.2597,36.789871],[139.259632,36.789791],[139.25956,36.789739],[139.25944,36.789669],[139.25939,36.789651],[139.259303,36.789619],[139.259194,36.789599],[139.259054,36.789597],[139.258891,36.789599],[139.258667,36.789593],[139.258505,36.789585],[139.258401,36.789575],[139.258299,36.789551],[139.258191,36.789515],[139.258081,36.789459],[139.258001,36.789412],[139.25788,36.789338],[139.257709,36.789209],[139.25762,36.78915],[139.257509,36.789089],[139.257411,36.789048],[139.257338,36.789038],[139.25724,36.789027],[139.25706,36.789016],[139.256754,36.789012],[139.256448,36.789009],[139.256314,36.789001],[139.256193,36.788982],[139.256081,36.78895],[139.255839,36.788836],[139.255344,36.788618],[139.254637,36.788289],[139.253446,36.787743],[139.253258,36.787664],[139.253119,36.787618],[139.252981,36.787582],[139.252819,36.787554],[139.252645,36.787538],[139.252334,36.787508],[139.252044,36.787465],[139.251882,36.787428],[139.251797,36.787411],[139.251616,36.787368],[139.251399,36.787308],[139.251152,36.787228],[139.250907,36.787149],[139.250662,36.787042],[139.250506,36.786974],[139.250392,36.78691],[139.250269,36.786817],[139.250126,36.786703],[139.249933,36.78651],[139.249687,36.786277],[139.249497,36.786107],[139.249361,36.786005],[139.249281,36.785957],[139.248288,36.785322],[139.247896,36.785071],[139.24758,36.784869],[139.247394,36.784765],[139.24725,36.784701],[139.247123,36.784654],[139.246733,36.784517],[139.246324,36.784396],[139.245779,36.784213],[139.245001,36.783915],[139.244947,36.783895],[139.244067,36.783564],[139.243418,36.783306],[139.243171,36.783203],[139.243005,36.78313],[139.24285,36.783031],[139.242813,36.78301],[139.242635,36.782907],[139.242211,36.782597],[139.241978,36.782434],[139.241553,36.782137],[139.24139,36.782026],[139.241197,36.781923],[139.240715,36.781687],[139.240267,36.781472],[139.240115,36.781399],[139.240049,36.781367],[139.239846,36.78127],[139.239727,36.781193],[139.23961,36.781085],[139.239518,36.780999],[139.239454,36.7809],[139.2394,36.780754],[139.238913,36.779443],[139.23872,36.779023],[139.238668,36.778923],[139.238609,36.778844],[139.238496,36.77872],[139.238371,36.778584],[139.237829,36.778133],[139.237596,36.777924]]}},{"type":"Feature","properties":{"id":127637419,"highway":"trunk"},"geometry":{"type":"LineString","coordinates":[[139.314486,36.812349],[139.31418,36.812224],[139.313907,36.812168],[139.313622,36.812138],[139.313394,36.812128],[139.313196,36.812158],[139.313023,36.812222]]}},{"type":"Feature","properties":{"id":127637476,"highway":"service"},"geometry":{"type":"LineString","coordinates":[[139.379292,36.820993],[139.379294,36.821098],[139.379384,36.821399],[139.379493,36.821841],[139.379577,36.822091],[139.379605,36.822314],[139.379577,36.822634],[139.379526,36.822922],[139.379526,36.823013]]}},{"type":"Feature","properties":{"id":127637570,"highway":"residential"},"geometry":{"type":"LineString","coordinates":[[139.324579,36.815372],[139.32473,36.815754],[139.324772,36.815831],[139.324812,36.815902],[139.324879,36.815948],[139.325094,36.816069],[139.325392,36.816245],[139.325507,36.816322],[139.325709,36.816435],[139.325899,36.816553],[139.326297,36.816801],[139.326448,36.816931]]}},{"type":"Feature","properties":{"id":127637582,"highway":"tertiary"},"geometry":{"type":"LineString","coordinates":[[139.296668,36.804918],[139.297226,36.805068],[139.297415,36.805107],[139.297653,36.805141],[139.298738,36.805152],[139.29892,36.805175],[139.299235,36.805259],[139.299956,36.805468],[139.300583,36.805654],[139.300929,36.805749],[139.301075,36.805787],[139.301329,36.805866]]}},{"type":"Feature","properties":{"id":127637728,"highway":"residential"},"geometry":{"type":"LineString","coordinates":[[139.323969,36.814073],[139.323735,36.814077],[139.323446,36.81404],[139.323327,36.814055],[139.323286,36.8141],[139.323308,36.814201],[139.323432,36.814463],[139.323689,36.814903],[139.323951,36.815385],[139.324019,36.81544],[139.324129,36.815481],[139.324267,36.815495],[139.324373,36.815463],[139.324579,36.815372]]}},{"type":"Feature","properties":{"id":127637938,"highway":"residential"},"geometry":{"type":"LineString","coordinates":[[139.326448,36.816931],[139.326464,36.817206]]}},{"type":"Feature","properties":{"id":127638013,"highway":"residential"},"geometry":{"type":"LineString","coordinates":[[139.323727,36.81363],[139.323969,36.814073]]}},{"type":"Feature","properties":{"id":127638106,"highway":"unclassified"},"geometry":{"type":"LineString","coordinates":[[139.327132,36.81329],[139.327203,36.81329],[139.327678,36.81331],[139.327812,36.813335],[139.327868,36.81338],[139.327867,36.813448],[139.3278,36.813567],[139.32757,36.813865],[139.327487,36.814051],[139.327417,36.814282],[139.327417,36.814507],[139.32743,36.814608],[139.327485,36.814772],[139.327632,36.814998],[139.327737,36.815094],[139.327898,36.81516],[139.328353,36.815308],[139.328613,36.815349],[139.328738,36.815367],[139.328949,36.815415],[139.329103,36.815483]]}},{"type":"Feature","properties":{"id":127638149,"highway":"unclassified"},"geometry":{"type":"LineString","coordinates":[[139.327115,36.813826],[139.32708,36.813932],[139.327052,36.814113],[139.327042,36.814745],[139.32701,36.814798],[139.326975,36.814821],[139.326933,36.814833],[139.326887,36.814823],[139.326835,36.814778],[139.326813,36.814704],[139.326835,36.814456],[139.326813,36.814338],[139.326778,36.814231],[139.326765,36.814169],[139.326772,36.814045],[139.326822,36.813905],[139.326813,36.813758],[139.326772,36.813589],[139.326772,36.813465],[139.326813,36.813347],[139.32683,36.813308],[139.326868,36.813283],[139.327132,36.81329],[139.327143,36.813645],[139.327115,36.813826]]}},{"type":"Feature","properties":{"id":127638195,"highway":"residential"},"geometry":{"type":"LineString","coordinates":[[139.322361,36.811535],[139.322433,36.81152],[139.322545,36.811539],[139.322788,36.811639],[139.323097,36.81179],[139.323351,36.811913],[139.323444,36.811979],[139.32351,36.812033],[139.323633,36.812156],[139.323772,36.812278],[139.323976,36.812417],[139.324127,36.812533],[139.324227,36.812618],[139.324316,36.81271],[139.324421,36.81289],[139.324467,36.813021],[139.324502,36.81318],[139.324518,36.813325],[139.324552,36.813402],[139.324668,36.813495],[139.324737,36.813568],[139.324753,36.813615],[139.324737,36.81366],[139.32456,36.813733],[139.324336,36.813834],[139.324248,36.81385],[139.323981,36.81385],[139.323727,36.81363]]}},{"type":"Feature","properties":{"id":127638302,"highway":"residential"},"geometry":{"type":"LineString","coordinates":[[139.322248,36.811335],[139.322247,36.811367],[139.322361,36.811535]]}},{"type":"Feature","properties":{"id":127638409,"highway":"unclassified"},"geometry":{"type":"LineString","coordinates":[[139.350137,36.828004],[139.350124,36.828065],[139.350061,36.828262],[139.350039,36.828341],[139.349991,36.82842],[139.349858,36.828527],[139.349718,36.828583],[139.349591,36.828606],[139.348653,36.828617],[139.348556,36.828628],[139.348318,36.828701],[139.348166,36.828755],[139.348124,36.828904],[139.348113,36.829019],[139.348172,36.829539],[139.348226,36.829715],[139.348311,36.829845],[139.348563,36.83016],[139.348618,36.830284],[139.348626,36.830448],[139.348534,36.830988],[139.348534,36.831084],[139.348639,36.831197],[139.348786,36.83127],[139.348926,36.831332],[139.348996,36.831394],[139.349573,36.832272],[139.349573,36.832332],[139.349577,36.832376],[139.349563,36.832446],[139.349521,36.832581],[139.349486,36.832677],[139.349332,36.832795],[139.348331,36.83342],[139.34748,36.83395]]}},{"type":"Feature","properties":{"id":127638488,"highway":"unclassified"},"geometry":{"type":"LineString","coordinates":[[139.327132,36.81329],[139.327147,36.81316],[139.327157,36.813061],[139.327159,36.812865]]}},{"type":"Feature","properties":{"id":127638639,"highway":"unclassified"},"geometry":{"type":"LineString","coordinates":[[139.345093,36.822089],[139.345233,36.82234],[139.345296,36.822399],[139.345351,36.822439],[139.345411,36.822471],[139.34585,36.822627],[139.346175,36.822765],[139.346714,36.82312],[139.346847,36.823216],[139.346917,36.82325],[139.347205,36.823295],[139.347638,36.823356],[139.347792,36.823384],[139.348065,36.82348],[139.348108,36.823507],[139.348339,36.823609],[139.348654,36.823727],[139.348731,36.82375],[139.349032,36.823879],[139.349095,36.823924],[139.34927,36.824161],[139.349403,36.824257],[139.349536,36.824375],[139.349619,36.824489],[139.349654,36.82459],[139.349641,36.824674],[139.349571,36.824804],[139.349403,36.825017],[139.349326,36.825097],[139.349193,36.825192],[139.348843,36.825407],[139.348668,36.825507],[139.348626,36.825542],[139.34857,36.825964],[139.348563,36.826127],[139.348604,36.826229],[139.348709,36.826352],[139.348856,36.826522],[139.349053,36.82686],[139.349234,36.827045],[139.349431,36.827175],[139.349928,36.827468],[139.350047,36.827575],[139.350117,36.827688],[139.350144,36.827761],[139.350144,36.827969],[139.350137,36.828004]]}},{"type":"Feature","properties":{"id":127638702,"highway":"residential"},"geometry":{"type":"LineString","coordinates":[[139.323969,36.814073],[139.324078,36.814282],[139.324231,36.814609],[139.324474,36.815155],[139.324579,36.815372]]}},{"type":"Feature","properties":{"id":127638841,"highway":"residential"},"geometry":{"type":"LineString","coordinates":[[139.328712,36.815778],[139.328886,36.815949],[139.329023,36.815995],[139.329164,36.816017],[139.329275,36.815954],[139.329361,36.815879],[139.329383,36.814584],[139.329388,36.814295],[139.329528,36.814076],[139.330211,36.813152],[139.33026,36.813108],[139.330362,36.813084],[139.330471,36.813108],[139.330538,36.813147],[139.330569,36.813219],[139.330636,36.813604],[139.330663,36.813685],[139.330719,36.813731],[139.330773,36.813732],[139.330877,36.813668],[139.331155,36.813369]]}},{"type":"Feature","properties":{"id":127638900,"highway":"residential"},"geometry":{"type":"LineString","coordinates":[[139.305382,36.807817],[139.305529,36.807854],[139.30578,36.807991],[139.30594,36.808114],[139.306057,36.808221],[139.30613,36.808367],[139.306157,36.808535],[139.306167,36.808765],[139.306187,36.808805],[139.306244,36.808833],[139.306437,36.808855],[139.306482,36.808833],[139.306587,36.80877],[139.306714,36.80869],[139.306824,36.808606],[139.306905,36.808535],[139.307022,36.808478],[139.307089,36.808467],[139.307194,36.808472],[139.307289,36.808501],[139.307352,36.808569],[139.307408,36.808703],[139.307469,36.808855],[139.307539,36.80895],[139.307637,36.808975],[139.307991,36.808973],[139.308051,36.80895],[139.308114,36.80891],[139.308138,36.808834],[139.308167,36.808706],[139.308196,36.808462],[139.308233,36.808307],[139.308283,36.808252],[139.308348,36.808194],[139.308474,36.808158],[139.30888,36.808159],[139.309153,36.808091],[139.309239,36.808067],[139.309371,36.808054],[139.309646,36.808025],[139.309926,36.808017],[139.31016,36.808025],[139.310302,36.808007],[139.310409,36.807975],[139.310779,36.807836],[139.310953,36.807792],[139.31115,36.80776],[139.311278,36.807755],[139.31136,36.807729],[139.31147,36.807684],[139.311554,36.807666],[139.311617,36.807684],[139.311683,36.807726],[139.311696,36.807771],[139.311706,36.807896],[139.311745,36.80797],[139.311847,36.808059],[139.311984,36.808156],[139.312102,36.808298],[139.312236,36.808424],[139.312375,36.808521],[139.312546,36.808605],[139.31282,36.808698],[139.313033,36.808764],[139.313224,36.808876],[139.313372,36.809019]]}},{"type":"Feature","properties":{"id":127638935,"highway":"residential"},"geometry":{"type":"LineString","coordinates":[[139.322361,36.811535],[139.32268,36.81203],[139.322848,36.812287],[139.323091,36.812665],[139.323371,36.813082],[139.323525,36.813318],[139.323727,36.81363]]}},{"type":"Feature","properties":{"id":311268193,"highway":"service"},"geometry":{"type":"LineString","coordinates":[[139.347313,36.834581],[139.347719,36.834386],[139.348118,36.834218]]}},{"type":"Feature","properties":{"id":311268196,"highway":"service"},"geometry":{"type":"LineString","coordinates":[[139.347449,36.833999],[139.347541,36.834138],[139.347636,36.834269],[139.347719,36.834386]]}},{"type":"Feature","properties":{"id":311268198,"highway":"service"},"geometry":{"type":"LineString","coordinates":[[139.347541,36.834138],[139.347284,36.834268]]}},{"type":"Feature","properties":{"id":311268200,"highway":"service"},"geometry":{"type":"LineString","coordinates":[[139.34748,36.83395],[139.347449,36.833999],[139.347244,36.834155],[139.34722,36.83423],[139.347202,36.834359],[139.347241,36.834507],[139.347313,36.834581]]}},{"type":"Feature","properties":{"id":311268202,"highway":"service"},"geometry":{"type":"LineString","coordinates":[[139.347313,36.834581],[139.347189,36.834667],[139.347124,36.834798],[139.347134,36.835004],[139.347194,36.835345],[139.347371,36.83526],[139.347535,36.835183],[139.347673,36.835116],[139.347785,36.835047],[139.347721,36.834945],[139.347397,36.83464],[139.347313,36.834581]]}},{"type":"Feature","properties":{"id":360746338,"highway":"service"},"geometry":{"type":"LineString","coordinates":[[139.347284,36.834268],[139.347379,36.834399]]}},{"type":"Feature","properties":{"id":360746339,"highway":"service"},"geometry":{"type":"LineString","coordinates":[[139.347379,36.834399],[139.347636,36.834269]]}},{"type":"Feature","properties":{"id":429287567,"highway":"primary"},"geometry":{"type":"LineString","coordinates":[[139.307702,36.876126],[139.307662,36.87647],[139.307649,36.876898],[139.307648,36.877404],[139.307714,36.877992]]}},{"type":"Feature","properties":{"id":429287569,"highway":"primary"},"geometry":{"type":"LineString","coordinates":[[139.301017,36.891652],[139.300992,36.891967],[139.30097,36.892543],[139.300942,36.892853],[139.300912,36.892965],[139.300745,36.893337],[139.300657,36.893549],[139.300605,36.893641],[139.300535,36.893703],[139.300465,36.893754],[139.30034,36.89381],[139.300197,36.893858],[139.300117,36.893869],[139.299932,36.893849]]}},{"type":"Feature","properties":{"id":547957680,"highway":"residential"},"geometry":{"type":"LineString","coordinates":[[139.388974,36.866427],[139.388946,36.866349],[139.388613,36.866027]]}},{"type":"Feature","properties":{"id":584830250,"highway":"service"},"geometry":{"type":"LineString","coordinates":[[139.330207,36.81525],[139.330394,36.815263],[139.330542,36.815263],[139.330646,36.815162],[139.33067,36.815035],[139.330864,36.815327],[139.331116,36.815677],[139.331312,36.815914],[139.331548,36.816193],[139.331708,36.816309],[139.331886,36.816332],[139.3321,36.816212],[139.332272,36.816049],[139.332406,36.815946],[139.332524,36.81583],[139.332655,36.815851],[139.332851,36.816045],[139.333111,36.816309],[139.333248,36.816412],[139.333423,36.816412],[139.333618,36.816283],[139.333809,36.816158],[139.333972,36.816064],[139.334203,36.816004],[139.334361,36.81603],[139.334691,36.81615],[139.334831,36.816169],[139.334954,36.816141],[139.33504,36.816057],[139.335212,36.815903],[139.335335,36.815793],[139.33545,36.815667],[139.3356,36.815525],[139.335638,36.81545],[139.335614,36.815282],[139.335544,36.815102],[139.335477,36.814965],[139.335351,36.814612],[139.335311,36.814539],[139.33534,36.81438]]}},{"type":"Feature","properties":{"id":584830254,"highway":"service"},"geometry":{"type":"LineString","coordinates":[[139.336799,36.814091],[139.336987,36.814099],[139.3374,36.813949],[139.337727,36.813846],[139.338055,36.813897],[139.338532,36.813949],[139.338768,36.813996],[139.338795,36.814241],[139.338698,36.814589],[139.338586,36.815035],[139.338527,36.815289]]}},{"type":"Feature","properties":{"id":584830262,"highway":"residential"},"geometry":{"type":"LineString","coordinates":[[139.330773,36.813732],[139.330955,36.813777],[139.331094,36.81376],[139.331274,36.813657],[139.33158,36.813442],[139.331797,36.813264],[139.332004,36.813111],[139.332167,36.813053],[139.332309,36.813053],[139.332449,36.813053],[139.332588,36.813026],[139.332685,36.812959],[139.333001,36.812798],[139.33328,36.812648],[139.333506,36.812626],[139.333822,36.812626],[139.334031,36.812807],[139.334316,36.812824],[139.334707,36.812703],[139.335024,36.812703],[139.335582,36.812695],[139.335989,36.812673],[139.33673,36.812673],[139.336976,36.812708],[139.337127,36.812849],[139.337223,36.81303],[139.337255,36.813163],[139.33725,36.813481],[139.337132,36.813743],[139.336982,36.813872],[139.336799,36.814091],[139.336628,36.814258],[139.336488,36.814387],[139.336408,36.814456],[139.336086,36.814486],[139.335641,36.814507],[139.335496,36.81464],[139.335496,36.814838],[139.335477,36.814965]]}},{"type":"Feature","properties":{"id":759518469,"highway":"service"},"geometry":{"type":"LineString","coordinates":[[139.307526,36.87647],[139.307557,36.876168]]}},{"type":"Feature","properties":{"id":759518470,"highway":"service"},"geometry":{"type":"LineString","coordinates":[[139.307662,36.87647],[139.307626,36.87647],[139.307526,36.87647],[139.307374,36.87647],[139.307361,36.876186],[139.307557,36.876168]]}},{"type":"Feature","properties":{"id":995871696,"highway":"trunk"},"geometry":{"type":"LineString","coordinates":[[139.401614,36.812319],[139.401521,36.81236],[139.40134,36.812525],[139.401142,36.812903],[139.401099,36.813186],[139.401093,36.813367],[139.401093,36.813487],[139.401136,36.813577],[139.401201,36.813654],[139.40134,36.813723],[139.401522,36.81377],[139.401646,36.813792],[139.401973,36.813792],[139.403244,36.813809],[139.403373,36.813835],[139.403459,36.813886],[139.403497,36.813968],[139.403486,36.814041],[139.403443,36.814084],[139.403352,36.814123],[139.403271,36.814127],[139.403196,36.814127],[139.403073,36.814093],[139.402848,36.814045],[139.402746,36.814015],[139.402574,36.813989],[139.402424,36.813968],[139.402257,36.813977],[139.402064,36.813994],[139.401818,36.81408],[139.401624,36.814153],[139.401447,36.814241],[139.401308,36.814369],[139.401179,36.81446],[139.401059,36.814535],[139.400924,36.814621],[139.400739,36.814702],[139.400525,36.814752],[139.400329,36.814763],[139.400114,36.814756],[139.399935,36.814743],[139.399803,36.814704],[139.39972,36.814668],[139.399623,36.814593],[139.399556,36.814483],[139.39953,36.814357],[139.399543,36.814196],[139.399629,36.813989],[139.39979,36.813646],[139.39986,36.813444],[139.399886,36.813285],[139.399886,36.813088],[139.399849,36.812963],[139.399779,36.812877],[139.399683,36.81283],[139.399559,36.812817],[139.399447,36.812843],[139.399371,36.812916],[139.399359,36.813063],[139.399398,36.813225],[139.399463,36.813328],[139.399538,36.813431],[139.399559,36.813526],[139.399538,36.813612],[139.399463,36.813715],[139.39928,36.813826],[139.398942,36.813989],[139.398551,36.814181],[139.398291,36.814269],[139.397974,36.814372],[139.397818,36.814453],[139.397727,36.814526],[139.397644,36.814659],[139.397617,36.814737],[139.397631,36.814821],[139.397679,36.814902],[139.397743,36.81496],[139.397891,36.81508],[139.398068,36.815222],[139.398154,36.815304],[139.398183,36.815413],[139.398186,36.815512],[139.398186,36.8156],[139.398183,36.815956],[139.398175,36.816147],[139.398159,36.816283],[139.398138,36.816429],[139.3981,36.816558],[139.397961,36.816791],[139.397918,36.816854],[139.397676,36.817176]]}},{"type":"Feature","properties":{"id":1000287348,"highway":"trunk"},"geometry":{"type":"LineString","coordinates":[[139.321029,36.81513],[139.32097,36.815151]]}},{"type":"Feature","properties":{"id":1000287349,"highway":"trunk"},"geometry":{"type":"LineString","coordinates":[[139.32097,36.815151],[139.320891,36.81515],[139.320579,36.815052],[139.31986,36.814759]]}}]}