{"type":"FeatureCollection","features":[{"type":"Feature","properties":{"id":154521862,"highway":"tertiary"},"geometry":{"type":"LineString","coordinates":[[139.481234,34.070505],[139.481124,34.070419],[139.481068,34.070347],[139.480996,34.070212],[139.480984,34.070088],[139.480987,34.070018],[139.481004,34.069454],[139.481019,34.068847],[139.481026,34.06854],[139.481026,34.068477]]}},{"type":"Feature","properties":{"id":154521867,"highway":"unclassified"},"geometry":{"type":"LineString","coordinates":[[139.486264,34.059756],[139.486022,34.059634],[139.485697,34.059524],[139.485478,34.059458],[139.485297,34.059387],[139.485222,34.059308],[139.485179,34.05918],[139.485147,34.059023],[139.485089,34.05884],[139.484997,34.058717],[139.484844,34.058584],[139.484733,34.058496],[139.484596,34.058427],[139.484443,34.058385],[139.484139,34.058392]]}},{"type":"Feature","properties":{"id":154521869,"highway":"residential"},"geometry":{"type":"LineString","coordinates":[[139.481551,34.082533],[139.481569,34.082487],[139.481584,34.082449],[139.481594,34.082388],[139.481591,34.082309],[139.481591,34.082247],[139.481604,34.08219],[139.481656,34.082142],[139.481774,34.082114],[139.481796,34.082092],[139.481777,34.081994],[139.481768,34.081912],[139.481812,34.081878],[139.481904,34.081849],[139.48196,34.081792],[139.481957,34.081725],[139.481922,34.081702],[139.481873,34.081665],[139.481836,34.081598],[139.481782,34.081568],[139.481721,34.081526],[139.481689,34.081445],[139.481679,34.081334],[139.481634,34.081182],[139.481524,34.080969]]}},{"type":"Feature","properties":{"id":154521877,"highway":"unclassified"},"geometry":{"type":"LineString","coordinates":[[139.47984,34.067983],[139.479869,34.068049],[139.479892,34.068116],[139.479945,34.068165],[139.480029,34.068182],[139.480111,34.068165],[139.480295,34.06813],[139.480522,34.068092],[139.480727,34.068054],[139.480901,34.068019]]}},{"type":"Feature","properties":{"id":154521879,"highway":"unclassified"},"geometry":{"type":"LineString","coordinates":[[139.483641,34.068095],[139.483778,34.068022],[139.483923,34.067925],[139.484033,34.067876],[139.484141,34.06779],[139.484211,34.067692],[139.484266,34.067596],[139.484338,34.067523],[139.484354,34.067507],[139.484456,34.06745],[139.484475,34.067411],[139.484469,34.067288],[139.484484,34.067212],[139.484554,34.067148],[139.484623,34.067111],[139.484745,34.067077],[139.484858,34.06706],[139.484942,34.067051],[139.485029,34.06706],[139.485077,34.067078]]}},{"type":"Feature","properties":{"id":154521881,"highway":"unclassified"},"geometry":{"type":"LineString","coordinates":[[139.483501,34.075018],[139.483367,34.07516],[139.483278,34.075243],[139.48307,34.075442],[139.482869,34.075613],[139.482709,34.0758],[139.482512,34.075962],[139.48231,34.076069],[139.482041,34.076175],[139.481688,34.076277],[139.481349,34.076352],[139.481078,34.076459]]}},{"type":"Feature","properties":{"id":154521925,"highway":"tertiary"},"geometry":{"type":"LineString","coordinates":[[139.483837,34.077687],[139.483759,34.077538],[139.483713,34.077449],[139.483568,34.077132],[139.483477,34.076862],[139.483427,34.076621],[139.483433,34.076384],[139.483457,34.076149],[139.483533,34.075911],[139.483631,34.075705],[139.483696,34.075511],[139.483716,34.075329],[139.483652,34.075189],[139.483591,34.075101],[139.483501,34.075018]]}},{"type":"Feature","properties":{"id":154521935,"highway":"unclassified"},"geometry":{"type":"LineString","coordinates":[[139.501536,34.098675],[139.501361,34.098797],[139.5012,34.099041],[139.501112,34.099104],[139.500797,34.099161],[139.500661,34.099152],[139.500353,34.099059],[139.500191,34.098986],[139.499891,34.099013],[139.499703,34.098981],[139.499613,34.098933],[139.499577,34.098863],[139.499569,34.098411],[139.499541,34.098349],[139.499494,34.098313],[139.499428,34.098273],[139.499361,34.098259],[139.499301,34.098257],[139.499236,34.09827],[139.499143,34.098315]]}},{"type":"Feature","properties":{"id":154521940,"highway":"residential"},"geometry":{"type":"LineString","coordinates":[[139.493153,34.099394],[139.49316,34.099359],[139.493169,34.099245],[139.493253,34.099099],[139.493278,34.099043],[139.49331,34.098955],[139.493389,34.098819],[139.493413,34.098765],[139.493417,34.098732],[139.49342,34.098691],[139.493416,34.098671],[139.493394,34.098655],[139.493341,34.098642],[139.493313,34.09863],[139.493297,34.098613],[139.493291,34.098583],[139.493288,34.098558],[139.493294,34.098507],[139.493302,34.098455],[139.493313,34.098406],[139.493329,34.09835],[139.493342,34.098309]]}},{"type":"Feature","properties":{"id":154521962,"highway":"tertiary"},"geometry":{"type":"LineString","coordinates":[[139.482981,34.065115],[139.483037,34.065155],[139.483209,34.065311],[139.483308,34.065418],[139.48338,34.065525],[139.483448,34.065724],[139.483463,34.065853],[139.483447,34.066011],[139.48341,34.066275],[139.483358,34.066669],[139.483366,34.066906],[139.483505,34.067572],[139.483568,34.067823],[139.483596,34.067965],[139.483641,34.068095]]}},{"type":"Feature","properties":{"id":154521992,"highway":"unclassified"},"geometry":{"type":"LineString","coordinates":[[139.485077,34.067078],[139.485161,34.067003],[139.485305,34.066919],[139.485373,34.066857],[139.485414,34.066793],[139.485464,34.066772],[139.485553,34.066768],[139.485641,34.066766],[139.485808,34.066741],[139.485951,34.066716],[139.48614,34.066686],[139.486212,34.066673],[139.486404,34.066671],[139.486629,34.066657],[139.486776,34.066644],[139.486888,34.066618],[139.487012,34.066563],[139.487122,34.066514],[139.487203,34.066471],[139.487275,34.066419],[139.487369,34.06634],[139.487443,34.066254],[139.487467,34.06623]]}},{"type":"Feature","properties":{"id":154522051,"highway":"unclassified"},"geometry":{"type":"LineString","coordinates":[[139.483724,34.063614],[139.483939,34.063776],[139.484098,34.063886],[139.484242,34.063975],[139.484327,34.064035],[139.484423,34.06412],[139.484502,34.064188],[139.484581,34.064258],[139.484626,34.064283],[139.484708,34.064319],[139.484809,34.064364],[139.484854,34.064401],[139.484904,34.064455],[139.485045,34.064616],[139.485179,34.064759],[139.485258,34.064839],[139.485324,34.064881],[139.485418,34.064922],[139.485523,34.064952],[139.485666,34.064983],[139.485775,34.064992],[139.485845,34.065007],[139.485893,34.06503],[139.485991,34.065087],[139.486076,34.065167],[139.486137,34.065254],[139.486171,34.065345],[139.486202,34.065424],[139.486245,34.065471],[139.486333,34.065526],[139.486442,34.065586],[139.486626,34.065677],[139.486769,34.06573],[139.48692,34.065771],[139.486998,34.065805],[139.487065,34.065844],[139.487216,34.065947],[139.487393,34.066058],[139.487532,34.06617]]}},{"type":"Feature","properties":{"id":154522065,"highway":"unclassified"},"geometry":{"type":"LineString","coordinates":[[139.494641,34.098883],[139.494765,34.098825],[139.49487,34.098769],[139.494925,34.098749],[139.495027,34.098723],[139.49527,34.098678],[139.495343,34.098661],[139.4954,34.098639],[139.49548,34.098584],[139.495528,34.098552],[139.495622,34.098501],[139.495691,34.098462],[139.495749,34.098423],[139.495849,34.09835],[139.496047,34.09821],[139.496146,34.098129],[139.496208,34.098073],[139.496292,34.097991],[139.496322,34.097963],[139.496381,34.097918],[139.496408,34.097896],[139.496439,34.097885],[139.49647,34.097878],[139.496505,34.097875],[139.496572,34.097873],[139.496639,34.097889],[139.49675,34.097954],[139.496814,34.097983],[139.496842,34.097989],[139.496886,34.097989],[139.496955,34.097983],[139.497088,34.097963],[139.497239,34.097942],[139.497293,34.097931],[139.497392,34.09791],[139.497512,34.097872],[139.497641,34.097828],[139.497781,34.097776],[139.497964,34.09767],[139.498025,34.097627],[139.498091,34.097594],[139.498194,34.097569],[139.498289,34.09756],[139.498359,34.097579]]}},{"type":"Feature","properties":{"id":154522071,"highway":"unclassified"},"geometry":{"type":"LineString","coordinates":[[139.478179,34.079678],[139.478098,34.079684],[139.477777,34.079656],[139.477606,34.07964],[139.477467,34.079602],[139.477357,34.079515],[139.477287,34.079426],[139.477198,34.079366],[139.477035,34.079285],[139.476671,34.07913],[139.476506,34.079005],[139.476302,34.0789],[139.476059,34.078808],[139.475912,34.078683],[139.475695,34.07846],[139.475399,34.078164],[139.475109,34.07779],[139.474958,34.077621],[139.474787,34.077464],[139.474537,34.077252],[139.47447,34.077175],[139.47442,34.077065],[139.474404,34.076958],[139.474442,34.076806],[139.474496,34.076636],[139.47456,34.076423],[139.474687,34.076216],[139.474869,34.076024]]}},{"type":"Feature","properties":{"id":154522072,"highway":"unclassified"},"geometry":{"type":"LineString","coordinates":[[139.486592,34.058825],[139.486511,34.058755],[139.486195,34.058643],[139.48599,34.058535],[139.485872,34.058424],[139.485768,34.058252],[139.485717,34.058136],[139.485688,34.058016],[139.485667,34.05793],[139.485648,34.057864],[139.485616,34.057714],[139.485608,34.057529],[139.485598,34.057411],[139.485525,34.057099],[139.485479,34.056886],[139.485441,34.056734],[139.485408,34.056575],[139.485408,34.056531],[139.485415,34.056489],[139.485441,34.056443],[139.485466,34.0564],[139.485506,34.056347],[139.485528,34.056309],[139.485615,34.056087],[139.485657,34.055979],[139.485699,34.055869],[139.485788,34.055688],[139.485836,34.055599],[139.485888,34.055504]]}},{"type":"Feature","properties":{"id":154522086,"highway":"unclassified"},"geometry":{"type":"LineString","coordinates":[[139.486843,34.091824],[139.486767,34.091697],[139.486934,34.091536],[139.486965,34.091457],[139.486908,34.091315],[139.487336,34.091131],[139.487447,34.091076],[139.487586,34.090977],[139.487653,34.090959],[139.487799,34.090951],[139.487914,34.090909],[139.488015,34.09085],[139.488134,34.090704],[139.488215,34.090646],[139.488648,34.090498],[139.48894,34.090482],[139.489111,34.090463],[139.489198,34.09045]]}},{"type":"Feature","properties":{"id":154522127,"highway":"unclassified"},"geometry":{"type":"LineString","coordinates":[[139.482604,34.069989],[139.482099,34.069931]]}},{"type":"Feature","properties":{"id":154522140,"highway":"tertiary"},"geometry":{"type":"LineString","coordinates":[[139.482822,34.073051],[139.482849,34.072959]]}},{"type":"Feature","properties":{"id":154522155,"highway":"unclassified"},"geometry":{"type":"LineString","coordinates":[[139.482291,34.069168],[139.482107,34.069152],[139.481968,34.069161],[139.481775,34.069181]]}},{"type":"Feature","properties":{"id":154522165,"highway":"unclassified"},"geometry":{"type":"LineString","coordinates":[[139.482099,34.069931],[139.481837,34.069902],[139.481669,34.069882]]}},{"type":"Feature","properties":{"id":154522175,"highway":"unclassified"},"geometry":{"type":"LineString","coordinates":[[139.487467,34.06623],[139.487532,34.06617]]}},{"type":"Feature","properties":{"id":154522195,"highway":"residential"},"geometry":{"type":"LineString","coordinates":[[139.474869,34.076024],[139.47496,34.076083],[139.475146,34.076199],[139.475354,34.076312],[139.475503,34.076377],[139.475677,34.076411],[139.475914,34.076413],[139.476069,34.076454],[139.476212,34.076492],[139.476304,34.076509],[139.476416,34.076472],[139.476521,34.076418],[139.476674,34.076427],[139.47676,34.076467],[139.476847,34.076514],[139.476923,34.076594],[139.476964,34.076679],[139.476991,34.076809],[139.476999,34.076867],[139.477185,34.076971],[139.477431,34.077109],[139.477808,34.077345],[139.47793,34.077465],[139.478019,34.077568],[139.478143,34.077709],[139.478237,34.077845],[139.478299,34.077921],[139.478379,34.077922]]}},{"type":"Feature","properties":{"id":154522214,"highway":"unclassified"},"geometry":{"type":"LineString","coordinates":[[139.474869,34.076024],[139.475002,34.075846],[139.475083,34.075678],[139.475141,34.075402],[139.475194,34.074984],[139.475239,34.074751],[139.475352,34.074505],[139.475606,34.074117],[139.475769,34.073879],[139.475826,34.073831],[139.475885,34.073801],[139.476015,34.073784],[139.476203,34.073804],[139.476475,34.073819],[139.47662,34.073839],[139.476665,34.073838],[139.476709,34.073829],[139.476761,34.073819],[139.47681,34.073804],[139.476914,34.073745],[139.477187,34.07355],[139.477275,34.073516],[139.477406,34.073465],[139.477564,34.073433],[139.477902,34.073388],[139.47804,34.073391],[139.478139,34.073409],[139.478218,34.073429],[139.47841,34.073528],[139.478496,34.07356],[139.478587,34.073566],[139.478702,34.07354],[139.478804,34.073483],[139.4789,34.07345],[139.478938,34.073413],[139.479024,34.073245],[139.479098,34.073204],[139.479173,34.07318],[139.479242,34.073177],[139.479329,34.073186],[139.479647,34.073249],[139.479705,34.073262]]}},{"type":"Feature","properties":{"id":154522236,"highway":"unclassified"},"geometry":{"type":"LineString","coordinates":[[139.499143,34.098315],[139.499106,34.098325],[139.498821,34.098462],[139.498775,34.098467],[139.498703,34.098457],[139.498661,34.098442],[139.498649,34.098407],[139.498645,34.098367],[139.498642,34.098128],[139.49864,34.097983],[139.498637,34.097906],[139.498629,34.097858],[139.498615,34.097816],[139.498591,34.097768],[139.498559,34.097707],[139.498535,34.097672],[139.498511,34.097649],[139.498473,34.097623],[139.498438,34.097602],[139.4984,34.097585],[139.498359,34.097579]]}},{"type":"Feature","properties":{"id":154522250,"highway":"residential"},"geometry":{"type":"LineString","coordinates":[[139.484047,34.063212],[139.483972,34.063155],[139.483888,34.063046],[139.48383,34.062922],[139.483769,34.062805],[139.483693,34.062706],[139.483622,34.062603],[139.483605,34.062535],[139.483625,34.062468],[139.483657,34.062336],[139.483663,34.062257],[139.483643,34.062212],[139.483593,34.062146],[139.483517,34.062106],[139.483455,34.062085],[139.483413,34.062074],[139.483381,34.06205],[139.483351,34.062023],[139.483351,34.062003],[139.483351,34.061979],[139.483366,34.061926],[139.483377,34.061885],[139.483383,34.061839],[139.483362,34.061802],[139.483317,34.061756],[139.483295,34.061733],[139.48326,34.0617],[139.483208,34.061661],[139.4831,34.061565],[139.483017,34.061497],[139.482923,34.061414],[139.482831,34.061307],[139.482749,34.061213],[139.482701,34.061087],[139.482676,34.06101]]}},{"type":"Feature","properties":{"id":154522276,"highway":"unclassified"},"geometry":{"type":"LineString","coordinates":[[139.480901,34.068019],[139.480805,34.067811],[139.480667,34.06746]]}},{"type":"Feature","properties":{"id":154522280,"highway":"tertiary"},"geometry":{"type":"LineString","coordinates":[[139.480901,34.068019],[139.481002,34.068304],[139.481023,34.068406],[139.481026,34.068477]]}},{"type":"Feature","properties":{"id":154522289,"highway":"unclassified"},"geometry":{"type":"LineString","coordinates":[[139.482249,34.064757],[139.482694,34.064981],[139.482919,34.065083],[139.482981,34.065115]]}},{"type":"Feature","properties":{"id":154522290,"highway":"residential"},"geometry":{"type":"LineString","coordinates":[[139.494261,34.098332],[139.494264,34.098307],[139.494253,34.098284],[139.494203,34.098241],[139.494145,34.098204],[139.494096,34.098183],[139.494045,34.098162],[139.493994,34.098154],[139.493939,34.098151],[139.493878,34.098154],[139.493825,34.09816],[139.493764,34.098167],[139.493722,34.098164],[139.493652,34.098157],[139.493616,34.09815],[139.493585,34.098159],[139.493558,34.098189]]}},{"type":"Feature","properties":{"id":154522292,"highway":"unclassified"},"geometry":{"type":"LineString","coordinates":[[139.482425,34.068081],[139.48235,34.068094],[139.482054,34.068169],[139.481669,34.068277]]}},{"type":"Feature","properties":{"id":154522294,"highway":"unclassified"},"geometry":{"type":"LineString","coordinates":[[139.482604,34.069989],[139.482817,34.070028],[139.483037,34.070079],[139.483257,34.070115]]}},{"type":"Feature","properties":{"id":154522300,"highway":"residential"},"geometry":{"type":"LineString","coordinates":[[139.482676,34.06101],[139.482655,34.060967],[139.482601,34.060918],[139.482568,34.060881],[139.482514,34.060844],[139.482476,34.060824],[139.482437,34.060788],[139.4824,34.060751],[139.482396,34.060708],[139.482401,34.06064],[139.482419,34.060588],[139.482433,34.060545],[139.482459,34.060485],[139.48252,34.060355],[139.482613,34.060139],[139.482701,34.059953],[139.482785,34.059808],[139.482855,34.059709],[139.482916,34.059621],[139.482979,34.059539],[139.483026,34.059468],[139.48306,34.059414],[139.483115,34.059337],[139.483192,34.059258],[139.483279,34.059183],[139.483304,34.059145],[139.483329,34.059085],[139.483362,34.058986],[139.483385,34.058939],[139.483409,34.058902],[139.483489,34.05885],[139.483661,34.058748],[139.483792,34.05863],[139.484064,34.058449],[139.484139,34.058392]]}},{"type":"Feature","properties":{"id":154522302,"highway":"service"},"geometry":{"type":"LineString","coordinates":[[139.493317,34.051644],[139.493552,34.051771],[139.493685,34.051849],[139.493775,34.051919],[139.493876,34.051998],[139.493966,34.052082],[139.494078,34.052199],[139.494172,34.052298],[139.494252,34.052382],[139.494425,34.052574],[139.494561,34.052728],[139.494665,34.05285],[139.494729,34.052923]]}},{"type":"Feature","properties":{"id":154522303,"highway":"unclassified"},"geometry":{"type":"LineString","coordinates":[[139.482849,34.072959],[139.48296,34.072943],[139.48301,34.07279],[139.483111,34.072692],[139.483224,34.072638],[139.48331,34.072581],[139.483454,34.072517],[139.483604,34.072434],[139.483721,34.072328],[139.483783,34.072207],[139.483828,34.072102],[139.48387,34.071956],[139.483905,34.071834],[139.483906,34.071685],[139.483902,34.071576],[139.483926,34.071418],[139.483963,34.071106],[139.483961,34.070872],[139.48396,34.070693],[139.484005,34.070557],[139.484061,34.070417],[139.484069,34.070297],[139.484088,34.070235],[139.484184,34.070028],[139.484301,34.069732],[139.484345,34.069516],[139.484384,34.069418],[139.484504,34.069208],[139.484565,34.069078],[139.48463,34.068932],[139.484671,34.068815],[139.484707,34.068703],[139.484691,34.068652],[139.484638,34.068589],[139.484555,34.068475],[139.484482,34.068376],[139.484461,34.068295],[139.484499,34.068195],[139.484566,34.068054],[139.484644,34.067884],[139.484697,34.067726],[139.484796,34.067512],[139.484874,34.067368],[139.484962,34.06725],[139.485054,34.067131],[139.485077,34.067078]]}},{"type":"Feature","properties":{"id":154522311,"highway":"residential"},"geometry":{"type":"LineString","coordinates":[[139.478468,34.076532],[139.478725,34.076652],[139.47888,34.076747],[139.479141,34.076913],[139.479325,34.077051],[139.479465,34.077146],[139.4796,34.077208],[139.479675,34.077234],[139.47972,34.077234],[139.47976,34.07723],[139.479789,34.077232],[139.479817,34.077216],[139.479861,34.077207],[139.47995,34.077181],[139.48005,34.077176],[139.480166,34.077188],[139.480254,34.077199],[139.48043,34.077224],[139.480752,34.077275],[139.480987,34.077318],[139.481049,34.077337],[139.481101,34.077353],[139.481146,34.077371],[139.481205,34.077398],[139.481258,34.077421],[139.481343,34.077464],[139.481406,34.077504],[139.481483,34.077554],[139.481541,34.077595],[139.481594,34.077633],[139.481635,34.077657],[139.481677,34.077691],[139.481703,34.07771],[139.481736,34.077736],[139.481768,34.077765],[139.481799,34.077783],[139.481825,34.077802],[139.481878,34.077819]]}},{"type":"Feature","properties":{"id":154522315,"highway":"unclassified"},"geometry":{"type":"LineString","coordinates":[[139.484139,34.058392],[139.483967,34.058389],[139.4838,34.058414],[139.483605,34.058463],[139.483384,34.058563],[139.483155,34.058678],[139.483029,34.058728],[139.482864,34.058781],[139.482709,34.058803],[139.482597,34.058802],[139.482538,34.058801],[139.482394,34.058779],[139.482192,34.058755],[139.481935,34.05871],[139.481761,34.058729],[139.48165,34.058799],[139.48158,34.058874],[139.481557,34.05891],[139.481428,34.059109],[139.481224,34.059421],[139.481096,34.059687],[139.481018,34.05989],[139.481006,34.059922],[139.48091,34.060225],[139.480905,34.060265],[139.480889,34.060383],[139.480891,34.060509],[139.480891,34.060532],[139.480893,34.060612],[139.480905,34.06072],[139.480949,34.060881],[139.481042,34.061113],[139.481104,34.061281],[139.481151,34.061431],[139.4812,34.06156],[139.481218,34.061659],[139.481229,34.061726],[139.481184,34.061965],[139.481142,34.062184],[139.481093,34.062444],[139.481061,34.062696],[139.481052,34.062846],[139.481068,34.062932],[139.481102,34.063009],[139.481173,34.063096],[139.481288,34.063212],[139.481447,34.063353],[139.481617,34.063505],[139.481729,34.063637],[139.481791,34.063811],[139.481813,34.06392],[139.481828,34.063984],[139.481866,34.064151],[139.481933,34.064411],[139.481978,34.064507],[139.48203,34.064567],[139.482055,34.064596],[139.482092,34.064638],[139.482249,34.064757]]}},{"type":"Feature","properties":{"id":154522329,"highway":"residential"},"geometry":{"type":"LineString","coordinates":[[139.482737,34.083483],[139.48275,34.08354],[139.482764,34.083658],[139.482781,34.083741],[139.482792,34.083829],[139.482781,34.08392],[139.482738,34.084036],[139.482736,34.084162],[139.482747,34.084305],[139.482763,34.084457],[139.482768,34.084636]]}},{"type":"Feature","properties":{"id":154522333,"highway":"unclassified"},"geometry":{"type":"LineString","coordinates":[[139.482119,34.072685],[139.482124,34.072349],[139.482156,34.071837],[139.482091,34.071823],[139.48218,34.071309],[139.482251,34.07097]]}},{"type":"Feature","properties":{"id":154522334,"highway":"service"},"geometry":{"type":"LineString","coordinates":[[139.47844,34.075742],[139.47911,34.075715],[139.479405,34.075646],[139.479706,34.075566],[139.480043,34.075475]]}},{"type":"Feature","properties":{"id":154522335,"highway":"unclassified"},"geometry":{"type":"LineString","coordinates":[[139.481669,34.068277],[139.481743,34.068089],[139.481977,34.067571],[139.481632,34.066684]]}},{"type":"Feature","properties":{"id":154522336,"highway":"unclassified"},"geometry":{"type":"LineString","coordinates":[[139.481026,34.068477],[139.481108,34.068452],[139.481669,34.068277]]}},{"type":"Feature","properties":{"id":154522337,"highway":"tertiary"},"geometry":{"type":"LineString","coordinates":[[139.483257,34.070115],[139.483207,34.0703],[139.48322,34.070505],[139.483239,34.070613],[139.483247,34.070878],[139.483061,34.071223]]}},{"type":"Feature","properties":{"id":154522341,"highway":"unclassified"},"geometry":{"type":"LineString","coordinates":[[139.486592,34.058825],[139.486805,34.058813],[139.486876,34.058786],[139.487,34.058664],[139.48709,34.058567],[139.487216,34.058449],[139.487367,34.058315],[139.487464,34.058266],[139.48755,34.058254],[139.487663,34.058263],[139.487802,34.058303],[139.488125,34.058404],[139.488251,34.058421],[139.488349,34.058404],[139.488437,34.05836],[139.488507,34.058301],[139.488622,34.058211],[139.488758,34.058089],[139.488825,34.058026],[139.48888,34.057986],[139.488939,34.057941],[139.489016,34.057886],[139.489065,34.057849],[139.489121,34.057809],[139.489176,34.057788],[139.489207,34.057781],[139.489253,34.057762],[139.489327,34.05775],[139.489411,34.057753],[139.489524,34.057767],[139.489658,34.057778],[139.489826,34.0578],[139.490181,34.057844],[139.490508,34.057886],[139.490789,34.05792],[139.491177,34.057971],[139.491522,34.058011],[139.491868,34.058056],[139.492224,34.058113],[139.492501,34.058172],[139.492724,34.058233],[139.492956,34.05828],[139.493217,34.058357],[139.4934,34.058434],[139.493537,34.058507],[139.493827,34.058674],[139.494079,34.058832],[139.494224,34.058927],[139.494323,34.058961],[139.494567,34.059021],[139.494787,34.059098],[139.494969,34.059152],[139.495093,34.059185],[139.495214,34.059198],[139.495297,34.059207],[139.495683,34.059223],[139.495788,34.059265],[139.495916,34.059347],[139.496085,34.059487],[139.496193,34.059567],[139.496477,34.059734],[139.496574,34.059781],[139.496667,34.059821],[139.496793,34.059854],[139.497009,34.059884],[139.49717,34.059893],[139.497298,34.059882],[139.497681,34.059849],[139.49774,34.059857],[139.497784,34.059888],[139.49781,34.059925],[139.497814,34.059978],[139.497782,34.060107],[139.497781,34.060194],[139.497802,34.060249],[139.497853,34.060315],[139.497927,34.060396],[139.498067,34.060516],[139.498114,34.060539],[139.498153,34.060544],[139.498204,34.060528],[139.498262,34.060512],[139.498325,34.060504],[139.49844,34.060509],[139.498891,34.060628],[139.498945,34.060651],[139.498986,34.060676],[139.499073,34.06077],[139.49911,34.0608],[139.499179,34.060826],[139.499244,34.06084],[139.4998,34.060799],[139.499858,34.060803],[139.499914,34.060824],[139.499964,34.060858],[139.500005,34.060924],[139.500013,34.061015],[139.499989,34.061117],[139.499928,34.061212],[139.49985,34.061278],[139.499202,34.061614],[139.499141,34.061658],[139.499096,34.061718],[139.499072,34.061776],[139.499066,34.061833],[139.499077,34.061912],[139.499111,34.061964],[139.499156,34.061999],[139.499209,34.062022],[139.499279,34.06203],[139.499339,34.062025],[139.499398,34.062005],[139.499999,34.061763],[139.500168,34.061708],[139.500693,34.061572],[139.500813,34.061545],[139.500898,34.061518],[139.50095,34.06149],[139.501,34.061457],[139.501047,34.061416],[139.501087,34.061374],[139.501122,34.061335],[139.501155,34.061286],[139.501401,34.060819],[139.501444,34.060749],[139.501479,34.060704],[139.501516,34.060667],[139.501548,34.060651],[139.50158,34.06064],[139.501697,34.060645],[139.501933,34.060723],[139.502239,34.060807],[139.5025,34.060868],[139.502584,34.060882],[139.502847,34.060895],[139.503359,34.060984],[139.503759,34.061051],[139.504027,34.061088],[139.504263,34.061127],[139.504458,34.061145],[139.504869,34.061178],[139.505081,34.061187],[139.505262,34.061203],[139.505338,34.061213],[139.505399,34.061227],[139.505474,34.061257],[139.505531,34.061288],[139.505812,34.061447],[139.505857,34.061465],[139.505904,34.061478],[139.505951,34.061487],[139.506005,34.061495],[139.506154,34.061508],[139.506626,34.061527],[139.506666,34.061536],[139.50684,34.061619],[139.506874,34.061633],[139.506945,34.061659],[139.507177,34.06171],[139.507223,34.061728],[139.50726,34.061745],[139.507296,34.061769],[139.507703,34.062125],[139.507751,34.062149],[139.507802,34.062169],[139.507937,34.062197],[139.507994,34.062224],[139.508043,34.062267],[139.508173,34.06256],[139.508202,34.062592],[139.508235,34.062609],[139.508267,34.062618],[139.508452,34.062612],[139.508495,34.062628],[139.508529,34.062661],[139.508554,34.062763],[139.508566,34.062954],[139.508581,34.062999],[139.508637,34.063055],[139.508718,34.063117],[139.508955,34.063238],[139.509012,34.063276],[139.509245,34.063449],[139.50937,34.06355],[139.509505,34.063689],[139.509721,34.063975],[139.509785,34.064036],[139.509961,34.064205],[139.509996,34.064236],[139.51004,34.064288],[139.510209,34.064479],[139.510278,34.064545],[139.510335,34.064598],[139.510665,34.064789],[139.510794,34.064869],[139.510864,34.064925],[139.510929,34.064996],[139.511067,34.065163],[139.511132,34.065267],[139.511187,34.065357],[139.51125,34.065449],[139.511291,34.065477],[139.511359,34.065489],[139.511417,34.065466],[139.511459,34.065424],[139.511493,34.065367],[139.511569,34.065142],[139.511617,34.065037],[139.511679,34.064963],[139.511746,34.064909],[139.511837,34.064888],[139.511918,34.064903],[139.512089,34.064982],[139.512155,34.065033],[139.512413,34.065403],[139.512553,34.065664],[139.512576,34.065746],[139.51259,34.06585],[139.512587,34.066134],[139.512604,34.066234],[139.512642,34.066334],[139.512832,34.066819],[139.512836,34.066902],[139.512835,34.066989],[139.512812,34.067052],[139.512768,34.067158],[139.512649,34.067258],[139.512492,34.067355],[139.512426,34.067429],[139.512394,34.067476],[139.512373,34.067547],[139.512372,34.068027],[139.512382,34.068121],[139.512676,34.069278],[139.512684,34.069429],[139.512614,34.069932],[139.512588,34.069995],[139.512488,34.070079],[139.512336,34.070157],[139.512238,34.070281],[139.512213,34.070432],[139.512249,34.070563],[139.512363,34.070669],[139.51257,34.07076],[139.512697,34.070831],[139.512766,34.070968],[139.512872,34.071251]]}},{"type":"Feature","properties":{"id":154522342,"highway":"tertiary"},"geometry":{"type":"LineString","coordinates":[[139.483823,34.068745],[139.483775,34.068548],[139.483673,34.068225],[139.483641,34.068095]]}},{"type":"Feature","properties":{"id":154522344,"highway":"unclassified"},"geometry":{"type":"LineString","coordinates":[[139.483061,34.071223],[139.482788,34.071127],[139.482506,34.071036],[139.482251,34.07097]]}},{"type":"Feature","properties":{"id":154522346,"highway":"residential"},"geometry":{"type":"LineString","coordinates":[[139.481524,34.080969],[139.481645,34.080916],[139.481746,34.080859],[139.481814,34.08081],[139.48188,34.080757],[139.481901,34.080737]]}},{"type":"Feature","properties":{"id":154522373,"highway":"unclassified"},"geometry":{"type":"LineString","coordinates":[[139.498359,34.097579],[139.498343,34.097622],[139.498334,34.097653],[139.498315,34.097668],[139.498286,34.097684],[139.498226,34.097708],[139.498159,34.097739],[139.498113,34.097767],[139.498068,34.097812],[139.498038,34.097849],[139.498021,34.097876],[139.497997,34.097956],[139.497995,34.098036],[139.498021,34.098143],[139.498033,34.098216],[139.49803,34.098311],[139.498021,34.098343],[139.498008,34.098372],[139.497977,34.098404],[139.497889,34.098472],[139.497799,34.098522],[139.497693,34.098564],[139.497587,34.098669],[139.497506,34.098756],[139.497454,34.098809],[139.497408,34.098868],[139.4973,34.099004],[139.49723,34.099093],[139.497153,34.099171],[139.497069,34.099257],[139.496912,34.099385],[139.496777,34.099494],[139.496736,34.099506],[139.49669,34.099506],[139.496662,34.099503],[139.496633,34.099498],[139.496445,34.099449],[139.496261,34.099405],[139.496212,34.099395],[139.496157,34.099391],[139.496098,34.099391],[139.496047,34.099393],[139.496014,34.099397],[139.495962,34.099409],[139.495904,34.099426],[139.495844,34.099447],[139.495603,34.099544],[139.495563,34.099563],[139.495518,34.099589],[139.495406,34.099657],[139.495355,34.099691],[139.49533,34.099714],[139.495024,34.099994],[139.494776,34.100225],[139.494662,34.100336],[139.494561,34.100443],[139.494527,34.100475],[139.4945,34.100496],[139.494384,34.10054],[139.494271,34.100588],[139.494222,34.100604],[139.494179,34.100608],[139.49414,34.100607],[139.49409,34.100602],[139.494038,34.100589],[139.493972,34.100573],[139.493826,34.100535],[139.493788,34.100524],[139.493761,34.100521],[139.49374,34.100519],[139.493707,34.100521],[139.49368,34.100525],[139.493656,34.100537],[139.493633,34.100557],[139.49361,34.100585],[139.49355,34.100671],[139.493438,34.100842],[139.493391,34.100929],[139.493347,34.101012],[139.49333,34.101058],[139.493217,34.101273]]}},{"type":"Feature","properties":{"id":154522421,"highway":"unclassified"},"geometry":{"type":"LineString","coordinates":[[139.488636,34.073964],[139.488623,34.07401],[139.488587,34.074063],[139.488552,34.074113],[139.488518,34.074163],[139.488468,34.074243],[139.488359,34.074485],[139.488271,34.074667],[139.488273,34.074724],[139.488277,34.074849],[139.488249,34.074957],[139.488195,34.075035],[139.48806,34.075146],[139.487884,34.075369],[139.487727,34.075452],[139.48755,34.075561],[139.487411,34.075712],[139.487284,34.075905],[139.487204,34.07597],[139.48705,34.07609],[139.487022,34.076159],[139.487085,34.076298],[139.487073,34.076358],[139.487047,34.076417],[139.486979,34.076515],[139.486912,34.076586],[139.486809,34.076652],[139.486617,34.076722],[139.486469,34.076761],[139.486282,34.076809],[139.48613,34.076927],[139.485895,34.077076],[139.485693,34.077197],[139.485504,34.077357],[139.485233,34.077562],[139.485046,34.077667]]}},{"type":"Feature","properties":{"id":154522434,"highway":"residential"},"geometry":{"type":"LineString","coordinates":[[139.48254,34.082492],[139.482481,34.082602],[139.482471,34.082655],[139.482485,34.082721],[139.482531,34.082816],[139.482655,34.083045],[139.482701,34.083133],[139.482706,34.083216],[139.482711,34.08327],[139.482737,34.083483]]}},{"type":"Feature","properties":{"id":154522439,"highway":"unclassified"},"geometry":{"type":"LineString","coordinates":[[139.482249,34.064757],[139.482266,34.06488],[139.482286,34.065003],[139.482295,34.065137],[139.482317,34.065238],[139.482351,34.065355],[139.482407,34.065499],[139.48242,34.065602],[139.482432,34.065717],[139.482463,34.065804],[139.482515,34.065871]]}},{"type":"Feature","properties":{"id":154522466,"highway":"unclassified"},"geometry":{"type":"LineString","coordinates":[[139.481026,34.068477],[139.480868,34.068496],[139.48075,34.068497],[139.480604,34.068492],[139.480018,34.068463]]}},{"type":"Feature","properties":{"id":154522478,"highway":"residential"},"geometry":{"type":"LineString","coordinates":[[139.481524,34.080969],[139.481358,34.080988],[139.481192,34.081],[139.481096,34.080999],[139.481044,34.080957],[139.480941,34.080864],[139.480856,34.080859],[139.480506,34.080932],[139.480361,34.080954],[139.480267,34.080941],[139.480208,34.080949],[139.48017,34.080997],[139.480185,34.081162]]}},{"type":"Feature","properties":{"id":154522492,"highway":"unclassified"},"geometry":{"type":"LineString","coordinates":[[139.482251,34.07097],[139.48207,34.07094],[139.481797,34.070906],[139.481432,34.070881],[139.481085,34.070832]]}},{"type":"Feature","properties":{"id":154522528,"highway":"residential"},"geometry":{"type":"LineString","coordinates":[[139.485888,34.055504],[139.485939,34.055406],[139.486032,34.055282],[139.486092,34.055195],[139.486127,34.055124],[139.486148,34.055046],[139.486155,34.054984],[139.486157,34.054889],[139.48616,34.054765],[139.486179,34.054673],[139.486209,34.05456],[139.48623,34.054453],[139.486243,34.05432],[139.486256,34.054143],[139.486271,34.053988],[139.48629,34.053831],[139.486255,34.053792],[139.486219,34.053768],[139.486167,34.053729],[139.486075,34.053669],[139.486025,34.053615],[139.485927,34.053519],[139.485789,34.053396],[139.48567,34.053279],[139.485607,34.053235],[139.485578,34.053213],[139.48547,34.053163],[139.485374,34.053123],[139.485243,34.053074],[139.48509,34.053018],[139.485036,34.052985],[139.484896,34.052957],[139.484725,34.052915],[139.484629,34.052883],[139.484561,34.052841],[139.484479,34.052771],[139.484381,34.052691],[139.484304,34.05264],[139.484248,34.052609],[139.484175,34.052582],[139.484123,34.052567],[139.484087,34.052561],[139.484013,34.052555],[139.483985,34.052545],[139.483947,34.052541],[139.483871,34.052551],[139.483794,34.05258],[139.483699,34.052613],[139.483515,34.052698],[139.483433,34.05276],[139.483375,34.052809],[139.483297,34.052859],[139.483227,34.052881],[139.48311,34.052911],[139.483018,34.052947],[139.482927,34.053006],[139.482816,34.053059],[139.482726,34.053122],[139.482604,34.053188],[139.482522,34.053237],[139.482416,34.053423],[139.482341,34.053503],[139.482269,34.053585],[139.482186,34.053662],[139.482097,34.053748],[139.482006,34.053835],[139.481928,34.053917],[139.481864,34.053962]]}},{"type":"Feature","properties":{"id":154522546,"highway":"residential"},"geometry":{"type":"LineString","coordinates":[[139.493153,34.099394],[139.49332,34.099328],[139.493448,34.099287],[139.493666,34.099226],[139.493803,34.099191],[139.493891,34.099175],[139.49397,34.099163],[139.494074,34.099153],[139.494191,34.099148],[139.494276,34.099134],[139.494303,34.099129],[139.494346,34.09911],[139.494391,34.099063],[139.494429,34.099016],[139.494474,34.098978],[139.494641,34.098883]]}},{"type":"Feature","properties":{"id":154522598,"highway":"tertiary"},"geometry":{"type":"LineString","coordinates":[[139.483257,34.070115],[139.48334,34.069946],[139.483403,34.069829],[139.483481,34.069677],[139.483504,34.069621],[139.483741,34.069168],[139.483813,34.068997],[139.483824,34.068852],[139.483823,34.068745]]}},{"type":"Feature","properties":{"id":154522605,"highway":"unclassified"},"geometry":{"type":"LineString","coordinates":[[139.485046,34.077667],[139.484891,34.077719],[139.484724,34.077723],[139.484478,34.077701],[139.484263,34.077699],[139.484081,34.077689],[139.483837,34.077687]]}},{"type":"Feature","properties":{"id":154523880,"highway":"unclassified"},"geometry":{"type":"LineString","coordinates":[[139.482822,34.073051],[139.482667,34.07302],[139.482518,34.072968],[139.482426,34.072888],[139.48227,34.072761],[139.482119,34.072685]]}},{"type":"Feature","properties":{"id":154523889,"highway":"unclassified"},"geometry":{"type":"LineString","coordinates":[[139.480708,34.072155],[139.480781,34.072178],[139.480941,34.072283],[139.481071,34.072355],[139.481252,34.072458],[139.481374,34.072505],[139.481573,34.072548],[139.481837,34.072597],[139.482013,34.072643],[139.482119,34.072685]]}},{"type":"Feature","properties":{"id":154523893,"highway":"tertiary"},"geometry":{"type":"LineString","coordinates":[[139.482849,34.072959],[139.482993,34.072572],[139.483076,34.072346],[139.483085,34.072181],[139.483058,34.071992],[139.482987,34.071773],[139.48296,34.071582],[139.482987,34.071419],[139.483061,34.071223]]}},{"type":"Feature","properties":{"id":154523896,"highway":"tertiary"},"geometry":{"type":"LineString","coordinates":[[139.483837,34.077687],[139.48388,34.077901],[139.483905,34.078111],[139.483963,34.07831],[139.484123,34.078581],[139.484266,34.078684],[139.48445,34.07877],[139.484492,34.07884],[139.484514,34.078957]]}},{"type":"Feature","properties":{"id":154523900,"highway":"unclassified"},"geometry":{"type":"LineString","coordinates":[[139.482291,34.069168],[139.4824,34.069181],[139.482504,34.069193],[139.482625,34.069193],[139.482748,34.069178],[139.482922,34.069142],[139.483119,34.069096],[139.48325,34.06905],[139.483344,34.069018],[139.483512,34.06895],[139.483604,34.06888],[139.48372,34.068792],[139.483823,34.068745]]}},{"type":"Feature","properties":{"id":154523909,"highway":"residential"},"geometry":{"type":"LineString","coordinates":[[139.482737,34.083483],[139.482669,34.083472],[139.482451,34.08343],[139.48236,34.083402],[139.482303,34.083345],[139.482298,34.08334],[139.482254,34.083261],[139.48221,34.08319],[139.482199,34.083134],[139.482111,34.083008],[139.482022,34.08289],[139.481981,34.082805],[139.481884,34.082771],[139.481802,34.082716],[139.481732,34.082597],[139.481717,34.082561]]}},{"type":"Feature","properties":{"id":154524004,"highway":"tertiary"},"geometry":{"type":"LineString","coordinates":[[139.483501,34.075018],[139.483253,34.074803],[139.483001,34.074606],[139.482921,34.074491],[139.482883,34.074361],[139.482909,34.074166],[139.482951,34.074019],[139.482972,34.073808],[139.48297,34.073771],[139.482963,34.073618],[139.482894,34.073358],[139.482822,34.073051]]}},{"type":"Feature","properties":{"id":154524047,"highway":"secondary"},"geometry":{"type":"LineString","coordinates":[[139.481395,34.076724],[139.481516,34.076765],[139.481764,34.076825],[139.481951,34.076893],[139.482188,34.077067],[139.482812,34.077515],[139.48309,34.077736],[139.48326,34.077877],[139.483654,34.078258],[139.483822,34.078478],[139.483996,34.07872],[139.484206,34.07885],[139.484344,34.078909],[139.484514,34.078957]]}},{"type":"Feature","properties":{"id":154524050,"highway":"secondary"},"geometry":{"type":"LineString","coordinates":[[139.481878,34.077819],[139.482043,34.078165],[139.482187,34.078461],[139.48237,34.078801],[139.482402,34.078952],[139.482363,34.079152],[139.482352,34.079293],[139.482312,34.079406],[139.482163,34.079526],[139.482094,34.0798],[139.482028,34.080131],[139.482015,34.080206],[139.48197,34.080288],[139.48191,34.080359],[139.481813,34.080419],[139.481715,34.080528],[139.481734,34.080589],[139.481901,34.080737]]}},{"type":"Feature","properties":{"id":154524131,"highway":"unclassified"},"geometry":{"type":"LineString","coordinates":[[139.487535,34.088404],[139.487604,34.088385],[139.487674,34.08836],[139.487779,34.088374],[139.487971,34.088413],[139.48827,34.088417],[139.488487,34.088435],[139.488919,34.088487],[139.489009,34.088477],[139.489081,34.088454],[139.489176,34.088384],[139.489242,34.088294],[139.489253,34.088223],[139.489228,34.088154],[139.489168,34.088124],[139.489022,34.088111],[139.488885,34.088074],[139.488765,34.088018],[139.488608,34.087917],[139.488547,34.087858],[139.488554,34.087767],[139.488604,34.087699],[139.488696,34.087636],[139.488786,34.087577],[139.488898,34.087516],[139.488943,34.087457],[139.488947,34.087388],[139.488904,34.08735],[139.488835,34.08731],[139.488739,34.087263],[139.488577,34.08717],[139.488407,34.087075],[139.488271,34.087035],[139.488151,34.087027],[139.488015,34.087033],[139.487837,34.087049],[139.487783,34.087053],[139.487712,34.087049]]}},{"type":"Feature","properties":{"id":154524151,"highway":"secondary"},"geometry":{"type":"LineString","coordinates":[[139.492411,34.100234],[139.492364,34.100265],[139.492242,34.100335],[139.492173,34.100365],[139.492136,34.100377],[139.492105,34.100374],[139.492056,34.100354],[139.491996,34.100319],[139.491942,34.100261],[139.491904,34.100211],[139.491867,34.100167],[139.491819,34.100122],[139.491765,34.100083],[139.491721,34.100058],[139.491682,34.100044],[139.491624,34.100036],[139.491562,34.100042],[139.491501,34.100055],[139.491442,34.100077],[139.49133,34.100131],[139.491275,34.100153],[139.491197,34.100189],[139.491143,34.100224],[139.491074,34.100261],[139.491006,34.100298],[139.490923,34.100335],[139.490874,34.100353],[139.490818,34.10036],[139.490768,34.100368],[139.490682,34.100372],[139.490608,34.100364],[139.490566,34.100355],[139.490529,34.100342],[139.490492,34.100327],[139.490444,34.100304],[139.490408,34.100268],[139.490373,34.100224],[139.490338,34.100168],[139.490312,34.10011],[139.490284,34.100047],[139.490265,34.099991],[139.490255,34.099932],[139.490254,34.099885],[139.490271,34.099836],[139.490289,34.099794],[139.490309,34.099755],[139.490357,34.099704],[139.4904,34.099677],[139.49045,34.09965],[139.490511,34.099627],[139.490575,34.099598],[139.49064,34.099574],[139.490706,34.099546],[139.490755,34.099519],[139.490794,34.099492],[139.490853,34.099454],[139.4909,34.099415],[139.490963,34.099368],[139.491014,34.099325],[139.49108,34.099279],[139.491116,34.099242],[139.491128,34.09921],[139.491132,34.099178],[139.491134,34.09914],[139.491124,34.099089],[139.491121,34.099063],[139.491119,34.099043],[139.491099,34.09901],[139.491069,34.098983],[139.490997,34.098964],[139.490908,34.098962],[139.490839,34.098976],[139.49075,34.098993],[139.490638,34.09901],[139.490547,34.099011],[139.49047,34.099007],[139.490324,34.098991],[139.490201,34.098971],[139.490048,34.098958],[139.489963,34.098954],[139.489878,34.098945],[139.489779,34.098934],[139.489638,34.098916],[139.489465,34.098889],[139.489196,34.098852],[139.488937,34.098821],[139.488786,34.098805],[139.488696,34.098795],[139.488666,34.098796],[139.488603,34.098807],[139.488553,34.098825],[139.488508,34.098851],[139.488478,34.098883],[139.488464,34.098917],[139.488464,34.098955],[139.488483,34.099013],[139.48858,34.099141],[139.488672,34.099257],[139.488715,34.099329],[139.488732,34.099395]]}},{"type":"Feature","properties":{"id":154524164,"highway":"secondary"},"geometry":{"type":"LineString","coordinates":[[139.481395,34.076724],[139.481365,34.076785],[139.481366,34.0769],[139.481412,34.077005],[139.481672,34.077448],[139.481878,34.077819]]}},{"type":"Feature","properties":{"id":154524165,"highway":"secondary"},"geometry":{"type":"LineString","coordinates":[[139.486592,34.058825],[139.486566,34.058911],[139.486409,34.059254],[139.48633,34.059581],[139.486264,34.059756],[139.486251,34.059798],[139.485967,34.0603],[139.485834,34.06061],[139.485699,34.060937],[139.485593,34.061089],[139.485455,34.061252],[139.485383,34.061395],[139.485338,34.061557],[139.485306,34.061651],[139.485187,34.061875],[139.484993,34.062107],[139.484794,34.062342],[139.484668,34.06247],[139.484555,34.062567],[139.484423,34.062731],[139.484276,34.062939],[139.484047,34.063212],[139.483724,34.063614],[139.483363,34.063949],[139.483264,34.064078],[139.483185,34.064271],[139.483162,34.064375],[139.483159,34.064584],[139.483143,34.064812],[139.483105,34.064925],[139.483027,34.065048],[139.482981,34.065115]]}},{"type":"Feature","properties":{"id":154524177,"highway":"secondary"},"geometry":{"type":"LineString","coordinates":[[139.481234,34.070505],[139.481177,34.070594],[139.481116,34.070743],[139.481085,34.070832],[139.480988,34.071092],[139.480913,34.071378],[139.480849,34.071658],[139.480768,34.072015],[139.480708,34.072155],[139.480603,34.072256],[139.480249,34.072415],[139.480018,34.072563],[139.479954,34.072624],[139.479884,34.072752],[139.479705,34.073262],[139.479679,34.073335],[139.479658,34.073433],[139.479641,34.073595]]}},{"type":"Feature","properties":{"id":154524178,"highway":"secondary"},"geometry":{"type":"LineString","coordinates":[[139.480548,34.075347],[139.480621,34.075469],[139.480723,34.075655],[139.480861,34.075945],[139.480942,34.076195],[139.481078,34.076459]]}},{"type":"Feature","properties":{"id":154524203,"highway":"secondary"},"geometry":{"type":"LineString","coordinates":[[139.481078,34.076459],[139.481134,34.076533],[139.481204,34.076611],[139.481306,34.076684],[139.481395,34.076724]]}},{"type":"Feature","properties":{"id":154524225,"highway":"secondary"},"geometry":{"type":"LineString","coordinates":[[139.492411,34.100234],[139.492378,34.100171],[139.492359,34.100143],[139.492339,34.10011],[139.492276,34.100026],[139.49221,34.09994],[139.492177,34.0999],[139.492146,34.099861],[139.492093,34.09979],[139.492038,34.099698],[139.492014,34.09965],[139.491991,34.099584],[139.491989,34.0995],[139.491993,34.099409],[139.492011,34.099308],[139.492036,34.099195],[139.492057,34.099114],[139.492077,34.099041],[139.492112,34.098992],[139.49217,34.098912],[139.492256,34.098834],[139.492287,34.098804],[139.492315,34.098777],[139.492368,34.098705],[139.492421,34.098615],[139.492442,34.098526],[139.492549,34.098355],[139.492665,34.09823],[139.492715,34.098162],[139.492741,34.098106]]}},{"type":"Feature","properties":{"id":154524227,"highway":"secondary"},"geometry":{"type":"LineString","coordinates":[[139.492758,34.097988],[139.492753,34.097924],[139.492735,34.097869],[139.492706,34.097814],[139.492676,34.097765],[139.492648,34.097722],[139.492628,34.097681],[139.492605,34.097624],[139.492596,34.09758],[139.492597,34.097528],[139.492613,34.097484],[139.492643,34.097436],[139.492685,34.097382],[139.492744,34.097308],[139.492811,34.097228],[139.492865,34.097166],[139.492878,34.097124],[139.492863,34.097072],[139.492839,34.09704],[139.492821,34.097017],[139.492784,34.097001],[139.492743,34.096994],[139.492709,34.096992],[139.492677,34.096995],[139.492648,34.097005],[139.492612,34.097017],[139.492574,34.097038],[139.492517,34.097078],[139.492341,34.097173],[139.492208,34.097274],[139.492144,34.097345],[139.492083,34.097417],[139.492,34.097498],[139.491911,34.097559],[139.491837,34.097604],[139.491726,34.097666],[139.491626,34.097718],[139.491549,34.097761],[139.491452,34.09781],[139.491402,34.097834],[139.491358,34.097838],[139.491318,34.097834],[139.491272,34.097818],[139.491235,34.097791],[139.491204,34.097766],[139.491188,34.097726],[139.491182,34.097682],[139.491197,34.097634],[139.491251,34.097578],[139.49139,34.097456],[139.49155,34.097316],[139.491628,34.097212],[139.491862,34.096864],[139.492172,34.096457],[139.492289,34.096226],[139.492322,34.096177],[139.49237,34.096128],[139.492449,34.096065],[139.49259,34.095962],[139.492827,34.095813],[139.493004,34.095683],[139.493069,34.09562],[139.493091,34.095574],[139.493145,34.09545],[139.493173,34.095395],[139.493213,34.095357],[139.493305,34.095294],[139.493376,34.095242],[139.493412,34.0952],[139.493419,34.095142],[139.493408,34.09508],[139.49338,34.095047],[139.493338,34.095011],[139.493293,34.095003],[139.493211,34.095003],[139.493091,34.095016],[139.492897,34.09504],[139.492782,34.09505],[139.492728,34.095049],[139.492662,34.095036],[139.49261,34.095019],[139.492551,34.094988],[139.4925,34.094949],[139.492444,34.094873],[139.492354,34.094737],[139.492279,34.094628],[139.492239,34.094556],[139.492233,34.094462],[139.492249,34.094369],[139.492293,34.094267],[139.492353,34.094133],[139.492386,34.094047],[139.492389,34.093953],[139.492357,34.093854],[139.49232,34.093716],[139.492323,34.09362],[139.492379,34.093485],[139.4925,34.093285],[139.49251,34.093174],[139.492508,34.093086],[139.492448,34.092957],[139.492366,34.092855],[139.492271,34.092757],[139.492133,34.092691],[139.491772,34.09257],[139.491646,34.092496],[139.491591,34.092412],[139.491584,34.09235],[139.49161,34.092254],[139.491788,34.092027],[139.49187,34.091919],[139.491879,34.091842],[139.491862,34.091768],[139.491801,34.091702],[139.491626,34.091589],[139.491482,34.091497],[139.49138,34.091461],[139.491324,34.091451],[139.491078,34.091453],[139.490722,34.091473],[139.490592,34.091474],[139.490515,34.091459],[139.490432,34.091416],[139.490356,34.091337],[139.490297,34.091227],[139.490242,34.091138],[139.490193,34.09101],[139.490023,34.090904],[139.48974,34.090783],[139.489351,34.090623],[139.489249,34.09055],[139.489198,34.09045],[139.48918,34.090345],[139.489178,34.09021],[139.489188,34.090129],[139.48925,34.08996],[139.489317,34.089747],[139.489303,34.089682],[139.489274,34.089633],[139.489211,34.089607],[139.488804,34.089589],[139.488682,34.089579],[139.488613,34.089565],[139.48856,34.089534],[139.488512,34.089435],[139.48847,34.089261],[139.488403,34.089113],[139.488361,34.089064],[139.48832,34.089034],[139.488227,34.089023],[139.488125,34.089017],[139.487999,34.089023],[139.4879,34.089024],[139.487823,34.089012],[139.48777,34.088982],[139.487738,34.088929],[139.487694,34.088844],[139.487628,34.088709],[139.487554,34.088546],[139.487535,34.088404]]}},{"type":"Feature","properties":{"id":154524237,"highway":"secondary"},"geometry":{"type":"LineString","coordinates":[[139.481234,34.070505],[139.481318,34.070429],[139.481515,34.070264],[139.481553,34.070221],[139.481595,34.070143],[139.481618,34.070086],[139.481655,34.069939],[139.481669,34.069882],[139.481727,34.069637],[139.481775,34.069181],[139.481792,34.069084],[139.48182,34.068987],[139.481908,34.068865],[139.482052,34.068687],[139.482211,34.068488],[139.482326,34.068302],[139.482379,34.068193],[139.482425,34.068081],[139.482446,34.068],[139.482456,34.067926],[139.482449,34.067847],[139.482436,34.067727],[139.482407,34.067516],[139.482389,34.067387],[139.482367,34.0672],[139.48235,34.067084],[139.482317,34.066968],[139.482178,34.066675],[139.48215,34.066482],[139.48218,34.066296],[139.482245,34.06615],[139.482307,34.066076],[139.482349,34.066025],[139.482515,34.065871],[139.482626,34.065776],[139.482758,34.065625],[139.482795,34.065562],[139.482848,34.065445],[139.482915,34.065253],[139.482981,34.065115]]}},{"type":"Feature","properties":{"id":154524241,"highway":"secondary"},"geometry":{"type":"LineString","coordinates":[[139.482311,34.082547],[139.481717,34.082561],[139.481611,34.082548],[139.481551,34.082533],[139.481427,34.08249],[139.481348,34.082448],[139.481232,34.082344],[139.480596,34.08164],[139.480413,34.081427],[139.480185,34.081162],[139.479998,34.080979],[139.479739,34.080771],[139.479503,34.080622],[139.479231,34.08049],[139.478407,34.080062],[139.478274,34.079943],[139.478194,34.079792],[139.478179,34.079678],[139.478181,34.079556],[139.478232,34.079418],[139.478335,34.079209],[139.478556,34.07873],[139.478565,34.078682],[139.478589,34.078542],[139.478583,34.078372],[139.478548,34.078209],[139.478476,34.078089],[139.478379,34.077922],[139.478256,34.077732],[139.478181,34.077565],[139.478154,34.077423],[139.478165,34.077286],[139.478225,34.077162],[139.478386,34.077],[139.478454,34.076878],[139.478491,34.076719],[139.478468,34.076532],[139.478422,34.076394],[139.478396,34.076253],[139.478404,34.076017],[139.47843,34.075865],[139.47844,34.075742],[139.478415,34.07548],[139.478377,34.075222],[139.478409,34.075064],[139.478412,34.075051],[139.478476,34.074966],[139.478567,34.074847],[139.478973,34.074421],[139.479157,34.07422],[139.479275,34.07409],[139.47942,34.073838],[139.479499,34.07367],[139.479556,34.073629],[139.479641,34.073595]]}},{"type":"Feature","properties":{"id":154524254,"highway":"secondary"},"geometry":{"type":"LineString","coordinates":[[139.479641,34.073595],[139.479668,34.07372],[139.479748,34.073904],[139.479839,34.074045],[139.479862,34.074073],[139.479996,34.074242],[139.480147,34.074445],[139.480238,34.07462],[139.480288,34.074825],[139.480315,34.074946],[139.480352,34.075033],[139.480529,34.075314],[139.480548,34.075347]]}},{"type":"Feature","properties":{"id":368018270,"highway":"residential"},"geometry":{"type":"LineString","coordinates":[[139.478409,34.075064],[139.478586,34.075161],[139.478708,34.075234],[139.478808,34.075278],[139.478869,34.075297],[139.478889,34.075304],[139.479022,34.075325],[139.479106,34.075313],[139.479282,34.075278],[139.479373,34.07527],[139.479526,34.075269],[139.479698,34.075271],[139.479748,34.07527],[139.479747,34.075076],[139.479742,34.074958],[139.479738,34.074922],[139.479733,34.074861],[139.479739,34.074801],[139.479821,34.074609],[139.479819,34.074589],[139.479648,34.074401],[139.479564,34.074309]]}},{"type":"Feature","properties":{"id":368018271,"highway":"residential"},"geometry":{"type":"LineString","coordinates":[[139.479037,34.074993],[139.479738,34.074922]]}},{"type":"Feature","properties":{"id":368018272,"highway":"residential"},"geometry":{"type":"LineString","coordinates":[[139.479564,34.074309],[139.479618,34.074245],[139.479661,34.074196],[139.479711,34.074158],[139.479793,34.074114],[139.479862,34.074073]]}},{"type":"Feature","properties":{"id":368018273,"highway":"residential"},"geometry":{"type":"LineString","coordinates":[[139.478869,34.075297],[139.478958,34.075128],[139.479037,34.074993],[139.479102,34.074883],[139.479158,34.074786],[139.479251,34.074669],[139.479564,34.074309]]}},{"type":"Feature","properties":{"id":368027338,"highway":"unclassified"},"geometry":{"type":"LineString","coordinates":[[139.48325,34.06905],[139.483252,34.069108],[139.483258,34.069177],[139.48329,34.069276],[139.483324,34.06936],[139.483355,34.069441],[139.483367,34.069523],[139.483378,34.069579],[139.48338,34.069628],[139.48338,34.069676]]}},{"type":"Feature","properties":{"id":368027339,"highway":"unclassified"},"geometry":{"type":"LineString","coordinates":[[139.482156,34.071837],[139.482563,34.071901],[139.482824,34.071963],[139.482963,34.071987],[139.483058,34.071992]]}},{"type":"Feature","properties":{"id":368027340,"highway":"unclassified"},"geometry":{"type":"LineString","coordinates":[[139.482251,34.07097],[139.48237,34.070577],[139.482566,34.070613],[139.482744,34.07064],[139.482895,34.07065],[139.483091,34.070638],[139.483239,34.070613]]}},{"type":"Feature","properties":{"id":368027341,"highway":"unclassified"},"geometry":{"type":"LineString","coordinates":[[139.482099,34.069931],[139.48218,34.069557],[139.482475,34.069595],[139.482726,34.06963],[139.482962,34.069655],[139.483155,34.069667],[139.483362,34.069676],[139.48338,34.069676],[139.483481,34.069677]]}},{"type":"Feature","properties":{"id":368111104,"highway":"residential"},"geometry":{"type":"LineString","coordinates":[[139.4803,34.073471],[139.480349,34.073428],[139.480389,34.073393],[139.480411,34.073392],[139.480555,34.07344],[139.480689,34.073491],[139.480813,34.073538],[139.480903,34.073578],[139.480939,34.073587],[139.480982,34.073568],[139.48111,34.073459],[139.481245,34.073344],[139.481384,34.073219]]}},{"type":"Feature","properties":{"id":368111105,"highway":"residential"},"geometry":{"type":"LineString","coordinates":[[139.478476,34.074966],[139.478387,34.074839],[139.47832,34.074735],[139.478285,34.07464],[139.478288,34.074566],[139.478357,34.074452],[139.478403,34.074388],[139.478454,34.074316],[139.47862,34.074097],[139.478706,34.073984],[139.478725,34.073959],[139.47875,34.073928],[139.478795,34.073873],[139.478866,34.073795],[139.478888,34.073735],[139.478882,34.073692],[139.478723,34.0736],[139.478702,34.07354]]}},{"type":"Feature","properties":{"id":368111106,"highway":"residential"},"geometry":{"type":"LineString","coordinates":[[139.478403,34.074388],[139.478041,34.074216]]}},{"type":"Feature","properties":{"id":368111107,"highway":"residential"},"geometry":{"type":"LineString","coordinates":[[139.478706,34.073984],[139.478533,34.073923]]}},{"type":"Feature","properties":{"id":368111108,"highway":"service"},"geometry":{"type":"LineString","coordinates":[[139.477275,34.073516],[139.477481,34.074003],[139.477484,34.074025],[139.477516,34.074208],[139.477547,34.074328],[139.477559,34.074392],[139.477594,34.074474],[139.477607,34.074542],[139.477573,34.074609],[139.477503,34.074649],[139.477428,34.07469],[139.477388,34.074751],[139.477374,34.07481],[139.477369,34.074984],[139.477359,34.075086],[139.477327,34.07515],[139.477271,34.075197],[139.477195,34.075209],[139.477127,34.075196],[139.477068,34.075151],[139.477037,34.075072],[139.477009,34.074949],[139.476996,34.074849],[139.477023,34.074773],[139.477056,34.074688],[139.477107,34.074598],[139.477197,34.074539],[139.477278,34.074487],[139.477365,34.074439],[139.477428,34.074419],[139.477559,34.074392]]}},{"type":"Feature","properties":{"id":368111109,"highway":"residential"},"geometry":{"type":"LineString","coordinates":[[139.479157,34.07422],[139.47875,34.073928],[139.478652,34.073868]]}},{"type":"Feature","properties":{"id":368111110,"highway":"residential"},"geometry":{"type":"LineString","coordinates":[[139.479658,34.073433],[139.47991,34.073437],[139.480069,34.073457],[139.480207,34.073465],[139.4803,34.073471],[139.480345,34.073486],[139.480361,34.073515],[139.48036,34.073552]]}},{"type":"Feature","properties":{"id":368111111,"highway":"service"},"geometry":{"type":"LineString","coordinates":[[139.477484,34.074025],[139.477832,34.07394],[139.477901,34.073927],[139.477999,34.073938],[139.478101,34.073962],[139.478168,34.073972],[139.478225,34.073956],[139.478288,34.073913],[139.478363,34.073843]]}},{"type":"Feature","properties":{"id":368507330,"highway":"residential"},"geometry":{"type":"LineString","coordinates":[[139.481184,34.061965],[139.481479,34.062007],[139.481521,34.062025],[139.481546,34.062035],[139.481688,34.062134],[139.481862,34.062268],[139.482029,34.062391],[139.482186,34.062506],[139.482254,34.062565],[139.482315,34.062618],[139.482539,34.062795],[139.482735,34.06295],[139.482928,34.063108],[139.483019,34.063173]]}},{"type":"Feature","properties":{"id":368507332,"highway":"residential"},"geometry":{"type":"LineString","coordinates":[[139.483351,34.062003],[139.483272,34.06202],[139.483138,34.062064],[139.483021,34.062119],[139.482923,34.062163],[139.482835,34.062221],[139.482769,34.062265],[139.482707,34.062299],[139.482603,34.062362],[139.482571,34.062378],[139.482496,34.062416],[139.482357,34.062493],[139.482284,34.062541],[139.482254,34.062565],[139.482207,34.062606],[139.48215,34.062678],[139.4821,34.062739],[139.482052,34.062789]]}},{"type":"Feature","properties":{"id":368507333,"highway":"residential"},"geometry":{"type":"LineString","coordinates":[[139.483264,34.064078],[139.483202,34.064057],[139.483079,34.064009],[139.482989,34.06382],[139.482906,34.063644],[139.482821,34.063508],[139.482755,34.063412],[139.482735,34.063401],[139.482692,34.063378],[139.482625,34.063337],[139.482546,34.063267],[139.482459,34.06316],[139.482387,34.063091],[139.482341,34.063038],[139.482244,34.062954],[139.482143,34.062864],[139.482061,34.062795],[139.482052,34.062789],[139.482025,34.062769],[139.481897,34.062713],[139.481773,34.062654],[139.481705,34.06262],[139.481695,34.06261],[139.48166,34.062544],[139.481618,34.06244],[139.481584,34.06234],[139.481556,34.062253],[139.481532,34.062148],[139.481517,34.062081],[139.481516,34.062046],[139.481521,34.062025]]}},{"type":"Feature","properties":{"id":368507334,"highway":"residential"},"geometry":{"type":"LineString","coordinates":[[139.48324,34.062947],[139.483131,34.063056],[139.483053,34.063139],[139.483019,34.063173],[139.482983,34.063227],[139.482933,34.063291],[139.482871,34.063326],[139.482791,34.063367],[139.482735,34.063401]]}},{"type":"Feature","properties":{"id":368507335,"highway":"residential"},"geometry":{"type":"LineString","coordinates":[[139.482571,34.062378],[139.482648,34.062463],[139.482698,34.062527],[139.482807,34.062608],[139.482914,34.062697],[139.483034,34.062785],[139.483135,34.062863],[139.4832,34.062913],[139.48324,34.062947]]}},{"type":"Feature","properties":{"id":368835469,"highway":"residential"},"geometry":{"type":"LineString","coordinates":[[139.483568,34.077132],[139.483632,34.077101],[139.483736,34.077022],[139.483823,34.076953],[139.483855,34.076929],[139.483871,34.076916],[139.483925,34.076871],[139.48397,34.076811],[139.484017,34.076749],[139.484065,34.076678],[139.484104,34.076631],[139.484127,34.076608],[139.484162,34.076585],[139.484251,34.076527],[139.484321,34.076482],[139.484349,34.076464]]}},{"type":"Feature","properties":{"id":368835470,"highway":"residential"},"geometry":{"type":"LineString","coordinates":[[139.483855,34.076929],[139.483813,34.076833],[139.483772,34.076751],[139.483735,34.076668],[139.483704,34.0766],[139.483684,34.076551],[139.483681,34.076536],[139.483684,34.076524],[139.483693,34.076512],[139.483747,34.07646],[139.483798,34.076411],[139.48384,34.076368],[139.483859,34.076349],[139.483923,34.07628],[139.483982,34.076215],[139.484041,34.07616],[139.484077,34.076126]]}},{"type":"Feature","properties":{"id":368835471,"highway":"residential"},"geometry":{"type":"LineString","coordinates":[[139.483759,34.077538],[139.483854,34.077495],[139.483952,34.077436],[139.484053,34.077354],[139.484132,34.077294],[139.484236,34.07723],[139.48434,34.077162],[139.48439,34.077128],[139.484423,34.077091],[139.484452,34.07703],[139.484473,34.076966],[139.484494,34.076892],[139.484511,34.076815],[139.484521,34.0768],[139.484565,34.076738],[139.484476,34.076626],[139.484386,34.076516],[139.484349,34.076464],[139.484296,34.076388],[139.484219,34.076288],[139.48414,34.076193],[139.484077,34.076126]]}},{"type":"Feature","properties":{"id":368835473,"highway":"residential"},"geometry":{"type":"LineString","coordinates":[[139.483982,34.076215],[139.483891,34.076153],[139.483771,34.076075],[139.483711,34.07604]]}},{"type":"Feature","properties":{"id":368835474,"highway":"residential"},"geometry":{"type":"LineString","coordinates":[[139.48384,34.076368],[139.483738,34.076303],[139.483649,34.076247],[139.483591,34.07621]]}},{"type":"Feature","properties":{"id":368835475,"highway":"residential"},"geometry":{"type":"LineString","coordinates":[[139.483591,34.07621],[139.483612,34.076178],[139.483656,34.076116],[139.483688,34.076071],[139.483711,34.07604]]}},{"type":"Feature","properties":{"id":369098268,"highway":"residential"},"geometry":{"type":"LineString","coordinates":[[139.481611,34.082548],[139.481598,34.082643],[139.481602,34.082742],[139.481653,34.082832],[139.481737,34.082913],[139.481812,34.082994],[139.481869,34.083066],[139.481962,34.083198],[139.48202,34.083276],[139.482085,34.083342],[139.482132,34.083369],[139.48217,34.083379],[139.482207,34.083375],[139.482259,34.083356],[139.482303,34.083345]]}},{"type":"Feature","properties":{"id":369098269,"highway":"residential"},"geometry":{"type":"LineString","coordinates":[[139.482655,34.083045],[139.482713,34.083019],[139.48275,34.082999],[139.482777,34.082985],[139.482803,34.082956],[139.482829,34.082927],[139.482852,34.082902],[139.482879,34.082879],[139.482909,34.082844],[139.482935,34.082816],[139.482952,34.082788],[139.482979,34.082741],[139.483001,34.0827],[139.483004,34.082673],[139.483003,34.082632],[139.483,34.082601],[139.482992,34.082578],[139.482979,34.082553],[139.482963,34.082536],[139.482936,34.08251],[139.482897,34.082465],[139.482856,34.082425],[139.482815,34.082382]]}},{"type":"Feature","properties":{"id":369245970,"highway":"unclassified"},"geometry":{"type":"LineString","coordinates":[[139.483447,34.066011],[139.483784,34.06598],[139.483761,34.066093],[139.483746,34.066211],[139.483767,34.066336],[139.483826,34.066532],[139.483877,34.066707],[139.483899,34.066795],[139.483973,34.066959],[139.484089,34.067137],[139.484204,34.067323],[139.484338,34.067523]]}},{"type":"Feature","properties":{"id":369547735,"highway":"residential"},"geometry":{"type":"LineString","coordinates":[[139.494729,34.052923],[139.49468,34.052943],[139.494636,34.052977],[139.494592,34.053024],[139.494528,34.053092],[139.494466,34.053163],[139.494438,34.053192],[139.494397,34.053227],[139.494348,34.053259],[139.494271,34.053304],[139.494205,34.053338],[139.494134,34.053371],[139.494053,34.05341],[139.49398,34.053441],[139.493874,34.053478],[139.493749,34.053525],[139.493724,34.053536],[139.493697,34.053557],[139.493595,34.053599],[139.493495,34.05364],[139.49342,34.053677],[139.493368,34.053718],[139.493344,34.053739],[139.493323,34.053756],[139.493307,34.053769],[139.493275,34.053776],[139.493234,34.053793],[139.493219,34.053801],[139.493186,34.053835],[139.493157,34.053873],[139.493136,34.053904],[139.493119,34.05394],[139.49311,34.05397],[139.493105,34.053994],[139.49311,34.054024]]}},{"type":"Feature","properties":{"id":421097756,"highway":"residential"},"geometry":{"type":"LineString","coordinates":[[139.492789,34.100138],[139.492876,34.100103],[139.492941,34.100074],[139.492988,34.100047],[139.493011,34.100019],[139.493019,34.099989],[139.493021,34.099968],[139.493012,34.099934],[139.492992,34.099887],[139.492976,34.099864]]}},{"type":"Feature","properties":{"id":421097757,"highway":"residential"},"geometry":{"type":"LineString","coordinates":[[139.494641,34.098883],[139.494533,34.098735],[139.494444,34.098612],[139.494383,34.098616],[139.494306,34.098633],[139.494261,34.098633],[139.494226,34.098634],[139.494188,34.09863],[139.49416,34.098613],[139.49414,34.098595],[139.494148,34.098555],[139.494172,34.09851],[139.494194,34.098473],[139.494218,34.098441],[139.494238,34.098403]]}},{"type":"Feature","properties":{"id":421097760,"highway":"residential"},"geometry":{"type":"LineString","coordinates":[[139.493153,34.099394],[139.493167,34.09942],[139.493207,34.099443],[139.493249,34.099467],[139.493281,34.099495],[139.49332,34.09954],[139.493345,34.099577],[139.493355,34.099587],[139.493373,34.099614],[139.493414,34.099666],[139.493425,34.099682],[139.493462,34.099809],[139.49349,34.099847],[139.493516,34.099879],[139.493521,34.099909],[139.49351,34.099929],[139.493474,34.099952],[139.493405,34.099994],[139.493385,34.100016],[139.493379,34.100044],[139.493378,34.100071],[139.493387,34.100118],[139.493397,34.100164],[139.493403,34.100207],[139.493395,34.100255],[139.493382,34.100284],[139.493362,34.100306],[139.493335,34.100313],[139.49329,34.100315],[139.493241,34.100313],[139.493206,34.100313],[139.493114,34.100313],[139.493055,34.100319],[139.493,34.100326],[139.492949,34.100334],[139.492903,34.100341],[139.492864,34.100349]]}},{"type":"Feature","properties":{"id":421097761,"highway":"residential"},"geometry":{"type":"LineString","coordinates":[[139.493558,34.098189],[139.493543,34.098202],[139.493485,34.098259],[139.49345,34.098295]]}},{"type":"Feature","properties":{"id":421097762,"highway":"residential"},"geometry":{"type":"LineString","coordinates":[[139.494238,34.098403],[139.494241,34.098392],[139.494258,34.098345],[139.494261,34.098332]]}},{"type":"Feature","properties":{"id":421097764,"highway":"residential"},"geometry":{"type":"LineString","coordinates":[[139.492481,34.099462],[139.492507,34.099387],[139.49251,34.099299],[139.492503,34.099146],[139.492488,34.099041],[139.492463,34.098978],[139.492402,34.098898],[139.492351,34.098855],[139.492287,34.098804]]}},{"type":"Feature","properties":{"id":421097765,"highway":"residential"},"geometry":{"type":"LineString","coordinates":[[139.49345,34.098295],[139.493429,34.098309],[139.493405,34.098316],[139.493342,34.098309],[139.493248,34.09827],[139.493109,34.09822],[139.492926,34.098158],[139.492813,34.098126],[139.492741,34.098106]]}},{"type":"Feature","properties":{"id":436096702,"highway":"service"},"geometry":{"type":"LineString","coordinates":[[139.481096,34.059687],[139.480769,34.059679],[139.480488,34.059702],[139.480113,34.059732]]}},{"type":"Feature","properties":{"id":436096703,"highway":"service"},"geometry":{"type":"LineString","coordinates":[[139.481781,34.058164],[139.481292,34.058768],[139.481164,34.058913]]}},{"type":"Feature","properties":{"id":436096704,"highway":"service"},"geometry":{"type":"LineString","coordinates":[[139.480891,34.060509],[139.481105,34.060513],[139.481508,34.060503]]}},{"type":"Feature","properties":{"id":436096705,"highway":"service"},"geometry":{"type":"LineString","coordinates":[[139.480905,34.060265],[139.480747,34.060258],[139.480516,34.060251],[139.479926,34.060261]]}},{"type":"Feature","properties":{"id":436096706,"highway":"service"},"geometry":{"type":"LineString","coordinates":[[139.481218,34.061659],[139.481271,34.061604],[139.481257,34.061513],[139.481212,34.061369]]}},{"type":"Feature","properties":{"id":436096707,"highway":"service"},"geometry":{"type":"LineString","coordinates":[[139.481557,34.05891],[139.481292,34.058768],[139.481028,34.058627],[139.480976,34.058694]]}},{"type":"Feature","properties":{"id":436096708,"highway":"service"},"geometry":{"type":"LineString","coordinates":[[139.481018,34.05989],[139.481064,34.059902],[139.48117,34.059931],[139.481467,34.059898],[139.481892,34.059891]]}},{"type":"Feature","properties":{"id":436096709,"highway":"residential"},"geometry":{"type":"LineString","coordinates":[[139.481813,34.06392],[139.482088,34.063851],[139.482305,34.064067],[139.482308,34.064136],[139.482093,34.064567],[139.482055,34.064596]]}},{"type":"Feature","properties":{"id":436096710,"highway":"residential"},"geometry":{"type":"LineString","coordinates":[[139.480284,34.061995],[139.480461,34.061911],[139.480517,34.061917],[139.480592,34.061953],[139.480667,34.062026],[139.48071,34.06208],[139.480794,34.062255],[139.481142,34.062184]]}},{"type":"Feature","properties":{"id":436099107,"highway":"service"},"geometry":{"type":"LineString","coordinates":[[139.497414,34.051661],[139.497726,34.052109],[139.498421,34.051804],[139.498551,34.052007]]}},{"type":"Feature","properties":{"id":436184155,"highway":"unclassified"},"geometry":{"type":"LineString","coordinates":[[139.482178,34.066675],[139.482701,34.066564],[139.48293,34.066445],[139.483114,34.066346],[139.48328,34.066295],[139.48341,34.066275]]}},{"type":"Feature","properties":{"id":436627759,"highway":"service"},"geometry":{"type":"LineString","coordinates":[[139.497455,34.075567],[139.497552,34.075564],[139.497712,34.075586],[139.497781,34.075577],[139.497825,34.075547],[139.497868,34.075505],[139.497875,34.075451],[139.497864,34.074949],[139.497856,34.07489],[139.497859,34.074842],[139.497898,34.074795],[139.497959,34.074766],[139.498042,34.074758],[139.498132,34.074768],[139.498196,34.074769],[139.498562,34.074824],[139.498625,34.074833]]}},{"type":"Feature","properties":{"id":436654591,"highway":"secondary"},"geometry":{"type":"LineString","coordinates":[[139.492741,34.098106],[139.492751,34.098064]]}},{"type":"Feature","properties":{"id":436654592,"highway":"secondary"},"geometry":{"type":"LineString","coordinates":[[139.492751,34.098064],[139.492758,34.097988]]}},{"type":"Feature","properties":{"id":436654597,"highway":"residential"},"geometry":{"type":"LineString","coordinates":[[139.488868,34.099466],[139.488886,34.099488],[139.488948,34.099529],[139.488996,34.099565],[139.489034,34.099596],[139.48905,34.09961],[139.489093,34.099648],[139.489134,34.099689],[139.489162,34.099721],[139.489177,34.099747],[139.489191,34.099791],[139.489211,34.099828],[139.48924,34.099863]]}},{"type":"Feature","properties":{"id":436654605,"highway":"residential"},"geometry":{"type":"LineString","coordinates":[[139.492741,34.098106],[139.492696,34.098098],[139.49265,34.098099],[139.492616,34.098128],[139.492559,34.098186],[139.492506,34.098241],[139.492449,34.098291],[139.49239,34.098355],[139.492359,34.098396],[139.492326,34.098429],[139.49227,34.098449],[139.492146,34.098505],[139.49203,34.098564],[139.491974,34.098613],[139.491857,34.098638],[139.491746,34.098663],[139.49164,34.098686],[139.491542,34.098707],[139.491471,34.098746],[139.491396,34.09881]]}},{"type":"Feature","properties":{"id":436654606,"highway":"unclassified"},"geometry":{"type":"LineString","coordinates":[[139.491121,34.099063],[139.491045,34.099096],[139.490938,34.099123],[139.49087,34.099128],[139.490757,34.099166],[139.490677,34.099212],[139.490598,34.099244],[139.490459,34.099266],[139.490331,34.099279],[139.490255,34.099283],[139.49022,34.099275],[139.49015,34.099261],[139.490061,34.099246],[139.49002,34.099243],[139.489918,34.099235],[139.489717,34.09922],[139.489594,34.099212],[139.489466,34.099207],[139.489431,34.099211],[139.489363,34.099219],[139.489307,34.099228],[139.489241,34.099264],[139.489183,34.099308],[139.489115,34.099345],[139.489034,34.099377],[139.488959,34.099414],[139.488868,34.099466],[139.488829,34.099493],[139.488757,34.099545],[139.488692,34.099595]]}},{"type":"Feature","properties":{"id":436654614,"highway":"residential"},"geometry":{"type":"LineString","coordinates":[[139.489034,34.099596],[139.489024,34.099634],[139.489008,34.099668],[139.488981,34.099711],[139.488958,34.099757]]}},{"type":"Feature","properties":{"id":436654623,"highway":"residential"},"geometry":{"type":"LineString","coordinates":[[139.489177,34.099747],[139.489227,34.099727],[139.489279,34.099702],[139.489321,34.099677],[139.489338,34.099652],[139.489333,34.099621],[139.489325,34.099583]]}},{"type":"Feature","properties":{"id":440134081,"highway":"secondary"},"geometry":{"type":"LineString","coordinates":[[139.510781,34.049623],[139.510639,34.049709],[139.510484,34.049855],[139.510308,34.049993],[139.510146,34.050067],[139.509897,34.050135],[139.509716,34.050155],[139.509564,34.050147],[139.509371,34.050097],[139.509096,34.050005],[139.508917,34.049959],[139.50875,34.049935],[139.508577,34.049943],[139.508241,34.050009],[139.507927,34.050077],[139.507724,34.050117],[139.507553,34.050155],[139.507355,34.050195],[139.506927,34.050287],[139.506567,34.050347],[139.506439,34.050363],[139.506316,34.050355],[139.506106,34.050263],[139.505877,34.050121],[139.505623,34.049971],[139.505541,34.049927],[139.505481,34.049863],[139.505423,34.049779],[139.505292,34.049505],[139.505116,34.049203],[139.504995,34.049073],[139.504906,34.048997],[139.504732,34.048902],[139.50443,34.048774],[139.504092,34.048652],[139.503914,34.048604],[139.503622,34.048601],[139.503564,34.048603],[139.503261,34.04865],[139.503125,34.048668],[139.503033,34.048681],[139.502821,34.048711],[139.502327,34.048802],[139.501996,34.048888],[139.501646,34.049008],[139.50139,34.049079],[139.501122,34.049171],[139.500885,34.049243],[139.500716,34.049307],[139.500562,34.049367],[139.500422,34.049435],[139.500272,34.049543],[139.500072,34.049711],[139.499753,34.049968],[139.499512,34.050163],[139.499276,34.050379],[139.498978,34.050683],[139.498777,34.050862],[139.49857,34.051011],[139.498324,34.051161],[139.498178,34.051237],[139.497872,34.051412],[139.497654,34.051535],[139.497414,34.051661],[139.497176,34.051769],[139.496756,34.051936],[139.496573,34.052004],[139.496449,34.052064],[139.496297,34.052174],[139.49614,34.052328],[139.496041,34.052443],[139.495893,34.052596],[139.495557,34.052966],[139.495183,34.05348],[139.494928,34.05377],[139.494798,34.053897],[139.494739,34.053955],[139.494646,34.054017],[139.494548,34.054062],[139.494483,34.054076],[139.494393,34.054083],[139.494273,34.054082],[139.494053,34.054049],[139.493883,34.054028],[139.493744,34.054003],[139.493603,34.053985],[139.493361,34.053975],[139.493239,34.053991],[139.493124,34.054018],[139.49311,34.054024],[139.492908,34.054108],[139.492479,34.054309],[139.492013,34.054513],[139.491916,34.054554],[139.491753,34.054622],[139.491395,34.054772],[139.491346,34.054793],[139.490706,34.055101],[139.490412,34.055252],[139.490325,34.055293],[139.490038,34.055429],[139.489707,34.055582],[139.489519,34.055667],[139.489251,34.055759],[139.488442,34.056036],[139.488309,34.056104],[139.488196,34.056171],[139.488031,34.056306],[139.487845,34.056455],[139.487664,34.056577],[139.487484,34.056707],[139.487386,34.056755],[139.487105,34.056894],[139.486987,34.056954],[139.486878,34.057026],[139.486776,34.057086],[139.486662,34.057193],[139.486581,34.057304],[139.486469,34.057507],[139.486354,34.057724],[139.486279,34.057851],[139.486243,34.057941],[139.48623,34.058005],[139.486228,34.058058],[139.486239,34.058131],[139.486289,34.058229],[139.486388,34.058386],[139.486509,34.058588],[139.48656,34.058675],[139.486592,34.058825]]}},{"type":"Feature","properties":{"id":440534014,"highway":"secondary"},"geometry":{"type":"LineString","coordinates":[[139.481901,34.080737],[139.481998,34.080825],[139.482214,34.080947],[139.482401,34.081088],[139.482436,34.081161],[139.482446,34.081366],[139.48249,34.081457],[139.482689,34.081672],[139.482772,34.081829],[139.482778,34.081899],[139.482694,34.081963],[139.482587,34.082026],[139.482551,34.082064],[139.482572,34.082248],[139.482564,34.082402],[139.482589,34.08248]]}},{"type":"Feature","properties":{"id":440692796,"highway":"secondary"},"geometry":{"type":"LineString","coordinates":[[139.488732,34.099395],[139.488714,34.099522]]}},{"type":"Feature","properties":{"id":440692797,"highway":"secondary"},"geometry":{"type":"LineString","coordinates":[[139.488714,34.099522],[139.488692,34.099595],[139.488664,34.099691],[139.488657,34.099761],[139.488663,34.099851],[139.488674,34.099959],[139.488687,34.100126],[139.488692,34.100213]]}},{"type":"Feature","properties":{"id":451072499,"highway":"secondary"},"geometry":{"type":"LineString","coordinates":[[139.487712,34.087049],[139.487686,34.086975],[139.487604,34.086802],[139.487542,34.086693],[139.487502,34.086611],[139.487483,34.086513],[139.487482,34.086427],[139.487498,34.086354],[139.487535,34.086286],[139.487597,34.086164],[139.487645,34.086062],[139.48768,34.08594],[139.487713,34.085776],[139.487726,34.085472],[139.487751,34.08519],[139.487786,34.084765],[139.487787,34.084677],[139.487783,34.084634],[139.487767,34.084596],[139.487754,34.084564],[139.487717,34.084535],[139.487689,34.084511],[139.487649,34.084492],[139.487597,34.084478],[139.487535,34.084473],[139.487411,34.084465],[139.487275,34.084456],[139.487196,34.084452],[139.487091,34.084412],[139.487016,34.08437],[139.48696,34.084317],[139.486929,34.084255],[139.48687,34.084149],[139.486788,34.084075],[139.486688,34.084033],[139.486357,34.08394],[139.486048,34.083841],[139.485849,34.083784],[139.485792,34.083777],[139.485702,34.083771],[139.485546,34.083769],[139.485322,34.083787],[139.485161,34.083796],[139.485056,34.083793],[139.485006,34.08377],[139.484944,34.083732],[139.484917,34.083695],[139.484906,34.083646],[139.484916,34.083608],[139.48495,34.083556],[139.484994,34.083514],[139.48509,34.083464],[139.48519,34.083422],[139.485263,34.08339],[139.485318,34.083352],[139.485367,34.08331],[139.485448,34.083221],[139.485511,34.083162],[139.485559,34.083117],[139.485609,34.083063],[139.485675,34.08299],[139.485702,34.082953],[139.485727,34.082905],[139.485732,34.082877],[139.485726,34.08284],[139.485709,34.082803],[139.485666,34.082773],[139.485582,34.082749],[139.485443,34.082717],[139.48529,34.082683],[139.485073,34.082632],[139.484933,34.082591],[139.484857,34.082559],[139.484814,34.082513],[139.484788,34.082462],[139.484788,34.082399],[139.484804,34.082352],[139.484821,34.082327],[139.484862,34.082289],[139.484907,34.08227],[139.484983,34.082257],[139.48506,34.082237],[139.485157,34.082212],[139.485324,34.082156],[139.485509,34.082089],[139.485557,34.082026],[139.485565,34.08196],[139.485553,34.081902],[139.485506,34.08182],[139.48545,34.081755],[139.485352,34.081702],[139.485203,34.081681],[139.485122,34.081677],[139.485051,34.081662],[139.485008,34.081642],[139.484972,34.081617],[139.484935,34.081587],[139.484897,34.081541],[139.48487,34.081465],[139.484861,34.08127],[139.484857,34.080882],[139.48485,34.080514],[139.48487,34.080431],[139.484923,34.080323],[139.485006,34.080227],[139.485108,34.080161],[139.485199,34.080121],[139.48529,34.080037],[139.485336,34.079954],[139.485362,34.079885],[139.485368,34.079808],[139.485371,34.079765],[139.485352,34.079685],[139.485318,34.079643],[139.485251,34.079557],[139.484767,34.079077],[139.484628,34.079],[139.484514,34.078957]]}},{"type":"Feature","properties":{"id":451072500,"highway":"secondary"},"geometry":{"type":"LineString","coordinates":[[139.487712,34.087049],[139.487743,34.087374],[139.487698,34.087711],[139.487628,34.087938],[139.48755,34.088158],[139.487534,34.088316],[139.487535,34.088404]]}},{"type":"Feature","properties":{"id":451072505,"highway":"service"},"geometry":{"type":"LineString","coordinates":[[139.496162,34.050916],[139.496221,34.05088],[139.496699,34.051224],[139.496788,34.05137],[139.496862,34.051348],[139.497062,34.05125],[139.49712,34.051259],[139.497227,34.051329],[139.497382,34.051516],[139.497416,34.051586],[139.497414,34.051661]]}},{"type":"Feature","properties":{"id":451072511,"highway":"residential"},"geometry":{"type":"LineString","coordinates":[[139.494729,34.052923],[139.495045,34.052794],[139.495103,34.052763],[139.495182,34.052701],[139.495247,34.052654],[139.495318,34.052613],[139.495435,34.052561],[139.495488,34.052542],[139.495538,34.052535],[139.49559,34.052534],[139.495647,34.052528],[139.49575,34.052507],[139.496041,34.052443]]}},{"type":"Feature","properties":{"id":451072513,"highway":"service"},"geometry":{"type":"LineString","coordinates":[[139.493456,34.060975],[139.49334,34.061038],[139.492978,34.061067],[139.492791,34.061171],[139.492576,34.061242],[139.492316,34.061802],[139.491868,34.061755],[139.491699,34.061695],[139.491632,34.061578],[139.491728,34.061347],[139.491693,34.061073],[139.491597,34.060995],[139.491597,34.060333],[139.491586,34.060186]]}},{"type":"Feature","properties":{"id":451072516,"highway":"service"},"geometry":{"type":"LineString","coordinates":[[139.49487,34.079692],[139.494495,34.079745],[139.494355,34.079716],[139.494154,34.07971],[139.493845,34.079783],[139.493735,34.079756],[139.493357,34.079516],[139.492987,34.079314],[139.492604,34.079199],[139.492357,34.079268],[139.492148,34.07939],[139.491683,34.079754],[139.491305,34.079885],[139.491228,34.080012],[139.491013,34.080485],[139.490841,34.08059],[139.490697,34.080605],[139.490544,34.080563],[139.490173,34.080383]]}},{"type":"Feature","properties":{"id":451072535,"highway":"service"},"geometry":{"type":"LineString","coordinates":[[139.4871,34.071636],[139.487336,34.071658],[139.48757,34.071625],[139.487832,34.071658],[139.487953,34.071622]]}},{"type":"Feature","properties":{"id":451072536,"highway":"service"},"geometry":{"type":"LineString","coordinates":[[139.496021,34.055212],[139.49553,34.054852],[139.494795,34.054304],[139.494619,34.054161],[139.494548,34.054062]]}},{"type":"Feature","properties":{"id":451072546,"highway":"service"},"geometry":{"type":"LineString","coordinates":[[139.49448,34.080314],[139.494407,34.080372],[139.49419,34.080334],[139.494005,34.080332],[139.493871,34.080401],[139.493587,34.080585],[139.493498,34.080676],[139.493317,34.080754]]}},{"type":"Feature","properties":{"id":451072553,"highway":"service"},"geometry":{"type":"LineString","coordinates":[[139.49373,34.053809],[139.493982,34.053749],[139.494091,34.053766],[139.49427,34.053887],[139.494421,34.053975],[139.494515,34.053968],[139.494639,34.053889],[139.494729,34.05388],[139.494798,34.053897]]}},{"type":"Feature","properties":{"id":451896790,"highway":"residential"},"geometry":{"type":"LineString","coordinates":[[139.480043,34.075475],[139.480286,34.07542],[139.480548,34.075347]]}},{"type":"Feature","properties":{"id":451970554,"highway":"service"},"geometry":{"type":"LineString","coordinates":[[139.480357,34.071846],[139.480523,34.071526],[139.480849,34.071658]]}},{"type":"Feature","properties":{"id":452056563,"highway":"residential"},"geometry":{"type":"LineString","coordinates":[[139.492481,34.099462],[139.49249,34.09948],[139.492511,34.099499],[139.492527,34.09951],[139.492548,34.099513],[139.492583,34.099509],[139.492644,34.099492],[139.492743,34.099471],[139.4929,34.099446],[139.493015,34.099428],[139.49309,34.099414],[139.493153,34.099394]]}},{"type":"Feature","properties":{"id":452056565,"highway":"service"},"geometry":{"type":"LineString","coordinates":[[139.49259,34.095962],[139.492291,34.096066],[139.492137,34.096149],[139.492109,34.09621],[139.492144,34.096304],[139.492172,34.096457]]}},{"type":"Feature","properties":{"id":452682417,"highway":"service"},"geometry":{"type":"LineString","coordinates":[[139.484979,34.055619],[139.485368,34.055774],[139.485489,34.055765],[139.485576,34.055716],[139.485725,34.05558],[139.485836,34.055599]]}},{"type":"Feature","properties":{"id":452862338,"highway":"service"},"geometry":{"type":"LineString","coordinates":[[139.479854,34.065347],[139.480005,34.065267],[139.480265,34.065258],[139.480914,34.06506],[139.481043,34.065063],[139.48115,34.065127],[139.481255,34.065371],[139.4814,34.06558],[139.48192,34.065883],[139.482307,34.066076]]}},{"type":"Feature","properties":{"id":452862341,"highway":"service"},"geometry":{"type":"LineString","coordinates":[[139.482995,34.060899],[139.482944,34.060925],[139.482849,34.060929],[139.482676,34.06101]]}},{"type":"Feature","properties":{"id":1292148586,"highway":"secondary"},"geometry":{"type":"LineString","coordinates":[[139.484514,34.078957],[139.484495,34.079064],[139.484479,34.079345],[139.48451,34.079574],[139.484492,34.079742],[139.484449,34.079888],[139.484332,34.080065],[139.484177,34.080409],[139.484146,34.080597],[139.484174,34.081232],[139.484161,34.081452],[139.484071,34.081681],[139.483877,34.081842],[139.483623,34.081942],[139.483255,34.082087],[139.483022,34.082243],[139.482815,34.082382],[139.482679,34.082451],[139.482589,34.08248],[139.48254,34.082492],[139.482311,34.082547]]}}]}