{"type":"FeatureCollection","features":[{"type":"Feature","properties":{"id":154522017,"highway":"unclassified"},"geometry":{"type":"LineString","coordinates":[[139.49202,34.117167],[139.492058,34.117356],[139.492052,34.117474],[139.492022,34.117604],[139.492016,34.117705],[139.492025,34.117797],[139.492052,34.117898],[139.492094,34.117993],[139.492165,34.118093],[139.492224,34.118158],[139.492331,34.118254],[139.492522,34.118443],[139.492738,34.118645],[139.49288,34.118745]]}},{"type":"Feature","properties":{"id":154522028,"highway":"unclassified"},"geometry":{"type":"LineString","coordinates":[[139.499804,34.11437],[139.499708,34.114394],[139.499601,34.114404],[139.499506,34.114418],[139.499433,34.114425],[139.499387,34.11444],[139.49935,34.114505],[139.499316,34.114571],[139.499291,34.114617],[139.499104,34.114696],[139.499012,34.114731],[139.498892,34.11471],[139.498837,34.1147],[139.498721,34.114718],[139.498642,34.114721],[139.498556,34.114707],[139.498463,34.114677],[139.498396,34.114641],[139.498317,34.114586],[139.498268,34.114557],[139.498211,34.114524],[139.498148,34.114508],[139.49808,34.114497],[139.498012,34.114507],[139.497954,34.114524]]}},{"type":"Feature","properties":{"id":154522054,"highway":"unclassified"},"geometry":{"type":"LineString","coordinates":[[139.503942,34.118135],[139.503918,34.118178],[139.503901,34.118222],[139.503882,34.118282],[139.503877,34.118335],[139.503882,34.1184],[139.503897,34.118443],[139.503922,34.118495],[139.503958,34.118562],[139.503986,34.118612],[139.503992,34.118683],[139.503991,34.118741],[139.503968,34.118811],[139.50392,34.118896],[139.503866,34.118989],[139.503803,34.119078],[139.503723,34.119131],[139.503638,34.119177],[139.503531,34.119204],[139.503422,34.119218],[139.503333,34.119228],[139.503243,34.119238],[139.503136,34.119248],[139.503067,34.119255],[139.502953,34.119269],[139.502858,34.119289],[139.502783,34.119318],[139.502703,34.119372],[139.502602,34.11946],[139.502398,34.119652],[139.502294,34.11975],[139.502,34.120028],[139.501921,34.120096],[139.501893,34.12012],[139.501759,34.120254],[139.501519,34.120541],[139.501403,34.12068],[139.501237,34.120896],[139.501139,34.121012],[139.501098,34.121041],[139.501037,34.121076],[139.500988,34.121094],[139.500915,34.121109],[139.500852,34.121119],[139.500742,34.121157],[139.500664,34.121194],[139.500547,34.121229],[139.50032,34.121235],[139.500197,34.121221],[139.499903,34.121133],[139.499331,34.120944],[139.499151,34.120895],[139.499087,34.120907],[139.498957,34.12092],[139.498792,34.120922],[139.498635,34.120904],[139.498466,34.120841]]}},{"type":"Feature","properties":{"id":154522259,"highway":"unclassified"},"geometry":{"type":"LineString","coordinates":[[139.495081,34.109611],[139.49494,34.109605],[139.494642,34.10944],[139.494323,34.10924],[139.494254,34.10916],[139.494198,34.109087],[139.494156,34.109027],[139.494061,34.108862],[139.494019,34.108803],[139.493978,34.108775],[139.493926,34.108748],[139.493839,34.108726],[139.493567,34.108738],[139.49304,34.108841],[139.492976,34.108862],[139.49293,34.108886],[139.492867,34.108958],[139.492713,34.109139],[139.492634,34.109231],[139.492573,34.109302],[139.492505,34.109398],[139.49246,34.109475],[139.492395,34.109645],[139.492137,34.110274],[139.492093,34.110345],[139.492032,34.110408],[139.491764,34.110637],[139.491078,34.111281],[139.491013,34.111335],[139.490947,34.11137],[139.490777,34.111413],[139.490729,34.111435],[139.490659,34.111498],[139.490596,34.111578],[139.490451,34.111751],[139.490325,34.111919],[139.490164,34.112152],[139.490026,34.11236],[139.489989,34.11246],[139.489991,34.112531],[139.490037,34.112684],[139.490087,34.112776],[139.490129,34.112888],[139.490228,34.113158],[139.490283,34.113409],[139.490354,34.113645],[139.49036,34.113798],[139.49042,34.113997],[139.490552,34.114401],[139.490599,34.11455],[139.49064,34.114683],[139.490673,34.114775],[139.490706,34.114855],[139.49074,34.114913],[139.490773,34.114961],[139.490802,34.115008],[139.490845,34.11506],[139.490901,34.115116],[139.490975,34.115185],[139.491057,34.115265],[139.491138,34.115355],[139.491384,34.115682],[139.49164,34.11602],[139.491695,34.116107],[139.491771,34.11627]]}},{"type":"Feature","properties":{"id":154522298,"highway":"unclassified"},"geometry":{"type":"LineString","coordinates":[[139.498466,34.120841],[139.498571,34.12064],[139.498651,34.120494],[139.498743,34.120326],[139.498803,34.12018],[139.49882,34.120123],[139.498837,34.120048],[139.498852,34.119994],[139.498871,34.119953],[139.498966,34.11982],[139.499083,34.119653],[139.49914,34.119567],[139.499197,34.119478],[139.499246,34.11939],[139.499266,34.119353],[139.499277,34.119325],[139.49929,34.119274],[139.499298,34.119238],[139.499315,34.11918],[139.499332,34.11913],[139.499371,34.119072],[139.499439,34.118992],[139.499509,34.118911],[139.499552,34.118857],[139.49957,34.118835],[139.499584,34.118806],[139.499587,34.118778],[139.499591,34.118741],[139.499582,34.11863],[139.499567,34.118543],[139.49955,34.118432],[139.499533,34.118324],[139.499529,34.118294],[139.499526,34.118232],[139.499524,34.118176],[139.499532,34.118127],[139.499559,34.118075],[139.499601,34.118],[139.49965,34.117923],[139.499684,34.117865],[139.499691,34.117791],[139.499688,34.117726],[139.499678,34.117674],[139.499651,34.117585],[139.499635,34.117522],[139.499624,34.117478],[139.499619,34.117445],[139.499609,34.117402],[139.4996,34.117341],[139.499597,34.117286],[139.499586,34.117196],[139.499568,34.117133],[139.49955,34.117059],[139.499514,34.116949],[139.499469,34.116855],[139.499445,34.11681],[139.499419,34.116768],[139.499407,34.116752],[139.4994,34.116742],[139.499404,34.11673],[139.499423,34.116706],[139.499467,34.116664],[139.499514,34.116622],[139.49954,34.116593],[139.499552,34.116571],[139.499576,34.116509],[139.499599,34.116439],[139.499619,34.116392],[139.499625,34.116381],[139.499702,34.116312],[139.499785,34.116233],[139.499859,34.116161],[139.49989,34.116125],[139.499931,34.116067],[139.499974,34.115984],[139.499999,34.115918],[139.500023,34.115825],[139.500055,34.115774],[139.500116,34.115679],[139.500143,34.115628],[139.500141,34.115601],[139.500126,34.115544],[139.50011,34.115492],[139.500096,34.115439],[139.500212,34.115397],[139.500311,34.115362],[139.500487,34.115309]]}},{"type":"Feature","properties":{"id":154522299,"highway":"unclassified"},"geometry":{"type":"LineString","coordinates":[[139.49288,34.118745],[139.493171,34.118976],[139.493345,34.119096],[139.493588,34.11924],[139.493845,34.119368],[139.494152,34.119514],[139.494343,34.119572],[139.494531,34.119592],[139.494852,34.119583],[139.495018,34.119591],[139.495155,34.119602],[139.495349,34.119625],[139.495637,34.119664],[139.495923,34.119704],[139.496111,34.119733],[139.496278,34.119757],[139.496418,34.119776],[139.49649,34.119791],[139.496568,34.119815],[139.496651,34.119855],[139.496711,34.119896],[139.496898,34.120059],[139.496994,34.120126],[139.49714,34.12018],[139.497278,34.120229],[139.497367,34.120258],[139.497533,34.120301],[139.497644,34.12035],[139.497772,34.120383],[139.497883,34.120434],[139.498109,34.120599],[139.498253,34.120711],[139.498322,34.120761],[139.498393,34.120807],[139.498466,34.120841]]}},{"type":"Feature","properties":{"id":154522373,"highway":"unclassified"},"geometry":{"type":"LineString","coordinates":[[139.498359,34.097579],[139.498343,34.097622],[139.498334,34.097653],[139.498315,34.097668],[139.498286,34.097684],[139.498226,34.097708],[139.498159,34.097739],[139.498113,34.097767],[139.498068,34.097812],[139.498038,34.097849],[139.498021,34.097876],[139.497997,34.097956],[139.497995,34.098036],[139.498021,34.098143],[139.498033,34.098216],[139.49803,34.098311],[139.498021,34.098343],[139.498008,34.098372],[139.497977,34.098404],[139.497889,34.098472],[139.497799,34.098522],[139.497693,34.098564],[139.497587,34.098669],[139.497506,34.098756],[139.497454,34.098809],[139.497408,34.098868],[139.4973,34.099004],[139.49723,34.099093],[139.497153,34.099171],[139.497069,34.099257],[139.496912,34.099385],[139.496777,34.099494],[139.496736,34.099506],[139.49669,34.099506],[139.496662,34.099503],[139.496633,34.099498],[139.496445,34.099449],[139.496261,34.099405],[139.496212,34.099395],[139.496157,34.099391],[139.496098,34.099391],[139.496047,34.099393],[139.496014,34.099397],[139.495962,34.099409],[139.495904,34.099426],[139.495844,34.099447],[139.495603,34.099544],[139.495563,34.099563],[139.495518,34.099589],[139.495406,34.099657],[139.495355,34.099691],[139.49533,34.099714],[139.495024,34.099994],[139.494776,34.100225],[139.494662,34.100336],[139.494561,34.100443],[139.494527,34.100475],[139.4945,34.100496],[139.494384,34.10054],[139.494271,34.100588],[139.494222,34.100604],[139.494179,34.100608],[139.49414,34.100607],[139.49409,34.100602],[139.494038,34.100589],[139.493972,34.100573],[139.493826,34.100535],[139.493788,34.100524],[139.493761,34.100521],[139.49374,34.100519],[139.493707,34.100521],[139.49368,34.100525],[139.493656,34.100537],[139.493633,34.100557],[139.49361,34.100585],[139.49355,34.100671],[139.493438,34.100842],[139.493391,34.100929],[139.493347,34.101012],[139.49333,34.101058],[139.493217,34.101273]]}},{"type":"Feature","properties":{"id":154522597,"highway":"unclassified"},"geometry":{"type":"LineString","coordinates":[[139.495344,34.109599],[139.495287,34.109602],[139.495081,34.109611]]}},{"type":"Feature","properties":{"id":154524049,"highway":"secondary"},"geometry":{"type":"LineString","coordinates":[[139.499804,34.11437],[139.499772,34.114288],[139.499748,34.114219],[139.499721,34.114137],[139.499716,34.114066],[139.499717,34.113979],[139.499724,34.113899],[139.499747,34.113814],[139.499784,34.11371],[139.499843,34.113525],[139.499897,34.11335],[139.499902,34.11327],[139.499885,34.113197]]}},{"type":"Feature","properties":{"id":154524085,"highway":"secondary"},"geometry":{"type":"LineString","coordinates":[[139.497398,34.112133],[139.496826,34.111863],[139.496522,34.111708],[139.496341,34.111611],[139.49615,34.111499],[139.496074,34.111434],[139.495955,34.111312],[139.495855,34.111209],[139.495703,34.111041],[139.495584,34.110897],[139.49547,34.110755],[139.495378,34.110622],[139.495338,34.110546],[139.495337,34.110444],[139.49534,34.110305],[139.495338,34.110124],[139.495341,34.109812],[139.495344,34.109599]]}},{"type":"Feature","properties":{"id":154524095,"highway":"secondary"},"geometry":{"type":"LineString","coordinates":[[139.495452,34.10179],[139.495099,34.101679],[139.494853,34.101613],[139.494486,34.101503]]}},{"type":"Feature","properties":{"id":154524151,"highway":"secondary"},"geometry":{"type":"LineString","coordinates":[[139.492411,34.100234],[139.492364,34.100265],[139.492242,34.100335],[139.492173,34.100365],[139.492136,34.100377],[139.492105,34.100374],[139.492056,34.100354],[139.491996,34.100319],[139.491942,34.100261],[139.491904,34.100211],[139.491867,34.100167],[139.491819,34.100122],[139.491765,34.100083],[139.491721,34.100058],[139.491682,34.100044],[139.491624,34.100036],[139.491562,34.100042],[139.491501,34.100055],[139.491442,34.100077],[139.49133,34.100131],[139.491275,34.100153],[139.491197,34.100189],[139.491143,34.100224],[139.491074,34.100261],[139.491006,34.100298],[139.490923,34.100335],[139.490874,34.100353],[139.490818,34.10036],[139.490768,34.100368],[139.490682,34.100372],[139.490608,34.100364],[139.490566,34.100355],[139.490529,34.100342],[139.490492,34.100327],[139.490444,34.100304],[139.490408,34.100268],[139.490373,34.100224],[139.490338,34.100168],[139.490312,34.10011],[139.490284,34.100047],[139.490265,34.099991],[139.490255,34.099932],[139.490254,34.099885],[139.490271,34.099836],[139.490289,34.099794],[139.490309,34.099755],[139.490357,34.099704],[139.4904,34.099677],[139.49045,34.09965],[139.490511,34.099627],[139.490575,34.099598],[139.49064,34.099574],[139.490706,34.099546],[139.490755,34.099519],[139.490794,34.099492],[139.490853,34.099454],[139.4909,34.099415],[139.490963,34.099368],[139.491014,34.099325],[139.49108,34.099279],[139.491116,34.099242],[139.491128,34.09921],[139.491132,34.099178],[139.491134,34.09914],[139.491124,34.099089],[139.491121,34.099063],[139.491119,34.099043],[139.491099,34.09901],[139.491069,34.098983],[139.490997,34.098964],[139.490908,34.098962],[139.490839,34.098976],[139.49075,34.098993],[139.490638,34.09901],[139.490547,34.099011],[139.49047,34.099007],[139.490324,34.098991],[139.490201,34.098971],[139.490048,34.098958],[139.489963,34.098954],[139.489878,34.098945],[139.489779,34.098934],[139.489638,34.098916],[139.489465,34.098889],[139.489196,34.098852],[139.488937,34.098821],[139.488786,34.098805],[139.488696,34.098795],[139.488666,34.098796],[139.488603,34.098807],[139.488553,34.098825],[139.488508,34.098851],[139.488478,34.098883],[139.488464,34.098917],[139.488464,34.098955],[139.488483,34.099013],[139.48858,34.099141],[139.488672,34.099257],[139.488715,34.099329],[139.488732,34.099395]]}},{"type":"Feature","properties":{"id":154524187,"highway":"secondary"},"geometry":{"type":"LineString","coordinates":[[139.50023,34.114754],[139.500192,34.114719],[139.500164,34.114695],[139.500067,34.114608],[139.499934,34.114495],[139.499867,34.114429],[139.499804,34.11437]]}},{"type":"Feature","properties":{"id":154524198,"highway":"secondary"},"geometry":{"type":"LineString","coordinates":[[139.495344,34.109599],[139.49535,34.109414],[139.495356,34.109128],[139.495355,34.108867],[139.495355,34.108314],[139.495364,34.108201],[139.495491,34.107515],[139.495616,34.10688],[139.495614,34.106744],[139.495585,34.106576],[139.49551,34.106418],[139.495439,34.106262],[139.495413,34.106128],[139.49541,34.106071],[139.495413,34.106001],[139.495425,34.105925],[139.495739,34.105049],[139.495867,34.104721],[139.495911,34.104625],[139.495987,34.104536],[139.496041,34.104483],[139.496104,34.10444],[139.496233,34.104364],[139.496424,34.104244],[139.49649,34.104204],[139.496529,34.10414],[139.496533,34.104093],[139.496524,34.104044],[139.496493,34.104001],[139.496438,34.10398],[139.49633,34.103965],[139.496238,34.103954],[139.496074,34.103936],[139.495982,34.103925],[139.495896,34.103906],[139.495826,34.103876],[139.495771,34.103826],[139.495738,34.103773],[139.49573,34.103724],[139.495738,34.103674],[139.495767,34.103583],[139.495812,34.103518],[139.495868,34.103439],[139.495935,34.103358],[139.49614,34.103098],[139.496214,34.10303],[139.496301,34.10299],[139.496419,34.102945],[139.496518,34.102915],[139.496627,34.102879],[139.496733,34.102846],[139.496785,34.102827],[139.496884,34.102781],[139.496958,34.10274],[139.497031,34.102691],[139.497079,34.102661],[139.497149,34.102619],[139.497181,34.102596],[139.497232,34.102546],[139.497265,34.102479],[139.497276,34.102408],[139.497288,34.102316],[139.497294,34.10221],[139.497294,34.102126],[139.497285,34.102056],[139.497272,34.102003],[139.497249,34.10196],[139.497225,34.101923],[139.497197,34.101889],[139.497162,34.101851],[139.497137,34.10183],[139.497114,34.101807],[139.497096,34.101794],[139.497068,34.10178],[139.497023,34.101754],[139.496945,34.101725],[139.496875,34.101709],[139.496779,34.101698],[139.496672,34.1017],[139.496558,34.101726],[139.496453,34.101767],[139.496328,34.101817],[139.496239,34.101853],[139.496123,34.101884],[139.495997,34.101898],[139.495896,34.101895],[139.495821,34.101887],[139.495755,34.101875],[139.49568,34.101854],[139.495565,34.101822],[139.495452,34.10179]]}},{"type":"Feature","properties":{"id":154524225,"highway":"secondary"},"geometry":{"type":"LineString","coordinates":[[139.492411,34.100234],[139.492378,34.100171],[139.492359,34.100143],[139.492339,34.10011],[139.492276,34.100026],[139.49221,34.09994],[139.492177,34.0999],[139.492146,34.099861],[139.492093,34.09979],[139.492038,34.099698],[139.492014,34.09965],[139.491991,34.099584],[139.491989,34.0995],[139.491993,34.099409],[139.492011,34.099308],[139.492036,34.099195],[139.492057,34.099114],[139.492077,34.099041],[139.492112,34.098992],[139.49217,34.098912],[139.492256,34.098834],[139.492287,34.098804],[139.492315,34.098777],[139.492368,34.098705],[139.492421,34.098615],[139.492442,34.098526],[139.492549,34.098355],[139.492665,34.09823],[139.492715,34.098162],[139.492741,34.098106]]}},{"type":"Feature","properties":{"id":154524246,"highway":"secondary"},"geometry":{"type":"LineString","coordinates":[[139.49957,34.112865],[139.499509,34.112847],[139.499438,34.112832],[139.499309,34.11283],[139.49911,34.112839],[139.498971,34.11284],[139.498865,34.11283],[139.498785,34.112807],[139.498668,34.112767],[139.498521,34.112692],[139.497723,34.112293],[139.497398,34.112133]]}},{"type":"Feature","properties":{"id":421097756,"highway":"residential"},"geometry":{"type":"LineString","coordinates":[[139.492789,34.100138],[139.492876,34.100103],[139.492941,34.100074],[139.492988,34.100047],[139.493011,34.100019],[139.493019,34.099989],[139.493021,34.099968],[139.493012,34.099934],[139.492992,34.099887],[139.492976,34.099864]]}},{"type":"Feature","properties":{"id":421097758,"highway":"residential"},"geometry":{"type":"LineString","coordinates":[[139.493347,34.101012],[139.493265,34.100971],[139.493193,34.100934],[139.493136,34.100893],[139.493082,34.100854],[139.493023,34.100812],[139.49299,34.100771],[139.49296,34.100738],[139.492913,34.100688],[139.49287,34.100628],[139.492834,34.100568],[139.492805,34.100505],[139.492798,34.100474],[139.49281,34.100443],[139.492834,34.100403],[139.492864,34.100349]]}},{"type":"Feature","properties":{"id":421097759,"highway":"residential"},"geometry":{"type":"LineString","coordinates":[[139.492359,34.100143],[139.492429,34.100159],[139.492485,34.100163],[139.492514,34.100149],[139.492561,34.100126],[139.492599,34.100107],[139.49264,34.100099],[139.492694,34.100104],[139.492742,34.100116],[139.492776,34.100129],[139.492789,34.100138],[139.492807,34.100149],[139.492821,34.10019],[139.492828,34.100232],[139.492838,34.10028],[139.492846,34.100324],[139.492864,34.100349]]}},{"type":"Feature","properties":{"id":421097760,"highway":"residential"},"geometry":{"type":"LineString","coordinates":[[139.493153,34.099394],[139.493167,34.09942],[139.493207,34.099443],[139.493249,34.099467],[139.493281,34.099495],[139.49332,34.09954],[139.493345,34.099577],[139.493355,34.099587],[139.493373,34.099614],[139.493414,34.099666],[139.493425,34.099682],[139.493462,34.099809],[139.49349,34.099847],[139.493516,34.099879],[139.493521,34.099909],[139.49351,34.099929],[139.493474,34.099952],[139.493405,34.099994],[139.493385,34.100016],[139.493379,34.100044],[139.493378,34.100071],[139.493387,34.100118],[139.493397,34.100164],[139.493403,34.100207],[139.493395,34.100255],[139.493382,34.100284],[139.493362,34.100306],[139.493335,34.100313],[139.49329,34.100315],[139.493241,34.100313],[139.493206,34.100313],[139.493114,34.100313],[139.493055,34.100319],[139.493,34.100326],[139.492949,34.100334],[139.492903,34.100341],[139.492864,34.100349]]}},{"type":"Feature","properties":{"id":421097763,"highway":"residential"},"geometry":{"type":"LineString","coordinates":[[139.492876,34.100103],[139.492903,34.10012],[139.492964,34.100127],[139.492996,34.100121],[139.493084,34.100071]]}},{"type":"Feature","properties":{"id":436513608,"highway":"secondary"},"geometry":{"type":"LineString","coordinates":[[139.499865,34.11313],[139.499885,34.113197]]}},{"type":"Feature","properties":{"id":436513610,"highway":"secondary"},"geometry":{"type":"LineString","coordinates":[[139.499865,34.11313],[139.499833,34.113061],[139.499767,34.112986],[139.499721,34.112944],[139.499678,34.112911],[139.49964,34.112893],[139.49957,34.112865]]}},{"type":"Feature","properties":{"id":436513637,"highway":"unclassified"},"geometry":{"type":"LineString","coordinates":[[139.491999,34.117084],[139.49202,34.117167]]}},{"type":"Feature","properties":{"id":436513651,"highway":"unclassified"},"geometry":{"type":"LineString","coordinates":[[139.491771,34.11627],[139.4918,34.116358],[139.49189,34.116684],[139.491942,34.116913],[139.491999,34.117084]]}},{"type":"Feature","properties":{"id":436654600,"highway":"unclassified"},"geometry":{"type":"LineString","coordinates":[[139.497533,34.120301],[139.497522,34.120193],[139.497511,34.120073],[139.497503,34.119981],[139.497491,34.119847],[139.49748,34.119768],[139.497481,34.119711],[139.497488,34.119655],[139.497502,34.119567],[139.497512,34.119479],[139.497534,34.119396],[139.497549,34.119302]]}},{"type":"Feature","properties":{"id":436654604,"highway":"unclassified"},"geometry":{"type":"LineString","coordinates":[[139.500096,34.115439],[139.500045,34.115416],[139.500017,34.115378],[139.499985,34.115328],[139.499962,34.115278],[139.499949,34.115253],[139.49991,34.115234],[139.499858,34.115215],[139.499809,34.115188],[139.499742,34.115146],[139.499676,34.115092],[139.499616,34.115043],[139.499601,34.115032],[139.499591,34.115024],[139.499537,34.114963],[139.499498,34.114902],[139.499427,34.1148],[139.499377,34.114733],[139.499339,34.114682],[139.499291,34.114617]]}},{"type":"Feature","properties":{"id":436654615,"highway":"unclassified"},"geometry":{"type":"LineString","coordinates":[[139.499601,34.115032],[139.499559,34.115064],[139.499488,34.115127],[139.499406,34.115202],[139.499339,34.115259]]}},{"type":"Feature","properties":{"id":436654628,"highway":"unclassified"},"geometry":{"type":"LineString","coordinates":[[139.500164,34.114695],[139.500036,34.114762],[139.499966,34.1148],[139.49988,34.114842],[139.499819,34.114876],[139.499758,34.114926],[139.49971,34.114966],[139.499648,34.115013],[139.499616,34.115043]]}},{"type":"Feature","properties":{"id":436714135,"highway":"residential"},"geometry":{"type":"LineString","coordinates":[[139.49433,34.10255],[139.494312,34.102499],[139.494263,34.102359],[139.494615,34.102195],[139.494923,34.102182],[139.495435,34.102011],[139.495636,34.102013],[139.495913,34.102106],[139.496162,34.102073],[139.496227,34.102017],[139.496328,34.101817]]}},{"type":"Feature","properties":{"id":436714144,"highway":"service"},"geometry":{"type":"LineString","coordinates":[[139.48903,34.100859],[139.48928,34.100451],[139.489037,34.100352],[139.488692,34.100213]]}},{"type":"Feature","properties":{"id":440692797,"highway":"secondary"},"geometry":{"type":"LineString","coordinates":[[139.488714,34.099522],[139.488692,34.099595],[139.488664,34.099691],[139.488657,34.099761],[139.488663,34.099851],[139.488674,34.099959],[139.488687,34.100126],[139.488692,34.100213]]}},{"type":"Feature","properties":{"id":451902463,"highway":"service"},"geometry":{"type":"LineString","coordinates":[[139.490037,34.112684],[139.489963,34.112753],[139.489978,34.112849],[139.490129,34.112888]]}},{"type":"Feature","properties":{"id":452977112,"highway":"service"},"geometry":{"type":"LineString","coordinates":[[139.498654,34.11508],[139.498638,34.114973],[139.498642,34.114721]]}},{"type":"Feature","properties":{"id":452977113,"highway":"service"},"geometry":{"type":"LineString","coordinates":[[139.499487,34.115441],[139.500023,34.115825]]}},{"type":"Feature","properties":{"id":452977118,"highway":"service"},"geometry":{"type":"LineString","coordinates":[[139.497549,34.119302],[139.497577,34.119235],[139.497603,34.119153],[139.497622,34.119085],[139.497702,34.118867],[139.49848,34.11866],[139.49856,34.118672],[139.498818,34.118767],[139.49878,34.11888],[139.498646,34.118976]]}},{"type":"Feature","properties":{"id":1292148587,"highway":"secondary"},"geometry":{"type":"LineString","coordinates":[[139.494486,34.101503],[139.494418,34.101484],[139.494317,34.101455],[139.49424,34.101431],[139.494128,34.101398],[139.494041,34.101377],[139.493949,34.10136],[139.493896,34.101351],[139.493796,34.101345],[139.493687,34.101352],[139.493553,34.101354],[139.493431,34.101344],[139.493318,34.101314],[139.493217,34.101273],[139.493174,34.101238],[139.493133,34.101202],[139.493094,34.101147],[139.493013,34.101035],[139.492844,34.100801],[139.492722,34.100641],[139.49265,34.10054],[139.492536,34.100401],[139.49248,34.100326],[139.492411,34.100234]]}}]}