{"type":"FeatureCollection","features":[{"type":"Feature","properties":{"id":26604654,"highway":"tertiary"},"geometry":{"type":"LineString","coordinates":[[139.500524,36.739274],[139.500517,36.739346],[139.500497,36.739412],[139.500457,36.73948],[139.500383,36.739561],[139.500306,36.739605],[139.50026,36.739632],[139.500171,36.739671],[139.500068,36.739693],[139.49965,36.739763],[139.499337,36.739812],[139.499111,36.739838],[139.498849,36.739858],[139.498166,36.739858],[139.497862,36.739856],[139.497603,36.739869],[139.49755,36.739872],[139.497315,36.739886],[139.497155,36.739905],[139.496942,36.739963],[139.496678,36.74005],[139.496306,36.740163],[139.496148,36.740201],[139.495967,36.740226],[139.495608,36.740254],[139.495426,36.740268],[139.49469,36.740331],[139.494366,36.740352],[139.494036,36.740382],[139.4935,36.740497],[139.493343,36.740532],[139.492831,36.740661],[139.492543,36.740731],[139.491863,36.740898],[139.491414,36.741049],[139.490662,36.74133],[139.489974,36.741583],[139.48985,36.74161],[139.489727,36.741617],[139.48929,36.741599],[139.489131,36.741573],[139.488992,36.741524],[139.488895,36.74147],[139.488838,36.741416],[139.488741,36.741272]]}},{"type":"Feature","properties":{"id":48046141,"highway":"trunk"},"geometry":{"type":"LineString","coordinates":[[139.488741,36.741272],[139.488645,36.741272],[139.488548,36.741262],[139.48845,36.741249],[139.488352,36.741231],[139.488225,36.741202],[139.488073,36.741168],[139.487819,36.741108],[139.487441,36.74102],[139.487245,36.740974],[139.487029,36.740924],[139.486935,36.740906],[139.486734,36.740869],[139.486523,36.740844],[139.486311,36.740823],[139.486052,36.740804],[139.485734,36.740795],[139.485372,36.740792],[139.484895,36.740793],[139.484554,36.740799],[139.483834,36.740802],[139.483564,36.740818],[139.483303,36.740839],[139.483077,36.740868],[139.482749,36.740924],[139.482074,36.741036],[139.481259,36.741178],[139.480552,36.741304],[139.480029,36.74139],[139.479845,36.741429],[139.479666,36.741484],[139.479505,36.74154],[139.47935,36.741616],[139.47918,36.741705],[139.479039,36.741802],[139.478494,36.74222],[139.478311,36.742352],[139.478144,36.742468],[139.478016,36.742547],[139.47785,36.742643],[139.477695,36.74271],[139.47756,36.742755],[139.477428,36.742799],[139.477282,36.742836],[139.47709,36.742879],[139.475693,36.743194],[139.475392,36.743269],[139.475179,36.743327],[139.475012,36.743375],[139.474847,36.743435],[139.474634,36.743513],[139.474418,36.743606],[139.47419,36.743714],[139.473983,36.743821],[139.473746,36.743962],[139.473068,36.744379],[139.47239,36.744795],[139.471179,36.745533],[139.470616,36.745885],[139.470304,36.746089],[139.470053,36.74626],[139.469837,36.746419],[139.469531,36.746643],[139.469093,36.74699],[139.468719,36.747306],[139.468319,36.747654],[139.468205,36.747759],[139.468096,36.747851],[139.467956,36.747958],[139.467832,36.748039],[139.467724,36.748106],[139.467599,36.748172],[139.467458,36.748237],[139.467313,36.748292],[139.46714,36.748356],[139.466694,36.748492],[139.465183,36.748931],[139.463853,36.749307],[139.463718,36.74935],[139.463534,36.749426],[139.463401,36.749491],[139.463294,36.749574],[139.463178,36.749696],[139.463123,36.749772],[139.463061,36.749879],[139.463023,36.749983],[139.46298,36.750117],[139.46294,36.750304],[139.462874,36.750666],[139.462604,36.752159],[139.462567,36.752344],[139.46253,36.752501],[139.46248,36.752653],[139.46245,36.752735],[139.462446,36.752746],[139.462438,36.752767],[139.462388,36.752884],[139.462333,36.752985],[139.462269,36.753087],[139.462195,36.753187],[139.462109,36.753284],[139.462025,36.753365],[139.46191,36.753451],[139.461788,36.753521],[139.461725,36.753555],[139.461648,36.753597],[139.461486,36.753663],[139.461341,36.753709],[139.461166,36.753743],[139.460977,36.75377],[139.46075,36.753786],[139.460529,36.75378],[139.460345,36.753763],[139.460168,36.753738],[139.460005,36.753704],[139.459832,36.753658],[139.459604,36.753595],[139.459346,36.75352],[139.459148,36.753463],[139.458943,36.753412],[139.458708,36.753359],[139.458476,36.753313],[139.458216,36.753274],[139.457891,36.753243],[139.457526,36.753209],[139.45713,36.75317],[139.456877,36.753141],[139.456736,36.753113],[139.456629,36.753077],[139.456533,36.753043],[139.456422,36.752989],[139.456323,36.752924],[139.456229,36.752844],[139.456132,36.75274],[139.456011,36.752567],[139.455784,36.7522],[139.455715,36.752104],[139.455667,36.752054],[139.45562,36.752025],[139.455567,36.752001],[139.455515,36.751984],[139.455465,36.751973],[139.455399,36.751968],[139.455327,36.751975],[139.455253,36.75199],[139.455187,36.752025],[139.45512,36.752084],[139.455025,36.752179],[139.454947,36.752251],[139.454866,36.752327],[139.454745,36.752426],[139.45458,36.752549],[139.454399,36.752677],[139.453443,36.75328],[139.453264,36.753398],[139.453107,36.753503],[139.452904,36.753649],[139.452787,36.753745],[139.452699,36.753831],[139.452644,36.753894],[139.452595,36.75396],[139.452536,36.754055],[139.452503,36.754114],[139.452462,36.754196],[139.452378,36.754392],[139.45216,36.754914],[139.452104,36.755049],[139.452071,36.755145],[139.452048,36.755215],[139.452024,36.755295],[139.451987,36.755446],[139.451914,36.755779],[139.451851,36.756101],[139.451836,36.756246],[139.451822,36.75642],[139.451813,36.756511],[139.451798,36.756594],[139.451766,36.756682],[139.451727,36.756751],[139.451696,36.756797],[139.451654,36.756848]]}},{"type":"Feature","properties":{"id":48115404,"highway":"service"},"geometry":{"type":"LineString","coordinates":[[139.451878,36.757341],[139.451906,36.757509],[139.451928,36.757611],[139.451954,36.757749],[139.452046,36.758252]]}},{"type":"Feature","properties":{"id":48115573,"highway":"unclassified"},"geometry":{"type":"LineString","coordinates":[[139.43478,36.792473],[139.434618,36.792498],[139.434368,36.792599],[139.43421,36.792664],[139.433048,36.793305],[139.43287,36.793415]]}},{"type":"Feature","properties":{"id":48115574,"highway":"unclassified"},"geometry":{"type":"LineString","coordinates":[[139.43287,36.793415],[139.432746,36.79348],[139.432655,36.793542],[139.432566,36.793615],[139.432517,36.793672],[139.432478,36.793708],[139.432095,36.794075],[139.432034,36.794125],[139.4319,36.794202],[139.431739,36.794259],[139.431262,36.794452],[139.431012,36.79456],[139.430873,36.794622],[139.43075,36.794657],[139.430666,36.794659]]}},{"type":"Feature","properties":{"id":48115575,"highway":"unclassified"},"geometry":{"type":"LineString","coordinates":[[139.43287,36.793415],[139.432851,36.793486],[139.432835,36.793573],[139.432817,36.793706]]}},{"type":"Feature","properties":{"id":48115576,"highway":"unclassified"},"geometry":{"type":"LineString","coordinates":[[139.432517,36.793672],[139.432616,36.79365],[139.432698,36.793642],[139.432762,36.793661],[139.432817,36.793706]]}},{"type":"Feature","properties":{"id":70168808,"highway":"service"},"geometry":{"type":"LineString","coordinates":[[139.497117,36.737208],[139.497119,36.73719],[139.497148,36.737142],[139.497173,36.73708],[139.497183,36.736993],[139.497171,36.736791],[139.497158,36.736617],[139.49714,36.736499],[139.49711,36.7364],[139.497052,36.736293],[139.497025,36.736225],[139.496986,36.736159],[139.49692,36.736111],[139.496788,36.736073],[139.496577,36.736008],[139.496465,36.735973],[139.496354,36.735915],[139.496282,36.735843],[139.496223,36.735769],[139.496156,36.73569],[139.496089,36.735617],[139.496015,36.735571],[139.495944,36.735564],[139.495882,36.735587],[139.495781,36.735634],[139.495369,36.735844]]}},{"type":"Feature","properties":{"id":70168828,"highway":"trunk"},"geometry":{"type":"LineString","coordinates":[[139.504073,36.734491],[139.50394,36.734551],[139.503806,36.734631],[139.503623,36.73475],[139.503514,36.734825],[139.503434,36.734888],[139.503363,36.734944],[139.503247,36.735026],[139.503121,36.735103],[139.502984,36.735184],[139.502788,36.735263],[139.502523,36.735353],[139.502252,36.735436],[139.50208,36.735488],[139.501943,36.735532],[139.501764,36.735568],[139.501583,36.735594],[139.501185,36.735616],[139.501156,36.735618],[139.500481,36.735663],[139.500392,36.735669],[139.500139,36.735692],[139.500012,36.735698],[139.499929,36.735703],[139.499832,36.735712],[139.499768,36.735724],[139.499654,36.735754],[139.499566,36.735787],[139.499467,36.735829],[139.499382,36.735879],[139.499364,36.735891],[139.499311,36.735928],[139.499243,36.73599],[139.499196,36.736044],[139.49915,36.736124],[139.49911,36.736211],[139.49908,36.736301],[139.499066,36.736396],[139.499055,36.736506],[139.49904,36.736793],[139.499038,36.737164],[139.499032,36.737307],[139.499031,36.737408],[139.499028,36.737467],[139.499017,36.737533],[139.498991,36.737612],[139.498943,36.737711],[139.498874,36.73779],[139.498785,36.737882],[139.498729,36.737946],[139.498679,36.738019],[139.498645,36.738078]]}},{"type":"Feature","properties":{"id":70168909,"highway":"secondary"},"geometry":{"type":"LineString","coordinates":[[139.48952,36.724359],[139.489508,36.724266],[139.489467,36.724194],[139.489384,36.72413],[139.489305,36.724089],[139.489119,36.724019],[139.488831,36.723929],[139.488609,36.723865],[139.488403,36.723812],[139.488093,36.723743],[139.487884,36.723711],[139.487573,36.723692],[139.487144,36.723672],[139.486803,36.723653],[139.486617,36.723627],[139.486489,36.723595],[139.486409,36.723552],[139.48635,36.723498],[139.486303,36.723422],[139.486279,36.723352],[139.486252,36.72326],[139.486241,36.723142],[139.486194,36.723045],[139.486151,36.723002],[139.486055,36.722942],[139.485898,36.722888],[139.485778,36.72284],[139.485721,36.722772],[139.485695,36.722688],[139.485718,36.722625],[139.485769,36.722562],[139.485834,36.722534],[139.485921,36.722512],[139.486076,36.722563],[139.486216,36.722645],[139.48632,36.722733],[139.486382,36.722804],[139.486458,36.722919],[139.486569,36.723127],[139.48662,36.723188],[139.486689,36.723228],[139.486778,36.72326],[139.486873,36.723253],[139.487131,36.723188],[139.487403,36.723106],[139.487547,36.723046],[139.487682,36.722967],[139.487793,36.722858],[139.487903,36.72269],[139.487968,36.722584],[139.488088,36.72248],[139.488243,36.722387],[139.488355,36.722348],[139.488471,36.72231],[139.488568,36.722291],[139.488666,36.722293],[139.488769,36.72234],[139.488882,36.722434],[139.489439,36.723022],[139.48952,36.723084],[139.489603,36.723143],[139.48967,36.723161],[139.48974,36.72317],[139.489877,36.723156],[139.490002,36.723142],[139.490135,36.723113],[139.490235,36.72308],[139.490318,36.72303],[139.490396,36.722974],[139.490472,36.722917],[139.490562,36.722846],[139.490652,36.722785],[139.490729,36.722767],[139.490823,36.72277],[139.490921,36.722785],[139.491041,36.722811],[139.49114,36.72282],[139.49129,36.722817],[139.491393,36.722811],[139.491511,36.722787],[139.49165,36.722751],[139.491807,36.722708],[139.491973,36.722685],[139.492084,36.72269],[139.492168,36.72271],[139.492245,36.722744],[139.492323,36.722817],[139.492385,36.722898],[139.49246,36.723023],[139.492526,36.723144],[139.4926,36.723255],[139.492668,36.723337],[139.492764,36.723408],[139.492864,36.723478],[139.492956,36.723548],[139.493014,36.723602],[139.493055,36.72366],[139.493073,36.723708],[139.493066,36.723763],[139.493054,36.723831],[139.493039,36.723889],[139.493006,36.723937],[139.492924,36.723976],[139.492819,36.724009],[139.492662,36.724048],[139.492564,36.724075],[139.492444,36.724111],[139.492307,36.724195],[139.492229,36.724273],[139.492186,36.724359],[139.492165,36.724433],[139.492135,36.724575],[139.492121,36.724662],[139.492099,36.724841],[139.492076,36.724967],[139.492038,36.725044],[139.491978,36.725102],[139.491818,36.725228],[139.491705,36.725309],[139.491675,36.725376],[139.491667,36.725484],[139.491675,36.725543],[139.491732,36.725715],[139.491725,36.725789],[139.491705,36.725851],[139.49166,36.725902],[139.491585,36.725941],[139.491484,36.725957],[139.491347,36.725947],[139.491192,36.725926],[139.490972,36.725875],[139.490775,36.725856],[139.490614,36.725881],[139.490498,36.725931],[139.490395,36.725999],[139.490273,36.726095],[139.490153,36.726167],[139.490001,36.726249],[139.489816,36.726314],[139.489666,36.726348],[139.489566,36.726353],[139.489484,36.726342],[139.489404,36.7263],[139.489304,36.726207],[139.489187,36.726098],[139.489142,36.726055],[139.489083,36.726021],[139.488993,36.726002],[139.488855,36.726016],[139.488737,36.726074],[139.488586,36.726156],[139.488506,36.726238],[139.488454,36.726317],[139.488452,36.726407],[139.488496,36.726567],[139.48857,36.726716],[139.488646,36.726847],[139.488765,36.727021],[139.488853,36.727143],[139.488991,36.72727],[139.489282,36.72752],[139.489467,36.727674],[139.489548,36.727722],[139.489638,36.727756],[139.489728,36.727773],[139.489817,36.727761],[139.489894,36.727711],[139.490015,36.727637],[139.490166,36.72752],[139.490282,36.727403],[139.490392,36.727315],[139.490493,36.727275],[139.490595,36.72724],[139.490733,36.72722],[139.490862,36.727215],[139.490955,36.727189],[139.491024,36.727154],[139.491071,36.727101],[139.491113,36.727011],[139.491151,36.726829],[139.491221,36.726691],[139.491276,36.726631],[139.491367,36.726581],[139.491481,36.726552],[139.491591,36.726531],[139.491773,36.726484],[139.491932,36.726432],[139.492083,36.726374],[139.492176,36.726331],[139.492259,36.726275],[139.492318,36.726216],[139.492354,36.726164],[139.49236,36.726087],[139.492348,36.725983],[139.492329,36.725893],[139.492346,36.725804],[139.492395,36.725728],[139.4925,36.725673],[139.492619,36.725599],[139.492706,36.725537],[139.492765,36.725462],[139.492803,36.725365],[139.492846,36.725235],[139.49287,36.72512],[139.492912,36.724919],[139.492973,36.724809],[139.493044,36.724715],[139.493148,36.72464],[139.493267,36.724579],[139.493459,36.724519],[139.493651,36.724457],[139.493793,36.724396],[139.493911,36.724323],[139.49402,36.724211],[139.494142,36.724058],[139.494277,36.723879],[139.494383,36.723757]]}},{"type":"Feature","properties":{"id":188686060,"highway":"service"},"geometry":{"type":"LineString","coordinates":[[139.450731,36.757215],[139.450682,36.757164],[139.450541,36.757019],[139.450115,36.756674],[139.449822,36.756484],[139.44962,36.756318],[139.449501,36.756184],[139.449313,36.755955],[139.44922,36.755791],[139.449088,36.755517],[139.448843,36.755033],[139.448801,36.754931],[139.448789,36.754815],[139.448776,36.754501],[139.44875,36.754426],[139.448584,36.754154],[139.448533,36.754066],[139.448497,36.754023],[139.448478,36.75394],[139.448493,36.753796],[139.44851,36.753671],[139.448542,36.753538]]}},{"type":"Feature","properties":{"id":188686069,"highway":"unclassified"},"geometry":{"type":"LineString","coordinates":[[139.484673,36.741002],[139.484561,36.741106],[139.48432,36.741303],[139.484243,36.741352],[139.484145,36.741365],[139.483647,36.741315],[139.483546,36.74135],[139.483486,36.74143],[139.483481,36.741516],[139.483521,36.741591],[139.483591,36.741631],[139.483727,36.741652],[139.484473,36.741678]]}},{"type":"Feature","properties":{"id":188686073,"highway":"unclassified"},"geometry":{"type":"LineString","coordinates":[[139.477116,36.744511],[139.476565,36.744633],[139.4765,36.744616],[139.476459,36.744559],[139.47637,36.744282],[139.476096,36.7441],[139.47604,36.744032],[139.476054,36.743852],[139.47611,36.743615],[139.476194,36.743452],[139.476312,36.743351],[139.476494,36.743272],[139.476752,36.743198],[139.476871,36.743176],[139.477357,36.742896],[139.477569,36.742807]]}},{"type":"Feature","properties":{"id":188686087,"highway":"unclassified"},"geometry":{"type":"LineString","coordinates":[[139.484895,36.740793],[139.484879,36.740872],[139.484673,36.741002]]}},{"type":"Feature","properties":{"id":188686090,"highway":"unclassified"},"geometry":{"type":"LineString","coordinates":[[139.485942,36.741678],[139.486293,36.741678]]}},{"type":"Feature","properties":{"id":188686106,"highway":"unclassified"},"geometry":{"type":"LineString","coordinates":[[139.485763,36.740997],[139.486092,36.741037]]}},{"type":"Feature","properties":{"id":188686107,"highway":"unclassified"},"geometry":{"type":"LineString","coordinates":[[139.477569,36.742807],[139.47756,36.742755]]}},{"type":"Feature","properties":{"id":188686113,"highway":"service"},"geometry":{"type":"LineString","coordinates":[[139.489453,36.730031],[139.489431,36.730052],[139.489402,36.730081],[139.489338,36.730103],[139.489249,36.730108],[139.489096,36.730083],[139.488918,36.730047],[139.488845,36.73003],[139.488697,36.729986],[139.488502,36.729926],[139.488367,36.729876],[139.487897,36.72968],[139.48772,36.729581],[139.487602,36.729492],[139.487412,36.729264],[139.487149,36.728892],[139.486966,36.728746],[139.486954,36.728739],[139.486685,36.728592],[139.486459,36.728486],[139.486396,36.728463],[139.48638,36.728457],[139.486358,36.728453],[139.486168,36.728421],[139.485815,36.728386],[139.485622,36.728371],[139.485456,36.728334],[139.485317,36.728265],[139.485244,36.728189],[139.485199,36.728053],[139.485228,36.727911],[139.485267,36.727765],[139.48537,36.727591]]}},{"type":"Feature","properties":{"id":188686129,"highway":"unclassified"},"geometry":{"type":"LineString","coordinates":[[139.481259,36.741178],[139.481297,36.741331],[139.481332,36.741389],[139.481429,36.741428],[139.481569,36.741459],[139.48175,36.741469],[139.482218,36.741381],[139.482344,36.741365],[139.482425,36.741366],[139.48248,36.741403],[139.482528,36.741497],[139.482636,36.741721],[139.482669,36.741772],[139.48278,36.741856],[139.482804,36.741914],[139.48281,36.741982],[139.482805,36.742213],[139.482786,36.742292],[139.482724,36.742336],[139.482655,36.742365],[139.482172,36.742441],[139.481797,36.742481],[139.481673,36.742512],[139.481343,36.742597],[139.481246,36.742617],[139.481189,36.742597],[139.481138,36.742542],[139.481041,36.742347],[139.480949,36.742239],[139.480821,36.742177],[139.480729,36.742164],[139.480641,36.742179],[139.479761,36.742491],[139.479667,36.742517],[139.479522,36.742545],[139.479369,36.742539],[139.479256,36.74257],[139.479116,36.742686],[139.478959,36.742767],[139.478805,36.742816],[139.478476,36.742865],[139.478042,36.742947],[139.47784,36.742999],[139.477738,36.742961],[139.477693,36.742929],[139.477646,36.742843],[139.477569,36.742807]]}},{"type":"Feature","properties":{"id":188686164,"highway":"service"},"geometry":{"type":"LineString","coordinates":[[139.486092,36.741037],[139.486317,36.741065],[139.486436,36.741084],[139.486536,36.741138],[139.486682,36.741211],[139.486844,36.741294],[139.486882,36.741316],[139.486915,36.741323],[139.487037,36.741332],[139.487144,36.741306],[139.487614,36.741412],[139.487842,36.741407],[139.488126,36.741417],[139.488518,36.741412],[139.488646,36.741388],[139.488741,36.741272]]}},{"type":"Feature","properties":{"id":188686169,"highway":"service"},"geometry":{"type":"LineString","coordinates":[[139.48537,36.727591],[139.485406,36.727483],[139.485519,36.727323],[139.485631,36.727196],[139.485736,36.727096],[139.485871,36.727005],[139.48597,36.726949],[139.486007,36.726909],[139.486022,36.726873],[139.486021,36.726837],[139.486016,36.726761]]}},{"type":"Feature","properties":{"id":188687831,"highway":"residential"},"geometry":{"type":"LineString","coordinates":[[139.454544,36.777089],[139.454621,36.777102],[139.454711,36.77712],[139.455247,36.777286],[139.455831,36.777472],[139.456125,36.777583],[139.456524,36.777758],[139.456585,36.777792],[139.45665,36.77784],[139.456804,36.777989],[139.456883,36.778066],[139.456939,36.778069],[139.456988,36.77807],[139.4571,36.778064],[139.457152,36.778057]]}},{"type":"Feature","properties":{"id":188687862,"highway":"residential"},"geometry":{"type":"LineString","coordinates":[[139.451055,36.777684],[139.451627,36.777756],[139.451736,36.777757],[139.451817,36.777755],[139.451868,36.777752],[139.451928,36.777744],[139.452009,36.777725],[139.452287,36.777649],[139.452572,36.777576],[139.452663,36.777556],[139.452799,36.777533],[139.452897,36.777515],[139.452981,36.777494],[139.453073,36.777462],[139.453159,36.777425],[139.453297,36.777359],[139.453464,36.777296],[139.453621,36.777251],[139.454009,36.777148],[139.454275,36.777093],[139.454326,36.777083],[139.454395,36.777075],[139.454476,36.777081],[139.454544,36.777089]]}},{"type":"Feature","properties":{"id":188687879,"highway":"service"},"geometry":{"type":"LineString","coordinates":[[139.454186,36.782617],[139.454165,36.783587],[139.454148,36.783678],[139.454118,36.784913],[139.454118,36.785195]]}},{"type":"Feature","properties":{"id":188687893,"highway":"tertiary"},"geometry":{"type":"LineString","coordinates":[[139.452921,36.792766],[139.452842,36.792442]]}},{"type":"Feature","properties":{"id":188687895,"highway":"service"},"geometry":{"type":"LineString","coordinates":[[139.457152,36.778057],[139.457158,36.778113],[139.457153,36.778172],[139.457095,36.778396],[139.457046,36.778609],[139.456893,36.779311],[139.45674,36.780095],[139.456717,36.780214],[139.456637,36.780419],[139.456484,36.780782],[139.456368,36.781053],[139.456281,36.781542],[139.456186,36.781895],[139.456172,36.782056],[139.456162,36.78214],[139.456145,36.782532]]}},{"type":"Feature","properties":{"id":188687907,"highway":"tertiary"},"geometry":{"type":"LineString","coordinates":[[139.444311,36.786045],[139.444381,36.786083],[139.444453,36.786112],[139.444573,36.786146],[139.44492,36.786238],[139.445296,36.786331],[139.446295,36.786589],[139.446649,36.786683],[139.447012,36.786788],[139.447722,36.787008],[139.448454,36.78722],[139.448931,36.787357],[139.449338,36.787482],[139.449674,36.787592],[139.449908,36.787675],[139.450327,36.787823],[139.450705,36.78796],[139.4508,36.787996],[139.450884,36.788035],[139.450985,36.788083],[139.451106,36.788149],[139.4513,36.788275],[139.45178,36.788594],[139.452059,36.788793],[139.452199,36.788902],[139.452258,36.788953]]}},{"type":"Feature","properties":{"id":188687959,"highway":"residential"},"geometry":{"type":"LineString","coordinates":[[139.457152,36.778057],[139.457183,36.77799],[139.457193,36.777952],[139.45711,36.777217],[139.457054,36.776594],[139.456994,36.776013],[139.45684,36.775056]]}},{"type":"Feature","properties":{"id":188687962,"highway":"tertiary"},"geometry":{"type":"LineString","coordinates":[[139.454267,36.797441],[139.454216,36.797153],[139.454043,36.796307],[139.454039,36.796285],[139.453963,36.795926],[139.453943,36.795823]]}},{"type":"Feature","properties":{"id":188687964,"highway":"service"},"geometry":{"type":"LineString","coordinates":[[139.456145,36.782532],[139.455566,36.782571],[139.454228,36.782617],[139.454186,36.782617]]}},{"type":"Feature","properties":{"id":188687967,"highway":"tertiary"},"geometry":{"type":"LineString","coordinates":[[139.452839,36.792419],[139.452757,36.791995]]}},{"type":"Feature","properties":{"id":188687979,"highway":"unclassified"},"geometry":{"type":"LineString","coordinates":[[139.453106,36.798815],[139.453136,36.79866],[139.453153,36.798566],[139.453196,36.798499]]}},{"type":"Feature","properties":{"id":188687999,"highway":"unclassified"},"geometry":{"type":"LineString","coordinates":[[139.449885,36.778833],[139.449942,36.77886],[139.450178,36.778968],[139.450438,36.779077],[139.450584,36.779125],[139.450682,36.779151],[139.450902,36.779218]]}},{"type":"Feature","properties":{"id":188688006,"highway":"residential"},"geometry":{"type":"LineString","coordinates":[[139.454281,36.781113],[139.454313,36.781],[139.454337,36.780308],[139.454365,36.779919],[139.454369,36.779846],[139.454439,36.778386],[139.454544,36.777089]]}},{"type":"Feature","properties":{"id":188688031,"highway":"unclassified"},"geometry":{"type":"LineString","coordinates":[[139.453196,36.798499],[139.45326,36.798415],[139.453327,36.798352],[139.453629,36.798139],[139.453925,36.797923],[139.454039,36.797827],[139.454104,36.797757],[139.454168,36.797663],[139.454217,36.79753],[139.454267,36.797441]]}},{"type":"Feature","properties":{"id":188688034,"highway":"unclassified"},"geometry":{"type":"LineString","coordinates":[[139.455083,36.798808],[139.455259,36.799035],[139.455442,36.79923],[139.456229,36.799996],[139.456872,36.80065],[139.456919,36.800723],[139.456951,36.800797],[139.456964,36.800873],[139.45697,36.800957],[139.456977,36.801334]]}},{"type":"Feature","properties":{"id":188688037,"highway":"tertiary"},"geometry":{"type":"LineString","coordinates":[[139.452757,36.791995],[139.452609,36.791216],[139.452574,36.790922],[139.452389,36.789416],[139.452349,36.78916],[139.452316,36.789043],[139.452292,36.788993],[139.452258,36.788953]]}},{"type":"Feature","properties":{"id":188688104,"highway":"unclassified"},"geometry":{"type":"LineString","coordinates":[[139.454267,36.797441],[139.454315,36.797569],[139.454399,36.797755],[139.454516,36.798027],[139.454648,36.798261],[139.454736,36.798386],[139.454853,36.798536],[139.455021,36.798741],[139.455083,36.798808]]}},{"type":"Feature","properties":{"id":188688106,"highway":"tertiary"},"geometry":{"type":"LineString","coordinates":[[139.453943,36.795823],[139.453663,36.79448],[139.453584,36.794257],[139.453288,36.793619],[139.453027,36.793052],[139.452998,36.792984],[139.45297,36.792916],[139.452921,36.792766]]}},{"type":"Feature","properties":{"id":188688121,"highway":"unclassified"},"geometry":{"type":"LineString","coordinates":[[139.451978,36.769658],[139.452059,36.769681],[139.452093,36.769686],[139.452158,36.769696],[139.452309,36.7697],[139.452891,36.769728],[139.453017,36.769741],[139.453128,36.769757],[139.4532,36.769769]]}},{"type":"Feature","properties":{"id":191058409,"highway":"unclassified"},"geometry":{"type":"LineString","coordinates":[[139.498113,36.739312],[139.498166,36.739858]]}},{"type":"Feature","properties":{"id":191058416,"highway":"unclassified"},"geometry":{"type":"LineString","coordinates":[[139.497515,36.739325],[139.497603,36.739869]]}},{"type":"Feature","properties":{"id":191058569,"highway":"unclassified"},"geometry":{"type":"LineString","coordinates":[[139.493244,36.739847],[139.4935,36.740497]]}},{"type":"Feature","properties":{"id":192167168,"highway":"secondary"},"geometry":{"type":"LineString","coordinates":[[139.496872,36.738829],[139.496914,36.739082]]}},{"type":"Feature","properties":{"id":192167169,"highway":"secondary"},"geometry":{"type":"LineString","coordinates":[[139.496914,36.739082],[139.496931,36.739246],[139.496939,36.739335]]}},{"type":"Feature","properties":{"id":192167172,"highway":"service"},"geometry":{"type":"LineString","coordinates":[[139.451878,36.757341],[139.451776,36.757345],[139.451661,36.75733],[139.45162,36.757333],[139.451399,36.757349]]}},{"type":"Feature","properties":{"id":195072222,"highway":"service"},"geometry":{"type":"LineString","coordinates":[[139.49972,36.738744],[139.499637,36.738676],[139.499446,36.738823],[139.499235,36.738986],[139.49924,36.739124],[139.499666,36.739117]]}},{"type":"Feature","properties":{"id":195072223,"highway":"tertiary"},"geometry":{"type":"LineString","coordinates":[[139.49539,36.7397],[139.495397,36.739826],[139.495418,36.740139],[139.495426,36.740268]]}},{"type":"Feature","properties":{"id":238689611,"highway":"trunk"},"geometry":{"type":"LineString","coordinates":[[139.499791,36.73925],[139.499993,36.739253],[139.500267,36.739257],[139.500369,36.739264],[139.500524,36.739274],[139.50076,36.739307],[139.500839,36.739319],[139.5012,36.739379],[139.501457,36.739422],[139.501525,36.739434],[139.501787,36.739477],[139.502171,36.739527],[139.502373,36.73955],[139.502453,36.739561],[139.502701,36.739589],[139.502871,36.73961],[139.502962,36.739626],[139.503023,36.739653],[139.503092,36.739698],[139.503154,36.739775],[139.503474,36.740144],[139.50357,36.740268],[139.504171,36.741054],[139.505379,36.742618],[139.505475,36.742739],[139.505517,36.742788],[139.505567,36.742829],[139.505625,36.742873],[139.505686,36.742918],[139.505751,36.742961],[139.50582,36.742997],[139.505863,36.743016]]}},{"type":"Feature","properties":{"id":266760735,"highway":"residential"},"geometry":{"type":"LineString","coordinates":[[139.45684,36.775056],[139.456702,36.774028],[139.456643,36.773513],[139.456603,36.773099],[139.456587,36.77286],[139.45654,36.772136],[139.4565,36.771796],[139.456382,36.771434],[139.45598,36.770605],[139.455846,36.770433],[139.455598,36.770361],[139.45509,36.770216],[139.454341,36.770052],[139.454104,36.77002],[139.453858,36.769949],[139.453566,36.769866]]}},{"type":"Feature","properties":{"id":266761606,"highway":"service"},"geometry":{"type":"LineString","coordinates":[[139.451055,36.777684],[139.451038,36.777774],[139.450997,36.778028],[139.450948,36.778053],[139.450895,36.778302],[139.450812,36.778375],[139.450682,36.779151]]}},{"type":"Feature","properties":{"id":266764818,"highway":"service"},"geometry":{"type":"LineString","coordinates":[[139.470616,36.745885],[139.471055,36.746385],[139.471253,36.74645],[139.471334,36.746454],[139.47224,36.74599],[139.472313,36.746002],[139.472702,36.746093],[139.472903,36.746084],[139.473013,36.74617],[139.473007,36.746269],[139.472718,36.746394],[139.472712,36.746574],[139.472567,36.747056],[139.472423,36.747197],[139.471983,36.747292],[139.471908,36.747357],[139.471908,36.747589],[139.471656,36.747838]]}},{"type":"Feature","properties":{"id":266764823,"highway":"service"},"geometry":{"type":"LineString","coordinates":[[139.491414,36.741049],[139.491586,36.741381],[139.491878,36.74134],[139.491922,36.741334]]}},{"type":"Feature","properties":{"id":266764824,"highway":"service"},"geometry":{"type":"LineString","coordinates":[[139.461725,36.753555],[139.461958,36.753674],[139.462137,36.753696],[139.462291,36.75367],[139.462556,36.753533],[139.462982,36.753236],[139.463453,36.752832],[139.463708,36.752424],[139.463724,36.752319],[139.463762,36.752064],[139.463673,36.751679]]}},{"type":"Feature","properties":{"id":416443731,"highway":"service"},"geometry":{"type":"LineString","coordinates":[[139.457095,36.778396],[139.456904,36.778106],[139.456883,36.778066]]}},{"type":"Feature","properties":{"id":416444525,"highway":"service"},"geometry":{"type":"LineString","coordinates":[[139.453943,36.795823],[139.454101,36.795881],[139.454455,36.796036],[139.454562,36.796064],[139.45465,36.796058],[139.45477,36.796052],[139.454851,36.796052]]}},{"type":"Feature","properties":{"id":421438440,"highway":"trunk"},"geometry":{"type":"LineString","coordinates":[[139.498667,36.738889],[139.498675,36.739153]]}},{"type":"Feature","properties":{"id":421438441,"highway":"trunk"},"geometry":{"type":"LineString","coordinates":[[139.498675,36.739153],[139.498677,36.739185],[139.49868,36.739284]]}},{"type":"Feature","properties":{"id":425976060,"highway":"trunk"},"geometry":{"type":"LineString","coordinates":[[139.49868,36.739284],[139.498544,36.739293],[139.498113,36.739312],[139.49785,36.739318],[139.497515,36.739325],[139.497117,36.739333],[139.496939,36.739335]]}},{"type":"Feature","properties":{"id":431809455,"highway":"trunk"},"geometry":{"type":"LineString","coordinates":[[139.49868,36.739284],[139.49885,36.739276],[139.499159,36.739259],[139.499429,36.73925],[139.499791,36.73925]]}},{"type":"Feature","properties":{"id":431809461,"highway":"service"},"geometry":{"type":"LineString","coordinates":[[139.499666,36.739117],[139.499789,36.739115]]}},{"type":"Feature","properties":{"id":431809462,"highway":"service"},"geometry":{"type":"LineString","coordinates":[[139.499791,36.73925],[139.49979,36.739195],[139.49979,36.739162],[139.499789,36.739115]]}},{"type":"Feature","properties":{"id":431809464,"highway":"service"},"geometry":{"type":"LineString","coordinates":[[139.499789,36.739115],[139.499792,36.738918],[139.499781,36.738822],[139.49972,36.738744]]}},{"type":"Feature","properties":{"id":431809465,"highway":"service"},"geometry":{"type":"LineString","coordinates":[[139.499792,36.738918],[139.499562,36.738915],[139.499446,36.738823]]}},{"type":"Feature","properties":{"id":431809466,"highway":"service"},"geometry":{"type":"LineString","coordinates":[[139.475748,36.707427],[139.475515,36.707105],[139.475336,36.707151]]}},{"type":"Feature","properties":{"id":431809467,"highway":"service"},"geometry":{"type":"LineString","coordinates":[[139.475336,36.707151],[139.475307,36.707096],[139.475457,36.707019],[139.475421,36.706882],[139.475115,36.706974],[139.475017,36.706956],[139.475186,36.707312]]}},{"type":"Feature","properties":{"id":431809468,"highway":"secondary"},"geometry":{"type":"LineString","coordinates":[[139.475275,36.707482],[139.475319,36.707442],[139.475355,36.707415],[139.475383,36.707402],[139.475421,36.70739],[139.475471,36.707382],[139.475532,36.707379],[139.475575,36.70738],[139.475616,36.707383],[139.475677,36.7074],[139.475748,36.707427]]}},{"type":"Feature","properties":{"id":431811143,"highway":"secondary"},"geometry":{"type":"LineString","coordinates":[[139.494182,36.723372],[139.49415,36.723355],[139.494096,36.723313],[139.494054,36.723272],[139.494022,36.723229],[139.493997,36.723177],[139.494001,36.723112],[139.494041,36.723056],[139.494115,36.722999],[139.494234,36.722953],[139.494515,36.722837]]}},{"type":"Feature","properties":{"id":431811144,"highway":"secondary"},"geometry":{"type":"LineString","coordinates":[[139.494106,36.721938],[139.494046,36.721893],[139.493982,36.721809],[139.493912,36.721709],[139.493862,36.721626],[139.493845,36.721529],[139.493837,36.721429],[139.493798,36.721344],[139.493758,36.721291],[139.493699,36.721237],[139.493627,36.721194],[139.493583,36.721177]]}},{"type":"Feature","properties":{"id":431811145,"highway":"secondary"},"geometry":{"type":"LineString","coordinates":[[139.494515,36.722837],[139.494594,36.722785],[139.494676,36.722729],[139.494751,36.722652],[139.49479,36.722603],[139.494815,36.722537],[139.494828,36.722473],[139.494816,36.722399],[139.494785,36.722326],[139.494746,36.722267],[139.494699,36.722219],[139.49461,36.722151],[139.494497,36.722091],[139.494395,36.722056]]}},{"type":"Feature","properties":{"id":431811146,"highway":"secondary"},"geometry":{"type":"LineString","coordinates":[[139.493583,36.721177],[139.493441,36.721121],[139.493231,36.721013],[139.493077,36.720925],[139.493008,36.720866],[139.492953,36.720793],[139.492903,36.720698],[139.49286,36.720588],[139.492824,36.720482],[139.492805,36.720351],[139.492784,36.720217],[139.492752,36.720039],[139.492701,36.719845],[139.492566,36.719573],[139.492513,36.719461],[139.492395,36.719217],[139.49228,36.719006],[139.492193,36.718911],[139.492087,36.718842],[139.491958,36.718789],[139.491724,36.718718],[139.49164,36.718666],[139.491597,36.718618],[139.491571,36.718528],[139.49157,36.718424],[139.491567,36.718333],[139.491531,36.718247],[139.491434,36.718155],[139.491318,36.718103],[139.490606,36.717872],[139.490082,36.717702],[139.489999,36.717671],[139.489893,36.717619],[139.489808,36.717544],[139.489775,36.717485],[139.489776,36.717429],[139.48981,36.717332],[139.489877,36.717256],[139.490011,36.717193],[139.490173,36.71715],[139.490287,36.717111],[139.490357,36.717049],[139.490405,36.716973],[139.490406,36.716892],[139.49034,36.716808],[139.490249,36.71675],[139.490145,36.716725],[139.489982,36.716704],[139.489717,36.716684],[139.489408,36.716653],[139.489236,36.71663],[139.489146,36.716604],[139.489064,36.716561],[139.489002,36.716503],[139.488954,36.716435],[139.488878,36.716302],[139.488817,36.716195],[139.488713,36.716123],[139.488595,36.716075],[139.488453,36.716043],[139.488302,36.716029],[139.488152,36.716023],[139.488007,36.716049],[139.4879,36.716092],[139.487777,36.716154],[139.487586,36.716289],[139.487385,36.716423],[139.487289,36.71647],[139.487192,36.716509],[139.487053,36.716518],[139.48694,36.716513],[139.486844,36.716496],[139.486758,36.716472],[139.486609,36.716409],[139.486426,36.716326],[139.486329,36.716299],[139.486241,36.716286],[139.486103,36.716298],[139.485978,36.716342],[139.485862,36.716394],[139.485693,36.716465],[139.485561,36.716513],[139.485405,36.716553],[139.485298,36.71656],[139.485206,36.716553],[139.485115,36.716535],[139.48443,36.716319],[139.483924,36.716156],[139.483651,36.716042],[139.483412,36.715928],[139.483321,36.715859],[139.483239,36.715769],[139.483165,36.715636],[139.483106,36.715515],[139.483048,36.715359],[139.48302,36.715217],[139.483017,36.715102],[139.483044,36.714998],[139.48309,36.714891],[139.483152,36.714773],[139.483189,36.714655],[139.48319,36.714554],[139.483155,36.714491],[139.483073,36.714378],[139.483003,36.714278],[139.482983,36.714228],[139.482981,36.714181],[139.482996,36.714122],[139.483029,36.714067],[139.4831,36.714002],[139.483258,36.713963],[139.483395,36.713942],[139.483503,36.713905],[139.483553,36.713855],[139.483609,36.713779],[139.483655,36.713695],[139.48371,36.713564],[139.483749,36.713427],[139.483754,36.713329],[139.483753,36.713232],[139.483722,36.713087],[139.483676,36.712963],[139.483617,36.712833],[139.483548,36.71267],[139.483441,36.712437],[139.483424,36.712353],[139.483436,36.712251],[139.483476,36.712163],[139.483574,36.712026],[139.483633,36.71193],[139.483652,36.711846],[139.483633,36.711756],[139.483603,36.71171],[139.483519,36.711642],[139.483373,36.711594],[139.483002,36.711516],[139.482871,36.711474],[139.482777,36.711412],[139.482718,36.711357],[139.482664,36.711271],[139.482592,36.711094],[139.482528,36.711041],[139.482473,36.711004],[139.482402,36.71098],[139.482281,36.710984],[139.482181,36.711008],[139.482065,36.711063],[139.481931,36.71111],[139.481723,36.711124],[139.48148,36.711101],[139.481194,36.711057],[139.480941,36.711013],[139.480764,36.710972],[139.480601,36.710905],[139.480339,36.710761],[139.4802,36.710665],[139.480107,36.710593],[139.480055,36.710518],[139.480005,36.710427],[139.479973,36.710326],[139.479992,36.710109],[139.48004,36.709823],[139.480065,36.709646],[139.480052,36.709528],[139.480024,36.709429],[139.479982,36.709358],[139.479896,36.709276],[139.479804,36.709212],[139.479632,36.709147],[139.47938,36.709092],[139.4786,36.708902],[139.47833,36.70885],[139.47818,36.708846],[139.478008,36.70885],[139.477867,36.708861],[139.477634,36.708895],[139.47752,36.708908],[139.477399,36.708905],[139.477256,36.708878],[139.477126,36.708827],[139.477042,36.708765],[139.47698,36.708682],[139.476947,36.708601],[139.476934,36.708517],[139.476929,36.708158],[139.47693,36.707938],[139.476923,36.707818],[139.4769,36.70776],[139.476847,36.707693],[139.476772,36.707628],[139.476641,36.707576],[139.476473,36.707553],[139.476124,36.707542],[139.475976,36.70751],[139.475859,36.707469],[139.475748,36.707427]]}},{"type":"Feature","properties":{"id":431811147,"highway":"secondary"},"geometry":{"type":"LineString","coordinates":[[139.494395,36.722056],[139.494251,36.722008],[139.494155,36.721966],[139.494106,36.721938]]}},{"type":"Feature","properties":{"id":431811148,"highway":"secondary"},"geometry":{"type":"LineString","coordinates":[[139.494383,36.723757],[139.494411,36.723684],[139.494431,36.72361],[139.494422,36.723549],[139.494374,36.723476],[139.494288,36.723424],[139.494182,36.723372]]}},{"type":"Feature","properties":{"id":434923024,"highway":"secondary"},"geometry":{"type":"LineString","coordinates":[[139.496629,36.738339],[139.496589,36.738228],[139.496323,36.737749],[139.496199,36.737564]]}},{"type":"Feature","properties":{"id":434923025,"highway":"secondary"},"geometry":{"type":"LineString","coordinates":[[139.496872,36.738829],[139.496856,36.738765],[139.496835,36.7387],[139.496792,36.738616],[139.496716,36.738487],[139.496629,36.738339]]}},{"type":"Feature","properties":{"id":434923026,"highway":"secondary"},"geometry":{"type":"LineString","coordinates":[[139.496199,36.737564],[139.49624,36.73776],[139.496263,36.737821],[139.496302,36.737905],[139.496371,36.738011],[139.496446,36.738131],[139.496537,36.738252],[139.496629,36.738339]]}},{"type":"Feature","properties":{"id":435050000,"highway":"service"},"geometry":{"type":"LineString","coordinates":[[139.490772,36.73079],[139.490828,36.730773],[139.490916,36.730745]]}},{"type":"Feature","properties":{"id":435050001,"highway":"service"},"geometry":{"type":"LineString","coordinates":[[139.490972,36.731213],[139.490812,36.731268]]}},{"type":"Feature","properties":{"id":435050002,"highway":"service"},"geometry":{"type":"LineString","coordinates":[[139.490614,36.730557],[139.490786,36.730494]]}},{"type":"Feature","properties":{"id":435050003,"highway":"service"},"geometry":{"type":"LineString","coordinates":[[139.491134,36.731156],[139.491016,36.731198],[139.490972,36.731213]]}},{"type":"Feature","properties":{"id":435050005,"highway":"service"},"geometry":{"type":"LineString","coordinates":[[139.490745,36.730778],[139.490772,36.73079],[139.490972,36.731213],[139.491301,36.731905]]}},{"type":"Feature","properties":{"id":435050006,"highway":"service"},"geometry":{"type":"LineString","coordinates":[[139.49236,36.733522],[139.49253,36.733473],[139.492624,36.733435],[139.492523,36.733036],[139.492261,36.73305]]}},{"type":"Feature","properties":{"id":435050007,"highway":"service"},"geometry":{"type":"LineString","coordinates":[[139.491033,36.731723],[139.490812,36.731268],[139.490637,36.730909],[139.490595,36.730823],[139.490745,36.730778]]}},{"type":"Feature","properties":{"id":548865636,"highway":"trunk"},"geometry":{"type":"LineString","coordinates":[[139.452845,36.764601],[139.452842,36.764831],[139.452842,36.764996],[139.452849,36.7651],[139.452862,36.765199],[139.452882,36.765295],[139.452912,36.765385],[139.452955,36.765494],[139.453173,36.765984],[139.45321,36.766074],[139.453233,36.766172],[139.453248,36.766267],[139.45326,36.766349],[139.453263,36.766415],[139.453259,36.766484],[139.453248,36.76656],[139.453226,36.766678],[139.45321,36.766757],[139.453183,36.766844],[139.453142,36.766961],[139.453017,36.767337],[139.45283,36.76787],[139.452751,36.768099],[139.45271,36.768205],[139.452671,36.768302],[139.452625,36.768408],[139.452577,36.768508],[139.452518,36.76863],[139.452427,36.768803],[139.452231,36.769126],[139.452157,36.769265],[139.452092,36.769405],[139.452025,36.769553],[139.451978,36.769658]]}},{"type":"Feature","properties":{"id":548865637,"highway":"trunk"},"geometry":{"type":"LineString","coordinates":[[139.450779,36.760243],[139.45101,36.760295]]}},{"type":"Feature","properties":{"id":585533785,"highway":"service"},"geometry":{"type":"LineString","coordinates":[[139.454851,36.796052],[139.45489,36.796076],[139.454918,36.796106],[139.45496,36.796156],[139.454998,36.796185],[139.455078,36.796197],[139.455156,36.796189],[139.455227,36.79616],[139.455264,36.796111],[139.45527,36.796058],[139.455264,36.796028],[139.455256,36.79599],[139.455217,36.795944],[139.455168,36.795914],[139.455092,36.795887]]}},{"type":"Feature","properties":{"id":585607132,"highway":"trunk"},"geometry":{"type":"LineString","coordinates":[[139.443439,36.787142],[139.443385,36.787207],[139.443339,36.787261],[139.443104,36.787556],[139.442977,36.787704],[139.442846,36.787841],[139.442728,36.787954],[139.442601,36.788067],[139.442433,36.788199],[139.442228,36.788353],[139.441991,36.788517],[139.441689,36.788699],[139.440618,36.78932],[139.438785,36.790413],[139.438557,36.790537],[139.43839,36.790616],[139.438219,36.790685],[139.437928,36.790792],[139.437587,36.790913],[139.437307,36.791001],[139.436642,36.791218],[139.436167,36.79138],[139.436029,36.791448],[139.435794,36.791564],[139.435513,36.79176],[139.435196,36.792061],[139.43478,36.792473],[139.43315,36.794102],[139.432999,36.794245],[139.432894,36.79434],[139.432771,36.794439],[139.432682,36.794503],[139.432573,36.794574]]}},{"type":"Feature","properties":{"id":585607133,"highway":"trunk"},"geometry":{"type":"LineString","coordinates":[[139.432573,36.794574],[139.432031,36.794895],[139.431655,36.795106],[139.431099,36.795368],[139.430818,36.795508],[139.430681,36.795571],[139.430576,36.795611],[139.430497,36.795636],[139.430434,36.795656],[139.4303,36.795691],[139.430143,36.795723],[139.429994,36.795748],[139.429798,36.795779],[139.429542,36.795833],[139.429377,36.795873],[139.429291,36.7959],[139.429169,36.79595],[139.428992,36.79604],[139.428897,36.79609],[139.428858,36.796118],[139.428819,36.796155],[139.428786,36.796188],[139.428772,36.796214],[139.428747,36.79627],[139.428726,36.796324],[139.428715,36.796368],[139.428707,36.796402],[139.428705,36.796435],[139.428705,36.796472],[139.428711,36.796509],[139.428716,36.796538],[139.42874,36.796622],[139.428763,36.796684],[139.428779,36.796728],[139.428792,36.796758],[139.428904,36.796969],[139.429006,36.797168],[139.429037,36.797238],[139.429089,36.797391],[139.429105,36.797452],[139.429109,36.797484],[139.429113,36.797531],[139.429114,36.79758],[139.429112,36.797622],[139.429098,36.797672],[139.429088,36.797722],[139.429016,36.797933],[139.42881,36.798395],[139.428654,36.79874],[139.428613,36.798827],[139.428593,36.798866],[139.428554,36.798921],[139.428382,36.79914],[139.428241,36.7993],[139.428129,36.79945],[139.42805,36.799571],[139.427987,36.799683],[139.427839,36.79995],[139.427732,36.800113],[139.427678,36.800189],[139.427556,36.800334],[139.427244,36.800696],[139.427197,36.80076],[139.427166,36.800814],[139.427135,36.800885],[139.427109,36.800973],[139.427095,36.801047],[139.427089,36.801138],[139.427088,36.801227],[139.427089,36.801335],[139.427073,36.801421],[139.427049,36.801479],[139.427013,36.801547],[139.426965,36.801615],[139.426788,36.801785]]}},{"type":"Feature","properties":{"id":585608381,"highway":"trunk"},"geometry":{"type":"LineString","coordinates":[[139.451978,36.769658],[139.451923,36.76978],[139.451831,36.769989],[139.45173,36.770237],[139.451692,36.770338],[139.451664,36.770432],[139.451648,36.770506],[139.451634,36.770597],[139.451624,36.770693],[139.451614,36.770849],[139.451609,36.771006],[139.451368,36.774465],[139.451348,36.774802],[139.45133,36.775153],[139.451326,36.775269],[139.451316,36.775403],[139.451303,36.775521],[139.451282,36.775635],[139.451254,36.775774],[139.450929,36.777055],[139.450894,36.777173],[139.450857,36.777286],[139.450821,36.777381],[139.450764,36.777511],[139.450742,36.777557],[139.450658,36.777732],[139.450584,36.777878],[139.450546,36.777947],[139.450459,36.778079],[139.450351,36.778237],[139.450001,36.778692],[139.449885,36.778833],[139.446629,36.783091],[139.445321,36.784795],[139.444311,36.786045]]}},{"type":"Feature","properties":{"id":585608382,"highway":"trunk"},"geometry":{"type":"LineString","coordinates":[[139.45101,36.760295],[139.451281,36.760349],[139.451423,36.760377],[139.451478,36.760388],[139.451678,36.760437],[139.451794,36.760471],[139.451901,36.760509],[139.45199,36.760548],[139.452067,36.760593],[139.452142,36.760644],[139.452207,36.760695],[139.452272,36.760754],[139.452332,36.760812],[139.452392,36.760881],[139.45244,36.760944],[139.452484,36.761007],[139.452516,36.761063],[139.452545,36.76112],[139.452567,36.761185],[139.452588,36.761254],[139.452622,36.761398],[139.45271,36.761791],[139.452781,36.762071],[139.452821,36.762255],[139.452861,36.762454],[139.452881,36.762622],[139.452895,36.762757],[139.4529,36.762911],[139.452901,36.763096],[139.452894,36.763286],[139.45287,36.763954],[139.452845,36.764601]]}},{"type":"Feature","properties":{"id":599138232,"highway":"service"},"geometry":{"type":"LineString","coordinates":[[139.452802,36.798307],[139.453031,36.798363],[139.453034,36.798469],[139.453196,36.798499]]}},{"type":"Feature","properties":{"id":634039798,"highway":"service"},"geometry":{"type":"LineString","coordinates":[[139.500668,36.741067],[139.498989,36.740779]]}},{"type":"Feature","properties":{"id":634039799,"highway":"service"},"geometry":{"type":"LineString","coordinates":[[139.498166,36.739858],[139.498169,36.740103]]}},{"type":"Feature","properties":{"id":634039800,"highway":"service"},"geometry":{"type":"LineString","coordinates":[[139.497603,36.739869],[139.497652,36.740231]]}},{"type":"Feature","properties":{"id":755831519,"highway":"service"},"geometry":{"type":"LineString","coordinates":[[139.430666,36.794659],[139.430455,36.79466],[139.429936,36.794674],[139.429873,36.794696],[139.429743,36.794866],[139.429586,36.794989],[139.42935,36.79502],[139.42917,36.79505]]}},{"type":"Feature","properties":{"id":779030124,"highway":"service"},"geometry":{"type":"LineString","coordinates":[[139.485942,36.741678],[139.485731,36.741709],[139.484473,36.741678]]}},{"type":"Feature","properties":{"id":817996706,"highway":"trunk"},"geometry":{"type":"LineString","coordinates":[[139.496939,36.739335],[139.496891,36.739339],[139.496842,36.739346],[139.496768,36.739365],[139.496678,36.73939],[139.496589,36.739423],[139.496298,36.739525],[139.496143,36.739578],[139.496012,36.739612],[139.495887,36.739642],[139.495783,36.739665],[139.495663,36.739683],[139.495546,36.739694],[139.49539,36.7397],[139.495219,36.739702],[139.495,36.7397],[139.494854,36.739696],[139.49448,36.739672],[139.494453,36.739671],[139.494323,36.739665],[139.494191,36.739664],[139.494066,36.739672],[139.493919,36.739694],[139.493659,36.739749],[139.493244,36.739847],[139.492434,36.740057],[139.492046,36.740153],[139.491582,36.740287],[139.491261,36.740385],[139.490953,36.740486],[139.490661,36.740596],[139.489871,36.740899],[139.489546,36.74102],[139.489251,36.741134],[139.48914,36.741174],[139.489034,36.741213],[139.488926,36.741247],[139.48884,36.741264],[139.488741,36.741272]]}},{"type":"Feature","properties":{"id":893343695,"highway":"tertiary"},"geometry":{"type":"LineString","coordinates":[[139.452842,36.792442],[139.452839,36.792419]]}},{"type":"Feature","properties":{"id":894200310,"highway":"service"},"geometry":{"type":"LineString","coordinates":[[139.475336,36.707151],[139.475186,36.707312],[139.475275,36.707482]]}},{"type":"Feature","properties":{"id":917594620,"highway":"service"},"geometry":{"type":"LineString","coordinates":[[139.493237,36.740836],[139.493354,36.740793],[139.49338,36.740636],[139.493343,36.740532]]}},{"type":"Feature","properties":{"id":917594681,"highway":"service"},"geometry":{"type":"LineString","coordinates":[[139.494036,36.740382],[139.494122,36.74062],[139.494617,36.740574]]}},{"type":"Feature","properties":{"id":938094727,"highway":"unclassified"},"geometry":{"type":"LineString","coordinates":[[139.432817,36.793706],[139.432774,36.794167],[139.432785,36.794184],[139.432801,36.79421],[139.432999,36.794245]]}},{"type":"Feature","properties":{"id":938094731,"highway":"trunk"},"geometry":{"type":"LineString","coordinates":[[139.443535,36.787022],[139.443439,36.787142]]}},{"type":"Feature","properties":{"id":938094732,"highway":"trunk"},"geometry":{"type":"LineString","coordinates":[[139.444311,36.786045],[139.443613,36.786929],[139.443535,36.787022]]}},{"type":"Feature","properties":{"id":941422541,"highway":"service"},"geometry":{"type":"LineString","coordinates":[[139.4532,36.769769],[139.453262,36.769649],[139.453356,36.769452]]}},{"type":"Feature","properties":{"id":941422542,"highway":"service"},"geometry":{"type":"LineString","coordinates":[[139.453591,36.769733],[139.453448,36.769696],[139.453422,36.769694],[139.453399,36.7697],[139.453376,36.769717],[139.453321,36.769795]]}},{"type":"Feature","properties":{"id":941422543,"highway":"service"},"geometry":{"type":"LineString","coordinates":[[139.453826,36.769784],[139.45409,36.769845],[139.454694,36.769986],[139.454718,36.76999],[139.454736,36.769974],[139.45478,36.769857],[139.454787,36.769839],[139.454807,36.769788],[139.454807,36.769773],[139.454789,36.769751],[139.454753,36.769689],[139.45473,36.769681],[139.454409,36.769605],[139.4543,36.769594],[139.454219,36.769574],[139.454142,36.769555],[139.454107,36.769552],[139.45408,36.769557],[139.454051,36.769562],[139.454045,36.769562],[139.454026,36.769561],[139.453948,36.769539],[139.453925,36.76954],[139.453906,36.769553],[139.453892,36.769609],[139.453826,36.769784]]}},{"type":"Feature","properties":{"id":941422544,"highway":"service"},"geometry":{"type":"LineString","coordinates":[[139.453711,36.769758],[139.453826,36.769784]]}},{"type":"Feature","properties":{"id":941422545,"highway":"service"},"geometry":{"type":"LineString","coordinates":[[139.453591,36.769733],[139.453686,36.769483]]}},{"type":"Feature","properties":{"id":941422547,"highway":"service"},"geometry":{"type":"LineString","coordinates":[[139.45478,36.769857],[139.454054,36.769684],[139.454046,36.769672],[139.454051,36.76963],[139.454051,36.769609],[139.454045,36.769562]]}},{"type":"Feature","properties":{"id":941450749,"highway":"unclassified"},"geometry":{"type":"LineString","coordinates":[[139.451766,36.756682],[139.451797,36.756706],[139.451816,36.756743],[139.451831,36.756775],[139.451843,36.756828],[139.451846,36.756897]]}},{"type":"Feature","properties":{"id":941450750,"highway":"service"},"geometry":{"type":"LineString","coordinates":[[139.451856,36.757148],[139.451864,36.757218],[139.451878,36.757341]]}},{"type":"Feature","properties":{"id":941450751,"highway":"service"},"geometry":{"type":"LineString","coordinates":[[139.451845,36.756959],[139.451856,36.757148]]}},{"type":"Feature","properties":{"id":941450752,"highway":"service"},"geometry":{"type":"LineString","coordinates":[[139.451274,36.757357],[139.45116,36.75736],[139.450999,36.757345],[139.450903,36.757326],[139.450838,36.757296],[139.450768,36.757279],[139.450731,36.757215]]}},{"type":"Feature","properties":{"id":941450753,"highway":"service"},"geometry":{"type":"LineString","coordinates":[[139.451399,36.757349],[139.451274,36.757357]]}},{"type":"Feature","properties":{"id":941450754,"highway":"trunk"},"geometry":{"type":"LineString","coordinates":[[139.451114,36.757174],[139.451,36.757198],[139.450926,36.75721],[139.450824,36.757218],[139.450731,36.757215],[139.450629,36.757202],[139.450525,36.757185],[139.450399,36.757154],[139.450204,36.757092],[139.44992,36.756983],[139.449556,36.75685],[139.449456,36.756811],[139.449302,36.75675],[139.449091,36.756655],[139.448996,36.756611],[139.44888,36.756548],[139.448779,36.756489],[139.448665,36.756398],[139.448595,36.756329],[139.448498,36.756223],[139.448341,36.756039],[139.448234,36.755925],[139.44817,36.755858],[139.448113,36.755822],[139.448035,36.755782],[139.447977,36.755766],[139.447929,36.755759],[139.447862,36.755756],[139.447792,36.755768],[139.44772,36.755788],[139.447653,36.755829],[139.447602,36.755883],[139.447569,36.755951],[139.447557,36.756033],[139.447574,36.756111],[139.447612,36.756168],[139.447648,36.756202],[139.447686,36.756231],[139.447741,36.756262],[139.447808,36.756287],[139.448058,36.756351],[139.448189,36.756391],[139.448245,36.75641],[139.448327,36.756441],[139.448413,36.756484],[139.448534,36.756555],[139.448658,36.756641],[139.448768,36.756728],[139.448852,36.756817],[139.448943,36.756925],[139.449011,36.75702],[139.449054,36.757098],[139.449079,36.757166],[139.449085,36.757241],[139.449087,36.75732],[139.449079,36.757371],[139.449059,36.757445],[139.449032,36.757545],[139.449003,36.75764],[139.448982,36.757713],[139.448971,36.757765],[139.448967,36.757808],[139.448972,36.757854],[139.448989,36.757901],[139.449012,36.757942],[139.449054,36.757992],[139.449094,36.758025],[139.449143,36.758051],[139.449201,36.758076],[139.449262,36.758088],[139.449327,36.75809],[139.449424,36.758077],[139.44977,36.758023],[139.449872,36.758015],[139.449966,36.758012],[139.450027,36.758016],[139.450093,36.758025],[139.450141,36.75804],[139.450195,36.758061],[139.450274,36.758092],[139.450323,36.758124],[139.450365,36.758156],[139.450403,36.758197],[139.450447,36.758248],[139.450483,36.758312],[139.450518,36.758378],[139.450672,36.758857],[139.450689,36.758922],[139.450697,36.758977],[139.4507,36.759017],[139.450699,36.759061],[139.450693,36.759102],[139.450679,36.759154],[139.450661,36.759195],[139.450641,36.759228],[139.450608,36.75927],[139.450561,36.759314],[139.450486,36.759374],[139.450362,36.759459],[139.450304,36.759499],[139.45026,36.759534],[139.45021,36.759582],[139.450182,36.759617],[139.450156,36.759658],[139.450141,36.759698],[139.450129,36.759744],[139.450121,36.759797],[139.45012,36.759843],[139.450125,36.759888],[139.450134,36.759928],[139.450151,36.75997],[139.450182,36.760014],[139.450216,36.760052],[139.450254,36.760087],[139.450297,36.760115],[139.450357,36.760144],[139.450434,36.76017],[139.450714,36.76023],[139.450779,36.760243]]}},{"type":"Feature","properties":{"id":941450755,"highway":"trunk"},"geometry":{"type":"LineString","coordinates":[[139.451375,36.757071],[139.45131,36.757105],[139.451252,36.75713],[139.451183,36.757154],[139.451114,36.757174]]}},{"type":"Feature","properties":{"id":941450756,"highway":"service"},"geometry":{"type":"LineString","coordinates":[[139.448542,36.753538],[139.448581,36.753545],[139.448647,36.753532],[139.448732,36.753512],[139.448776,36.753487],[139.44881,36.753439],[139.448814,36.753399],[139.4488,36.753354],[139.448763,36.753316],[139.448694,36.753306],[139.448623,36.75332],[139.448577,36.753337],[139.448556,36.753385],[139.448546,36.753452],[139.448542,36.753538]]}},{"type":"Feature","properties":{"id":941450757,"highway":"service"},"geometry":{"type":"LineString","coordinates":[[139.450768,36.757279],[139.450657,36.757275],[139.450551,36.75731],[139.450443,36.757359],[139.450359,36.757381],[139.450264,36.757385]]}},{"type":"Feature","properties":{"id":941456760,"highway":"service"},"geometry":{"type":"LineString","coordinates":[[139.452363,36.755063],[139.45268,36.754357],[139.452754,36.754188]]}},{"type":"Feature","properties":{"id":941456761,"highway":"service"},"geometry":{"type":"LineString","coordinates":[[139.45268,36.754357],[139.452652,36.754349],[139.45251,36.754313]]}},{"type":"Feature","properties":{"id":941456762,"highway":"service"},"geometry":{"type":"LineString","coordinates":[[139.452754,36.754188],[139.452544,36.754126],[139.452503,36.754114]]}},{"type":"Feature","properties":{"id":941456763,"highway":"service"},"geometry":{"type":"LineString","coordinates":[[139.452104,36.755049],[139.452153,36.755052],[139.452363,36.755063]]}},{"type":"Feature","properties":{"id":941456765,"highway":"service"},"geometry":{"type":"LineString","coordinates":[[139.451864,36.757218],[139.451693,36.757217]]}},{"type":"Feature","properties":{"id":941983717,"highway":"unclassified"},"geometry":{"type":"LineString","coordinates":[[139.450764,36.777511],[139.450856,36.777545],[139.451055,36.777684]]}},{"type":"Feature","properties":{"id":955617849,"highway":"trunk"},"geometry":{"type":"LineString","coordinates":[[139.498645,36.738078],[139.498619,36.738152],[139.498609,36.738236],[139.498612,36.738332],[139.498643,36.738636],[139.498656,36.73876],[139.498667,36.738889]]}},{"type":"Feature","properties":{"id":1071173371,"highway":"unclassified"},"geometry":{"type":"LineString","coordinates":[[139.432771,36.794439],[139.432765,36.794203],[139.432785,36.794184]]}},{"type":"Feature","properties":{"id":1071173375,"highway":"residential"},"geometry":{"type":"LineString","coordinates":[[139.453443,36.75328],[139.452883,36.752925],[139.452875,36.752899],[139.452888,36.752867],[139.453237,36.752454]]}},{"type":"Feature","properties":{"id":1071173377,"highway":"unclassified"},"geometry":{"type":"LineString","coordinates":[[139.484673,36.741002],[139.484678,36.74093],[139.484629,36.740859],[139.484554,36.740799]]}},{"type":"Feature","properties":{"id":1071173378,"highway":"service"},"geometry":{"type":"LineString","coordinates":[[139.484879,36.740872],[139.485075,36.740883],[139.485241,36.740902],[139.485485,36.740954],[139.485763,36.740997]]}},{"type":"Feature","properties":{"id":1071177718,"highway":"service"},"geometry":{"type":"LineString","coordinates":[[139.455092,36.795887],[139.455043,36.795887],[139.454976,36.795905],[139.454933,36.795925],[139.454906,36.795959],[139.454898,36.795996],[139.454882,36.796025],[139.454851,36.796052]]}},{"type":"Feature","properties":{"id":1101859859,"highway":"unclassified"},"geometry":{"type":"LineString","coordinates":[[139.4532,36.769769],[139.453259,36.76978],[139.453321,36.769795],[139.453566,36.769866]]}},{"type":"Feature","properties":{"id":1167912912,"highway":"trunk"},"geometry":{"type":"LineString","coordinates":[[139.451549,36.756948],[139.451485,36.756999],[139.451416,36.757045],[139.451375,36.757071]]}},{"type":"Feature","properties":{"id":1167912913,"highway":"trunk"},"geometry":{"type":"LineString","coordinates":[[139.451654,36.756848],[139.451549,36.756948]]}},{"type":"Feature","properties":{"id":1167917535,"highway":"unclassified"},"geometry":{"type":"LineString","coordinates":[[139.454947,36.752251],[139.45498,36.75206],[139.455065,36.751795]]}},{"type":"Feature","properties":{"id":1264441415,"highway":"service"},"geometry":{"type":"LineString","coordinates":[[139.49448,36.739672],[139.494483,36.73962],[139.494496,36.739441],[139.494507,36.739333]]}},{"type":"Feature","properties":{"id":1381559109,"highway":"secondary"},"geometry":{"type":"LineString","coordinates":[[139.496199,36.737564],[139.496161,36.737423],[139.49605,36.737077],[139.495971,36.736842],[139.495923,36.736715],[139.495864,36.736578],[139.495792,36.736442],[139.495712,36.736286],[139.495571,36.736068],[139.495472,36.735945],[139.495369,36.735844],[139.49508,36.735598],[139.494944,36.735494],[139.494785,36.735381],[139.494647,36.735304],[139.494477,36.735225],[139.494089,36.735056],[139.493482,36.734805]]}},{"type":"Feature","properties":{"id":1381559517,"highway":"secondary"},"geometry":{"type":"LineString","coordinates":[[139.493482,36.734805],[139.493267,36.734707],[139.49312,36.73463],[139.493028,36.734566],[139.492905,36.734471],[139.49274,36.73435],[139.492675,36.734281],[139.49262,36.734207],[139.492551,36.734095],[139.492481,36.733938],[139.492426,36.733806],[139.492396,36.73372],[139.49236,36.733522],[139.492353,36.733476]]}},{"type":"Feature","properties":{"id":1381562716,"highway":"secondary"},"geometry":{"type":"LineString","coordinates":[[139.492353,36.733476],[139.492326,36.73331],[139.492296,36.733162],[139.492261,36.73305],[139.492229,36.732964],[139.491917,36.732078],[139.491891,36.732033],[139.491854,36.731993],[139.491814,36.73197],[139.491777,36.731952],[139.491734,36.731938],[139.491656,36.73191],[139.491575,36.731873],[139.491523,36.731838],[139.491486,36.731806],[139.491448,36.731758],[139.491418,36.731707],[139.491234,36.731347],[139.491218,36.731317],[139.491134,36.731156],[139.490958,36.730824],[139.490916,36.730745],[139.490901,36.730715]]}},{"type":"Feature","properties":{"id":1389302760,"highway":"service"},"geometry":{"type":"LineString","coordinates":[[139.48537,36.727591],[139.485503,36.727448],[139.485663,36.7273],[139.485829,36.727174],[139.485984,36.727076],[139.486127,36.726981],[139.486186,36.726908],[139.48621,36.726842],[139.486218,36.726758],[139.486186,36.726616],[139.486122,36.726458],[139.486068,36.726315],[139.486047,36.726226],[139.486036,36.726191],[139.486044,36.726095],[139.486071,36.726018],[139.4861,36.725945],[139.48614,36.725881],[139.486173,36.725844],[139.486205,36.725809],[139.486332,36.725703],[139.486415,36.725606],[139.486481,36.725516],[139.486517,36.725416],[139.486518,36.725332],[139.4865,36.725263],[139.486461,36.725212],[139.486384,36.725145]]}},{"type":"Feature","properties":{"id":1389302761,"highway":"service"},"geometry":{"type":"LineString","coordinates":[[139.486384,36.725145],[139.486297,36.725075]]}},{"type":"Feature","properties":{"id":1389302769,"highway":"service"},"geometry":{"type":"LineString","coordinates":[[139.485871,36.727005],[139.485918,36.726907],[139.485942,36.726855],[139.485947,36.726788],[139.485942,36.726762]]}},{"type":"Feature","properties":{"id":1389302773,"highway":"service"},"geometry":{"type":"LineString","coordinates":[[139.485724,36.725907],[139.485765,36.725909],[139.485862,36.72592],[139.485953,36.725908],[139.486173,36.725844]]}},{"type":"Feature","properties":{"id":1389302782,"highway":"secondary"},"geometry":{"type":"LineString","coordinates":[[139.490901,36.730715],[139.490786,36.730494],[139.490728,36.730383],[139.490611,36.730225],[139.490577,36.730178],[139.490486,36.730092],[139.4904,36.730045],[139.490298,36.730023],[139.490159,36.730019],[139.489453,36.730031],[139.489381,36.730032],[139.489177,36.730015],[139.48908,36.730006],[139.488962,36.729997],[139.488828,36.729976],[139.48863,36.72992],[139.48798,36.729653],[139.487793,36.729546],[139.48768,36.729464],[139.4876,36.729387],[139.487476,36.729228],[139.487358,36.729043],[139.48724,36.728837],[139.48717,36.728716],[139.487125,36.728666],[139.487085,36.728622],[139.486924,36.72851],[139.486769,36.728447],[139.486642,36.728411],[139.486525,36.728393],[139.486253,36.728363],[139.486119,36.728348],[139.485869,36.728315],[139.485668,36.728277],[139.485554,36.728231],[139.485475,36.728173],[139.485408,36.728113],[139.48537,36.72803],[139.485368,36.727925],[139.485372,36.727865],[139.485387,36.727791],[139.485438,36.727719],[139.485524,36.72761],[139.485684,36.727429],[139.485912,36.727241],[139.486174,36.727077],[139.486242,36.727027],[139.486312,36.72694],[139.486348,36.726853],[139.486361,36.726742],[139.486355,36.726666],[139.486329,36.726584],[139.486223,36.726326],[139.486218,36.726191],[139.486253,36.726102],[139.486298,36.726033],[139.486367,36.725949],[139.486445,36.725884],[139.486534,36.725819],[139.486658,36.725732],[139.486832,36.725603],[139.487503,36.725139],[139.488045,36.724837],[139.488315,36.724694],[139.488417,36.724647],[139.488499,36.72462],[139.488597,36.724606],[139.488753,36.724605],[139.488914,36.724606],[139.489101,36.724609],[139.489247,36.724613],[139.48937,36.724583],[139.489416,36.724553]]}},{"type":"Feature","properties":{"id":1389302783,"highway":"secondary"},"geometry":{"type":"LineString","coordinates":[[139.489416,36.724553],[139.489448,36.724517],[139.489496,36.72446],[139.48952,36.724359]]}},{"type":"Feature","properties":{"id":1389305586,"highway":"service"},"geometry":{"type":"LineString","coordinates":[[139.486297,36.725075],[139.486022,36.724871],[139.485828,36.724745],[139.485565,36.724879]]}},{"type":"Feature","properties":{"id":1389417839,"highway":"service"},"geometry":{"type":"LineString","coordinates":[[139.490702,36.730732],[139.490614,36.730557],[139.490501,36.730334]]}},{"type":"Feature","properties":{"id":1389417841,"highway":"service"},"geometry":{"type":"LineString","coordinates":[[139.490611,36.730225],[139.490653,36.730205],[139.490683,36.730186],[139.490935,36.730033]]}},{"type":"Feature","properties":{"id":1389418637,"highway":"service"},"geometry":{"type":"LineString","coordinates":[[139.491814,36.73197],[139.491902,36.731947],[139.492019,36.731919]]}},{"type":"Feature","properties":{"id":1414979984,"highway":"service"},"geometry":{"type":"LineString","coordinates":[[139.48443,36.716319],[139.484362,36.716448],[139.484361,36.716472],[139.484381,36.716517],[139.48441,36.716535],[139.485162,36.716742],[139.485206,36.716739],[139.485255,36.716723],[139.485386,36.716609],[139.485405,36.716553]]}},{"type":"Feature","properties":{"id":1422275585,"highway":"service"},"geometry":{"type":"LineString","coordinates":[[139.451423,36.760377],[139.451473,36.760486],[139.451503,36.76055],[139.451926,36.760668],[139.452009,36.76066],[139.452142,36.760644]]}},{"type":"Feature","properties":{"id":1422610392,"highway":"service"},"geometry":{"type":"LineString","coordinates":[[139.450997,36.778028],[139.45108,36.778134],[139.451061,36.77825],[139.450951,36.77892],[139.450902,36.779218]]}},{"type":"Feature","properties":{"id":1536036806,"highway":"service"},"geometry":{"type":"LineString","coordinates":[[139.455264,36.796028],[139.455834,36.796021]]}},{"type":"Feature","properties":{"id":1536036807,"highway":"service"},"geometry":{"type":"LineString","coordinates":[[139.455092,36.795887],[139.455081,36.795809],[139.454963,36.79551],[139.454914,36.795334],[139.454919,36.795275],[139.454943,36.795219],[139.454926,36.795188],[139.454836,36.795147],[139.454794,36.795108],[139.454742,36.794875]]}},{"type":"Feature","properties":{"id":1536456624,"highway":"service"},"geometry":{"type":"LineString","coordinates":[[139.455524,36.785601],[139.455535,36.785505],[139.455576,36.785118]]}},{"type":"Feature","properties":{"id":1536456627,"highway":"service"},"geometry":{"type":"LineString","coordinates":[[139.453571,36.785235],[139.454118,36.785195],[139.454182,36.785192],[139.454538,36.785178],[139.454884,36.785153],[139.455077,36.785142],[139.455139,36.785139],[139.455384,36.785126],[139.455576,36.785118],[139.45566,36.785118],[139.455717,36.785119],[139.455821,36.785094]]}},{"type":"Feature","properties":{"id":1536456631,"highway":"residential"},"geometry":{"type":"LineString","coordinates":[[139.454186,36.782617],[139.454222,36.782199],[139.45425,36.781605],[139.454281,36.781113]]}},{"type":"Feature","properties":{"id":1536456632,"highway":"service"},"geometry":{"type":"LineString","coordinates":[[139.454772,36.779916],[139.454513,36.779879],[139.454369,36.779846]]}},{"type":"Feature","properties":{"id":1536456635,"highway":"service"},"geometry":{"type":"LineString","coordinates":[[139.456939,36.772674],[139.456745,36.772688],[139.456642,36.772858],[139.456587,36.77286],[139.456111,36.772691],[139.455999,36.772647],[139.45592,36.77258],[139.455789,36.772358],[139.455717,36.772305]]}},{"type":"Feature","properties":{"id":1536456638,"highway":"service"},"geometry":{"type":"LineString","coordinates":[[139.45598,36.770605],[139.456427,36.770453],[139.45659,36.770747],[139.456578,36.77078],[139.456518,36.770795],[139.456465,36.770798]]}},{"type":"Feature","properties":{"id":1536456640,"highway":"service"},"geometry":{"type":"LineString","coordinates":[[139.455524,36.769994],[139.455879,36.770122],[139.45592,36.770153],[139.455915,36.770232],[139.455882,36.77035],[139.455846,36.770433]]}},{"type":"Feature","properties":{"id":1536456643,"highway":"service"},"geometry":{"type":"LineString","coordinates":[[139.455598,36.770361],[139.455568,36.770409],[139.455391,36.770556],[139.455376,36.770593]]}},{"type":"Feature","properties":{"id":1536493489,"highway":"service"},"geometry":{"type":"LineString","coordinates":[[139.497117,36.737208],[139.497019,36.737002],[139.496973,36.736791]]}},{"type":"Feature","properties":{"id":1536493490,"highway":"unclassified"},"geometry":{"type":"LineString","coordinates":[[139.498645,36.738078],[139.498259,36.738058],[139.498087,36.738045],[139.497895,36.738007],[139.497737,36.737966],[139.497659,36.737947],[139.497629,36.737932],[139.497609,36.737923],[139.49756,36.737887],[139.497503,36.737821],[139.497437,36.737745],[139.497373,36.73767],[139.497296,36.737581],[139.497178,36.737398],[139.497139,36.737327],[139.497112,36.737235],[139.497117,36.737208]]}},{"type":"Feature","properties":{"id":1537802839,"highway":"service"},"geometry":{"type":"LineString","coordinates":[[139.453106,36.798815],[139.453071,36.798903],[139.453046,36.798964],[139.452977,36.799024],[139.452918,36.799044],[139.452844,36.799046],[139.452751,36.799029],[139.452681,36.799007],[139.452655,36.798975],[139.452651,36.798931],[139.452667,36.798829]]}},{"type":"Feature","properties":{"id":1539045454,"highway":"service"},"geometry":{"type":"LineString","coordinates":[[139.451846,36.756897],[139.451845,36.756941],[139.451845,36.756959]]}},{"type":"Feature","properties":{"id":1539045470,"highway":"service"},"geometry":{"type":"LineString","coordinates":[[139.452048,36.755215],[139.45199,36.755206],[139.451876,36.755215],[139.451796,36.755215],[139.451189,36.755213]]}},{"type":"Feature","properties":{"id":1539045471,"highway":"service"},"geometry":{"type":"LineString","coordinates":[[139.45199,36.755206],[139.451951,36.755175],[139.45196,36.755104],[139.451982,36.755012]]}},{"type":"Feature","properties":{"id":1539045478,"highway":"service"},"geometry":{"type":"LineString","coordinates":[[139.453566,36.769866],[139.453676,36.769787],[139.453711,36.769758]]}},{"type":"Feature","properties":{"id":1539045479,"highway":"service"},"geometry":{"type":"LineString","coordinates":[[139.453711,36.769758],[139.453591,36.769733]]}},{"type":"Feature","properties":{"id":1539045485,"highway":"service"},"geometry":{"type":"LineString","coordinates":[[139.454216,36.797153],[139.454337,36.797148],[139.454467,36.797144],[139.454668,36.797125],[139.454685,36.797123],[139.454557,36.796633],[139.454504,36.79664],[139.454351,36.796662],[139.454467,36.797144]]}},{"type":"Feature","properties":{"id":1539045486,"highway":"service"},"geometry":{"type":"LineString","coordinates":[[139.454504,36.79664],[139.454443,36.796411],[139.454453,36.796353],[139.454439,36.796313],[139.45442,36.796288],[139.454372,36.796275],[139.454283,36.79627],[139.454043,36.796307]]}},{"type":"Feature","properties":{"id":1544782371,"highway":"service"},"geometry":{"type":"LineString","coordinates":[[139.448789,36.754815],[139.448644,36.754735],[139.448466,36.754485],[139.448184,36.754028]]}}]}