{"type":"FeatureCollection","features":[{"type":"Feature","properties":{"id":47497121,"highway":"unclassified"},"geometry":{"type":"LineString","coordinates":[[139.417725,36.807478],[139.417783,36.807414],[139.418528,36.807251],[139.419102,36.807162],[139.420129,36.807022],[139.421331,36.806919],[139.422703,36.806916]]}},{"type":"Feature","properties":{"id":47530644,"highway":"service"},"geometry":{"type":"LineString","coordinates":[[139.423221,36.808223],[139.423319,36.808163],[139.423341,36.808149],[139.423639,36.808081],[139.423644,36.807829],[139.423635,36.807524],[139.423571,36.807281],[139.423475,36.806967]]}},{"type":"Feature","properties":{"id":47581977,"highway":"tertiary"},"geometry":{"type":"LineString","coordinates":[[139.422783,36.806615],[139.422801,36.806547],[139.422828,36.80644],[139.422954,36.805992],[139.423001,36.805809],[139.42305,36.805603],[139.423114,36.805394],[139.423199,36.805125],[139.423243,36.805001],[139.423251,36.804984],[139.423295,36.804891],[139.42337,36.804787],[139.423467,36.804698],[139.423604,36.804614],[139.423765,36.804539],[139.423947,36.804491],[139.424112,36.804472],[139.424317,36.804479]]}},{"type":"Feature","properties":{"id":47995540,"highway":"unclassified"},"geometry":{"type":"LineString","coordinates":[[139.423575,36.806536],[139.423583,36.8065],[139.423588,36.806482],[139.423596,36.806456],[139.423721,36.805985],[139.423783,36.805749],[139.4238,36.805701],[139.423946,36.805279],[139.424073,36.80491],[139.42422,36.804651],[139.424317,36.804479]]}},{"type":"Feature","properties":{"id":47995541,"highway":"unclassified"},"geometry":{"type":"LineString","coordinates":[[139.423575,36.806536],[139.423448,36.806519],[139.422828,36.80644]]}},{"type":"Feature","properties":{"id":47995542,"highway":"unclassified"},"geometry":{"type":"LineString","coordinates":[[139.425163,36.806766],[139.425251,36.806343],[139.42529,36.806227],[139.42534,36.80608]]}},{"type":"Feature","properties":{"id":48225833,"highway":"tertiary"},"geometry":{"type":"LineString","coordinates":[[139.426788,36.801785],[139.426606,36.801778],[139.426495,36.801796],[139.426408,36.801853],[139.426302,36.801954],[139.42601,36.802351],[139.425963,36.802437],[139.425936,36.802513],[139.425925,36.802602],[139.425933,36.802696],[139.425953,36.802824],[139.426043,36.803348],[139.426079,36.803482],[139.426138,36.803624],[139.42622,36.803739],[139.426348,36.803879],[139.426484,36.804038],[139.426535,36.80412],[139.426559,36.804222],[139.426548,36.804341],[139.426509,36.804476],[139.426454,36.804625],[139.42635,36.804833]]}},{"type":"Feature","properties":{"id":70013120,"highway":"trunk"},"geometry":{"type":"LineString","coordinates":[[139.426788,36.801785],[139.426573,36.802008],[139.426391,36.802203],[139.426275,36.802362],[139.426237,36.80247],[139.426234,36.802539],[139.426239,36.802602],[139.426257,36.802673],[139.4263,36.802768],[139.42635,36.802836],[139.426552,36.803048],[139.427162,36.803585],[139.427251,36.80375],[139.427267,36.803879],[139.427251,36.804009],[139.4272,36.804135],[139.426989,36.804543],[139.42688,36.804806],[139.426609,36.80564],[139.426565,36.805807],[139.426571,36.805953],[139.426612,36.806534],[139.426628,36.806684],[139.426617,36.806783],[139.42659,36.806886],[139.426494,36.807113],[139.42644,36.807264],[139.426424,36.807367],[139.42637,36.808982],[139.426344,36.809194],[139.426301,36.809297],[139.426223,36.809433],[139.426097,36.809547],[139.42596,36.809658],[139.425814,36.809737],[139.425679,36.809797],[139.425426,36.809899],[139.42382,36.810317],[139.423627,36.810358],[139.423479,36.810347],[139.423334,36.810296],[139.423112,36.810189],[139.422787,36.810002],[139.422436,36.809811],[139.422114,36.80963],[139.421816,36.809491],[139.421366,36.809293],[139.420829,36.809048],[139.420585,36.808973],[139.420384,36.808941],[139.42018,36.808967],[139.419821,36.809068],[139.419638,36.809123],[139.419472,36.809154],[139.419155,36.809196],[139.418925,36.809239],[139.418812,36.809278],[139.418721,36.809342],[139.418608,36.809437],[139.418517,36.80954],[139.418496,36.80963],[139.41849,36.810004],[139.418501,36.81018],[139.41849,36.810257],[139.418447,36.810347],[139.418367,36.810493],[139.418297,36.810588],[139.418184,36.81076],[139.418034,36.810901],[139.417932,36.810979],[139.41783,36.811043],[139.417707,36.811073],[139.417589,36.811069],[139.417401,36.811048],[139.416516,36.810837],[139.41636,36.810786],[139.416253,36.810734],[139.41613,36.810674],[139.415996,36.810601],[139.415915,36.810562],[139.415808,36.810524],[139.415722,36.810506],[139.415636,36.810506],[139.415534,36.810515],[139.415416,36.810532],[139.415325,36.810558],[139.415212,36.810618],[139.415143,36.810687],[139.414998,36.810962],[139.414918,36.811155],[139.414842,36.811254],[139.414746,36.811327],[139.414638,36.811383],[139.414537,36.811408],[139.414397,36.811413],[139.414252,36.811378],[139.414134,36.811327],[139.413887,36.811194],[139.413721,36.811099],[139.413582,36.811048],[139.413464,36.811017],[139.413319,36.811013],[139.413126,36.81103],[139.412959,36.81106],[139.412863,36.811116],[139.412777,36.811185],[139.4126,36.811361],[139.412412,36.811511],[139.412262,36.811632],[139.412155,36.811687],[139.411991,36.811732],[139.411849,36.811769],[139.411622,36.811816],[139.411395,36.811875],[139.411001,36.812005],[139.410615,36.812134],[139.410427,36.812207],[139.410293,36.812297],[139.410154,36.812396],[139.410009,36.812461],[139.409859,36.812521],[139.409751,36.812542],[139.409494,36.812559],[139.40929,36.812576],[139.409162,36.812589],[139.408974,36.812624],[139.40862,36.812718],[139.408153,36.812826],[139.40796,36.812856],[139.407826,36.812864],[139.407697,36.812864],[139.407493,36.812847],[139.407026,36.812761],[139.406876,36.812731],[139.406742,36.812727],[139.406581,36.812727],[139.406361,36.812757],[139.404618,36.813096],[139.403615,36.813294],[139.403341,36.813333],[139.40283,36.813392],[139.402645,36.813397],[139.402483,36.813393],[139.402347,36.81337],[139.402247,36.813335],[139.402131,36.81327],[139.402043,36.813184],[139.401974,36.813099],[139.401934,36.813018],[139.401913,36.812936],[139.401902,36.812851],[139.401906,36.812574],[139.401893,36.812513]]}},{"type":"Feature","properties":{"id":188687864,"highway":"unclassified"},"geometry":{"type":"LineString","coordinates":[[139.456977,36.801334],[139.456979,36.801405],[139.456981,36.801476],[139.456998,36.801606],[139.456986,36.801663],[139.456954,36.801717],[139.45687,36.8018],[139.456856,36.80184],[139.45687,36.801881],[139.456903,36.801913],[139.456956,36.801919],[139.457013,36.801907],[139.457092,36.801859],[139.457156,36.801784],[139.457438,36.80159],[139.457599,36.80145],[139.457813,36.801227],[139.457865,36.801131],[139.457937,36.800845],[139.457968,36.800788],[139.458034,36.800715],[139.458103,36.800666],[139.45827,36.800594],[139.458519,36.800508],[139.458622,36.80049],[139.458705,36.800497],[139.458785,36.800519],[139.459149,36.80073],[139.459345,36.800852],[139.459406,36.80091],[139.459459,36.800973],[139.459499,36.801087],[139.45952,36.801183],[139.459519,36.801248],[139.459507,36.801338],[139.459285,36.801793],[139.459265,36.801879],[139.459256,36.801978],[139.459268,36.80206],[139.459302,36.802147],[139.459494,36.802419],[139.459595,36.802624],[139.459673,36.802827],[139.459723,36.802962],[139.459737,36.803122],[139.459703,36.803268],[139.459614,36.803368],[139.459522,36.803466],[139.459458,36.803582],[139.459418,36.803723],[139.4594,36.803872],[139.459361,36.804045],[139.459312,36.804161],[139.459246,36.804255],[139.459171,36.804317],[139.459027,36.804404],[139.458748,36.80453],[139.458616,36.804604],[139.458251,36.804829],[139.457838,36.805111],[139.45769,36.805231],[139.457593,36.805333],[139.457558,36.805514],[139.4576,36.805767],[139.457584,36.80591],[139.457549,36.806005],[139.457425,36.806147],[139.457355,36.806215],[139.457236,36.806299],[139.456831,36.806502],[139.456635,36.806609],[139.456586,36.806648],[139.456521,36.806722],[139.456507,36.806848],[139.456546,36.80703],[139.456612,36.807299],[139.456599,36.807443],[139.456594,36.807561],[139.456596,36.807687],[139.456597,36.80779],[139.456572,36.807856],[139.45654,36.807901],[139.456483,36.807935],[139.456425,36.807958],[139.456355,36.807967],[139.456296,36.807972],[139.456244,36.807971],[139.456162,36.807963],[139.456087,36.807948],[139.456004,36.80793],[139.455942,36.807906],[139.455906,36.80788],[139.45583,36.807809],[139.455773,36.807751],[139.455706,36.807687],[139.45565,36.807671],[139.455595,36.807669],[139.455538,36.807688],[139.455515,36.807745],[139.455525,36.807796],[139.455556,36.807841],[139.455612,36.807899],[139.455824,36.808154],[139.455881,36.808188],[139.455941,36.808228],[139.455991,36.808292],[139.45599,36.808333],[139.455966,36.80836],[139.455938,36.808379],[139.455892,36.808382],[139.455848,36.808378],[139.455809,36.808361],[139.455766,36.808305],[139.455683,36.808201],[139.455513,36.808083],[139.455408,36.808033],[139.455313,36.807989],[139.455128,36.807909],[139.454876,36.807789],[139.454784,36.80774],[139.4547,36.807685],[139.454634,36.807629],[139.454581,36.80757],[139.454529,36.807526],[139.454482,36.807496],[139.454438,36.807488],[139.454409,36.807486],[139.454375,36.8075],[139.454351,36.807512],[139.454321,36.807535],[139.454309,36.807558],[139.454309,36.807586],[139.454321,36.807616],[139.454346,36.807643],[139.454396,36.807702],[139.454443,36.807757],[139.454459,36.807811],[139.454517,36.807925],[139.454568,36.807984],[139.454677,36.808057],[139.454791,36.808113],[139.454842,36.80812],[139.45492,36.808131],[139.454982,36.808162],[139.45501,36.808199],[139.455009,36.808238],[139.454998,36.808264],[139.454973,36.808282],[139.454938,36.808295],[139.454901,36.8083],[139.454859,36.808296],[139.454821,36.808281],[139.454746,36.808228],[139.454693,36.808197],[139.454617,36.80817],[139.454529,36.808168],[139.454353,36.808166],[139.454235,36.808164],[139.45407,36.808153],[139.453925,36.808139],[139.453869,36.808131],[139.453783,36.808134],[139.453708,36.808153],[139.453676,36.80817],[139.453657,36.808199],[139.453655,36.808228],[139.453666,36.808256],[139.45369,36.808279],[139.453727,36.808295],[139.453775,36.808302],[139.453825,36.808308],[139.453874,36.808313],[139.453999,36.808334],[139.45415,36.808359],[139.454451,36.808439],[139.4547,36.808524],[139.454825,36.808569],[139.454952,36.808612],[139.455037,36.808643],[139.455143,36.808688],[139.455187,36.808716],[139.455234,36.80875],[139.45529,36.808788],[139.455348,36.808834],[139.455382,36.808872],[139.455385,36.808928],[139.455373,36.808973],[139.45534,36.809001],[139.455297,36.80901],[139.455258,36.809004],[139.455226,36.808991],[139.455178,36.808949],[139.455109,36.808865],[139.455066,36.808829],[139.455024,36.808805],[139.45497,36.808789],[139.454914,36.808789],[139.454851,36.808782],[139.454789,36.808775],[139.454669,36.808771],[139.454567,36.808755],[139.45449,36.808744],[139.454421,36.808737],[139.454371,36.80874],[139.454326,36.808762],[139.454297,36.808797],[139.454289,36.808831],[139.454294,36.80887],[139.454339,36.808915],[139.454404,36.808945],[139.45451,36.808991],[139.454626,36.80903],[139.454776,36.809103],[139.454845,36.809137],[139.454887,36.80917],[139.454953,36.809228],[139.454966,36.809267],[139.454958,36.809307],[139.454919,36.809343],[139.454876,36.809348],[139.454788,36.809331],[139.454657,36.809317],[139.454538,36.809306],[139.454417,36.809309],[139.454282,36.80933],[139.454168,36.809357],[139.454048,36.809383],[139.45399,36.809402],[139.453944,36.809417],[139.453905,36.809434],[139.453868,36.809454],[139.45384,36.809481],[139.453828,36.809518],[139.453829,36.809559],[139.453851,36.809593],[139.453897,36.809619],[139.454012,36.809628],[139.454174,36.809653],[139.454344,36.80972],[139.45455,36.809807],[139.454747,36.809856],[139.454898,36.809902],[139.454963,36.80993],[139.454995,36.809962],[139.455009,36.809999],[139.455007,36.810041],[139.454994,36.810085],[139.45496,36.810112],[139.454893,36.810125],[139.454833,36.810128],[139.45478,36.810123],[139.454712,36.810115],[139.454623,36.810115],[139.454523,36.810148],[139.454427,36.810182],[139.454288,36.810248],[139.454154,36.810309],[139.454038,36.810332],[139.453953,36.810351],[139.453893,36.810368],[139.453841,36.810392],[139.453808,36.810428],[139.453796,36.810471],[139.453808,36.810505],[139.453835,36.81053],[139.453861,36.810544],[139.453907,36.810548],[139.453976,36.810544],[139.45407,36.810536],[139.454173,36.810539],[139.45427,36.810544],[139.454456,36.810574],[139.454714,36.810618],[139.454944,36.810672],[139.455145,36.810718],[139.455282,36.810759],[139.455751,36.810878],[139.456337,36.811027],[139.456535,36.811081],[139.456784,36.811129],[139.456975,36.811149],[139.457232,36.811162],[139.457351,36.811158],[139.45749,36.811159],[139.457552,36.811174],[139.457601,36.811195],[139.457636,36.811229],[139.45764,36.811262],[139.457631,36.811295],[139.457605,36.81132],[139.457558,36.81134],[139.457294,36.81132],[139.457185,36.811347],[139.457084,36.8114],[139.457034,36.811435],[139.456933,36.811494],[139.456778,36.811545],[139.45662,36.8116],[139.456435,36.811702],[139.456298,36.811787],[139.456113,36.811853],[139.455753,36.81189],[139.455456,36.811982],[139.455073,36.812112],[139.454911,36.812172],[139.45467,36.812286],[139.454564,36.812339],[139.454489,36.812383],[139.454426,36.81243],[139.454382,36.812472],[139.454345,36.812521],[139.454324,36.81257],[139.454307,36.81262],[139.454294,36.81266],[139.454292,36.8127],[139.4543,36.812747],[139.454319,36.812786],[139.45437,36.812826],[139.454448,36.81286],[139.454531,36.812876],[139.454601,36.812915],[139.454659,36.812972],[139.454696,36.813077],[139.454709,36.813155],[139.454721,36.813293],[139.454658,36.813436],[139.454616,36.813551],[139.454613,36.813634],[139.454632,36.81369],[139.454666,36.813736],[139.454777,36.81384],[139.45482,36.813927],[139.454826,36.814],[139.454796,36.814093],[139.454756,36.814166],[139.454537,36.814495],[139.454403,36.814808],[139.454264,36.814984],[139.454129,36.815106],[139.453967,36.815229],[139.453512,36.815554],[139.453246,36.815685],[139.45305,36.815755],[139.452969,36.815808],[139.452904,36.815896],[139.452842,36.815973],[139.452802,36.816046]]}},{"type":"Feature","properties":{"id":188687973,"highway":"unclassified"},"geometry":{"type":"LineString","coordinates":[[139.452802,36.816046],[139.45278,36.816117],[139.452779,36.816196],[139.452828,36.816316],[139.452915,36.816511],[139.453043,36.816783],[139.453254,36.817097],[139.453445,36.817422],[139.453528,36.817541],[139.453679,36.81767],[139.453827,36.817819],[139.453891,36.817901],[139.453949,36.817983],[139.453969,36.818026],[139.453979,36.818071],[139.453995,36.81812],[139.454031,36.818165],[139.454107,36.818226],[139.454172,36.818311],[139.454191,36.818453],[139.454203,36.818515],[139.454239,36.818594],[139.454306,36.818679],[139.454451,36.819002],[139.454552,36.819191],[139.454713,36.819462],[139.454878,36.81966],[139.455006,36.819781],[139.455146,36.819904],[139.455233,36.820006],[139.455277,36.820078],[139.455328,36.820128],[139.455414,36.820178],[139.455455,36.820232],[139.455471,36.820289],[139.455456,36.820363],[139.455422,36.820457],[139.455408,36.820522],[139.455411,36.820578],[139.455438,36.820638],[139.455475,36.820687],[139.455738,36.821001],[139.456151,36.82152],[139.456263,36.82168],[139.456334,36.821744],[139.45641,36.821816],[139.456446,36.821904],[139.456466,36.822007],[139.456513,36.822125],[139.456581,36.82223],[139.456701,36.822363],[139.456754,36.822396],[139.456869,36.82243],[139.456974,36.822467],[139.457063,36.822535],[139.457135,36.822612],[139.457177,36.822662],[139.457206,36.822735],[139.4572,36.82283],[139.457178,36.823043],[139.457171,36.823148],[139.457185,36.823248],[139.457211,36.823319],[139.45723,36.823376]]}},{"type":"Feature","properties":{"id":188687978,"highway":"unclassified"},"geometry":{"type":"LineString","coordinates":[[139.423475,36.806967],[139.423959,36.806989],[139.424344,36.806996],[139.424486,36.806994],[139.42512,36.806984],[139.425138,36.806971],[139.425152,36.806858],[139.425163,36.806766],[139.425099,36.806756],[139.424829,36.806717],[139.424524,36.806673],[139.424228,36.80663],[139.424116,36.806614],[139.423575,36.806536],[139.423475,36.806967]]}},{"type":"Feature","properties":{"id":188688034,"highway":"unclassified"},"geometry":{"type":"LineString","coordinates":[[139.455083,36.798808],[139.455259,36.799035],[139.455442,36.79923],[139.456229,36.799996],[139.456872,36.80065],[139.456919,36.800723],[139.456951,36.800797],[139.456964,36.800873],[139.45697,36.800957],[139.456977,36.801334]]}},{"type":"Feature","properties":{"id":188766412,"highway":"residential"},"geometry":{"type":"LineString","coordinates":[[139.42305,36.805603],[139.422992,36.805582],[139.42258,36.805441],[139.422135,36.805225],[139.42173,36.805023],[139.42151,36.804913],[139.421461,36.804889]]}},{"type":"Feature","properties":{"id":188766425,"highway":"unclassified"},"geometry":{"type":"LineString","coordinates":[[139.42534,36.80608],[139.425373,36.806071]]}},{"type":"Feature","properties":{"id":188766430,"highway":"unclassified"},"geometry":{"type":"LineString","coordinates":[[139.425373,36.806071],[139.425682,36.806144]]}},{"type":"Feature","properties":{"id":188766436,"highway":"unclassified"},"geometry":{"type":"LineString","coordinates":[[139.42534,36.80608],[139.425284,36.806069],[139.423783,36.805749],[139.423394,36.805671],[139.42305,36.805603]]}},{"type":"Feature","properties":{"id":188766450,"highway":"unclassified"},"geometry":{"type":"LineString","coordinates":[[139.425682,36.806144],[139.425622,36.806285],[139.425599,36.806337],[139.425499,36.80679]]}},{"type":"Feature","properties":{"id":188766466,"highway":"unclassified"},"geometry":{"type":"LineString","coordinates":[[139.426138,36.805067],[139.426157,36.805136],[139.426147,36.805159],[139.426038,36.805391],[139.425925,36.805597],[139.42578,36.805923],[139.425682,36.806144]]}},{"type":"Feature","properties":{"id":188766487,"highway":"residential"},"geometry":{"type":"LineString","coordinates":[[139.420176,36.804364],[139.420389,36.804009],[139.420578,36.803762],[139.420742,36.803706]]}},{"type":"Feature","properties":{"id":188766503,"highway":"service"},"geometry":{"type":"LineString","coordinates":[[139.421097,36.803643],[139.421125,36.803628],[139.421146,36.803607],[139.421159,36.803582],[139.421161,36.803556],[139.421151,36.803526],[139.42113,36.803502],[139.421099,36.803484],[139.421063,36.803477],[139.421025,36.803479],[139.420991,36.803491],[139.420964,36.803512],[139.420948,36.803539],[139.420944,36.803569],[139.420953,36.803598],[139.420974,36.803623],[139.421,36.80364],[139.421032,36.803649],[139.421065,36.80365],[139.421097,36.803643]]}},{"type":"Feature","properties":{"id":191057953,"highway":"primary"},"geometry":{"type":"LineString","coordinates":[[139.492012,36.879898],[139.491928,36.879734],[139.491834,36.879639],[139.491666,36.87956],[139.490952,36.879493],[139.490643,36.879431],[139.490412,36.879323],[139.490335,36.879261],[139.490271,36.879188],[139.49023,36.879093],[139.490174,36.878732],[139.490154,36.878629],[139.490096,36.878553],[139.49004,36.878493],[139.489871,36.878406],[139.489217,36.878119],[139.488797,36.877994],[139.48778,36.877721],[139.487363,36.877613],[139.486972,36.877547],[139.48618,36.87739],[139.485968,36.877348],[139.485747,36.877301],[139.485613,36.877288],[139.484692,36.877259],[139.484566,36.877274],[139.484374,36.877327],[139.483787,36.877643],[139.483687,36.877705],[139.483615,36.877764],[139.483506,36.877839],[139.483177,36.878098],[139.482878,36.878381],[139.482794,36.878479],[139.482741,36.878558],[139.48272,36.878637],[139.482717,36.878708],[139.482757,36.878831],[139.482764,36.878912],[139.482761,36.878989],[139.482656,36.879188],[139.482563,36.879324],[139.482492,36.879381],[139.482405,36.879438],[139.482184,36.879533]]}},{"type":"Feature","properties":{"id":191057957,"highway":"primary"},"geometry":{"type":"LineString","coordinates":[[139.501077,36.877757],[139.501077,36.877905],[139.501004,36.877974],[139.500821,36.877996],[139.50063,36.877922],[139.500492,36.877937],[139.500264,36.87802],[139.500081,36.87811],[139.499801,36.878306],[139.499542,36.878425],[139.499367,36.878475],[139.499249,36.87858]]}},{"type":"Feature","properties":{"id":191057958,"highway":"primary"},"geometry":{"type":"LineString","coordinates":[[139.481881,36.879544],[139.481725,36.879558],[139.481623,36.879568],[139.481025,36.879634],[139.480715,36.879705],[139.480577,36.879752],[139.480439,36.879814],[139.480245,36.879934],[139.48006,36.880057],[139.479704,36.880378],[139.479526,36.880506],[139.479411,36.880563],[139.479357,36.880588],[139.479217,36.880643],[139.479109,36.880656],[139.479039,36.880645],[139.478979,36.880596],[139.478969,36.880542],[139.478989,36.880465],[139.47913,36.880291],[139.479167,36.880243],[139.479221,36.880174],[139.479244,36.88009],[139.479237,36.879926],[139.479204,36.879801],[139.479126,36.879675],[139.479052,36.879586],[139.478964,36.879506],[139.478844,36.879438],[139.478784,36.879395],[139.478722,36.87934],[139.478531,36.879057],[139.478403,36.878869],[139.47835,36.878818],[139.478306,36.878776],[139.478205,36.878732],[139.477952,36.878659],[139.477532,36.87858],[139.477448,36.878574],[139.476895,36.878484],[139.476496,36.878433],[139.476293,36.878411],[139.475781,36.878388],[139.475578,36.878371],[139.475409,36.878349],[139.475171,36.878332],[139.474611,36.878332],[139.474408,36.878371],[139.474274,36.878405],[139.474125,36.878493],[139.474091,36.878528],[139.474065,36.878591],[139.474036,36.878738],[139.474004,36.878847],[139.473937,36.878915],[139.47387,36.878921],[139.473742,36.878867],[139.473658,36.878839],[139.473504,36.87885],[139.473392,36.878878],[139.473272,36.878891],[139.473141,36.878869],[139.473067,36.878877],[139.473034,36.878901],[139.47302,36.878952],[139.473041,36.879222],[139.473027,36.879335],[139.472985,36.879397],[139.472939,36.879422],[139.472817,36.879385],[139.472691,36.879323],[139.472586,36.879228],[139.472431,36.879067],[139.472268,36.878932],[139.472119,36.878858],[139.471963,36.878805],[139.471833,36.878789],[139.471628,36.878763],[139.471379,36.878745],[139.471145,36.878738],[139.470884,36.878781]]}},{"type":"Feature","properties":{"id":191057977,"highway":"primary"},"geometry":{"type":"LineString","coordinates":[[139.46799,36.880172],[139.467932,36.880222],[139.467876,36.880269],[139.467784,36.880347],[139.467586,36.880478],[139.467339,36.880618],[139.467306,36.880631],[139.467206,36.880672],[139.467136,36.880701],[139.466604,36.880907],[139.466437,36.880969],[139.466241,36.881051],[139.466108,36.881118],[139.46596,36.881211],[139.465806,36.881335],[139.465719,36.881424],[139.465586,36.881557],[139.465521,36.881613],[139.46548,36.881638],[139.465292,36.88167],[139.465056,36.881714],[139.464726,36.881764],[139.464555,36.881771],[139.464135,36.881772],[139.463963,36.881763],[139.463572,36.881698],[139.463428,36.881659],[139.463307,36.881618],[139.463042,36.881505],[139.462845,36.881426],[139.462615,36.881342],[139.462498,36.881283],[139.462244,36.881128],[139.46209,36.881027],[139.462013,36.880995],[139.461885,36.880963],[139.461674,36.880949],[139.46138,36.880955],[139.46124,36.880949],[139.461118,36.880935],[139.460944,36.880892],[139.460745,36.880842],[139.460559,36.880795],[139.460273,36.880724],[139.460139,36.880697],[139.459997,36.880686],[139.459886,36.880702],[139.459761,36.880737],[139.459471,36.880927]]}},{"type":"Feature","properties":{"id":191058028,"highway":"primary"},"geometry":{"type":"LineString","coordinates":[[139.468459,36.879748],[139.46799,36.880172]]}},{"type":"Feature","properties":{"id":191058036,"highway":"primary"},"geometry":{"type":"LineString","coordinates":[[139.498496,36.87858],[139.499249,36.87858]]}},{"type":"Feature","properties":{"id":191058072,"highway":"primary"},"geometry":{"type":"LineString","coordinates":[[139.481881,36.879544],[139.482025,36.879539],[139.482184,36.879533]]}},{"type":"Feature","properties":{"id":191058308,"highway":"service"},"geometry":{"type":"LineString","coordinates":[[139.456712,36.836012],[139.456768,36.8361],[139.456854,36.836235]]}},{"type":"Feature","properties":{"id":191058314,"highway":"service"},"geometry":{"type":"LineString","coordinates":[[139.464789,36.881521],[139.464585,36.881389],[139.464279,36.881193],[139.464047,36.881052],[139.463799,36.88097],[139.463603,36.880932],[139.463512,36.880897],[139.463471,36.880872],[139.463455,36.880846],[139.463463,36.880801],[139.463476,36.880759],[139.463498,36.880732],[139.463565,36.880717],[139.46382,36.880703]]}},{"type":"Feature","properties":{"id":191058319,"highway":"service"},"geometry":{"type":"LineString","coordinates":[[139.449437,36.841965],[139.449483,36.841946],[139.449535,36.84191],[139.449547,36.841832],[139.449512,36.841715],[139.449461,36.841437],[139.449435,36.841271],[139.449452,36.841197],[139.449524,36.841147],[139.449614,36.841144],[139.449693,36.841188],[139.449719,36.84125],[139.449736,36.841338],[139.44975,36.841482],[139.449776,36.841689],[139.449804,36.84177],[139.449843,36.841849],[139.44991,36.8419],[139.450029,36.841934],[139.450207,36.841964],[139.450438,36.84199],[139.45052,36.841998],[139.450596,36.841986],[139.450634,36.841955],[139.450679,36.841894],[139.450694,36.841823],[139.45071,36.841655],[139.450781,36.841336],[139.450872,36.841078],[139.450982,36.840879],[139.451046,36.840796],[139.45111,36.840751],[139.451167,36.840741],[139.451235,36.840754],[139.451307,36.84079],[139.451378,36.840846],[139.451499,36.840971],[139.451631,36.841146],[139.451722,36.841296],[139.451799,36.841462],[139.451859,36.841664],[139.45195,36.842078],[139.451977,36.842167],[139.451987,36.842197],[139.452021,36.842246],[139.452112,36.842274],[139.452184,36.842268],[139.452267,36.842225],[139.452346,36.842139],[139.452395,36.842047],[139.452422,36.841934],[139.452417,36.841759],[139.452369,36.841508],[139.452362,36.841443],[139.452381,36.8414],[139.452426,36.841357],[139.452494,36.841333],[139.452584,36.841314],[139.452841,36.841311],[139.453132,36.84133],[139.453283,36.841367],[139.453354,36.841406],[139.453404,36.841459],[139.453461,36.841548],[139.453527,36.841681],[139.453551,36.841731],[139.453653,36.841955],[139.453696,36.842035],[139.453759,36.84213],[139.453874,36.842308],[139.453933,36.842352],[139.454008,36.842361],[139.454068,36.842347],[139.454109,36.842313],[139.454121,36.842238],[139.45411,36.842185],[139.454019,36.842085],[139.453952,36.842025],[139.453921,36.841959],[139.453919,36.841889],[139.453889,36.8416],[139.453854,36.841391],[139.453725,36.8411],[139.45368,36.841063],[139.453631,36.841042],[139.453297,36.840989],[139.453184,36.840959],[139.453094,36.840919],[139.452996,36.840849],[139.452917,36.840766],[139.452817,36.840613],[139.452727,36.840468],[139.45252,36.840168],[139.45237,36.839921],[139.452354,36.839871],[139.452255,36.83965],[139.45219,36.839549],[139.452137,36.839481],[139.452124,36.839425],[139.452151,36.839385],[139.452203,36.839355],[139.452294,36.839348],[139.452357,36.83939],[139.452374,36.839463],[139.452372,36.83956],[139.452422,36.839644],[139.452523,36.839717],[139.452621,36.839754],[139.452687,36.839786],[139.452704,36.839818],[139.452707,36.839854],[139.452738,36.839923],[139.452795,36.84],[139.452876,36.84006],[139.453058,36.840203],[139.453139,36.84031],[139.453204,36.840412],[139.453256,36.840489],[139.453332,36.840557],[139.453398,36.840582],[139.45352,36.840588],[139.453699,36.840577],[139.453804,36.840564],[139.453897,36.840593],[139.453997,36.840649],[139.454092,36.840683],[139.454187,36.840691],[139.454291,36.840699],[139.454382,36.840758],[139.454436,36.84084],[139.454456,36.840934],[139.454451,36.841351],[139.454477,36.841446],[139.45453,36.841544],[139.454602,36.841643],[139.454745,36.841793],[139.454832,36.841895],[139.454903,36.841958],[139.455022,36.842011],[139.4552,36.842064],[139.45532,36.842078],[139.455457,36.842079],[139.455636,36.842077],[139.455705,36.842088],[139.45576,36.842123],[139.455838,36.842197],[139.455904,36.842269],[139.455929,36.842296],[139.455965,36.842314],[139.456027,36.842307],[139.456085,36.84225],[139.456115,36.842186],[139.456113,36.842148],[139.456097,36.842112],[139.456071,36.842086],[139.456014,36.842076],[139.455951,36.842053],[139.455897,36.842019],[139.455835,36.841946],[139.455795,36.841909],[139.455742,36.841894],[139.455654,36.841914],[139.45558,36.841921],[139.455415,36.84192],[139.455194,36.841876],[139.455108,36.841852],[139.455043,36.841796],[139.455017,36.841722],[139.455003,36.841659],[139.454972,36.84159],[139.454934,36.841517],[139.454877,36.841373],[139.454887,36.841208],[139.454923,36.841106],[139.454945,36.841012],[139.454973,36.840896],[139.454996,36.840756],[139.45502,36.840656],[139.454991,36.84054],[139.454892,36.840485],[139.454772,36.840448],[139.454674,36.840398],[139.454417,36.840285],[139.454342,36.84024],[139.454175,36.840098],[139.454122,36.84003],[139.454107,36.839963],[139.454126,36.839911],[139.454179,36.839883],[139.454266,36.839877],[139.454355,36.839913],[139.454385,36.840007],[139.454413,36.840088],[139.454526,36.840169],[139.454657,36.840229],[139.454855,36.840257],[139.455046,36.840283],[139.455119,36.840303],[139.455191,36.840358],[139.455251,36.840438],[139.455259,36.840459],[139.455275,36.840552],[139.455286,36.840701],[139.455285,36.840956],[139.455287,36.84107],[139.455307,36.841193],[139.45536,36.841309],[139.455409,36.841398],[139.455458,36.841456],[139.45552,36.841494],[139.455594,36.841505],[139.455676,36.841496],[139.455847,36.84145],[139.456004,36.841417],[139.456106,36.841419],[139.456193,36.841436],[139.456268,36.841449],[139.456358,36.841511],[139.456495,36.841651],[139.456694,36.84185],[139.456823,36.841998]]}},{"type":"Feature","properties":{"id":191058328,"highway":"unclassified"},"geometry":{"type":"LineString","coordinates":[[139.441403,36.879547],[139.441585,36.879422],[139.441662,36.879317]]}},{"type":"Feature","properties":{"id":191058347,"highway":"service"},"geometry":{"type":"LineString","coordinates":[[139.448185,36.842387],[139.448203,36.842347],[139.448238,36.842316],[139.448311,36.842293],[139.448398,36.842283],[139.448491,36.842269],[139.448546,36.842245],[139.44858,36.842212],[139.448638,36.842133],[139.448677,36.842039],[139.448693,36.841989]]}},{"type":"Feature","properties":{"id":191058348,"highway":"unclassified"},"geometry":{"type":"LineString","coordinates":[[139.432136,36.879813],[139.432074,36.879354],[139.432048,36.879054],[139.432059,36.879005],[139.432106,36.878971],[139.432175,36.878959],[139.43226,36.87896],[139.432344,36.878968],[139.43242,36.878989],[139.432495,36.879016],[139.432714,36.879138],[139.432842,36.879189],[139.433059,36.879231],[139.433722,36.879347],[139.43412,36.879429],[139.434332,36.879491],[139.434593,36.879576],[139.434802,36.879677],[139.434908,36.879726],[139.434948,36.879745],[139.435119,36.87979],[139.435734,36.879838],[139.436392,36.879866],[139.436517,36.879861],[139.436643,36.879829],[139.436816,36.879739],[139.436893,36.879714],[139.436998,36.879728],[139.437112,36.87977],[139.437154,36.87981],[139.437248,36.879901],[139.437344,36.879978]]}},{"type":"Feature","properties":{"id":191058364,"highway":"unclassified"},"geometry":{"type":"LineString","coordinates":[[139.437578,36.880154],[139.437798,36.880312],[139.438052,36.880452],[139.438184,36.88048],[139.438292,36.880486],[139.438838,36.880472],[139.439054,36.880453],[139.439176,36.880436],[139.439235,36.880405],[139.43928,36.880354],[139.439395,36.880151],[139.439565,36.879974],[139.439628,36.879917],[139.439708,36.87988],[139.439795,36.879869],[139.440047,36.879885],[139.440238,36.879899],[139.440403,36.879891]]}},{"type":"Feature","properties":{"id":191058376,"highway":"residential"},"geometry":{"type":"LineString","coordinates":[[139.44211,36.879051],[139.442275,36.878808],[139.442306,36.878748],[139.44231,36.878675],[139.442316,36.878486],[139.442362,36.878409],[139.442442,36.878353],[139.442522,36.878342],[139.442602,36.878345],[139.44272,36.878381],[139.442863,36.878483],[139.44295,36.878539],[139.44327,36.878794],[139.443434,36.878889],[139.443525,36.878935],[139.443706,36.879016]]}},{"type":"Feature","properties":{"id":191058385,"highway":"service"},"geometry":{"type":"LineString","coordinates":[[139.456673,36.88112],[139.456585,36.88107],[139.456546,36.881047],[139.456498,36.880991],[139.456511,36.880901],[139.456574,36.880833],[139.456673,36.880771],[139.456897,36.880686],[139.457149,36.880613],[139.457184,36.880596],[139.457222,36.88057],[139.457244,36.880515],[139.457212,36.880461],[139.457156,36.880439],[139.456736,36.880439],[139.456603,36.880399],[139.456511,36.880354],[139.456463,36.880303],[139.456448,36.880236],[139.456491,36.880196],[139.456498,36.880185],[139.456581,36.880151],[139.456813,36.880095],[139.45703,36.88001],[139.457177,36.879926],[139.457275,36.879853],[139.457479,36.879644],[139.457587,36.879559],[139.457622,36.879531],[139.457696,36.879509],[139.457787,36.879515],[139.457822,36.879537],[139.458039,36.879813],[139.458165,36.879937],[139.458221,36.879971],[139.458305,36.879999],[139.458466,36.879994],[139.458656,36.87992],[139.458782,36.879824],[139.458894,36.879701],[139.45895,36.879644],[139.459237,36.879267],[139.459321,36.879216],[139.45956,36.879143],[139.459609,36.879137],[139.459805,36.879149],[139.460105,36.879194],[139.460267,36.879194],[139.460378,36.87916],[139.460687,36.879008],[139.460876,36.878918],[139.460932,36.878861],[139.46096,36.878805],[139.460953,36.878726],[139.460893,36.878651],[139.460647,36.878452],[139.460576,36.878409],[139.460481,36.878384],[139.460315,36.878372],[139.460165,36.878388],[139.460044,36.878403],[139.459927,36.878421],[139.45981,36.878418],[139.459719,36.878388],[139.459454,36.878256],[139.459345,36.878231],[139.459273,36.878231],[139.459231,36.878268],[139.459228,36.878326],[139.459258,36.878397],[139.459341,36.87847],[139.459523,36.878556],[139.459859,36.878676],[139.46013,36.878768],[139.460156,36.87881],[139.460141,36.87885],[139.460084,36.878884],[139.460018,36.878886],[139.459999,36.878887],[139.459844,36.878875],[139.459606,36.878807],[139.459205,36.878667],[139.459065,36.878596],[139.458941,36.87851],[139.458897,36.878466],[139.458842,36.878409],[139.458771,36.878286],[139.45874,36.878185],[139.458741,36.878075],[139.458771,36.877959],[139.458835,36.877848],[139.458941,36.877741],[139.459141,36.877575],[139.459156,36.877529],[139.459145,36.877471],[139.459099,36.877447],[139.459051,36.877444],[139.458843,36.877551],[139.458688,36.877606],[139.458605,36.87767],[139.458563,36.87775],[139.458544,36.877854],[139.458525,36.877992],[139.458503,36.878017],[139.458461,36.878029],[139.458427,36.87802],[139.45824,36.877857],[139.457921,36.877463],[139.457844,36.877392],[139.457615,36.877232],[139.457543,36.877174],[139.457509,36.877113],[139.457505,36.87706],[139.457513,36.876913],[139.45749,36.87684],[139.457452,36.876791],[139.457384,36.87672],[139.457267,36.876546],[139.457173,36.876374],[139.457143,36.876282],[139.457146,36.87619],[139.457181,36.876132],[139.457237,36.876061],[139.457381,36.87593],[139.457422,36.875859],[139.457438,36.875795],[139.45743,36.875718],[139.457403,36.87562],[139.457388,36.875585],[139.457362,36.875528],[139.457237,36.875301],[139.456889,36.874884],[139.456859,36.874855],[139.456795,36.874795],[139.456727,36.874785],[139.456692,36.874805],[139.456674,36.87484],[139.456674,36.874878],[139.456695,36.874918],[139.456829,36.875148],[139.457071,36.875454],[139.457146,36.875568],[139.45718,36.875665],[139.457174,36.875737],[139.457143,36.875798],[139.457094,36.87585],[139.456943,36.875982],[139.456908,36.876043],[139.456901,36.876113],[139.456889,36.876349],[139.456859,36.876435],[139.45681,36.876484],[139.456754,36.876484],[139.456712,36.876463],[139.456682,36.876404],[139.456636,36.875979],[139.456659,36.875917],[139.456712,36.875865],[139.456806,36.875776],[139.456856,36.8757],[139.456867,36.875635],[139.456844,36.875549],[139.45675,36.875393],[139.456667,36.875304],[139.456549,36.875209],[139.456497,36.875185],[139.456455,36.875194],[139.456429,36.875218],[139.45641,36.875268],[139.45642,36.875329],[139.456465,36.875381],[139.45662,36.875516],[139.456667,36.87558],[139.456674,36.875626],[139.456655,36.875663],[139.45661,36.875697],[139.456455,36.875792],[139.456398,36.875862],[139.456368,36.875939],[139.456345,36.876034],[139.456304,36.876395],[139.45627,36.87649],[139.456217,36.876524],[139.456141,36.876536],[139.456081,36.876512],[139.456039,36.876463],[139.456028,36.876386],[139.45605,36.876022],[139.456095,36.875838],[139.45614,36.875778],[139.456274,36.875669],[139.45629,36.875634],[139.456278,36.875596],[139.45613,36.875494],[139.456089,36.875442],[139.456012,36.875234],[139.455982,36.875182],[139.455902,36.875108],[139.455665,36.874939],[139.455445,36.874734],[139.455355,36.87467],[139.455227,36.874608],[139.454812,36.874488],[139.454735,36.87444],[139.45471,36.874393]]}},{"type":"Feature","properties":{"id":191058428,"highway":"unclassified"},"geometry":{"type":"LineString","coordinates":[[139.458892,36.881172],[139.458784,36.881102]]}},{"type":"Feature","properties":{"id":191058435,"highway":"residential"},"geometry":{"type":"LineString","coordinates":[[139.464789,36.881521],[139.464885,36.88157],[139.464985,36.881645],[139.465056,36.881714]]}},{"type":"Feature","properties":{"id":191058440,"highway":"service"},"geometry":{"type":"LineString","coordinates":[[139.456554,36.835446],[139.45655,36.835668]]}},{"type":"Feature","properties":{"id":191058453,"highway":"service"},"geometry":{"type":"LineString","coordinates":[[139.46382,36.880703],[139.46412,36.880717]]}},{"type":"Feature","properties":{"id":191058461,"highway":"unclassified"},"geometry":{"type":"LineString","coordinates":[[139.440861,36.879761],[139.441403,36.879547]]}},{"type":"Feature","properties":{"id":191058477,"highway":"residential"},"geometry":{"type":"LineString","coordinates":[[139.49774,36.869834],[139.497901,36.86997],[139.498022,36.870044],[139.498123,36.87014],[139.498173,36.8702],[139.498201,36.870279],[139.498201,36.870493],[139.498173,36.870566],[139.498103,36.870577],[139.498045,36.870533],[139.497992,36.870421],[139.497922,36.870336],[139.497824,36.870282],[139.497613,36.870206],[139.497466,36.87016],[139.497087,36.870087],[139.496776,36.870044],[139.496661,36.87004],[139.496569,36.870025],[139.496239,36.87]]}},{"type":"Feature","properties":{"id":191058524,"highway":"service"},"geometry":{"type":"LineString","coordinates":[[139.448093,36.842602],[139.448085,36.842635],[139.448071,36.842678],[139.448191,36.842755],[139.448319,36.842862],[139.448428,36.842934],[139.448795,36.843175],[139.449181,36.843389],[139.449791,36.84369],[139.450241,36.843904],[139.450344,36.843975],[139.450411,36.844048],[139.450454,36.84414],[139.45048,36.844395],[139.450499,36.844456],[139.450605,36.844581],[139.450635,36.84466],[139.450631,36.844746],[139.450552,36.844893],[139.450547,36.844955],[139.450601,36.845031],[139.450839,36.845237],[139.450865,36.845285],[139.450947,36.84546],[139.450986,36.845534],[139.45102,36.845567],[139.451194,36.845613],[139.451242,36.84565],[139.451292,36.845715],[139.45136,36.845902],[139.45136,36.84599],[139.451342,36.846078],[139.451239,36.846285],[139.451251,36.846338],[139.45151,36.846393],[139.451727,36.846484],[139.451888,36.846575],[139.45205,36.84671],[139.452092,36.846765],[139.452162,36.846896],[139.452225,36.847059],[139.452267,36.847234],[139.452274,36.847471],[139.452253,36.847617],[139.452218,36.847746],[139.452218,36.847865],[139.452288,36.848034],[139.4524,36.848186],[139.4524,36.848309],[139.452372,36.848366],[139.452309,36.848428],[139.452141,36.848546],[139.452007,36.848664],[139.451874,36.848749],[139.451244,36.849042],[139.450984,36.849183],[139.450886,36.84925],[139.450767,36.849369],[139.450683,36.849504],[139.450641,36.849667],[139.450648,36.849831],[139.450683,36.849938],[139.450781,36.85009],[139.450872,36.85018],[139.451054,36.850298],[139.45116,36.85036],[139.451356,36.850501],[139.451496,36.850613],[139.451573,36.850653],[139.451748,36.850715],[139.452148,36.850884],[139.452366,36.850993],[139.452531,36.851082],[139.452591,36.851144],[139.452697,36.851447],[139.452701,36.851551],[139.452659,36.851812],[139.452652,36.852152],[139.452678,36.852293],[139.452724,36.852388],[139.452905,36.852581],[139.452988,36.852694],[139.453003,36.852796],[139.45298,36.85305],[139.452988,36.853145],[139.453026,36.853255],[139.453098,36.853396],[139.453237,36.85358],[139.453464,36.853798],[139.4536,36.853892],[139.453736,36.853956],[139.453981,36.854023],[139.454528,36.854109],[139.454702,36.854146],[139.45482,36.854198],[139.454882,36.854253],[139.454929,36.854293],[139.455138,36.854595],[139.455292,36.85486],[139.455377,36.85499],[139.45549,36.855113],[139.455665,36.855215],[139.455854,36.855272],[139.456226,36.855333],[139.456296,36.855355],[139.456366,36.855407],[139.456408,36.855525],[139.45645,36.855688],[139.456513,36.85579],[139.456681,36.855947],[139.456723,36.85602],[139.456751,36.856122],[139.456765,36.856257],[139.456744,36.856335],[139.456716,36.856392],[139.456632,36.856477],[139.456303,36.856713],[139.456286,36.856737],[139.456274,36.856808],[139.456303,36.85687],[139.456394,36.856928],[139.456534,36.85696],[139.456835,36.856978],[139.456919,36.857],[139.457094,36.857097],[139.457276,36.857254],[139.457336,36.857353],[139.457361,36.857423],[139.45736,36.857531],[139.457335,36.857589],[139.457332,36.857724],[139.457378,36.857819],[139.457457,36.857945],[139.457593,36.858095],[139.457669,36.858175],[139.457805,36.858371],[139.457963,36.85868],[139.458058,36.858797],[139.458284,36.859029],[139.458436,36.859232],[139.458764,36.859879],[139.458825,36.859989],[139.458881,36.860066],[139.459308,36.860507],[139.459698,36.860954],[139.459749,36.861042],[139.459764,36.861068],[139.459769,36.861147],[139.459764,36.861208],[139.459743,36.86131],[139.459645,36.861575],[139.459596,36.861738],[139.459603,36.861908],[139.459678,36.861999],[139.459814,36.862073],[139.459988,36.862121],[139.460261,36.862217],[139.460493,36.862324],[139.46106,36.8626],[139.461262,36.862668],[139.461571,36.862724],[139.461697,36.862752],[139.46188,36.862819],[139.46195,36.862859],[139.462124,36.863005],[139.462202,36.863106],[139.462279,36.863292],[139.462314,36.86346],[139.462432,36.863753],[139.462522,36.863893],[139.46262,36.864043],[139.462723,36.86427],[139.46281,36.86457],[139.462912,36.864764],[139.463041,36.864907],[139.463146,36.864982],[139.463448,36.865117],[139.463539,36.865172],[139.463618,36.865264],[139.463879,36.865634],[139.463902,36.865722],[139.463883,36.865782],[139.463823,36.865857],[139.463769,36.865897],[139.463428,36.865979],[139.463253,36.866041],[139.463071,36.866137],[139.462952,36.866232],[139.462742,36.866582],[139.462454,36.867258],[139.462363,36.867404],[139.462265,36.867489],[139.462027,36.867647],[139.461877,36.867746],[139.461756,36.867863],[139.461582,36.868111],[139.461465,36.868313],[139.46142,36.868442],[139.461405,36.868571],[139.461443,36.868718],[139.461529,36.868877],[139.461624,36.869015],[139.461631,36.869049],[139.461616,36.869073],[139.461492,36.86912],[139.461242,36.869207],[139.46113,36.869258],[139.461004,36.869359],[139.460927,36.869455],[139.460822,36.869674],[139.46066,36.870058],[139.460569,36.87035],[139.46052,36.870446],[139.460345,36.870699],[139.460309,36.870814],[139.460309,36.871035],[139.460279,36.87128],[139.46029,36.871476],[139.460392,36.87181],[139.460392,36.871874],[139.460361,36.871911],[139.460282,36.871921],[139.460212,36.871894],[139.460121,36.871815],[139.460071,36.871755],[139.460023,36.871691],[139.46001,36.871611],[139.460009,36.871528],[139.460044,36.871298],[139.460037,36.871218],[139.459946,36.871071],[139.459939,36.870987],[139.459953,36.870846],[139.460093,36.87048],[139.460093,36.870328],[139.460064,36.87026],[139.460033,36.870238],[139.459945,36.870229],[139.45984,36.870255],[139.459679,36.87026],[139.459482,36.870215],[139.45935,36.87017],[139.45907,36.870164],[139.458909,36.870131],[139.458854,36.870131],[139.458789,36.870142],[139.45874,36.870155],[139.458705,36.870193],[139.458705,36.870238],[139.458734,36.870283],[139.458942,36.870536],[139.45902,36.870716],[139.45902,36.870781],[139.45902,36.870942],[139.458999,36.871015],[139.458929,36.87115],[139.458845,36.871218],[139.458662,36.87128],[139.458634,36.871297],[139.458607,36.87133],[139.458544,36.871477],[139.458495,36.871663],[139.458439,36.871758],[139.458284,36.871938],[139.458222,36.872028],[139.458152,36.872231],[139.458067,36.872428],[139.458017,36.872495],[139.457912,36.872557],[139.457737,36.872563],[139.457527,36.872518],[139.457227,36.872417],[139.457122,36.872349],[139.457072,36.872298],[139.457009,36.872197],[139.456862,36.871657],[139.456791,36.871505],[139.456659,36.871319],[139.456574,36.871257],[139.456504,36.871234],[139.456364,36.871229],[139.456224,36.871297],[139.455964,36.871432],[139.455852,36.87146],[139.455677,36.87146],[139.455454,36.871409],[139.455111,36.871319],[139.454861,36.87124],[139.454461,36.871068],[139.454374,36.871047],[139.454306,36.871047],[139.45426,36.871081],[139.454241,36.871157],[139.454264,36.871387],[139.454283,36.871482],[139.454381,36.871712],[139.454415,36.871835],[139.454446,36.872137],[139.454476,36.872275],[139.454513,36.87241],[139.454578,36.872563],[139.454622,36.872643],[139.454735,36.872781],[139.454762,36.87283],[139.454788,36.872907],[139.454845,36.873167],[139.45489,36.873268],[139.455007,36.873452],[139.455019,36.873507],[139.455015,36.873545],[139.454974,36.87363],[139.454966,36.873685],[139.454981,36.873737],[139.455019,36.873826],[139.455022,36.87389],[139.454997,36.873937],[139.454944,36.874037],[139.45487,36.87411],[139.454744,36.874212],[139.45472,36.874268],[139.454704,36.874297],[139.454694,36.874338],[139.45471,36.874393]]}},{"type":"Feature","properties":{"id":191058557,"highway":"unclassified"},"geometry":{"type":"LineString","coordinates":[[139.458434,36.880927],[139.458784,36.881102]]}},{"type":"Feature","properties":{"id":191058570,"highway":"unclassified"},"geometry":{"type":"LineString","coordinates":[[139.455246,36.882426],[139.455684,36.882453]]}},{"type":"Feature","properties":{"id":191058576,"highway":"service"},"geometry":{"type":"LineString","coordinates":[[139.462547,36.880891],[139.46265,36.880914],[139.462816,36.880972],[139.463015,36.881046],[139.463275,36.881139],[139.463589,36.881227],[139.463989,36.881327],[139.464603,36.881484],[139.464789,36.881521]]}},{"type":"Feature","properties":{"id":191058579,"highway":"unclassified"},"geometry":{"type":"LineString","coordinates":[[139.45882,36.882027],[139.458875,36.881799]]}},{"type":"Feature","properties":{"id":191058581,"highway":"unclassified"},"geometry":{"type":"LineString","coordinates":[[139.437344,36.879978],[139.437578,36.880154]]}},{"type":"Feature","properties":{"id":191058588,"highway":"unclassified"},"geometry":{"type":"LineString","coordinates":[[139.456457,36.882453],[139.456708,36.882426],[139.456866,36.882386],[139.457036,36.882295],[139.457179,36.882231],[139.457305,36.882175],[139.457577,36.882064],[139.457751,36.882015],[139.457849,36.881991],[139.457947,36.881978],[139.458198,36.881982],[139.458338,36.882031],[139.458593,36.882128],[139.458693,36.882135],[139.458761,36.88211],[139.45882,36.882027]]}},{"type":"Feature","properties":{"id":191058609,"highway":"service"},"geometry":{"type":"LineString","coordinates":[[139.448093,36.842602],[139.448185,36.842387]]}},{"type":"Feature","properties":{"id":191058612,"highway":"residential"},"geometry":{"type":"LineString","coordinates":[[139.460273,36.880724],[139.460212,36.880759],[139.46008,36.880768],[139.459929,36.880791],[139.4598,36.880832],[139.459729,36.880876],[139.459661,36.880984],[139.459587,36.881053],[139.459425,36.881148],[139.459306,36.881204],[139.459253,36.881259],[139.45925,36.881356],[139.459299,36.881406],[139.45937,36.881427],[139.459503,36.881423],[139.459762,36.881385],[139.459909,36.881351],[139.460189,36.881306],[139.46049,36.881244],[139.46056,36.881222],[139.460701,36.881199],[139.460933,36.881188],[139.461395,36.881193],[139.461627,36.881222],[139.461816,36.881272],[139.461893,36.881312],[139.461963,36.881379],[139.461963,36.881435],[139.461921,36.881458],[139.461774,36.881492],[139.461466,36.881531],[139.46122,36.881615],[139.46073,36.88175],[139.460653,36.881767]]}},{"type":"Feature","properties":{"id":191058659,"highway":"unclassified"},"geometry":{"type":"LineString","coordinates":[[139.461052,36.83192],[139.461056,36.831869],[139.461038,36.831812],[139.461021,36.831758],[139.460996,36.831714],[139.460957,36.831676],[139.460897,36.831643],[139.460572,36.831544],[139.460396,36.831478],[139.460229,36.831416],[139.460054,36.831385],[139.459899,36.831367],[139.459754,36.831331],[139.459662,36.831271],[139.459627,36.831199],[139.459615,36.831138],[139.459591,36.831064],[139.459545,36.830994],[139.459486,36.830942],[139.459441,36.830914],[139.459391,36.830899],[139.459257,36.830888],[139.459137,36.830859],[139.459071,36.830822],[139.458957,36.830735],[139.45857,36.830361],[139.458481,36.83024],[139.458445,36.830162],[139.458381,36.830023],[139.458337,36.829951],[139.458279,36.82988],[139.458221,36.82983],[139.458174,36.829793],[139.458132,36.829759],[139.458097,36.829707],[139.458092,36.829637],[139.458084,36.829513],[139.458058,36.829431],[139.458014,36.829357],[139.457924,36.829296],[139.457886,36.829262],[139.457846,36.829212],[139.457835,36.829145],[139.457848,36.829092],[139.457898,36.82904],[139.457946,36.829002],[139.457999,36.828972],[139.458061,36.828949],[139.458239,36.828913],[139.458319,36.828891],[139.458407,36.828869],[139.458462,36.828847],[139.458529,36.828808],[139.4586,36.828772],[139.458664,36.828738],[139.458712,36.828713],[139.458773,36.828688],[139.458838,36.82867],[139.458916,36.828657],[139.459014,36.828641],[139.459073,36.828615],[139.459109,36.828591],[139.459153,36.828552],[139.459297,36.828313],[139.459333,36.828277],[139.459375,36.828252],[139.459441,36.82823],[139.459519,36.828228],[139.459654,36.828246],[139.459846,36.828274],[139.460027,36.828288],[139.460082,36.828287],[139.460123,36.828278],[139.460204,36.828237],[139.460266,36.828203],[139.460336,36.828163],[139.460387,36.828132],[139.460434,36.828102],[139.460475,36.828072],[139.460512,36.827999],[139.4605,36.827944],[139.460484,36.827899],[139.460456,36.827825],[139.46042,36.827725],[139.46035,36.82758],[139.460198,36.827332],[139.460146,36.82726],[139.46003,36.827087],[139.459974,36.827025],[139.459937,36.826985],[139.459873,36.826938],[139.459638,36.826791],[139.459499,36.826723],[139.459377,36.826675],[139.459251,36.826654],[139.459062,36.82663],[139.458842,36.826598],[139.458719,36.826578],[139.458643,36.826566],[139.458571,36.826534],[139.45852,36.826504],[139.458489,36.82648],[139.45846,36.826449],[139.458437,36.826417],[139.45843,36.826385],[139.458431,36.826344],[139.458449,36.826309],[139.458472,36.826275],[139.458511,36.826241],[139.458643,36.826132],[139.458704,36.826095],[139.458765,36.826065],[139.458822,36.826033],[139.458873,36.826001],[139.458919,36.82597],[139.458949,36.825924],[139.458957,36.825867],[139.458947,36.82581],[139.458922,36.825753],[139.458902,36.825706],[139.45889,36.825657],[139.458912,36.825612],[139.458938,36.825584],[139.458972,36.82556],[139.459018,36.825542],[139.459103,36.825527],[139.459191,36.825503],[139.459256,36.825486],[139.459307,36.825466],[139.459353,36.825442],[139.459386,36.825418],[139.459412,36.825387],[139.459415,36.825342],[139.459416,36.825259],[139.4594,36.825148],[139.459391,36.825067],[139.459396,36.82497],[139.459421,36.824886],[139.459462,36.824812],[139.459516,36.824722],[139.459561,36.824633],[139.45956,36.824576],[139.459543,36.824473],[139.459541,36.824419],[139.459559,36.824375],[139.459614,36.824342],[139.45975,36.824269],[139.459876,36.824224],[139.460003,36.82421],[139.46008,36.824192],[139.460109,36.824171],[139.46012,36.82414]]}},{"type":"Feature","properties":{"id":191058664,"highway":"service"},"geometry":{"type":"LineString","coordinates":[[139.456656,36.835955],[139.456712,36.836012]]}},{"type":"Feature","properties":{"id":191058668,"highway":"service"},"geometry":{"type":"LineString","coordinates":[[139.456854,36.836235],[139.456906,36.836347],[139.456904,36.836424],[139.456843,36.83657],[139.456808,36.836605],[139.456724,36.836655],[139.456387,36.836745],[139.456198,36.836812],[139.456086,36.83688],[139.456065,36.836909],[139.456016,36.836987],[139.455995,36.837094],[139.456016,36.837195],[139.45617,36.83737],[139.456228,36.83744],[139.456205,36.837547],[139.456228,36.837632],[139.45629,36.837691],[139.456471,36.837799],[139.45652,36.837855],[139.456563,36.8379],[139.456582,36.837955],[139.456563,36.838056],[139.456537,36.838155],[139.456528,36.838322],[139.456576,36.838424],[139.456633,36.838475],[139.45671,36.838514],[139.456913,36.838587],[139.457063,36.838665],[139.457161,36.83874],[139.457254,36.838846],[139.457244,36.838949],[139.457163,36.839027],[139.457015,36.839089],[139.456853,36.839128],[139.456795,36.839197],[139.456786,36.83923],[139.456794,36.839303],[139.45685,36.839495],[139.456919,36.839906],[139.456948,36.839968],[139.457025,36.840064],[139.457224,36.840205],[139.457293,36.840243],[139.457326,36.84028],[139.457323,36.840341],[139.457319,36.840564],[139.457341,36.840762],[139.457359,36.840827],[139.457317,36.840889],[139.457235,36.840942],[139.457137,36.841032],[139.457095,36.841151],[139.457069,36.841315],[139.457066,36.841509],[139.457074,36.841587],[139.457119,36.841707],[139.457213,36.841866],[139.457281,36.841945]]}},{"type":"Feature","properties":{"id":191058718,"highway":"residential"},"geometry":{"type":"LineString","coordinates":[[139.49774,36.869834],[139.497855,36.869874],[139.498128,36.869936],[139.498224,36.869975],[139.498282,36.870028],[139.498328,36.870105],[139.498383,36.870198],[139.498479,36.870269],[139.498584,36.870302],[139.498809,36.870316],[139.498836,36.870409],[139.498682,36.870905],[139.498682,36.871108],[139.498696,36.871153],[139.498767,36.871218],[139.49885,36.871271],[139.499116,36.87135],[139.499346,36.871444],[139.499538,36.871577],[139.499641,36.871706],[139.499806,36.871953],[139.499918,36.872054],[139.500053,36.872147],[139.50026,36.872267],[139.500408,36.872346],[139.500502,36.872415],[139.500518,36.872432],[139.500532,36.87246],[139.500567,36.872691],[139.500644,36.87295],[139.500756,36.873065],[139.500961,36.87321],[139.501315,36.873458],[139.501487,36.873627],[139.501608,36.87383],[139.50168,36.873986],[139.501942,36.874349],[139.501972,36.874442],[139.501962,36.87452],[139.501925,36.874589],[139.501867,36.874632],[139.50178,36.874694],[139.501773,36.874759],[139.501819,36.874834],[139.501967,36.874951],[139.502072,36.875035],[139.502205,36.875109],[139.502473,36.875207]]}},{"type":"Feature","properties":{"id":191058788,"highway":"service"},"geometry":{"type":"LineString","coordinates":[[139.45655,36.835668],[139.45655,36.835764],[139.456556,36.835783]]}},{"type":"Feature","properties":{"id":191058827,"highway":"service"},"geometry":{"type":"LineString","coordinates":[[139.414996,36.894843],[139.414771,36.894973],[139.414702,36.895008],[139.414702,36.895076],[139.414782,36.895088],[139.414865,36.895073],[139.41495,36.895015],[139.415245,36.894704],[139.415577,36.894439],[139.415712,36.894379],[139.415822,36.894369],[139.415998,36.894384],[139.416447,36.89449],[139.416635,36.89451],[139.416743,36.894495],[139.416874,36.894444],[139.417158,36.894304],[139.417259,36.894271],[139.417287,36.894263],[139.417649,36.894197],[139.417783,36.894153],[139.4179,36.894088],[139.418163,36.893894],[139.418357,36.893792],[139.418476,36.893707],[139.418698,36.89355],[139.418877,36.893443],[139.418969,36.893421],[139.419038,36.893438],[139.419113,36.893496],[139.419128,36.893538],[139.41911,36.89361],[139.419026,36.893703],[139.41891,36.893778],[139.4185,36.893926],[139.418321,36.894023],[139.418196,36.894122],[139.418139,36.894192],[139.418115,36.894253],[139.418127,36.894425],[139.418118,36.894488],[139.418043,36.894585],[139.417966,36.894624],[139.417864,36.894653],[139.417529,36.894691],[139.417443,36.894723],[139.417386,36.894762],[139.417335,36.89483],[139.417171,36.895096],[139.417102,36.895162],[139.417,36.89521],[139.416865,36.895226],[139.416764,36.895224],[139.41633,36.895161],[139.416175,36.895168],[139.416022,36.895205],[139.415867,36.895268],[139.415795,36.895321],[139.415747,36.895384],[139.415712,36.895545],[139.415672,36.895609],[139.415607,36.895655],[139.415298,36.895792],[139.415212,36.895865],[139.415137,36.895963],[139.415095,36.89609],[139.415038,36.896463],[139.414985,36.896582],[139.414898,36.896688],[139.414762,36.89679],[139.414605,36.896865],[139.414322,36.89697],[139.4142,36.897055],[139.414115,36.897154],[139.414077,36.89726],[139.414073,36.897383],[139.414095,36.897489],[139.414235,36.897734],[139.414262,36.897825],[139.414257,36.897943],[139.414217,36.898001],[139.414145,36.898037],[139.414017,36.898078],[139.413903,36.898115],[139.413825,36.898156],[139.413748,36.898222],[139.413647,36.898331],[139.413547,36.898401],[139.413332,36.898513],[139.413258,36.898573],[139.413186,36.89866],[139.412988,36.898898],[139.412851,36.898999],[139.412728,36.899058],[139.4126,36.899058],[139.412511,36.899034],[139.412454,36.89898],[139.41241,36.898859],[139.412413,36.898701],[139.412443,36.898449],[139.412434,36.898297],[139.412404,36.898151],[139.412332,36.898033],[139.412254,36.897953],[139.412141,36.897889],[139.41203,36.897858],[139.411779,36.897817],[139.411684,36.897771],[139.411597,36.897686],[139.411528,36.897569],[139.41143,36.897395],[139.41137,36.897358],[139.411292,36.897344],[139.411214,36.897363],[139.411125,36.897436],[139.410984,36.897584],[139.41091,36.897741],[139.410874,36.89788],[139.410868,36.898166],[139.410889,36.898401],[139.410984,36.89891],[139.411005,36.899089],[139.410996,36.899266],[139.410946,36.899431],[139.410877,36.899567],[139.410766,36.899693],[139.41059,36.899812]]}},{"type":"Feature","properties":{"id":191058854,"highway":"residential"},"geometry":{"type":"LineString","coordinates":[[139.49651,36.869413],[139.496592,36.869422],[139.496682,36.86942],[139.496748,36.869407],[139.496915,36.869341],[139.497012,36.869323],[139.497226,36.869315],[139.497432,36.869326],[139.497484,36.869345],[139.497516,36.869397],[139.497533,36.869469],[139.497536,36.869586],[139.497546,36.869633],[139.497602,36.869712],[139.49774,36.869834]]}},{"type":"Feature","properties":{"id":191058863,"highway":"service"},"geometry":{"type":"LineString","coordinates":[[139.456556,36.835783],[139.456656,36.835955]]}},{"type":"Feature","properties":{"id":428843376,"highway":"unclassified"},"geometry":{"type":"LineString","coordinates":[[139.440403,36.879891],[139.440545,36.87987],[139.440738,36.879808],[139.440861,36.879761]]}},{"type":"Feature","properties":{"id":428843377,"highway":"unclassified"},"geometry":{"type":"LineString","coordinates":[[139.441662,36.879317],[139.441526,36.879401],[139.441342,36.879487]]}},{"type":"Feature","properties":{"id":428843383,"highway":"unclassified"},"geometry":{"type":"LineString","coordinates":[[139.441342,36.879487],[139.440822,36.879723]]}},{"type":"Feature","properties":{"id":428843384,"highway":"unclassified"},"geometry":{"type":"LineString","coordinates":[[139.440822,36.879723],[139.440547,36.879831],[139.440403,36.879891]]}},{"type":"Feature","properties":{"id":428843385,"highway":"unclassified"},"geometry":{"type":"LineString","coordinates":[[139.44526,36.879443],[139.445508,36.879513],[139.446013,36.879657],[139.446179,36.879691],[139.446347,36.879697],[139.446528,36.8797],[139.446674,36.879686],[139.446806,36.879666],[139.446963,36.879632],[139.447373,36.879496],[139.447467,36.879479],[139.44754,36.879477],[139.447613,36.879485],[139.4477,36.879508],[139.447971,36.879601],[139.448072,36.879626],[139.448191,36.87964],[139.448371,36.87966],[139.448455,36.87968],[139.448563,36.879714],[139.448664,36.879765],[139.448692,36.879779],[139.448928,36.8799],[139.449057,36.879937],[139.449151,36.879951],[139.449391,36.879965],[139.449499,36.879985],[139.449579,36.880021],[139.449631,36.880064],[139.449745,36.880247],[139.449797,36.880312],[139.449887,36.880377],[139.450124,36.880487],[139.450197,36.880501],[139.450267,36.880499],[139.450479,36.880431],[139.450548,36.880428],[139.450642,36.880448],[139.450702,36.880482],[139.450727,36.880502],[139.450886,36.880634],[139.450974,36.880668],[139.451077,36.880691],[139.451405,36.88073],[139.451457,36.880753],[139.45153,36.880806],[139.45167,36.880967],[139.451715,36.881001],[139.45177,36.881001],[139.45183,36.880987],[139.452164,36.880806],[139.452229,36.880795],[139.452292,36.880809],[139.452359,36.880849],[139.45242,36.880925],[139.45256,36.881172],[139.45263,36.881226],[139.4527,36.881243],[139.452759,36.881217],[139.45279,36.88118],[139.452877,36.880967],[139.452903,36.880705],[139.453017,36.880539],[139.453142,36.880485],[139.453225,36.880476],[139.45329,36.880468],[139.453547,36.880423]]}},{"type":"Feature","properties":{"id":505776565,"highway":"residential"},"geometry":{"type":"LineString","coordinates":[[139.421267,36.804814],[139.420297,36.804408],[139.420176,36.804364]]}},{"type":"Feature","properties":{"id":505776566,"highway":"residential"},"geometry":{"type":"LineString","coordinates":[[139.421461,36.804889],[139.421267,36.804814]]}},{"type":"Feature","properties":{"id":547961798,"highway":"unclassified"},"geometry":{"type":"LineString","coordinates":[[139.458892,36.881172],[139.45875,36.881281],[139.458653,36.881379],[139.458634,36.881452],[139.458647,36.88155],[139.458671,36.881625],[139.458701,36.881667],[139.458804,36.881709],[139.458875,36.881799]]}},{"type":"Feature","properties":{"id":585607133,"highway":"trunk"},"geometry":{"type":"LineString","coordinates":[[139.432573,36.794574],[139.432031,36.794895],[139.431655,36.795106],[139.431099,36.795368],[139.430818,36.795508],[139.430681,36.795571],[139.430576,36.795611],[139.430497,36.795636],[139.430434,36.795656],[139.4303,36.795691],[139.430143,36.795723],[139.429994,36.795748],[139.429798,36.795779],[139.429542,36.795833],[139.429377,36.795873],[139.429291,36.7959],[139.429169,36.79595],[139.428992,36.79604],[139.428897,36.79609],[139.428858,36.796118],[139.428819,36.796155],[139.428786,36.796188],[139.428772,36.796214],[139.428747,36.79627],[139.428726,36.796324],[139.428715,36.796368],[139.428707,36.796402],[139.428705,36.796435],[139.428705,36.796472],[139.428711,36.796509],[139.428716,36.796538],[139.42874,36.796622],[139.428763,36.796684],[139.428779,36.796728],[139.428792,36.796758],[139.428904,36.796969],[139.429006,36.797168],[139.429037,36.797238],[139.429089,36.797391],[139.429105,36.797452],[139.429109,36.797484],[139.429113,36.797531],[139.429114,36.79758],[139.429112,36.797622],[139.429098,36.797672],[139.429088,36.797722],[139.429016,36.797933],[139.42881,36.798395],[139.428654,36.79874],[139.428613,36.798827],[139.428593,36.798866],[139.428554,36.798921],[139.428382,36.79914],[139.428241,36.7993],[139.428129,36.79945],[139.42805,36.799571],[139.427987,36.799683],[139.427839,36.79995],[139.427732,36.800113],[139.427678,36.800189],[139.427556,36.800334],[139.427244,36.800696],[139.427197,36.80076],[139.427166,36.800814],[139.427135,36.800885],[139.427109,36.800973],[139.427095,36.801047],[139.427089,36.801138],[139.427088,36.801227],[139.427089,36.801335],[139.427073,36.801421],[139.427049,36.801479],[139.427013,36.801547],[139.426965,36.801615],[139.426788,36.801785]]}},{"type":"Feature","properties":{"id":585607134,"highway":"unclassified"},"geometry":{"type":"LineString","coordinates":[[139.422703,36.806916],[139.423475,36.806967]]}},{"type":"Feature","properties":{"id":618372138,"highway":"service"},"geometry":{"type":"LineString","coordinates":[[139.423599,36.804936],[139.42371,36.804776],[139.424004,36.804651]]}},{"type":"Feature","properties":{"id":693901933,"highway":"unclassified"},"geometry":{"type":"LineString","coordinates":[[139.453666,36.880399],[139.453849,36.88036],[139.454543,36.880185],[139.454676,36.880179],[139.454767,36.880224],[139.454816,36.880298],[139.454823,36.880461],[139.454794,36.880602],[139.454786,36.88064],[139.454762,36.880748],[139.454671,36.880953],[139.454441,36.881286],[139.454388,36.881424],[139.454377,36.881571],[139.454411,36.881718],[139.454535,36.881991],[139.45466,36.882202],[139.45477,36.882282],[139.454883,36.882331],[139.455246,36.882426]]}},{"type":"Feature","properties":{"id":693925153,"highway":"service"},"geometry":{"type":"LineString","coordinates":[[139.457281,36.841945],[139.45735,36.842099],[139.457385,36.842176],[139.457389,36.842238],[139.457384,36.842301],[139.457351,36.842347],[139.457286,36.842392],[139.45721,36.842388],[139.457147,36.84237],[139.457081,36.842332],[139.45692,36.842123],[139.456823,36.841998]]}},{"type":"Feature","properties":{"id":723544527,"highway":"unclassified"},"geometry":{"type":"LineString","coordinates":[[139.443817,36.879016],[139.443925,36.879039],[139.444009,36.879076],[139.444116,36.879141],[139.444398,36.87935],[139.444495,36.879401],[139.4446,36.879418],[139.444753,36.87942],[139.445059,36.87942],[139.445174,36.879429],[139.44526,36.879443]]}},{"type":"Feature","properties":{"id":723544528,"highway":"unclassified"},"geometry":{"type":"LineString","coordinates":[[139.44175,36.879198],[139.44211,36.879051],[139.442255,36.879027],[139.443118,36.879036],[139.44342,36.879033],[139.443706,36.879016],[139.443817,36.879016]]}},{"type":"Feature","properties":{"id":723544531,"highway":"tertiary"},"geometry":{"type":"LineString","coordinates":[[139.453547,36.880423],[139.453666,36.880399]]}},{"type":"Feature","properties":{"id":723544532,"highway":"unclassified"},"geometry":{"type":"LineString","coordinates":[[139.455684,36.882453],[139.455805,36.882442],[139.455922,36.882432],[139.456247,36.882451],[139.456321,36.882452],[139.456457,36.882453]]}},{"type":"Feature","properties":{"id":810151103,"highway":"service"},"geometry":{"type":"LineString","coordinates":[[139.448759,36.841972],[139.448693,36.841989]]}},{"type":"Feature","properties":{"id":810151104,"highway":"service"},"geometry":{"type":"LineString","coordinates":[[139.449437,36.841965],[139.449348,36.841969]]}},{"type":"Feature","properties":{"id":810151106,"highway":"service"},"geometry":{"type":"LineString","coordinates":[[139.449348,36.841969],[139.448759,36.841972]]}},{"type":"Feature","properties":{"id":812581728,"highway":"unclassified"},"geometry":{"type":"LineString","coordinates":[[139.432248,36.880277],[139.432261,36.880202],[139.432296,36.880153],[139.432303,36.880093],[139.432296,36.880024],[139.432269,36.879977],[139.43222,36.879929],[139.432136,36.879813]]}},{"type":"Feature","properties":{"id":824214376,"highway":"service"},"geometry":{"type":"LineString","coordinates":[[139.453017,36.880539],[139.45314,36.88066],[139.453222,36.880863],[139.453222,36.881035],[139.453157,36.881194]]}},{"type":"Feature","properties":{"id":921108325,"highway":"primary"},"geometry":{"type":"LineString","coordinates":[[139.459471,36.880927],[139.459292,36.881012],[139.459231,36.881034],[139.459058,36.881088],[139.458892,36.881172]]}},{"type":"Feature","properties":{"id":995871695,"highway":"trunk"},"geometry":{"type":"LineString","coordinates":[[139.401893,36.812513],[139.401871,36.812424],[139.401827,36.812372],[139.40176,36.812327],[139.401685,36.812309],[139.401614,36.812319]]}},{"type":"Feature","properties":{"id":995871696,"highway":"trunk"},"geometry":{"type":"LineString","coordinates":[[139.401614,36.812319],[139.401521,36.81236],[139.40134,36.812525],[139.401142,36.812903],[139.401099,36.813186],[139.401093,36.813367],[139.401093,36.813487],[139.401136,36.813577],[139.401201,36.813654],[139.40134,36.813723],[139.401522,36.81377],[139.401646,36.813792],[139.401973,36.813792],[139.403244,36.813809],[139.403373,36.813835],[139.403459,36.813886],[139.403497,36.813968],[139.403486,36.814041],[139.403443,36.814084],[139.403352,36.814123],[139.403271,36.814127],[139.403196,36.814127],[139.403073,36.814093],[139.402848,36.814045],[139.402746,36.814015],[139.402574,36.813989],[139.402424,36.813968],[139.402257,36.813977],[139.402064,36.813994],[139.401818,36.81408],[139.401624,36.814153],[139.401447,36.814241],[139.401308,36.814369],[139.401179,36.81446],[139.401059,36.814535],[139.400924,36.814621],[139.400739,36.814702],[139.400525,36.814752],[139.400329,36.814763],[139.400114,36.814756],[139.399935,36.814743],[139.399803,36.814704],[139.39972,36.814668],[139.399623,36.814593],[139.399556,36.814483],[139.39953,36.814357],[139.399543,36.814196],[139.399629,36.813989],[139.39979,36.813646],[139.39986,36.813444],[139.399886,36.813285],[139.399886,36.813088],[139.399849,36.812963],[139.399779,36.812877],[139.399683,36.81283],[139.399559,36.812817],[139.399447,36.812843],[139.399371,36.812916],[139.399359,36.813063],[139.399398,36.813225],[139.399463,36.813328],[139.399538,36.813431],[139.399559,36.813526],[139.399538,36.813612],[139.399463,36.813715],[139.39928,36.813826],[139.398942,36.813989],[139.398551,36.814181],[139.398291,36.814269],[139.397974,36.814372],[139.397818,36.814453],[139.397727,36.814526],[139.397644,36.814659],[139.397617,36.814737],[139.397631,36.814821],[139.397679,36.814902],[139.397743,36.81496],[139.397891,36.81508],[139.398068,36.815222],[139.398154,36.815304],[139.398183,36.815413],[139.398186,36.815512],[139.398186,36.8156],[139.398183,36.815956],[139.398175,36.816147],[139.398159,36.816283],[139.398138,36.816429],[139.3981,36.816558],[139.397961,36.816791],[139.397918,36.816854],[139.397676,36.817176]]}},{"type":"Feature","properties":{"id":995871700,"highway":"unclassified"},"geometry":{"type":"LineString","coordinates":[[139.417738,36.807618],[139.417718,36.807538],[139.417725,36.807478]]}},{"type":"Feature","properties":{"id":995958710,"highway":"unclassified"},"geometry":{"type":"LineString","coordinates":[[139.441662,36.879317],[139.44175,36.879198]]}},{"type":"Feature","properties":{"id":1071173370,"highway":"tertiary"},"geometry":{"type":"LineString","coordinates":[[139.422703,36.806916],[139.422783,36.806615]]}},{"type":"Feature","properties":{"id":1422328607,"highway":"tertiary"},"geometry":{"type":"LineString","coordinates":[[139.425794,36.804989],[139.425645,36.804938],[139.425308,36.804815],[139.424663,36.804575],[139.424498,36.804517],[139.424317,36.804479]]}},{"type":"Feature","properties":{"id":1422328608,"highway":"tertiary"},"geometry":{"type":"LineString","coordinates":[[139.425794,36.804989],[139.425945,36.805043]]}},{"type":"Feature","properties":{"id":1422328609,"highway":"tertiary"},"geometry":{"type":"LineString","coordinates":[[139.42635,36.804833],[139.426308,36.804864],[139.426272,36.804885]]}},{"type":"Feature","properties":{"id":1422328615,"highway":"service"},"geometry":{"type":"LineString","coordinates":[[139.422135,36.805225],[139.4224,36.804871],[139.422634,36.804558]]}},{"type":"Feature","properties":{"id":1422328621,"highway":"service"},"geometry":{"type":"LineString","coordinates":[[139.425948,36.804994],[139.425941,36.805012],[139.425945,36.805043]]}},{"type":"Feature","properties":{"id":1422328622,"highway":"service"},"geometry":{"type":"LineString","coordinates":[[139.426284,36.804956],[139.426291,36.804916],[139.426272,36.804885]]}},{"type":"Feature","properties":{"id":1422328623,"highway":"tertiary"},"geometry":{"type":"LineString","coordinates":[[139.425948,36.804994],[139.425874,36.804997],[139.425794,36.804989]]}},{"type":"Feature","properties":{"id":1422328624,"highway":"tertiary"},"geometry":{"type":"LineString","coordinates":[[139.425945,36.805043],[139.426033,36.805076],[139.426131,36.805071],[139.426138,36.805067],[139.426166,36.805053],[139.426229,36.805015],[139.426284,36.804956]]}},{"type":"Feature","properties":{"id":1422328625,"highway":"tertiary"},"geometry":{"type":"LineString","coordinates":[[139.426284,36.804956],[139.42635,36.804833]]}},{"type":"Feature","properties":{"id":1422328626,"highway":"tertiary"},"geometry":{"type":"LineString","coordinates":[[139.426272,36.804885],[139.426261,36.804892],[139.425948,36.804994]]}},{"type":"Feature","properties":{"id":1422330317,"highway":"unclassified"},"geometry":{"type":"LineString","coordinates":[[139.420501,36.803385],[139.42067,36.803523],[139.420742,36.803706]]}},{"type":"Feature","properties":{"id":1422330318,"highway":"service"},"geometry":{"type":"LineString","coordinates":[[139.420974,36.803623],[139.420813,36.803681],[139.420742,36.803706]]}},{"type":"Feature","properties":{"id":1422333062,"highway":"service"},"geometry":{"type":"LineString","coordinates":[[139.425645,36.804938],[139.425627,36.804981],[139.425511,36.805261]]}},{"type":"Feature","properties":{"id":1422333063,"highway":"service"},"geometry":{"type":"LineString","coordinates":[[139.425308,36.804815],[139.42529,36.804862],[139.425135,36.805283],[139.424803,36.8053],[139.424618,36.805307],[139.424101,36.805308],[139.423946,36.805279]]}},{"type":"Feature","properties":{"id":1422401695,"highway":"service"},"geometry":{"type":"LineString","coordinates":[[139.423485,36.805034],[139.423355,36.805437],[139.423114,36.805394]]}},{"type":"Feature","properties":{"id":1422401696,"highway":"service"},"geometry":{"type":"LineString","coordinates":[[139.423251,36.804984],[139.423313,36.804997],[139.423485,36.805034],[139.423527,36.805041],[139.423599,36.804936]]}},{"type":"Feature","properties":{"id":1422401697,"highway":"service"},"geometry":{"type":"LineString","coordinates":[[139.424004,36.804651],[139.424068,36.804647],[139.424198,36.804651],[139.42422,36.804651]]}},{"type":"Feature","properties":{"id":1422426654,"highway":"service"},"geometry":{"type":"LineString","coordinates":[[139.423001,36.805809],[139.423061,36.80582],[139.423201,36.805846]]}},{"type":"Feature","properties":{"id":1422426655,"highway":"service"},"geometry":{"type":"LineString","coordinates":[[139.423201,36.805846],[139.423059,36.80634]]}},{"type":"Feature","properties":{"id":1422426660,"highway":"service"},"geometry":{"type":"LineString","coordinates":[[139.422783,36.806615],[139.422834,36.806622],[139.423109,36.806661],[139.423188,36.806646],[139.42327,36.806612],[139.423403,36.806552],[139.423448,36.806519]]}},{"type":"Feature","properties":{"id":1422426661,"highway":"service"},"geometry":{"type":"LineString","coordinates":[[139.422828,36.80644],[139.422765,36.806427],[139.422341,36.806347],[139.42219,36.806318],[139.422132,36.806307],[139.422109,36.806303],[139.421975,36.806249],[139.421938,36.806233],[139.421758,36.806155]]}},{"type":"Feature","properties":{"id":1422426662,"highway":"service"},"geometry":{"type":"LineString","coordinates":[[139.422132,36.806307],[139.422098,36.806475],[139.42274,36.80654],[139.422801,36.806547]]}},{"type":"Feature","properties":{"id":1422426664,"highway":"service"},"geometry":{"type":"LineString","coordinates":[[139.42151,36.804913],[139.421266,36.805251]]}},{"type":"Feature","properties":{"id":1422426666,"highway":"service"},"geometry":{"type":"LineString","coordinates":[[139.42173,36.805023],[139.421685,36.805097],[139.421615,36.805214]]}},{"type":"Feature","properties":{"id":1422426669,"highway":"service"},"geometry":{"type":"LineString","coordinates":[[139.422341,36.806347],[139.422352,36.806317],[139.422353,36.806271],[139.422352,36.806189]]}},{"type":"Feature","properties":{"id":1422426671,"highway":"service"},"geometry":{"type":"LineString","coordinates":[[139.421938,36.806233],[139.421838,36.806353],[139.421774,36.806367],[139.421669,36.806359],[139.421626,36.806356],[139.421425,36.806399],[139.421259,36.806374]]}},{"type":"Feature","properties":{"id":1422426672,"highway":"service"},"geometry":{"type":"LineString","coordinates":[[139.421758,36.806155],[139.421688,36.806105],[139.421601,36.806032],[139.421571,36.80599],[139.42155,36.805872],[139.421558,36.805763]]}},{"type":"Feature","properties":{"id":1422426673,"highway":"service"},"geometry":{"type":"LineString","coordinates":[[139.421669,36.806359],[139.421658,36.806396],[139.421613,36.80655]]}},{"type":"Feature","properties":{"id":1422608874,"highway":"service"},"geometry":{"type":"LineString","coordinates":[[139.424228,36.80663],[139.424238,36.806587]]}},{"type":"Feature","properties":{"id":1422608876,"highway":"service"},"geometry":{"type":"LineString","coordinates":[[139.425251,36.806343],[139.425052,36.806303],[139.424988,36.806309],[139.424873,36.806352],[139.424817,36.806377]]}},{"type":"Feature","properties":{"id":1422608881,"highway":"service"},"geometry":{"type":"LineString","coordinates":[[139.425152,36.806858],[139.425192,36.806861]]}},{"type":"Feature","properties":{"id":1422608883,"highway":"service"},"geometry":{"type":"LineString","coordinates":[[139.425622,36.806285],[139.42559,36.806278]]}},{"type":"Feature","properties":{"id":1422608884,"highway":"service"},"geometry":{"type":"LineString","coordinates":[[139.425326,36.806233],[139.42529,36.806227]]}},{"type":"Feature","properties":{"id":1422608886,"highway":"service"},"geometry":{"type":"LineString","coordinates":[[139.425284,36.806069],[139.425296,36.805985],[139.425331,36.805864],[139.425361,36.805848],[139.42578,36.805923]]}},{"type":"Feature","properties":{"id":1537802846,"highway":"service"},"geometry":{"type":"LineString","coordinates":[[139.45735,36.842099],[139.457225,36.842142]]}},{"type":"Feature","properties":{"id":1537956295,"highway":"service"},"geometry":{"type":"LineString","coordinates":[[139.456554,36.835446],[139.456555,36.835415],[139.456564,36.835385],[139.456627,36.835303],[139.456704,36.835265],[139.457025,36.835107],[139.457078,36.835072],[139.457109,36.835029],[139.457116,36.835005],[139.457137,36.834752],[139.457131,36.834583],[139.457124,36.834555],[139.457019,36.834408],[139.457007,36.834392],[139.456957,36.834323],[139.456932,36.834243],[139.456944,36.834138],[139.45701,36.834001],[139.457045,36.833909],[139.457036,36.833839],[139.456979,36.833734],[139.456897,36.833598],[139.456841,36.833505],[139.456833,36.833397],[139.456842,36.83326],[139.456809,36.833179],[139.456788,36.833118],[139.456788,36.833058],[139.456813,36.832985],[139.456848,36.832903],[139.45688,36.83283],[139.456898,36.832774],[139.456921,36.83251],[139.456949,36.832442],[139.456995,36.832396],[139.457034,36.832356],[139.457153,36.832268],[139.45724,36.8322],[139.457312,36.832153],[139.457394,36.832124],[139.457467,36.832119],[139.4576,36.83215],[139.457748,36.832191],[139.457887,36.832222],[139.45799,36.832242],[139.458103,36.832281],[139.458202,36.832333],[139.458552,36.832562],[139.458919,36.832695],[139.459433,36.832859],[139.459601,36.832938],[139.459797,36.833028],[139.460081,36.833191],[139.460145,36.833226],[139.460193,36.833249],[139.460229,36.833268],[139.4603,36.833298],[139.460367,36.833323],[139.460416,36.833297],[139.460475,36.833271],[139.460516,36.833238],[139.460693,36.832746],[139.460892,36.832282],[139.461036,36.831973],[139.461052,36.83192]]}},{"type":"Feature","properties":{"id":1537956296,"highway":"unclassified"},"geometry":{"type":"LineString","coordinates":[[139.458434,36.880927],[139.458371,36.880887],[139.458216,36.880871],[139.45805,36.880872],[139.457854,36.880912],[139.457461,36.881047],[139.457058,36.881135],[139.456802,36.881152],[139.456673,36.88112]]}},{"type":"Feature","properties":{"id":1537956321,"highway":"primary"},"geometry":{"type":"LineString","coordinates":[[139.470024,36.879061],[139.469697,36.879125],[139.469547,36.879151],[139.469426,36.879187],[139.469338,36.879224],[139.469227,36.879249],[139.469041,36.879329],[139.468847,36.879446],[139.468684,36.879551],[139.468572,36.879639],[139.468459,36.879748]]}},{"type":"Feature","properties":{"id":1537956322,"highway":"primary"},"geometry":{"type":"LineString","coordinates":[[139.470337,36.878956],[139.470024,36.879061]]}},{"type":"Feature","properties":{"id":1537956323,"highway":"primary"},"geometry":{"type":"LineString","coordinates":[[139.470678,36.878832],[139.470337,36.878956]]}},{"type":"Feature","properties":{"id":1537956324,"highway":"primary"},"geometry":{"type":"LineString","coordinates":[[139.470884,36.878781],[139.470678,36.878832]]}},{"type":"Feature","properties":{"id":1537956325,"highway":"service"},"geometry":{"type":"LineString","coordinates":[[139.48618,36.87739],[139.486211,36.877338],[139.486259,36.877324],[139.486333,36.877326],[139.486724,36.877391],[139.486829,36.877399],[139.486998,36.8774],[139.487303,36.87734],[139.487472,36.877297],[139.487834,36.877263],[139.488006,36.877245],[139.488116,36.877185],[139.488115,36.877139],[139.488087,36.877098],[139.487966,36.877077],[139.487794,36.877066],[139.487683,36.877055]]}},{"type":"Feature","properties":{"id":1537956326,"highway":"primary"},"geometry":{"type":"LineString","coordinates":[[139.498496,36.87858],[139.498341,36.878577],[139.497574,36.878593],[139.49737,36.878655],[139.497265,36.878718],[139.497155,36.878824],[139.497083,36.878949],[139.49703,36.879081],[139.496943,36.879518],[139.496887,36.879744],[139.496775,36.879887],[139.496677,36.879935],[139.496584,36.879948],[139.496497,36.879956],[139.496425,36.879948],[139.496347,36.879907],[139.496268,36.879813],[139.496244,36.879739],[139.496228,36.879672],[139.496205,36.879564],[139.496106,36.879496],[139.49603,36.879491],[139.495937,36.879539],[139.495839,36.879712],[139.4957,36.879855],[139.495515,36.879981],[139.495417,36.880089],[139.495343,36.880131],[139.495256,36.880146],[139.495226,36.880151],[139.495081,36.880158],[139.494953,36.880135],[139.494876,36.880133],[139.494798,36.880146],[139.494658,36.880202],[139.494406,36.880321],[139.494245,36.880354],[139.49403,36.880395],[139.493708,36.880389],[139.493579,36.880366],[139.493481,36.880315],[139.493362,36.880213],[139.493257,36.880044],[139.493194,36.880011],[139.492942,36.87996],[139.492737,36.879951],[139.492421,36.87997],[139.492287,36.879985]]}},{"type":"Feature","properties":{"id":1537956327,"highway":"primary"},"geometry":{"type":"LineString","coordinates":[[139.492287,36.879985],[139.492177,36.879987],[139.492076,36.879951],[139.492012,36.879898]]}},{"type":"Feature","properties":{"id":1539045496,"highway":"unclassified"},"geometry":{"type":"LineString","coordinates":[[139.45723,36.823376],[139.457278,36.823425],[139.457431,36.823518],[139.457705,36.823675],[139.457845,36.823746],[139.45808,36.823837],[139.458412,36.82396],[139.45854,36.824003],[139.458633,36.824014],[139.458822,36.824019],[139.459,36.824005],[139.459062,36.823978],[139.459191,36.823916],[139.45935,36.823846],[139.459474,36.823807],[139.459687,36.82378],[139.459801,36.823768],[139.45992,36.823727],[139.460001,36.823698],[139.460055,36.823688],[139.460114,36.823682],[139.460163,36.823689],[139.4602,36.823714],[139.460216,36.823748],[139.460203,36.823783],[139.46017,36.823822],[139.46011,36.823845],[139.460013,36.823883],[139.459782,36.823952],[139.459585,36.824007],[139.459419,36.824076],[139.459324,36.82412],[139.459262,36.82416],[139.459207,36.824198],[139.459178,36.824242],[139.459168,36.824288],[139.459191,36.824326],[139.459236,36.824349],[139.459292,36.824352],[139.459343,36.824333],[139.459417,36.824273],[139.459488,36.824216],[139.45954,36.82419],[139.459594,36.824174],[139.459658,36.824155],[139.459731,36.824146],[139.45981,36.824117],[139.459878,36.824084],[139.459949,36.824041],[139.460012,36.824036],[139.460057,36.824047],[139.460086,36.824067],[139.460115,36.824088],[139.46012,36.82414]]}},{"type":"Feature","properties":{"id":1539045504,"highway":"service"},"geometry":{"type":"LineString","coordinates":[[139.453157,36.881194],[139.453186,36.881249],[139.453356,36.881346],[139.453446,36.881361],[139.453514,36.881362],[139.453542,36.881345],[139.453566,36.881324],[139.453669,36.8811]]}},{"type":"Feature","properties":{"id":1539045506,"highway":"service"},"geometry":{"type":"LineString","coordinates":[[139.453157,36.881194],[139.452956,36.881483],[139.452872,36.881728],[139.452812,36.881862]]}},{"type":"Feature","properties":{"id":1539054174,"highway":"service"},"geometry":{"type":"LineString","coordinates":[[139.40159,36.863225],[139.401384,36.863162],[139.401237,36.863083],[139.401178,36.863011],[139.401164,36.86296],[139.401165,36.86293],[139.401246,36.86287],[139.401119,36.862773]]}}]}