{"type":"FeatureCollection","features":[{"type":"Feature","properties":{"id":53749054,"highway":"service"},"geometry":{"type":"LineString","coordinates":[[139.482812,35.297923],[139.481819,35.29822],[139.481877,35.298348],[139.482869,35.298052],[139.482812,35.297923]]}},{"type":"Feature","properties":{"id":164153340,"highway":"service"},"geometry":{"type":"LineString","coordinates":[[139.481677,35.298213],[139.481788,35.298446],[139.481638,35.298725],[139.481607,35.298816],[139.481597,35.298903],[139.481602,35.298981],[139.481639,35.299081],[139.482,35.299761],[139.482023,35.299797],[139.482047,35.299834],[139.482389,35.299736],[139.48254,35.299687],[139.482591,35.299676],[139.482628,35.299675],[139.482663,35.299682],[139.482698,35.299706],[139.482766,35.299755]]}},{"type":"Feature","properties":{"id":191559777,"highway":"living_street"},"geometry":{"type":"LineString","coordinates":[[139.482049,35.300894],[139.482059,35.300663],[139.482102,35.30029],[139.482107,35.300257],[139.482112,35.300224],[139.482112,35.300193],[139.482071,35.300083],[139.482029,35.299979],[139.482008,35.299959],[139.481925,35.299877]]}},{"type":"Feature","properties":{"id":191559792,"highway":"living_street"},"geometry":{"type":"LineString","coordinates":[[139.481918,35.301417],[139.481927,35.301403],[139.481942,35.301337],[139.481941,35.30127],[139.481939,35.301256],[139.481912,35.30109],[139.481907,35.300995],[139.481908,35.300907],[139.481908,35.300877],[139.481919,35.300708],[139.481921,35.300683],[139.481919,35.300522],[139.481918,35.300428],[139.481918,35.30039],[139.481899,35.30027],[139.481889,35.300201],[139.481869,35.300129],[139.481849,35.300056],[139.48184,35.300031],[139.481802,35.299926],[139.481794,35.29991],[139.481774,35.299873],[139.481739,35.299809],[139.481688,35.299746],[139.48168,35.299737],[139.481624,35.299685],[139.481563,35.299615],[139.481516,35.299565],[139.481472,35.299485]]}},{"type":"Feature","properties":{"id":191561399,"highway":"living_street"},"geometry":{"type":"LineString","coordinates":[[139.482047,35.299834],[139.481925,35.299877],[139.481794,35.29991]]}},{"type":"Feature","properties":{"id":191701091,"highway":"service"},"geometry":{"type":"LineString","coordinates":[[139.483989,35.299482],[139.484023,35.299447],[139.484127,35.29934],[139.484233,35.29923],[139.484346,35.299114],[139.484426,35.299031],[139.484533,35.298921],[139.484656,35.298794],[139.484782,35.298688],[139.484823,35.298644]]}},{"type":"Feature","properties":{"id":191701092,"highway":"service"},"geometry":{"type":"LineString","coordinates":[[139.485681,35.298659],[139.485859,35.29917]]}},{"type":"Feature","properties":{"id":191701093,"highway":"service"},"geometry":{"type":"LineString","coordinates":[[139.484782,35.298688],[139.485165,35.299283]]}},{"type":"Feature","properties":{"id":191701094,"highway":"service"},"geometry":{"type":"LineString","coordinates":[[139.483778,35.299348],[139.483326,35.299848]]}},{"type":"Feature","properties":{"id":191701095,"highway":"service"},"geometry":{"type":"LineString","coordinates":[[139.48589,35.298718],[139.486025,35.299131]]}},{"type":"Feature","properties":{"id":191701096,"highway":"service"},"geometry":{"type":"LineString","coordinates":[[139.485291,35.298549],[139.485479,35.299134]]}},{"type":"Feature","properties":{"id":191701097,"highway":"service"},"geometry":{"type":"LineString","coordinates":[[139.484023,35.299447],[139.484417,35.299694],[139.484745,35.299899]]}},{"type":"Feature","properties":{"id":191701098,"highway":"service"},"geometry":{"type":"LineString","coordinates":[[139.484931,35.29859],[139.485399,35.299301]]}},{"type":"Feature","properties":{"id":191701099,"highway":"service"},"geometry":{"type":"LineString","coordinates":[[139.484533,35.298921],[139.485134,35.299462]]}},{"type":"Feature","properties":{"id":191701100,"highway":"service"},"geometry":{"type":"LineString","coordinates":[[139.484127,35.29934],[139.484851,35.299793]]}},{"type":"Feature","properties":{"id":191701101,"highway":"service"},"geometry":{"type":"LineString","coordinates":[[139.485497,35.298607],[139.485702,35.299199]]}},{"type":"Feature","properties":{"id":191701102,"highway":"service"},"geometry":{"type":"LineString","coordinates":[[139.484426,35.299031],[139.48487,35.299465]]}},{"type":"Feature","properties":{"id":191701103,"highway":"service"},"geometry":{"type":"LineString","coordinates":[[139.484233,35.29923],[139.48489,35.299658]]}},{"type":"Feature","properties":{"id":191701104,"highway":"service"},"geometry":{"type":"LineString","coordinates":[[139.484346,35.299114],[139.48487,35.299465],[139.48501,35.299558]]}},{"type":"Feature","properties":{"id":191701106,"highway":"service"},"geometry":{"type":"LineString","coordinates":[[139.485062,35.298498],[139.485479,35.299134],[139.485544,35.299232]]}},{"type":"Feature","properties":{"id":191701107,"highway":"service"},"geometry":{"type":"LineString","coordinates":[[139.484656,35.298794],[139.485165,35.299283],[139.485262,35.299376]]}},{"type":"Feature","properties":{"id":191701108,"highway":"service"},"geometry":{"type":"LineString","coordinates":[[139.486256,35.29882],[139.486083,35.299209],[139.486091,35.299339]]}},{"type":"Feature","properties":{"id":191701109,"highway":"service"},"geometry":{"type":"LineString","coordinates":[[139.483599,35.299233],[139.483651,35.299267],[139.483778,35.299348],[139.483989,35.299482]]}},{"type":"Feature","properties":{"id":191701110,"highway":"service"},"geometry":{"type":"LineString","coordinates":[[139.486256,35.29882],[139.48589,35.298718],[139.485681,35.298659],[139.485497,35.298607],[139.485291,35.298549],[139.485062,35.298498],[139.484931,35.29859],[139.484823,35.298644]]}},{"type":"Feature","properties":{"id":252404756,"highway":"service"},"geometry":{"type":"LineString","coordinates":[[139.484302,35.298312],[139.484387,35.29826],[139.484476,35.298236],[139.484537,35.298225],[139.484607,35.298217],[139.484689,35.298219],[139.485025,35.298306]]}},{"type":"Feature","properties":{"id":252404757,"highway":"service"},"geometry":{"type":"LineString","coordinates":[[139.486695,35.298792],[139.487834,35.299107]]}},{"type":"Feature","properties":{"id":252404758,"highway":"service"},"geometry":{"type":"LineString","coordinates":[[139.486695,35.298792],[139.485025,35.298306],[139.48471,35.298148],[139.484545,35.298092],[139.484139,35.297973],[139.484102,35.297968],[139.484053,35.297974],[139.484017,35.297989],[139.483994,35.298007],[139.48327,35.2978]]}},{"type":"Feature","properties":{"id":252404759,"highway":"service"},"geometry":{"type":"LineString","coordinates":[[139.482812,35.297923],[139.48327,35.2978]]}},{"type":"Feature","properties":{"id":335142096,"highway":"tertiary"},"geometry":{"type":"LineString","coordinates":[[139.482474,35.301277],[139.482507,35.301214],[139.482535,35.301155],[139.482555,35.301098],[139.482571,35.301039],[139.48259,35.300952],[139.482659,35.30059],[139.482694,35.300437],[139.482751,35.300227],[139.482773,35.300155],[139.482806,35.300074],[139.482828,35.300027],[139.482845,35.299994],[139.48288,35.299932],[139.482954,35.299807],[139.483002,35.29973],[139.483037,35.299679],[139.48308,35.29962],[139.483093,35.299604],[139.483169,35.299513],[139.48339,35.299277],[139.484005,35.298621]]}},{"type":"Feature","properties":{"id":377116246,"highway":"tertiary"},"geometry":{"type":"LineString","coordinates":[[139.484195,35.298418],[139.484302,35.298312],[139.484332,35.298279],[139.484352,35.298254],[139.484369,35.298226],[139.484378,35.298201],[139.48438,35.298175],[139.484375,35.298149],[139.484361,35.298123],[139.484345,35.298108],[139.484315,35.298091],[139.484285,35.298083],[139.484255,35.298082],[139.484228,35.298086],[139.484204,35.298096],[139.484179,35.298115],[139.484165,35.298137],[139.484159,35.298157],[139.484157,35.29818],[139.484162,35.298204],[139.484174,35.298228],[139.484187,35.298263],[139.484195,35.298285],[139.484201,35.298318],[139.484201,35.298348],[139.4842,35.298373],[139.484195,35.298418]]}},{"type":"Feature","properties":{"id":377116248,"highway":"service"},"geometry":{"type":"LineString","coordinates":[[139.482954,35.299807],[139.482935,35.299781],[139.482907,35.29976],[139.482873,35.299747],[139.482836,35.299742],[139.4828,35.299744],[139.482766,35.299755],[139.482738,35.299774],[139.482719,35.299799],[139.482709,35.299827],[139.482711,35.299873],[139.482728,35.299907],[139.482763,35.299949],[139.482786,35.299981],[139.4828,35.300014],[139.482806,35.300074]]}},{"type":"Feature","properties":{"id":718111725,"highway":"service"},"geometry":{"type":"LineString","coordinates":[[139.48212,35.298567],[139.481795,35.298648]]}},{"type":"Feature","properties":{"id":718111726,"highway":"service"},"geometry":{"type":"LineString","coordinates":[[139.482174,35.298695],[139.481729,35.298804]]}},{"type":"Feature","properties":{"id":718111727,"highway":"service"},"geometry":{"type":"LineString","coordinates":[[139.482065,35.298437],[139.481904,35.298477],[139.481795,35.298648],[139.481729,35.298804],[139.481729,35.298883],[139.481753,35.298947],[139.482228,35.298823]]}},{"type":"Feature","properties":{"id":718111728,"highway":"service"},"geometry":{"type":"LineString","coordinates":[[139.482772,35.299381],[139.482847,35.299433],[139.483037,35.299565],[139.483093,35.299604]]}},{"type":"Feature","properties":{"id":718111729,"highway":"service"},"geometry":{"type":"LineString","coordinates":[[139.48296,35.299185],[139.482441,35.299327]]}},{"type":"Feature","properties":{"id":718111730,"highway":"service"},"geometry":{"type":"LineString","coordinates":[[139.482906,35.299056],[139.48239,35.299204]]}},{"type":"Feature","properties":{"id":718111731,"highway":"service"},"geometry":{"type":"LineString","coordinates":[[139.482854,35.29893],[139.482332,35.299069]]}},{"type":"Feature","properties":{"id":718111732,"highway":"service"},"geometry":{"type":"LineString","coordinates":[[139.482799,35.298798],[139.482281,35.298947]]}},{"type":"Feature","properties":{"id":718111733,"highway":"service"},"geometry":{"type":"LineString","coordinates":[[139.482641,35.298417],[139.48212,35.298567]]}},{"type":"Feature","properties":{"id":718111734,"highway":"service"},"geometry":{"type":"LineString","coordinates":[[139.482743,35.298664],[139.482224,35.298812]]}},{"type":"Feature","properties":{"id":718111735,"highway":"service"},"geometry":{"type":"LineString","coordinates":[[139.482694,35.298545],[139.482171,35.298688]]}},{"type":"Feature","properties":{"id":718111736,"highway":"service"},"geometry":{"type":"LineString","coordinates":[[139.482635,35.298403],[139.483057,35.298288]]}},{"type":"Feature","properties":{"id":718111737,"highway":"service"},"geometry":{"type":"LineString","coordinates":[[139.482689,35.298534],[139.483113,35.298419]]}},{"type":"Feature","properties":{"id":718111738,"highway":"service"},"geometry":{"type":"LineString","coordinates":[[139.482743,35.298664],[139.483168,35.298548],[139.483113,35.298419],[139.483057,35.298288],[139.483004,35.298164],[139.482587,35.298287]]}},{"type":"Feature","properties":{"id":718111739,"highway":"service"},"geometry":{"type":"LineString","coordinates":[[139.483015,35.299315],[139.482999,35.299277],[139.48296,35.299185],[139.482906,35.299056],[139.482854,35.29893],[139.482799,35.298798],[139.482743,35.298664],[139.482694,35.298545],[139.482689,35.298534],[139.482641,35.298417],[139.482635,35.298403],[139.482587,35.298287],[139.482065,35.298437],[139.48212,35.298567],[139.482171,35.298688],[139.482174,35.298695],[139.482224,35.298812],[139.482228,35.298823],[139.482281,35.298947],[139.482332,35.299069],[139.48239,35.299204],[139.482441,35.299327],[139.482496,35.299455],[139.482772,35.299381],[139.483015,35.299315]]}},{"type":"Feature","properties":{"id":718111740,"highway":"service"},"geometry":{"type":"LineString","coordinates":[[139.48339,35.299277],[139.483333,35.299241],[139.483285,35.299211],[139.483262,35.299208],[139.482999,35.299277]]}},{"type":"Feature","properties":{"id":719918985,"highway":"service"},"geometry":{"type":"LineString","coordinates":[[139.483994,35.298007],[139.483976,35.298031],[139.483964,35.29807],[139.483969,35.298106],[139.483992,35.298143],[139.484028,35.29817]]}},{"type":"Feature","properties":{"id":719918986,"highway":"service"},"geometry":{"type":"LineString","coordinates":[[139.484537,35.298225],[139.484563,35.29819],[139.484574,35.298163],[139.484573,35.298135],[139.484545,35.298092]]}},{"type":"Feature","properties":{"id":719921888,"highway":"service"},"geometry":{"type":"LineString","coordinates":[[139.48327,35.2978],[139.483239,35.297946],[139.483924,35.298141],[139.484028,35.29817],[139.484078,35.298186],[139.484119,35.298202],[139.484174,35.298228]]}},{"type":"Feature","properties":{"id":1165469380,"highway":"service"},"geometry":{"type":"LineString","coordinates":[[139.484417,35.299694],[139.484365,35.299755]]}},{"type":"Feature","properties":{"id":1387638544,"highway":"tertiary"},"geometry":{"type":"LineString","coordinates":[[139.484005,35.298621],[139.484124,35.298494],[139.484195,35.298418]]}}]}