{"type":"FeatureCollection","features":[{"type":"Feature","properties":{"id":154521878,"highway":"unclassified"},"geometry":{"type":"LineString","coordinates":[[139.552142,34.101788],[139.552001,34.101624],[139.5519,34.101454],[139.551691,34.101198],[139.551581,34.101084],[139.551515,34.100931],[139.55149,34.100839],[139.551534,34.100757],[139.551611,34.100713],[139.551724,34.100693]]}},{"type":"Feature","properties":{"id":154521906,"highway":"unclassified"},"geometry":{"type":"LineString","coordinates":[[139.526866,34.119394],[139.526908,34.119533],[139.526947,34.119685],[139.526978,34.119798],[139.527046,34.119926],[139.527117,34.120022],[139.527154,34.120108],[139.527178,34.120241],[139.527135,34.12041],[139.527077,34.120643],[139.526967,34.121074],[139.526899,34.121361]]}},{"type":"Feature","properties":{"id":154521907,"highway":"unclassified"},"geometry":{"type":"LineString","coordinates":[[139.534496,34.109001],[139.534558,34.109201],[139.534637,34.109549],[139.534658,34.109596],[139.534806,34.109795],[139.535001,34.110137],[139.535084,34.110312],[139.535124,34.110425],[139.535141,34.11068],[139.535058,34.110808]]}},{"type":"Feature","properties":{"id":154521971,"highway":"unclassified"},"geometry":{"type":"LineString","coordinates":[[139.536772,34.11973],[139.536855,34.119943],[139.536925,34.120081],[139.536963,34.120141],[139.537014,34.120181],[139.537075,34.120223],[139.537193,34.120287],[139.537314,34.120358],[139.537403,34.120421],[139.537472,34.120487],[139.537531,34.120545],[139.537617,34.120638],[139.5377,34.12072],[139.537786,34.120798],[139.537867,34.120849],[139.538003,34.120902],[139.538172,34.120951]]}},{"type":"Feature","properties":{"id":154521972,"highway":"unclassified"},"geometry":{"type":"LineString","coordinates":[[139.55448,34.102272],[139.554512,34.102097],[139.55453,34.10199],[139.554491,34.101895],[139.554425,34.101832],[139.55428,34.101742],[139.553701,34.101521],[139.552376,34.101052],[139.552194,34.100978],[139.551857,34.100727],[139.551724,34.100693]]}},{"type":"Feature","properties":{"id":154521978,"highway":"unclassified"},"geometry":{"type":"LineString","coordinates":[[139.524961,34.118619],[139.525199,34.118646],[139.525285,34.118646],[139.525409,34.118626],[139.525523,34.118618],[139.525712,34.118642],[139.525986,34.118678],[139.526228,34.118707],[139.526431,34.118747],[139.526563,34.118796],[139.526659,34.118866],[139.526736,34.118939],[139.526784,34.119038],[139.526811,34.119142],[139.526836,34.119254],[139.526866,34.119394]]}},{"type":"Feature","properties":{"id":154521980,"highway":"residential"},"geometry":{"type":"LineString","coordinates":[[139.522251,34.121167],[139.522368,34.121117],[139.522497,34.121057],[139.522549,34.121041],[139.522619,34.121016],[139.522718,34.120984],[139.522875,34.120925],[139.522941,34.12089],[139.523039,34.120822],[139.523126,34.120755],[139.523204,34.12064],[139.52327,34.120526],[139.523333,34.120402],[139.523363,34.12034]]}},{"type":"Feature","properties":{"id":154521998,"highway":"unclassified"},"geometry":{"type":"LineString","coordinates":[[139.508217,34.122434],[139.507751,34.122148],[139.508153,34.121537],[139.508215,34.121231],[139.508594,34.121014],[139.508745,34.120906],[139.508892,34.120782],[139.509082,34.120606],[139.509223,34.120471],[139.509353,34.120347],[139.509463,34.120273],[139.509552,34.120213],[139.509653,34.120128],[139.509808,34.119978],[139.509862,34.119928],[139.509937,34.119861],[139.510015,34.119791],[139.510066,34.11975],[139.51012,34.119687],[139.510148,34.119652]]}},{"type":"Feature","properties":{"id":154522012,"highway":"unclassified"},"geometry":{"type":"LineString","coordinates":[[139.557529,34.110101],[139.557587,34.110181],[139.557619,34.110267],[139.557932,34.110544],[139.557904,34.110646],[139.557869,34.110764],[139.557856,34.110844],[139.557847,34.111082],[139.557806,34.111136],[139.557749,34.111187],[139.557481,34.111311]]}},{"type":"Feature","properties":{"id":154522054,"highway":"unclassified"},"geometry":{"type":"LineString","coordinates":[[139.503942,34.118135],[139.503918,34.118178],[139.503901,34.118222],[139.503882,34.118282],[139.503877,34.118335],[139.503882,34.1184],[139.503897,34.118443],[139.503922,34.118495],[139.503958,34.118562],[139.503986,34.118612],[139.503992,34.118683],[139.503991,34.118741],[139.503968,34.118811],[139.50392,34.118896],[139.503866,34.118989],[139.503803,34.119078],[139.503723,34.119131],[139.503638,34.119177],[139.503531,34.119204],[139.503422,34.119218],[139.503333,34.119228],[139.503243,34.119238],[139.503136,34.119248],[139.503067,34.119255],[139.502953,34.119269],[139.502858,34.119289],[139.502783,34.119318],[139.502703,34.119372],[139.502602,34.11946],[139.502398,34.119652],[139.502294,34.11975],[139.502,34.120028],[139.501921,34.120096],[139.501893,34.12012],[139.501759,34.120254],[139.501519,34.120541],[139.501403,34.12068],[139.501237,34.120896],[139.501139,34.121012],[139.501098,34.121041],[139.501037,34.121076],[139.500988,34.121094],[139.500915,34.121109],[139.500852,34.121119],[139.500742,34.121157],[139.500664,34.121194],[139.500547,34.121229],[139.50032,34.121235],[139.500197,34.121221],[139.499903,34.121133],[139.499331,34.120944],[139.499151,34.120895],[139.499087,34.120907],[139.498957,34.12092],[139.498792,34.120922],[139.498635,34.120904],[139.498466,34.120841]]}},{"type":"Feature","properties":{"id":154522062,"highway":"unclassified"},"geometry":{"type":"LineString","coordinates":[[139.514145,34.117855],[139.514247,34.117795],[139.514473,34.1177],[139.51459,34.117622],[139.514743,34.117458],[139.514887,34.117306],[139.514989,34.117245],[139.515105,34.11722],[139.515234,34.117232],[139.515357,34.11728],[139.515452,34.11739],[139.515504,34.117488],[139.515505,34.117589],[139.515494,34.117661],[139.51548,34.117768],[139.515482,34.11783],[139.515556,34.118025],[139.515621,34.118153],[139.515679,34.11828]]}},{"type":"Feature","properties":{"id":154522069,"highway":"unclassified"},"geometry":{"type":"LineString","coordinates":[[139.50023,34.114754],[139.500371,34.114643],[139.500473,34.114564],[139.500548,34.114533],[139.500566,34.11453],[139.500656,34.114597],[139.500709,34.114642],[139.500754,34.114665],[139.500804,34.114677],[139.500849,34.114688],[139.500906,34.114701],[139.500992,34.114714],[139.501044,34.114728],[139.50109,34.114746],[139.501371,34.114981],[139.501512,34.115101],[139.501581,34.115169],[139.501668,34.115243],[139.501768,34.115306],[139.502005,34.115433],[139.502359,34.11563]]}},{"type":"Feature","properties":{"id":154522117,"highway":"unclassified"},"geometry":{"type":"LineString","coordinates":[[139.535206,34.120307],[139.535194,34.120232],[139.535185,34.120126],[139.535257,34.120002],[139.53532,34.11989],[139.535347,34.119796],[139.535381,34.119632],[139.535413,34.119518],[139.535505,34.119268],[139.535597,34.119092],[139.53573,34.118935],[139.535792,34.118872],[139.535862,34.118803],[139.535959,34.118623],[139.536027,34.118482],[139.536103,34.118273],[139.536122,34.118182],[139.536112,34.118125],[139.536057,34.117912],[139.535988,34.117631],[139.535955,34.117503],[139.535951,34.11743],[139.535991,34.117373],[139.536035,34.117334],[139.536122,34.117286],[139.536377,34.117199],[139.536794,34.117084],[139.537072,34.117],[139.537355,34.116898],[139.537567,34.116832],[139.537846,34.116732],[139.537987,34.116658],[139.538131,34.116561],[139.538327,34.116381],[139.538412,34.11632],[139.538669,34.116193],[139.538794,34.11613],[139.538874,34.116084],[139.538928,34.116043]]}},{"type":"Feature","properties":{"id":154522136,"highway":"unclassified"},"geometry":{"type":"LineString","coordinates":[[139.522429,34.122283],[139.522448,34.122364]]}},{"type":"Feature","properties":{"id":154522142,"highway":"unclassified"},"geometry":{"type":"LineString","coordinates":[[139.556015,34.111817],[139.555918,34.111765]]}},{"type":"Feature","properties":{"id":154522223,"highway":"residential"},"geometry":{"type":"LineString","coordinates":[[139.524393,34.119699],[139.524511,34.119728],[139.524599,34.119748],[139.52466,34.119771],[139.524691,34.119788],[139.524704,34.119801],[139.524724,34.119829],[139.524757,34.119875],[139.524805,34.11992],[139.524876,34.119976],[139.524915,34.119995],[139.524968,34.120018],[139.525021,34.120039],[139.52509,34.120057],[139.525162,34.120071],[139.52529,34.120064],[139.525386,34.120058],[139.525466,34.120055],[139.525534,34.12005],[139.525615,34.120042],[139.525666,34.120027],[139.525753,34.119973],[139.525902,34.119891],[139.526106,34.119786],[139.52624,34.119707],[139.52633,34.11965],[139.526525,34.119534],[139.526674,34.119453],[139.526779,34.119404],[139.52683,34.119395],[139.526866,34.119394]]}},{"type":"Feature","properties":{"id":154522234,"highway":"unclassified"},"geometry":{"type":"LineString","coordinates":[[139.555918,34.111765],[139.555739,34.111789],[139.555606,34.111787],[139.555414,34.111761],[139.555182,34.111765],[139.554936,34.111828],[139.55481,34.111839],[139.554707,34.111825],[139.554467,34.111748],[139.554313,34.111737],[139.554013,34.111735],[139.553887,34.111758],[139.553551,34.111838],[139.553477,34.111841],[139.553384,34.111806],[139.553257,34.111735],[139.552931,34.111422],[139.552742,34.111182],[139.552541,34.110897],[139.552276,34.110602],[139.552102,34.110385],[139.551956,34.110206],[139.551669,34.109699],[139.551585,34.109588]]}},{"type":"Feature","properties":{"id":154522235,"highway":"tertiary"},"geometry":{"type":"LineString","coordinates":[[139.530663,34.122205],[139.530887,34.122428],[139.530915,34.122487],[139.530925,34.122561],[139.530891,34.122699],[139.530802,34.123192],[139.530783,34.123273],[139.530743,34.123324],[139.530677,34.123343],[139.530322,34.123368],[139.53025,34.123371],[139.530171,34.123361],[139.529902,34.123308],[139.529701,34.123276],[139.529619,34.123269],[139.529557,34.123279],[139.529482,34.123328],[139.529411,34.123412],[139.529396,34.123462],[139.529367,34.123895],[139.529413,34.123964],[139.529488,34.124025],[139.529609,34.124051],[139.529713,34.124038],[139.530504,34.123918],[139.531552,34.123762],[139.532367,34.123633],[139.53281,34.123637],[139.533318,34.123637],[139.533577,34.123615],[139.533898,34.123581],[139.534306,34.123521],[139.534454,34.123486],[139.53464,34.123413],[139.534923,34.123265]]}},{"type":"Feature","properties":{"id":154522257,"highway":"unclassified"},"geometry":{"type":"LineString","coordinates":[[139.549156,34.106711],[139.549456,34.107001],[139.549515,34.107102],[139.549572,34.107301],[139.549742,34.107552],[139.54975,34.107653],[139.549707,34.107808],[139.549656,34.107906],[139.549675,34.108064],[139.549764,34.108354],[139.549921,34.108715],[139.54998,34.10911],[139.550011,34.109203],[139.550063,34.109307],[139.550185,34.10941],[139.550566,34.109681],[139.550672,34.109719],[139.55093,34.109723],[139.551154,34.1097],[139.551226,34.109668],[139.551306,34.109561],[139.551392,34.109507],[139.551445,34.109504],[139.551512,34.109517],[139.551552,34.109537],[139.551585,34.109588]]}},{"type":"Feature","properties":{"id":154522298,"highway":"unclassified"},"geometry":{"type":"LineString","coordinates":[[139.498466,34.120841],[139.498571,34.12064],[139.498651,34.120494],[139.498743,34.120326],[139.498803,34.12018],[139.49882,34.120123],[139.498837,34.120048],[139.498852,34.119994],[139.498871,34.119953],[139.498966,34.11982],[139.499083,34.119653],[139.49914,34.119567],[139.499197,34.119478],[139.499246,34.11939],[139.499266,34.119353],[139.499277,34.119325],[139.49929,34.119274],[139.499298,34.119238],[139.499315,34.11918],[139.499332,34.11913],[139.499371,34.119072],[139.499439,34.118992],[139.499509,34.118911],[139.499552,34.118857],[139.49957,34.118835],[139.499584,34.118806],[139.499587,34.118778],[139.499591,34.118741],[139.499582,34.11863],[139.499567,34.118543],[139.49955,34.118432],[139.499533,34.118324],[139.499529,34.118294],[139.499526,34.118232],[139.499524,34.118176],[139.499532,34.118127],[139.499559,34.118075],[139.499601,34.118],[139.49965,34.117923],[139.499684,34.117865],[139.499691,34.117791],[139.499688,34.117726],[139.499678,34.117674],[139.499651,34.117585],[139.499635,34.117522],[139.499624,34.117478],[139.499619,34.117445],[139.499609,34.117402],[139.4996,34.117341],[139.499597,34.117286],[139.499586,34.117196],[139.499568,34.117133],[139.49955,34.117059],[139.499514,34.116949],[139.499469,34.116855],[139.499445,34.11681],[139.499419,34.116768],[139.499407,34.116752],[139.4994,34.116742],[139.499404,34.11673],[139.499423,34.116706],[139.499467,34.116664],[139.499514,34.116622],[139.49954,34.116593],[139.499552,34.116571],[139.499576,34.116509],[139.499599,34.116439],[139.499619,34.116392],[139.499625,34.116381],[139.499702,34.116312],[139.499785,34.116233],[139.499859,34.116161],[139.49989,34.116125],[139.499931,34.116067],[139.499974,34.115984],[139.499999,34.115918],[139.500023,34.115825],[139.500055,34.115774],[139.500116,34.115679],[139.500143,34.115628],[139.500141,34.115601],[139.500126,34.115544],[139.50011,34.115492],[139.500096,34.115439],[139.500212,34.115397],[139.500311,34.115362],[139.500487,34.115309]]}},{"type":"Feature","properties":{"id":154522314,"highway":"unclassified"},"geometry":{"type":"LineString","coordinates":[[139.500487,34.115309],[139.500501,34.115335],[139.500529,34.115368],[139.500561,34.115403],[139.50063,34.115495],[139.500687,34.11556],[139.500742,34.115629],[139.500812,34.115709],[139.500867,34.115772],[139.50092,34.11584],[139.500975,34.115923],[139.501011,34.115983],[139.501026,34.116023],[139.501082,34.116182],[139.501173,34.116403],[139.501182,34.11646],[139.501186,34.116562],[139.5012,34.116677],[139.501214,34.116793],[139.501225,34.1169],[139.501241,34.117006],[139.501269,34.117125],[139.501297,34.117186],[139.501328,34.117247],[139.501384,34.117342],[139.501455,34.117446],[139.501539,34.117554],[139.501653,34.117677],[139.501802,34.117798],[139.501926,34.117902],[139.502117,34.11807],[139.502228,34.118144],[139.502294,34.118194],[139.50235,34.118239],[139.502396,34.118297],[139.502431,34.118368],[139.502456,34.118452],[139.502466,34.118581],[139.502455,34.118715],[139.502452,34.118829],[139.502456,34.118876],[139.5025,34.118956],[139.502566,34.119039],[139.502633,34.119127],[139.502697,34.119187],[139.502783,34.119318]]}},{"type":"Feature","properties":{"id":154522316,"highway":"unclassified"},"geometry":{"type":"LineString","coordinates":[[139.534622,34.113517],[139.534694,34.11346],[139.535224,34.112926],[139.535702,34.112455],[139.536082,34.112174],[139.536217,34.112072],[139.536509,34.111915],[139.536617,34.11187],[139.53702,34.111761],[139.537119,34.11174],[139.537504,34.111566],[139.537604,34.111496],[139.537676,34.111395],[139.537704,34.11132],[139.537711,34.11119],[139.53767,34.111087],[139.537382,34.110681],[139.536862,34.110048],[139.536769,34.109909],[139.536738,34.109811],[139.536751,34.10972],[139.536815,34.109601],[139.537268,34.109162],[139.537578,34.108921],[139.537782,34.108679],[139.537889,34.108604],[139.538294,34.108432],[139.53856,34.108322],[139.538758,34.108179],[139.53883,34.108048],[139.53886,34.107929],[139.538882,34.107829],[139.538832,34.107699],[139.538724,34.107589]]}},{"type":"Feature","properties":{"id":154522332,"highway":"unclassified"},"geometry":{"type":"LineString","coordinates":[[139.500487,34.115309],[139.500563,34.115225],[139.50062,34.115144]]}},{"type":"Feature","properties":{"id":154522375,"highway":"unclassified"},"geometry":{"type":"LineString","coordinates":[[139.539132,34.107368],[139.539387,34.107262],[139.539917,34.107088],[139.540331,34.106908],[139.541423,34.106445],[139.541522,34.106411],[139.541632,34.106407],[139.541743,34.106448],[139.542031,34.106652],[139.542456,34.106921],[139.54255,34.106959],[139.54263,34.106964],[139.542725,34.106934],[139.542787,34.106863],[139.543102,34.106234],[139.543181,34.106116],[139.543275,34.106044],[139.543693,34.105971],[139.543798,34.105928],[139.543861,34.105802],[139.544008,34.105461],[139.544061,34.105394],[139.544111,34.105385],[139.544507,34.105442],[139.544573,34.105465],[139.544611,34.105542],[139.544695,34.105734],[139.54477,34.105817],[139.544915,34.105868],[139.545224,34.105851],[139.545337,34.10583],[139.545455,34.105775],[139.545686,34.10565],[139.54583,34.105571],[139.546026,34.105452],[139.546081,34.105432],[139.546155,34.105427],[139.546227,34.105435],[139.546382,34.105456],[139.546462,34.10548]]}},{"type":"Feature","properties":{"id":154522447,"highway":"unclassified"},"geometry":{"type":"LineString","coordinates":[[139.522251,34.121167],[139.522182,34.121135],[139.522117,34.121094],[139.52206,34.121058],[139.522056,34.120994],[139.522057,34.12092],[139.522049,34.120834],[139.522038,34.120772],[139.52202,34.120725],[139.521977,34.120663],[139.521938,34.120571],[139.521905,34.120498],[139.521862,34.120398],[139.521821,34.120302],[139.521789,34.120237]]}},{"type":"Feature","properties":{"id":154522451,"highway":"unclassified"},"geometry":{"type":"LineString","coordinates":[[139.524961,34.118619],[139.525004,34.118449],[139.525056,34.118341],[139.52512,34.118218],[139.525142,34.118157]]}},{"type":"Feature","properties":{"id":154522457,"highway":"unclassified"},"geometry":{"type":"LineString","coordinates":[[139.552604,34.108906],[139.552557,34.109001],[139.55233,34.109255],[139.552115,34.109412],[139.551865,34.109479],[139.551585,34.109588]]}},{"type":"Feature","properties":{"id":154522488,"highway":"unclassified"},"geometry":{"type":"LineString","coordinates":[[139.524393,34.119699],[139.524368,34.119761],[139.524344,34.119815],[139.52431,34.119867],[139.524265,34.119918],[139.524167,34.119989],[139.524099,34.120032],[139.524026,34.120064],[139.52391,34.120117],[139.523792,34.120168],[139.523745,34.12019],[139.523654,34.120255],[139.523567,34.120318],[139.523493,34.12038]]}},{"type":"Feature","properties":{"id":154522522,"highway":"unclassified"},"geometry":{"type":"LineString","coordinates":[[139.538172,34.120951],[139.538309,34.120849],[139.538339,34.120821],[139.538414,34.120741],[139.5385,34.120599],[139.538562,34.12049],[139.538608,34.120412],[139.538652,34.120372],[139.538709,34.120347],[139.538762,34.120335],[139.538844,34.120335],[139.539051,34.120332],[139.539186,34.120316],[139.539379,34.120282],[139.539524,34.120262],[139.539644,34.120257],[139.539713,34.120262],[139.539818,34.120284],[139.539989,34.120328],[139.540246,34.120401],[139.540423,34.120448],[139.54052,34.120439],[139.540659,34.120417],[139.540742,34.120399],[139.540986,34.120354],[139.541304,34.120297],[139.541398,34.120277],[139.541516,34.120215],[139.541641,34.120128],[139.541736,34.12007],[139.54186,34.120038],[139.542057,34.120009],[139.542607,34.119924],[139.542702,34.119891],[139.542768,34.11986],[139.542905,34.119773],[139.542958,34.119744],[139.543166,34.11966],[139.543475,34.119542],[139.543833,34.119404],[139.543925,34.119361],[139.544033,34.119298],[139.544131,34.119251],[139.54418,34.119237],[139.54425,34.119237],[139.544347,34.119259],[139.544412,34.119267],[139.544468,34.11926],[139.544531,34.119237],[139.544601,34.119195],[139.544638,34.119151],[139.544672,34.11908],[139.544703,34.11899],[139.544721,34.11892],[139.54474,34.118844]]}},{"type":"Feature","properties":{"id":154522524,"highway":"service"},"geometry":{"type":"LineString","coordinates":[[139.559528,34.10108],[139.559611,34.10102],[139.559632,34.10096],[139.559604,34.100856],[139.559546,34.10069],[139.559524,34.10055],[139.559526,34.100402],[139.559557,34.100176],[139.559622,34.099987],[139.55967,34.099879],[139.559689,34.099834],[139.559735,34.099759],[139.559852,34.099618],[139.559944,34.09953],[139.560047,34.099443],[139.560124,34.099399],[139.560346,34.099318],[139.560435,34.099291],[139.560512,34.099284],[139.560595,34.099288],[139.560698,34.099315],[139.561145,34.099434],[139.56169,34.099628],[139.561761,34.099646]]}},{"type":"Feature","properties":{"id":154522529,"highway":"unclassified"},"geometry":{"type":"LineString","coordinates":[[139.538928,34.116043],[139.53894,34.115972],[139.538943,34.115905],[139.538925,34.11584],[139.538894,34.115798],[139.538847,34.115762],[139.53876,34.115717],[139.538685,34.11568],[139.538586,34.115636],[139.538484,34.115605],[139.538374,34.115601],[139.538289,34.115621],[139.538129,34.115681],[139.538003,34.115738],[139.537883,34.115794],[139.537423,34.115989],[139.537258,34.116051],[139.537151,34.116081],[139.537084,34.116085],[139.536999,34.116089],[139.536723,34.116076],[139.536542,34.11606],[139.536366,34.116031],[139.536224,34.116013],[139.536069,34.116011],[139.535919,34.11603],[139.535764,34.116084],[139.535557,34.116185],[139.53532,34.11631],[139.535163,34.116401],[139.535012,34.116486],[139.534921,34.116522],[139.534799,34.11656],[139.53468,34.116587],[139.534504,34.116618],[139.534382,34.116631],[139.534256,34.116635],[139.534125,34.116614],[139.533967,34.116571],[139.533849,34.116528],[139.533758,34.116486],[139.533693,34.116446],[139.533615,34.116397],[139.533535,34.116335],[139.533462,34.116261],[139.53342,34.116202],[139.533385,34.116127],[139.533354,34.116029],[139.533344,34.115943],[139.53335,34.115863],[139.533371,34.115789],[139.533399,34.115726],[139.533448,34.115637],[139.533511,34.115536],[139.533531,34.115489],[139.533544,34.115407],[139.533546,34.115345],[139.533537,34.115274],[139.533511,34.115222],[139.533478,34.115179],[139.533433,34.115114],[139.533393,34.115014],[139.533349,34.114916],[139.533299,34.114851],[139.533263,34.1148],[139.533216,34.114726],[139.533188,34.11465],[139.533173,34.114605],[139.533151,34.114523],[139.533128,34.114469],[139.533086,34.11442],[139.53301,34.114351],[139.532925,34.114291],[139.532878,34.114233],[139.532852,34.114157],[139.532864,34.114075],[139.532945,34.114007],[139.533139,34.113922],[139.533315,34.113859],[139.533552,34.113778],[139.533671,34.113749],[139.533748,34.113752],[139.533865,34.113779],[139.534028,34.113804],[139.534116,34.113798],[139.534217,34.113766],[139.534323,34.113708],[139.534522,34.113587],[139.534622,34.113517]]}},{"type":"Feature","properties":{"id":154522534,"highway":"unclassified"},"geometry":{"type":"LineString","coordinates":[[139.553659,34.102337],[139.553595,34.10221],[139.553521,34.102145],[139.55336,34.102078],[139.553164,34.102058],[139.552819,34.102001],[139.552417,34.101893],[139.552142,34.101788]]}},{"type":"Feature","properties":{"id":154522538,"highway":"unclassified"},"geometry":{"type":"LineString","coordinates":[[139.50757,34.118688],[139.507642,34.118522],[139.507677,34.118454],[139.507694,34.118418],[139.50772,34.118334],[139.507734,34.118265],[139.507743,34.118187],[139.50777,34.118116],[139.507806,34.11806],[139.507844,34.118009],[139.5079,34.117935]]}},{"type":"Feature","properties":{"id":154522542,"highway":"unclassified"},"geometry":{"type":"LineString","coordinates":[[139.524961,34.118619],[139.524938,34.118694],[139.524913,34.118767],[139.524879,34.118841],[139.524837,34.118957],[139.524819,34.119035],[139.524814,34.119092],[139.524821,34.119208],[139.524834,34.11926],[139.524819,34.119291],[139.524685,34.119369],[139.524598,34.119427],[139.52453,34.119489],[139.524487,34.119534],[139.524449,34.119598],[139.524393,34.119699]]}},{"type":"Feature","properties":{"id":154522556,"highway":"unclassified"},"geometry":{"type":"LineString","coordinates":[[139.552604,34.108906],[139.552124,34.108499],[139.551908,34.108345],[139.551729,34.108174],[139.551686,34.108055],[139.551704,34.107985],[139.551792,34.107785],[139.551883,34.107655],[139.551951,34.107553],[139.552086,34.107402],[139.552106,34.107159],[139.552098,34.107046],[139.552059,34.106969],[139.551966,34.106857],[139.551949,34.106779],[139.551974,34.106714],[139.552059,34.106646],[139.552308,34.106489],[139.552501,34.106401],[139.552596,34.106211],[139.552629,34.106143],[139.55285,34.106009],[139.552927,34.105929],[139.552943,34.105759],[139.552872,34.105591],[139.552869,34.105497],[139.552995,34.105277],[139.553023,34.105183],[139.553004,34.105103],[139.552839,34.104878],[139.552524,34.104567],[139.552323,34.104387],[139.552303,34.104322],[139.552318,34.104243],[139.552455,34.104129],[139.552493,34.104056],[139.552489,34.103976],[139.55248,34.103826],[139.552492,34.10376],[139.55253,34.103707]]}},{"type":"Feature","properties":{"id":154522574,"highway":"unclassified"},"geometry":{"type":"LineString","coordinates":[[139.551182,34.101155],[139.551125,34.100955],[139.551102,34.100884],[139.551011,34.100777],[139.550763,34.100583],[139.550501,34.100389],[139.550353,34.100294],[139.549759,34.100035],[139.549665,34.099998],[139.549594,34.099975],[139.549541,34.099969],[139.549462,34.099986],[139.549316,34.100067],[139.549042,34.100208],[139.548959,34.100237],[139.548881,34.100229],[139.548812,34.100195],[139.548765,34.100156],[139.548745,34.100117],[139.54871,34.10002],[139.54868,34.099859],[139.548643,34.099688],[139.548616,34.099617],[139.548543,34.099554],[139.548403,34.099508],[139.548337,34.099514],[139.548286,34.099546],[139.54806,34.099922],[139.547994,34.099968],[139.547901,34.099976],[139.547795,34.099916],[139.547519,34.09928],[139.547474,34.099245],[139.547405,34.099238],[139.547365,34.099252],[139.547307,34.099291],[139.547282,34.099345],[139.547214,34.099809],[139.54718,34.099866],[139.547109,34.099891],[139.547048,34.099884],[139.546992,34.099831],[139.546909,34.099616],[139.54688,34.099563],[139.546854,34.099549],[139.546814,34.099548],[139.546755,34.099586],[139.546726,34.099639],[139.546683,34.099805],[139.546658,34.09985],[139.546616,34.099882],[139.546577,34.099891],[139.546512,34.099888],[139.546258,34.099813],[139.545726,34.099657],[139.545636,34.099609]]}},{"type":"Feature","properties":{"id":154522599,"highway":"unclassified"},"geometry":{"type":"LineString","coordinates":[[139.522429,34.122283],[139.522413,34.122183],[139.522369,34.122067],[139.522352,34.121998],[139.522329,34.121903],[139.522309,34.1218],[139.522301,34.121693],[139.522294,34.121581],[139.52228,34.121451],[139.522268,34.121338],[139.522265,34.121251],[139.522251,34.121167]]}},{"type":"Feature","properties":{"id":154522607,"highway":"unclassified"},"geometry":{"type":"LineString","coordinates":[[139.502783,34.119318],[139.502825,34.119369],[139.50289,34.11945],[139.502947,34.119505],[139.503062,34.119561],[139.50327,34.119598],[139.503321,34.119632],[139.50335,34.119681]]}},{"type":"Feature","properties":{"id":154522622,"highway":"residential"},"geometry":{"type":"LineString","coordinates":[[139.522448,34.122364],[139.522462,34.122389],[139.522511,34.122412],[139.522549,34.12242],[139.522613,34.122415],[139.522691,34.122394],[139.522776,34.122369],[139.522861,34.122352],[139.522917,34.122353],[139.522977,34.122369],[139.523037,34.122394],[139.523092,34.122437],[139.523131,34.122479],[139.523149,34.122531],[139.523188,34.122661],[139.523229,34.122747],[139.523269,34.122831],[139.523301,34.122856],[139.523345,34.122874],[139.523426,34.122884],[139.523504,34.12289],[139.523581,34.122895],[139.52368,34.1229],[139.523852,34.122912],[139.524003,34.122922],[139.524179,34.122927],[139.524314,34.122929],[139.524411,34.12292],[139.524493,34.122899],[139.524574,34.12287],[139.524726,34.122831],[139.525099,34.122829],[139.525337,34.122831],[139.525396,34.122825],[139.525488,34.122805],[139.52561,34.122772],[139.525737,34.122748],[139.525845,34.122734],[139.525947,34.122727],[139.526048,34.122717],[139.526133,34.122704],[139.526206,34.122692],[139.526269,34.122677],[139.526339,34.122654],[139.526405,34.122637],[139.526496,34.122606],[139.526587,34.122579],[139.526702,34.122547],[139.526805,34.122516],[139.526864,34.122458],[139.526935,34.122379],[139.526981,34.122318],[139.527047,34.122252],[139.527087,34.122225],[139.52718,34.122197],[139.527234,34.122184]]}},{"type":"Feature","properties":{"id":154523906,"highway":"unclassified"},"geometry":{"type":"LineString","coordinates":[[139.521021,34.122474],[139.521067,34.122414],[139.521143,34.122387],[139.521237,34.122376],[139.521438,34.12237],[139.521576,34.122337],[139.521708,34.12231],[139.521813,34.122316],[139.521943,34.122336],[139.522064,34.122338],[139.522243,34.122317],[139.522429,34.122283]]}},{"type":"Feature","properties":{"id":154523983,"highway":"unclassified"},"geometry":{"type":"LineString","coordinates":[[139.545636,34.099609],[139.545615,34.099731],[139.545615,34.099788],[139.545648,34.099842],[139.545967,34.100145],[139.546024,34.100198],[139.546037,34.100241],[139.546023,34.100298],[139.545965,34.100346],[139.545888,34.100383],[139.545749,34.100424],[139.545414,34.100555],[139.545336,34.100641],[139.545321,34.100749],[139.54537,34.100893],[139.545366,34.101107],[139.545406,34.101163],[139.545548,34.101283],[139.545683,34.101375],[139.545749,34.101457],[139.5459,34.101712],[139.54593,34.101746],[139.545989,34.101771],[139.546078,34.101788],[139.5463,34.101836],[139.546496,34.10184],[139.546588,34.101866],[139.546634,34.101908],[139.546653,34.101954],[139.546653,34.102023],[139.546628,34.102096],[139.546585,34.102187],[139.546535,34.102278],[139.546508,34.102323],[139.546493,34.102354],[139.546488,34.10239],[139.546501,34.102424],[139.546519,34.102443],[139.546553,34.102455],[139.546581,34.102461],[139.54662,34.102471],[139.546771,34.102483],[139.54685,34.102514],[139.546891,34.102565],[139.546919,34.102643],[139.546955,34.102851],[139.547045,34.103085],[139.547077,34.103264],[139.547092,34.103812],[139.547053,34.103917],[139.546976,34.103986],[139.546572,34.104274],[139.546497,34.104312],[139.546319,34.104366],[139.546269,34.104401],[139.546243,34.104465],[139.546233,34.104762],[139.546251,34.104826],[139.546279,34.104884],[139.546326,34.104939],[139.546419,34.105007],[139.546544,34.105065],[139.546596,34.105096],[139.546641,34.105155],[139.546661,34.105211],[139.546655,34.10528],[139.546619,34.105346],[139.546545,34.105412],[139.546462,34.10548]]}},{"type":"Feature","properties":{"id":154523999,"highway":"residential"},"geometry":{"type":"LineString","coordinates":[[139.521888,34.123976],[139.521833,34.123856],[139.521752,34.12377],[139.521693,34.123708],[139.521626,34.123635],[139.521571,34.123558],[139.521503,34.123424],[139.521457,34.1233],[139.521425,34.123228],[139.5214,34.123192],[139.521351,34.123152],[139.521295,34.123085],[139.521266,34.12303],[139.521228,34.122941],[139.521181,34.122839],[139.521148,34.122746],[139.521132,34.122661],[139.521124,34.122592],[139.521082,34.122533],[139.521021,34.122474]]}},{"type":"Feature","properties":{"id":154524034,"highway":"secondary"},"geometry":{"type":"LineString","coordinates":[[139.50757,34.118688],[139.507757,34.1186],[139.508022,34.118465],[139.508309,34.118324],[139.508676,34.11815],[139.508897,34.118038],[139.50906,34.117957],[139.509179,34.117915],[139.509302,34.117896],[139.509429,34.117876],[139.509593,34.117882],[139.509695,34.117895],[139.50978,34.117911],[139.50984,34.117924]]}},{"type":"Feature","properties":{"id":154524041,"highway":"secondary"},"geometry":{"type":"LineString","coordinates":[[139.506663,34.119137],[139.506581,34.119176],[139.506469,34.119215],[139.506349,34.119226],[139.506239,34.119226],[139.506098,34.119207],[139.506007,34.119191],[139.505971,34.119184],[139.505794,34.119164],[139.505669,34.119153],[139.505525,34.119133],[139.505337,34.119105]]}},{"type":"Feature","properties":{"id":154524052,"highway":"secondary"},"geometry":{"type":"LineString","coordinates":[[139.50984,34.117924],[139.510056,34.118002],[139.510204,34.118042],[139.510353,34.118058],[139.510496,34.118058],[139.510649,34.118045],[139.510784,34.118006],[139.510997,34.117956],[139.511274,34.11789],[139.511511,34.117833],[139.511773,34.117778],[139.511963,34.117765],[139.512138,34.117768],[139.512271,34.117771],[139.512899,34.117804],[139.512919,34.117805],[139.513239,34.117816],[139.513974,34.117848],[139.514145,34.117855]]}},{"type":"Feature","properties":{"id":154524053,"highway":"secondary"},"geometry":{"type":"LineString","coordinates":[[139.530019,34.121476],[139.530126,34.121464],[139.530397,34.121436],[139.530666,34.121404],[139.530937,34.121382],[139.531173,34.121382],[139.531447,34.121394],[139.53161,34.121402],[139.531753,34.121407],[139.531883,34.1214],[139.53202,34.121375],[139.532212,34.121322],[139.53232,34.12128],[139.532502,34.121204],[139.532951,34.121005],[139.533085,34.120953],[139.533223,34.120904],[139.533366,34.120863],[139.533522,34.120822],[139.533845,34.120764],[139.534222,34.120689],[139.534416,34.120651],[139.53451,34.120628],[139.534636,34.12059]]}},{"type":"Feature","properties":{"id":154524072,"highway":"secondary"},"geometry":{"type":"LineString","coordinates":[[139.559638,34.096194],[139.559385,34.096502],[139.559339,34.096593],[139.559295,34.096734],[139.559218,34.097232],[139.559192,34.09737],[139.559179,34.097423],[139.559143,34.097494],[139.559086,34.097539],[139.558999,34.097589],[139.558892,34.097609],[139.558731,34.09761],[139.558323,34.097612],[139.557862,34.097589],[139.557762,34.097587],[139.557672,34.0976],[139.557601,34.097683],[139.557597,34.097787],[139.557621,34.097842],[139.557685,34.097869],[139.557755,34.097887],[139.557873,34.097909],[139.558059,34.097947],[139.55821,34.098006],[139.558352,34.098071],[139.558481,34.098168],[139.558581,34.098263],[139.558683,34.098407],[139.558752,34.098488],[139.55883,34.098554],[139.558892,34.098579],[139.558955,34.098584],[139.55904,34.098571],[139.559111,34.098538],[139.559305,34.098348],[139.559363,34.098318],[139.559431,34.098297],[139.559479,34.098299],[139.55958,34.098319],[139.559682,34.098355],[139.559758,34.098441],[139.559784,34.098508],[139.55979,34.098596],[139.559747,34.098689],[139.559696,34.098798],[139.559484,34.099173],[139.559357,34.099326],[139.558885,34.099875],[139.558839,34.099994],[139.558819,34.100105],[139.558836,34.100228],[139.558901,34.100383],[139.559528,34.10108],[139.559921,34.101518],[139.559982,34.101607],[139.560029,34.101711],[139.560024,34.101861],[139.559977,34.102058],[139.559963,34.102084],[139.559176,34.104498],[139.558944,34.105207]]}},{"type":"Feature","properties":{"id":154524081,"highway":"secondary"},"geometry":{"type":"LineString","coordinates":[[139.523363,34.12034],[139.52345,34.120364],[139.523493,34.12038],[139.523557,34.120418],[139.523605,34.120458],[139.523662,34.1205],[139.523736,34.120566],[139.523947,34.120788],[139.524053,34.120891],[139.524143,34.120969],[139.524219,34.121015],[139.524309,34.12105],[139.524379,34.12107],[139.524528,34.121088],[139.524795,34.121111],[139.524923,34.121122],[139.525056,34.121154],[139.525143,34.121192],[139.52524,34.12125],[139.525343,34.121316],[139.525453,34.121361],[139.52554,34.121388],[139.525637,34.121399],[139.525826,34.1214],[139.526062,34.12139],[139.526329,34.12138],[139.526659,34.12137],[139.526899,34.121361]]}},{"type":"Feature","properties":{"id":154524088,"highway":"secondary"},"geometry":{"type":"LineString","coordinates":[[139.539325,34.118731],[139.539413,34.118716],[139.539678,34.118667],[139.540173,34.118572],[139.540817,34.118443],[139.540942,34.118424],[139.541395,34.118369],[139.541673,34.118324],[139.541819,34.118297],[139.541867,34.118288]]}},{"type":"Feature","properties":{"id":154524092,"highway":"secondary"},"geometry":{"type":"LineString","coordinates":[[139.543519,34.117987],[139.543666,34.117941],[139.543865,34.117844],[139.543948,34.117783],[139.544017,34.117733],[139.544126,34.117671],[139.544317,34.117594],[139.544559,34.117524],[139.544697,34.117495],[139.544824,34.117469],[139.545,34.117446],[139.545257,34.117433],[139.545462,34.117426],[139.54552,34.117424],[139.545749,34.117418],[139.545863,34.117406],[139.545953,34.11738],[139.546042,34.117343],[139.546101,34.117309]]}},{"type":"Feature","properties":{"id":154524096,"highway":"secondary"},"geometry":{"type":"LineString","coordinates":[[139.521286,34.119937],[139.521509,34.120078],[139.521667,34.120177],[139.521789,34.120237]]}},{"type":"Feature","properties":{"id":154524104,"highway":"secondary"},"geometry":{"type":"LineString","coordinates":[[139.505337,34.119105],[139.505136,34.119092]]}},{"type":"Feature","properties":{"id":154524106,"highway":"secondary"},"geometry":{"type":"LineString","coordinates":[[139.535206,34.120307],[139.534969,34.120447],[139.534779,34.120539],[139.534636,34.12059]]}},{"type":"Feature","properties":{"id":154524139,"highway":"secondary"},"geometry":{"type":"LineString","coordinates":[[139.515679,34.11828],[139.515736,34.118326],[139.515816,34.118389],[139.515978,34.118548],[139.516097,34.118668],[139.516224,34.118782],[139.516327,34.118851],[139.516441,34.11892],[139.516593,34.119],[139.51665,34.119031],[139.516837,34.119138],[139.517029,34.119245],[139.517228,34.119354],[139.517491,34.119485],[139.517923,34.119676],[139.518119,34.119758],[139.518237,34.119805],[139.518427,34.11988],[139.518525,34.119916],[139.518699,34.119964],[139.518973,34.120015],[139.519241,34.120057]]}},{"type":"Feature","properties":{"id":154524152,"highway":"secondary"},"geometry":{"type":"LineString","coordinates":[[139.546298,34.117157],[139.546369,34.117074],[139.546439,34.116994],[139.546549,34.116856],[139.546707,34.11667],[139.546894,34.116514],[139.547109,34.11638],[139.547257,34.116299],[139.54753,34.116206],[139.547801,34.116144],[139.548221,34.116103],[139.548591,34.116068],[139.548802,34.116044],[139.548964,34.116013],[139.549165,34.115958],[139.549348,34.115886],[139.549555,34.115771],[139.549721,34.115648],[139.549937,34.11549]]}},{"type":"Feature","properties":{"id":154524154,"highway":"secondary"},"geometry":{"type":"LineString","coordinates":[[139.551391,34.114569],[139.551608,34.114401],[139.55187,34.114229],[139.551964,34.114178],[139.552082,34.114131],[139.552229,34.114112],[139.552374,34.11409],[139.552521,34.114027],[139.55262,34.113946],[139.552674,34.113879],[139.552712,34.113801],[139.552733,34.113704],[139.552722,34.113545],[139.552728,34.113435],[139.552767,34.113332],[139.552826,34.11325],[139.552914,34.11317],[139.553008,34.11312],[139.553271,34.113008],[139.553416,34.112963],[139.553563,34.112931],[139.553741,34.112905],[139.553827,34.112885],[139.553919,34.112848],[139.554011,34.112789],[139.554086,34.11272],[139.554191,34.112563]]}},{"type":"Feature","properties":{"id":154524156,"highway":"secondary"},"geometry":{"type":"LineString","coordinates":[[139.504109,34.118226],[139.504028,34.118175],[139.503942,34.118135],[139.503446,34.118045],[139.50326,34.118027],[139.503178,34.118007],[139.503092,34.117981],[139.503032,34.117957],[139.502949,34.117914],[139.502852,34.117843],[139.502784,34.117779],[139.502743,34.117719],[139.502694,34.117639],[139.502655,34.117534],[139.502578,34.117384],[139.502514,34.117217],[139.502376,34.116951],[139.502286,34.116778],[139.502165,34.11662],[139.501982,34.116408],[139.501881,34.116307],[139.501844,34.116269],[139.501719,34.116129],[139.501594,34.115997],[139.50149,34.11589],[139.501403,34.115788],[139.501323,34.11568],[139.501162,34.115446],[139.501059,34.115345],[139.500992,34.1153],[139.500897,34.11526],[139.500801,34.115222],[139.500723,34.115194],[139.50062,34.115144]]}},{"type":"Feature","properties":{"id":154524182,"highway":"secondary"},"geometry":{"type":"LineString","coordinates":[[139.50062,34.115144],[139.50053,34.115052],[139.500414,34.114939],[139.50023,34.114754]]}},{"type":"Feature","properties":{"id":154524187,"highway":"secondary"},"geometry":{"type":"LineString","coordinates":[[139.50023,34.114754],[139.500192,34.114719],[139.500164,34.114695],[139.500067,34.114608],[139.499934,34.114495],[139.499867,34.114429],[139.499804,34.11437]]}},{"type":"Feature","properties":{"id":154524192,"highway":"secondary"},"geometry":{"type":"LineString","coordinates":[[139.528891,34.121656],[139.528969,34.121664],[139.529054,34.121668],[139.529166,34.121666],[139.529266,34.121651],[139.529358,34.121635],[139.529461,34.121599],[139.529651,34.121541],[139.529813,34.121503],[139.530019,34.121476]]}},{"type":"Feature","properties":{"id":154524193,"highway":"secondary"},"geometry":{"type":"LineString","coordinates":[[139.535206,34.120307],[139.535377,34.120194],[139.535536,34.120116],[139.535701,34.12005],[139.536411,34.119841],[139.53668,34.11976],[139.536772,34.11973]]}},{"type":"Feature","properties":{"id":154524213,"highway":"secondary"},"geometry":{"type":"LineString","coordinates":[[139.558338,34.10708],[139.558282,34.107274],[139.558251,34.107551],[139.558229,34.108002],[139.558205,34.108643],[139.558152,34.108868],[139.558081,34.109063],[139.557996,34.109206],[139.557888,34.109391],[139.557669,34.109786],[139.557529,34.110101],[139.557457,34.110256],[139.55736,34.110391],[139.557023,34.110767],[139.556628,34.111184],[139.556501,34.111312],[139.556183,34.111655],[139.556015,34.111817],[139.55595,34.111864],[139.555877,34.111911],[139.555785,34.111968],[139.555662,34.112027],[139.555503,34.112098],[139.555363,34.112145],[139.555195,34.112189],[139.554948,34.112249],[139.554696,34.112284],[139.554565,34.112313],[139.554457,34.112356],[139.554304,34.11244]]}},{"type":"Feature","properties":{"id":154524232,"highway":"secondary"},"geometry":{"type":"LineString","coordinates":[[139.521789,34.120237],[139.521911,34.120275],[139.522132,34.120312],[139.522324,34.120342],[139.5225,34.12037],[139.522564,34.120376],[139.522675,34.120381],[139.522781,34.12037],[139.522917,34.120349],[139.523028,34.120323],[139.52312,34.120319],[139.523245,34.120329],[139.523363,34.12034]]}},{"type":"Feature","properties":{"id":154524248,"highway":"secondary"},"geometry":{"type":"LineString","coordinates":[[139.527851,34.121411],[139.528062,34.121441],[139.528218,34.121474],[139.528403,34.121522],[139.528693,34.121606],[139.528759,34.121626],[139.528834,34.121645],[139.528891,34.121656]]}},{"type":"Feature","properties":{"id":154524258,"highway":"secondary"},"geometry":{"type":"LineString","coordinates":[[139.514457,34.117873],[139.514624,34.117885],[139.514804,34.11791],[139.514969,34.117948],[139.51514,34.118001],[139.515326,34.118085]]}},{"type":"Feature","properties":{"id":154524266,"highway":"secondary"},"geometry":{"type":"LineString","coordinates":[[139.510148,34.119652],[139.510369,34.119501],[139.510498,34.119427],[139.510711,34.119334],[139.510727,34.119328],[139.510858,34.119286],[139.511011,34.119239],[139.511239,34.119187],[139.511586,34.119169],[139.51204,34.119143],[139.512278,34.119115],[139.51251,34.119117],[139.512765,34.119145],[139.512988,34.119163],[139.512952,34.119399],[139.513376,34.119429],[139.513803,34.119494]]}},{"type":"Feature","properties":{"id":154524267,"highway":"secondary"},"geometry":{"type":"LineString","coordinates":[[139.510148,34.119652],[139.510063,34.119681],[139.50997,34.119701],[139.509914,34.119707],[139.509835,34.119723],[139.50978,34.119741],[139.509679,34.119794],[139.509515,34.119897],[139.50946,34.119928],[139.509395,34.119981],[139.509318,34.120044],[139.509241,34.120134],[139.50919,34.120224],[139.509146,34.120295],[139.509064,34.120396],[139.508985,34.120456],[139.508846,34.120545],[139.508595,34.120701],[139.508521,34.12075],[139.508458,34.120793],[139.508386,34.120837]]}},{"type":"Feature","properties":{"id":154524268,"highway":"secondary"},"geometry":{"type":"LineString","coordinates":[[139.508386,34.120837],[139.50774,34.121265]]}},{"type":"Feature","properties":{"id":154524269,"highway":"secondary"},"geometry":{"type":"LineString","coordinates":[[139.50774,34.121265],[139.507651,34.121318],[139.50749,34.121374],[139.507442,34.121388],[139.507406,34.12139],[139.507356,34.121398],[139.507326,34.1214],[139.507299,34.1214],[139.507235,34.121395],[139.507172,34.121391],[139.507107,34.121376],[139.507034,34.121359],[139.506961,34.121327],[139.506897,34.12129],[139.506676,34.121108],[139.506566,34.121014],[139.506517,34.120972],[139.506304,34.120812],[139.506101,34.120669],[139.505878,34.120501],[139.505713,34.120384],[139.505614,34.120314],[139.50556,34.120273],[139.505474,34.120213],[139.505379,34.120136],[139.505291,34.120033],[139.505248,34.119938],[139.505207,34.119852],[139.505182,34.119742],[139.505174,34.119606],[139.505164,34.119492],[139.505162,34.119465],[139.505147,34.119382],[139.505121,34.119287],[139.505115,34.119182],[139.505136,34.119092]]}},{"type":"Feature","properties":{"id":394867558,"highway":"service"},"geometry":{"type":"LineString","coordinates":[[139.512138,34.117768],[139.512306,34.117829],[139.512447,34.117866],[139.512608,34.11789],[139.512695,34.117894],[139.5128,34.117888],[139.512867,34.117856],[139.512919,34.117805]]}},{"type":"Feature","properties":{"id":394926745,"highway":"unclassified"},"geometry":{"type":"LineString","coordinates":[[139.501173,34.116403],[139.501274,34.116399],[139.50139,34.116397],[139.501478,34.116392],[139.501596,34.116386],[139.501681,34.116373],[139.501773,34.116348],[139.501836,34.116327],[139.501881,34.116307]]}},{"type":"Feature","properties":{"id":428192173,"highway":"service"},"geometry":{"type":"LineString","coordinates":[[139.503504,34.120705],[139.503937,34.12089],[139.504185,34.120947]]}},{"type":"Feature","properties":{"id":428192174,"highway":"service"},"geometry":{"type":"LineString","coordinates":[[139.504031,34.120196],[139.504286,34.120276],[139.504434,34.120284],[139.504628,34.120272]]}},{"type":"Feature","properties":{"id":428192175,"highway":"service"},"geometry":{"type":"LineString","coordinates":[[139.504248,34.121187],[139.504179,34.121105],[139.504156,34.120991],[139.504185,34.120947],[139.504628,34.120272],[139.505111,34.119536],[139.505164,34.119492]]}},{"type":"Feature","properties":{"id":436223321,"highway":"secondary"},"geometry":{"type":"LineString","coordinates":[[139.558944,34.105207],[139.558873,34.105433]]}},{"type":"Feature","properties":{"id":436223324,"highway":"secondary"},"geometry":{"type":"LineString","coordinates":[[139.558373,34.106956],[139.558338,34.10708]]}},{"type":"Feature","properties":{"id":436223327,"highway":"secondary"},"geometry":{"type":"LineString","coordinates":[[139.558873,34.105433],[139.558373,34.106956]]}},{"type":"Feature","properties":{"id":436223339,"highway":"residential"},"geometry":{"type":"LineString","coordinates":[[139.558251,34.107551],[139.558612,34.107551]]}},{"type":"Feature","properties":{"id":436223342,"highway":"residential"},"geometry":{"type":"LineString","coordinates":[[139.557456,34.108753],[139.558031,34.109038],[139.558081,34.109063]]}},{"type":"Feature","properties":{"id":436231948,"highway":"secondary"},"geometry":{"type":"LineString","coordinates":[[139.554191,34.112563],[139.55425,34.112494],[139.554304,34.11244]]}},{"type":"Feature","properties":{"id":436231950,"highway":"unclassified"},"geometry":{"type":"LineString","coordinates":[[139.552712,34.113801],[139.552796,34.113809],[139.552843,34.11383],[139.552883,34.113901],[139.552925,34.114029],[139.552936,34.114128],[139.55293,34.114177],[139.552886,34.114238],[139.552831,34.114273],[139.552739,34.11429],[139.552627,34.114272],[139.552425,34.114202],[139.552374,34.11409]]}},{"type":"Feature","properties":{"id":436231956,"highway":"unclassified"},"geometry":{"type":"LineString","coordinates":[[139.552374,34.11409],[139.552313,34.113951],[139.552301,34.113888],[139.552332,34.113815],[139.552391,34.113731],[139.552403,34.113661]]}},{"type":"Feature","properties":{"id":436231959,"highway":"unclassified"},"geometry":{"type":"LineString","coordinates":[[139.554086,34.11272],[139.554104,34.112771],[139.554109,34.112863],[139.554083,34.112945],[139.554014,34.113005],[139.553933,34.113032],[139.553884,34.113031],[139.553821,34.112996],[139.553741,34.112905]]}},{"type":"Feature","properties":{"id":436513605,"highway":"secondary"},"geometry":{"type":"LineString","coordinates":[[139.504235,34.118341],[139.504109,34.118226]]}},{"type":"Feature","properties":{"id":436513613,"highway":"secondary"},"geometry":{"type":"LineString","coordinates":[[139.505136,34.119092],[139.505021,34.119043],[139.504934,34.118992],[139.504828,34.118912],[139.50466,34.11875],[139.504539,34.118633],[139.50433,34.118434],[139.504235,34.118341]]}},{"type":"Feature","properties":{"id":436513630,"highway":"unclassified"},"geometry":{"type":"LineString","coordinates":[[139.505794,34.119164],[139.505766,34.11911],[139.505551,34.118887],[139.505526,34.118842],[139.505516,34.118784],[139.505477,34.1185],[139.505457,34.118431],[139.505113,34.118128],[139.504983,34.118051],[139.504738,34.117899],[139.504632,34.117859],[139.504541,34.117855],[139.504431,34.117885],[139.504309,34.11807],[139.504264,34.118091]]}},{"type":"Feature","properties":{"id":436513633,"highway":"unclassified"},"geometry":{"type":"LineString","coordinates":[[139.514245,34.120037],[139.514198,34.12004],[139.513904,34.119919],[139.513644,34.11983],[139.513299,34.119738],[139.513093,34.119697],[139.512869,34.119664],[139.512677,34.119647],[139.512453,34.119636],[139.51202,34.119637],[139.511667,34.119662],[139.511393,34.119696],[139.51117,34.119723],[139.510834,34.119784],[139.510585,34.119847],[139.510332,34.119922],[139.510055,34.120016],[139.509865,34.120095],[139.509641,34.120206],[139.509463,34.120273]]}},{"type":"Feature","properties":{"id":436513636,"highway":"unclassified"},"geometry":{"type":"LineString","coordinates":[[139.504264,34.118091],[139.504152,34.118105]]}},{"type":"Feature","properties":{"id":436513639,"highway":"residential"},"geometry":{"type":"LineString","coordinates":[[139.505751,34.115947],[139.505669,34.115927]]}},{"type":"Feature","properties":{"id":436513641,"highway":"tertiary"},"geometry":{"type":"LineString","coordinates":[[139.513376,34.119429],[139.513299,34.119738]]}},{"type":"Feature","properties":{"id":436513648,"highway":"unclassified"},"geometry":{"type":"LineString","coordinates":[[139.510585,34.119847],[139.510476,34.119637],[139.510369,34.119501]]}},{"type":"Feature","properties":{"id":436513649,"highway":"unclassified"},"geometry":{"type":"LineString","coordinates":[[139.504152,34.118105],[139.50402,34.118113],[139.503942,34.118135]]}},{"type":"Feature","properties":{"id":436513653,"highway":"unclassified"},"geometry":{"type":"LineString","coordinates":[[139.502466,34.118581],[139.502779,34.118561],[139.502858,34.118542],[139.502921,34.118492],[139.50302,34.118367],[139.503112,34.118244],[139.503166,34.118198],[139.50326,34.118027]]}},{"type":"Feature","properties":{"id":436541540,"highway":"unclassified"},"geometry":{"type":"LineString","coordinates":[[139.513803,34.119494],[139.513895,34.11952],[139.513959,34.119567],[139.513981,34.119746],[139.514036,34.119861],[139.514245,34.120037],[139.514491,34.120246],[139.514678,34.120402],[139.514987,34.120612],[139.515411,34.12071],[139.515671,34.120751],[139.516412,34.12105],[139.517488,34.121699],[139.517692,34.122023],[139.517966,34.12213],[139.519243,34.123098],[139.519355,34.123009],[139.51942,34.122858],[139.519398,34.122516],[139.519463,34.122458],[139.519591,34.122458],[139.519704,34.122627],[139.51979,34.122689],[139.52024,34.122596],[139.520476,34.122485],[139.520916,34.122478],[139.521021,34.122474]]}},{"type":"Feature","properties":{"id":436541542,"highway":"unclassified"},"geometry":{"type":"LineString","coordinates":[[139.508902,34.121308],[139.508799,34.1212],[139.508734,34.121128],[139.508663,34.121077],[139.508594,34.121014]]}},{"type":"Feature","properties":{"id":436651906,"highway":"secondary"},"geometry":{"type":"LineString","coordinates":[[139.536772,34.11973],[139.537452,34.119513],[139.537797,34.119399],[139.538011,34.119327],[139.538182,34.119246],[139.538396,34.11913],[139.538575,34.119036],[139.538634,34.119006],[139.538786,34.118924],[139.538932,34.118848],[139.539087,34.118785],[139.53916,34.118768],[139.539234,34.11875]]}},{"type":"Feature","properties":{"id":436651907,"highway":"secondary"},"geometry":{"type":"LineString","coordinates":[[139.539234,34.11875],[139.539325,34.118731]]}},{"type":"Feature","properties":{"id":436651908,"highway":"secondary"},"geometry":{"type":"LineString","coordinates":[[139.546235,34.11722],[139.546298,34.117157]]}},{"type":"Feature","properties":{"id":436651909,"highway":"secondary"},"geometry":{"type":"LineString","coordinates":[[139.546101,34.117309],[139.546164,34.117277],[139.546235,34.11722]]}},{"type":"Feature","properties":{"id":436651912,"highway":"unclassified"},"geometry":{"type":"LineString","coordinates":[[139.527227,34.121361],[139.52725,34.121428],[139.527265,34.121488],[139.52729,34.121563],[139.527305,34.121629],[139.527314,34.121686],[139.527315,34.121739],[139.527301,34.121792],[139.52729,34.121836],[139.527256,34.121884],[139.527187,34.121924]]}},{"type":"Feature","properties":{"id":436651918,"highway":"residential"},"geometry":{"type":"LineString","coordinates":[[139.527357,34.122154],[139.527404,34.122133],[139.527468,34.122089],[139.527492,34.122056],[139.527508,34.122015],[139.527515,34.121973],[139.527516,34.121932],[139.527515,34.121801],[139.527631,34.121797],[139.527772,34.121784],[139.527932,34.121773],[139.528018,34.121787],[139.528156,34.121811],[139.528222,34.121811],[139.528345,34.121796],[139.528458,34.121777],[139.528534,34.121771],[139.52859,34.121763],[139.528662,34.121753],[139.528727,34.121735],[139.528799,34.12172],[139.528839,34.121702],[139.528891,34.121656]]}},{"type":"Feature","properties":{"id":436651920,"highway":"unclassified"},"geometry":{"type":"LineString","coordinates":[[139.527515,34.121801],[139.527475,34.121805]]}},{"type":"Feature","properties":{"id":436651921,"highway":"unclassified"},"geometry":{"type":"LineString","coordinates":[[139.527475,34.121805],[139.527335,34.121827]]}},{"type":"Feature","properties":{"id":436651922,"highway":"unclassified"},"geometry":{"type":"LineString","coordinates":[[139.527705,34.119005],[139.52789,34.118969]]}},{"type":"Feature","properties":{"id":436651925,"highway":"unclassified"},"geometry":{"type":"LineString","coordinates":[[139.527335,34.121827],[139.527314,34.12183],[139.52729,34.121836]]}},{"type":"Feature","properties":{"id":436651926,"highway":"residential"},"geometry":{"type":"LineString","coordinates":[[139.527234,34.122184],[139.527357,34.122154]]}},{"type":"Feature","properties":{"id":436651927,"highway":"unclassified"},"geometry":{"type":"LineString","coordinates":[[139.52789,34.118969],[139.528043,34.118966],[139.52824,34.118974],[139.528465,34.118995],[139.528755,34.119025],[139.529009,34.119058],[139.529188,34.119082],[139.529395,34.119103],[139.529546,34.119119],[139.529639,34.11913],[139.529762,34.119159],[139.52986,34.119179],[139.529923,34.119187],[139.530051,34.119201],[139.530158,34.119201],[139.530331,34.119189],[139.530527,34.119169],[139.530722,34.119146],[139.530867,34.119132],[139.530942,34.119141],[139.531079,34.119168],[139.531307,34.11921],[139.531488,34.11924],[139.531562,34.119251],[139.531728,34.119247],[139.531873,34.119245],[139.531994,34.119235],[139.532057,34.119242],[139.532216,34.11928],[139.532473,34.11933],[139.532705,34.119376],[139.532852,34.1194],[139.532915,34.119403],[139.533009,34.119398],[139.533131,34.119388],[139.533319,34.119365],[139.533519,34.119332],[139.53378,34.11929],[139.533975,34.119267],[139.534078,34.119254],[139.534203,34.11921],[139.534518,34.119095],[139.534719,34.119026],[139.534932,34.118946],[139.535092,34.118892],[139.535204,34.118864],[139.535284,34.118861],[139.535381,34.118872],[139.535502,34.118886],[139.53567,34.11891],[139.53573,34.118935]]}},{"type":"Feature","properties":{"id":436651928,"highway":"unclassified"},"geometry":{"type":"LineString","coordinates":[[139.5225,34.12037],[139.52256,34.120326],[139.522629,34.120267],[139.522691,34.120216],[139.522726,34.120193],[139.522743,34.120154],[139.522747,34.120113],[139.522738,34.120065],[139.522701,34.120029],[139.522633,34.119965],[139.522567,34.119896],[139.522528,34.11985],[139.522502,34.119812],[139.522493,34.119777],[139.522494,34.119746],[139.522507,34.119731],[139.522527,34.119707],[139.52257,34.119667],[139.522613,34.119635],[139.522649,34.119612],[139.522701,34.119588],[139.522737,34.119572],[139.522773,34.119567],[139.522853,34.119563],[139.522985,34.119557],[139.523007,34.119548],[139.523084,34.11948],[139.523124,34.119434],[139.523172,34.119375],[139.523221,34.119318],[139.523287,34.11924],[139.523319,34.119208],[139.523404,34.119144],[139.523471,34.119098],[139.52351,34.11905],[139.523506,34.119009],[139.523479,34.118948],[139.523437,34.118832],[139.523406,34.118743],[139.523376,34.118629],[139.523345,34.118535],[139.523306,34.118428],[139.523274,34.118327],[139.523254,34.118265],[139.523252,34.118225],[139.523271,34.118178],[139.523263,34.118149],[139.523246,34.118137],[139.5232,34.118156],[139.523162,34.118183],[139.523129,34.118199],[139.523068,34.118213]]}},{"type":"Feature","properties":{"id":436651931,"highway":"unclassified"},"geometry":{"type":"LineString","coordinates":[[139.526836,34.119254],[139.526908,34.119241],[139.526974,34.119233],[139.527099,34.119204],[139.527161,34.11918],[139.527246,34.119149],[139.527453,34.119082],[139.527617,34.119032],[139.527705,34.119005]]}},{"type":"Feature","properties":{"id":436654590,"highway":"secondary"},"geometry":{"type":"LineString","coordinates":[[139.50673,34.119102],[139.506663,34.119137]]}},{"type":"Feature","properties":{"id":436654593,"highway":"secondary"},"geometry":{"type":"LineString","coordinates":[[139.515326,34.118085],[139.515561,34.118203],[139.515679,34.11828]]}},{"type":"Feature","properties":{"id":436654594,"highway":"secondary"},"geometry":{"type":"LineString","coordinates":[[139.514145,34.117855],[139.514234,34.11786],[139.514356,34.117869],[139.514457,34.117873]]}},{"type":"Feature","properties":{"id":436654595,"highway":"secondary"},"geometry":{"type":"LineString","coordinates":[[139.50757,34.118688],[139.507417,34.118764],[139.507175,34.118885],[139.50677,34.119081],[139.50673,34.119102]]}},{"type":"Feature","properties":{"id":436654596,"highway":"service"},"geometry":{"type":"LineString","coordinates":[[139.51665,34.119031],[139.516702,34.118974],[139.516742,34.118861],[139.516762,34.11877],[139.516772,34.11864],[139.516776,34.118549],[139.51678,34.118462],[139.516798,34.118378],[139.516833,34.118308],[139.516844,34.11829],[139.516883,34.118225]]}},{"type":"Feature","properties":{"id":436654598,"highway":"unclassified"},"geometry":{"type":"LineString","coordinates":[[139.507726,34.12072],[139.507647,34.120749],[139.507584,34.120783],[139.507542,34.120832],[139.507513,34.120899],[139.507513,34.12096],[139.507522,34.121015],[139.507541,34.121126],[139.507531,34.121185],[139.507491,34.121256],[139.507444,34.121301],[139.507398,34.121349],[139.507356,34.121398]]}},{"type":"Feature","properties":{"id":436654599,"highway":"unclassified"},"geometry":{"type":"LineString","coordinates":[[139.512039,34.119295],[139.512095,34.1193],[139.512157,34.119313],[139.512221,34.119329],[139.512279,34.119337],[139.512375,34.119347],[139.512457,34.119357],[139.512493,34.119361],[139.512689,34.119379],[139.512727,34.119382],[139.512754,34.119385],[139.51288,34.119399],[139.512941,34.119399],[139.512952,34.119399]]}},{"type":"Feature","properties":{"id":436654602,"highway":"service"},"geometry":{"type":"LineString","coordinates":[[139.506566,34.121014],[139.50652,34.121063],[139.506504,34.121088],[139.506493,34.12112],[139.506494,34.121163],[139.50652,34.121202],[139.506558,34.121248],[139.506602,34.121289],[139.506647,34.121325],[139.506677,34.121354],[139.506708,34.121401],[139.506709,34.121451],[139.506688,34.121492],[139.50666,34.121524],[139.506602,34.121556],[139.506547,34.121563],[139.50649,34.121548],[139.506441,34.121528]]}},{"type":"Feature","properties":{"id":436654604,"highway":"unclassified"},"geometry":{"type":"LineString","coordinates":[[139.500096,34.115439],[139.500045,34.115416],[139.500017,34.115378],[139.499985,34.115328],[139.499962,34.115278],[139.499949,34.115253],[139.49991,34.115234],[139.499858,34.115215],[139.499809,34.115188],[139.499742,34.115146],[139.499676,34.115092],[139.499616,34.115043],[139.499601,34.115032],[139.499591,34.115024],[139.499537,34.114963],[139.499498,34.114902],[139.499427,34.1148],[139.499377,34.114733],[139.499339,34.114682],[139.499291,34.114617]]}},{"type":"Feature","properties":{"id":436654607,"highway":"unclassified"},"geometry":{"type":"LineString","coordinates":[[139.511071,34.119382],[139.511266,34.119341]]}},{"type":"Feature","properties":{"id":436654608,"highway":"unclassified"},"geometry":{"type":"LineString","coordinates":[[139.507844,34.120664],[139.507726,34.12072]]}},{"type":"Feature","properties":{"id":436654609,"highway":"unclassified"},"geometry":{"type":"LineString","coordinates":[[139.512941,34.119399],[139.512927,34.119476],[139.512903,34.119589]]}},{"type":"Feature","properties":{"id":436654610,"highway":"service"},"geometry":{"type":"LineString","coordinates":[[139.516844,34.11829],[139.517402,34.118464],[139.517583,34.118007]]}},{"type":"Feature","properties":{"id":436654612,"highway":"unclassified"},"geometry":{"type":"LineString","coordinates":[[139.511239,34.119187],[139.511246,34.119231],[139.51126,34.119293],[139.511266,34.119341]]}},{"type":"Feature","properties":{"id":436654613,"highway":"unclassified"},"geometry":{"type":"LineString","coordinates":[[139.511586,34.119169],[139.511599,34.119297],[139.511602,34.119323],[139.511614,34.119603]]}},{"type":"Feature","properties":{"id":436654616,"highway":"unclassified"},"geometry":{"type":"LineString","coordinates":[[139.511842,34.119284],[139.511842,34.119332],[139.511849,34.119404],[139.511854,34.119462],[139.511861,34.11952],[139.511864,34.119595]]}},{"type":"Feature","properties":{"id":436654617,"highway":"unclassified"},"geometry":{"type":"LineString","coordinates":[[139.51251,34.119117],[139.512501,34.119209],[139.512491,34.119292],[139.512493,34.119361],[139.512486,34.119422],[139.512473,34.11951],[139.512462,34.119578]]}},{"type":"Feature","properties":{"id":436654618,"highway":"unclassified"},"geometry":{"type":"LineString","coordinates":[[139.51204,34.119143],[139.51204,34.119231],[139.512039,34.119281],[139.512039,34.119295],[139.512034,34.119381],[139.512025,34.119517],[139.512021,34.11959]]}},{"type":"Feature","properties":{"id":436654619,"highway":"unclassified"},"geometry":{"type":"LineString","coordinates":[[139.511599,34.119297],[139.5117,34.119291],[139.511795,34.119287],[139.511842,34.119284],[139.511907,34.119279],[139.511971,34.119278],[139.512039,34.119281]]}},{"type":"Feature","properties":{"id":436654620,"highway":"unclassified"},"geometry":{"type":"LineString","coordinates":[[139.512765,34.119145],[139.512755,34.119227],[139.512744,34.119295],[139.512727,34.119382],[139.512719,34.119424],[139.512705,34.11949],[139.512678,34.119601]]}},{"type":"Feature","properties":{"id":436654621,"highway":"unclassified"},"geometry":{"type":"LineString","coordinates":[[139.509835,34.119723],[139.509932,34.119588],[139.509987,34.119491],[139.510038,34.119372],[139.510093,34.11925],[139.510146,34.119157],[139.510192,34.119078]]}},{"type":"Feature","properties":{"id":436654622,"highway":"unclassified"},"geometry":{"type":"LineString","coordinates":[[139.511011,34.119239],[139.511062,34.119354],[139.511071,34.119382],[139.511086,34.119426],[139.511109,34.119501],[139.511138,34.119576],[139.51117,34.119723]]}},{"type":"Feature","properties":{"id":436654624,"highway":"unclassified"},"geometry":{"type":"LineString","coordinates":[[139.510476,34.119637],[139.510588,34.119592],[139.510681,34.119557],[139.510794,34.119517],[139.51088,34.11949],[139.510972,34.11946],[139.511086,34.119426]]}},{"type":"Feature","properties":{"id":436654625,"highway":"unclassified"},"geometry":{"type":"LineString","coordinates":[[139.510727,34.119328],[139.510695,34.119285],[139.510673,34.119242],[139.510643,34.119187],[139.51062,34.119107],[139.510603,34.11906],[139.510571,34.118993]]}},{"type":"Feature","properties":{"id":436654626,"highway":"unclassified"},"geometry":{"type":"LineString","coordinates":[[139.508521,34.12075],[139.508404,34.120768],[139.508262,34.120755],[139.508163,34.120723],[139.508007,34.120677],[139.507921,34.120657],[139.507861,34.120659],[139.507844,34.120664]]}},{"type":"Feature","properties":{"id":436654627,"highway":"unclassified"},"geometry":{"type":"LineString","coordinates":[[139.511266,34.119341],[139.511275,34.11937],[139.511292,34.119381],[139.511316,34.119382],[139.511365,34.119368],[139.511439,34.119352],[139.511506,34.119334],[139.511567,34.119324],[139.511602,34.119323]]}},{"type":"Feature","properties":{"id":436654628,"highway":"unclassified"},"geometry":{"type":"LineString","coordinates":[[139.500164,34.114695],[139.500036,34.114762],[139.499966,34.1148],[139.49988,34.114842],[139.499819,34.114876],[139.499758,34.114926],[139.49971,34.114966],[139.499648,34.115013],[139.499616,34.115043]]}},{"type":"Feature","properties":{"id":436654629,"highway":"unclassified"},"geometry":{"type":"LineString","coordinates":[[139.511316,34.119382],[139.511328,34.119426],[139.51134,34.119467],[139.511355,34.11952],[139.51137,34.119569],[139.511382,34.119605],[139.511388,34.119636],[139.511393,34.119678],[139.511393,34.119696]]}},{"type":"Feature","properties":{"id":436690515,"highway":"unclassified"},"geometry":{"type":"LineString","coordinates":[[139.538786,34.107557],[139.539132,34.107368]]}},{"type":"Feature","properties":{"id":436690517,"highway":"unclassified"},"geometry":{"type":"LineString","coordinates":[[139.525162,34.120071],[139.525156,34.120293],[139.525035,34.120547],[139.524865,34.120996],[139.524795,34.121111]]}},{"type":"Feature","properties":{"id":436690518,"highway":"unclassified"},"geometry":{"type":"LineString","coordinates":[[139.524805,34.11992],[139.524817,34.119853],[139.524909,34.119599],[139.524917,34.119527],[139.524819,34.119291]]}},{"type":"Feature","properties":{"id":436714134,"highway":"tertiary"},"geometry":{"type":"LineString","coordinates":[[139.534923,34.123265],[139.535698,34.12283],[139.535765,34.122777],[139.535824,34.122709],[139.535849,34.122643],[139.535868,34.122568],[139.535874,34.122488]]}},{"type":"Feature","properties":{"id":436714136,"highway":"unclassified"},"geometry":{"type":"LineString","coordinates":[[139.538172,34.120951],[139.538298,34.121164],[139.538796,34.121576],[139.53904,34.121948],[139.539063,34.122098],[139.539016,34.122418],[139.539069,34.122558],[139.539371,34.122782],[139.539625,34.123073],[139.54013,34.123003],[139.54052,34.12255],[139.540697,34.122248]]}},{"type":"Feature","properties":{"id":436714139,"highway":"tertiary"},"geometry":{"type":"LineString","coordinates":[[139.535874,34.122488],[139.535861,34.122393],[139.535438,34.121301],[139.53537,34.121149],[139.535322,34.121063],[139.535268,34.120996],[139.535211,34.120938],[139.535102,34.120858],[139.534636,34.12059]]}},{"type":"Feature","properties":{"id":436715995,"highway":"service"},"geometry":{"type":"LineString","coordinates":[[139.544444,34.111052],[139.54457,34.111159],[139.544667,34.111354],[139.544774,34.111719],[139.545203,34.112145],[139.54575,34.11258],[139.546324,34.113007],[139.54649,34.113082],[139.546769,34.113322],[139.547048,34.113437],[139.547314,34.113473]]}},{"type":"Feature","properties":{"id":436715996,"highway":"unclassified"},"geometry":{"type":"LineString","coordinates":[[139.547314,34.113473],[139.547856,34.113553],[139.548274,34.113677],[139.548558,34.113713],[139.5488,34.113762],[139.548886,34.113917],[139.549073,34.114057],[139.549409,34.114235],[139.549671,34.114432],[139.54987,34.114492],[139.54998,34.114577],[139.550119,34.114605],[139.550305,34.114736],[139.550374,34.114894],[139.550291,34.115116],[139.55033,34.115213]]}},{"type":"Feature","properties":{"id":440134078,"highway":"secondary"},"geometry":{"type":"LineString","coordinates":[[139.549937,34.11549],[139.550001,34.115443]]}},{"type":"Feature","properties":{"id":440134083,"highway":"secondary"},"geometry":{"type":"LineString","coordinates":[[139.550001,34.115443],[139.550262,34.115263],[139.55033,34.115213],[139.550386,34.115173],[139.550597,34.115047],[139.550899,34.114888],[139.551059,34.114798],[139.55125,34.114672],[139.551391,34.114569]]}},{"type":"Feature","properties":{"id":442868005,"highway":"secondary"},"geometry":{"type":"LineString","coordinates":[[139.519358,34.120072],[139.519588,34.120079],[139.519753,34.120063],[139.519925,34.120023],[139.520136,34.119956],[139.520356,34.119888],[139.520426,34.119866],[139.520577,34.119825],[139.520684,34.119797],[139.520754,34.119791],[139.52089,34.119793],[139.520988,34.119818],[139.521119,34.119861],[139.521213,34.119901],[139.521286,34.119937]]}},{"type":"Feature","properties":{"id":442868006,"highway":"secondary"},"geometry":{"type":"LineString","coordinates":[[139.519241,34.120057],[139.519358,34.120072]]}},{"type":"Feature","properties":{"id":442868008,"highway":"unclassified"},"geometry":{"type":"LineString","coordinates":[[139.518427,34.11988],[139.518554,34.119718],[139.518608,34.119623],[139.518616,34.119593],[139.518602,34.119563],[139.518486,34.119512],[139.518461,34.119476],[139.518465,34.119432],[139.51852,34.119368],[139.518732,34.119303],[139.518767,34.119254],[139.518861,34.119087]]}},{"type":"Feature","properties":{"id":442868009,"highway":"service"},"geometry":{"type":"LineString","coordinates":[[139.516702,34.118974],[139.516825,34.118958]]}},{"type":"Feature","properties":{"id":442868010,"highway":"unclassified"},"geometry":{"type":"LineString","coordinates":[[139.500709,34.114642],[139.500591,34.114756],[139.500527,34.114833],[139.500414,34.114939]]}},{"type":"Feature","properties":{"id":442868011,"highway":"service"},"geometry":{"type":"LineString","coordinates":[[139.516837,34.119138],[139.516848,34.11908],[139.516832,34.118992],[139.516825,34.118958],[139.516969,34.118844],[139.517025,34.118818],[139.517182,34.118883],[139.517464,34.119085]]}},{"type":"Feature","properties":{"id":443146472,"highway":"secondary"},"geometry":{"type":"LineString","coordinates":[[139.543427,34.118007],[139.543519,34.117987]]}},{"type":"Feature","properties":{"id":443146473,"highway":"secondary"},"geometry":{"type":"LineString","coordinates":[[139.527706,34.121395],[139.527851,34.121411]]}},{"type":"Feature","properties":{"id":443146474,"highway":"secondary"},"geometry":{"type":"LineString","coordinates":[[139.526899,34.121361],[139.527191,34.121359],[139.527227,34.121361],[139.527401,34.121372],[139.527706,34.121395]]}},{"type":"Feature","properties":{"id":443146475,"highway":"secondary"},"geometry":{"type":"LineString","coordinates":[[139.541867,34.118288],[139.542053,34.118252],[139.54221,34.118225],[139.542449,34.118176],[139.542767,34.118115],[139.54279,34.118111],[139.543303,34.118027],[139.543427,34.118007]]}},{"type":"Feature","properties":{"id":443146482,"highway":"service"},"geometry":{"type":"LineString","coordinates":[[139.528327,34.124618],[139.528327,34.124561],[139.528347,34.124531],[139.528373,34.124521],[139.528398,34.124526],[139.528439,34.12455],[139.528467,34.124551],[139.528489,34.124529],[139.528503,34.124464],[139.528505,34.124334]]}},{"type":"Feature","properties":{"id":443146483,"highway":"service"},"geometry":{"type":"LineString","coordinates":[[139.527728,34.124602],[139.527732,34.124489],[139.527709,34.124456],[139.527673,34.124437],[139.527625,34.124435],[139.52756,34.12447],[139.527505,34.124476],[139.527464,34.124455],[139.527443,34.124426],[139.527438,34.124304]]}},{"type":"Feature","properties":{"id":443146485,"highway":"service"},"geometry":{"type":"LineString","coordinates":[[139.528196,34.124082],[139.528266,34.124188],[139.528289,34.124209],[139.528326,34.124219],[139.528348,34.124209],[139.528411,34.124164],[139.528435,34.124158],[139.528459,34.12416],[139.528486,34.124175],[139.528497,34.124193],[139.528527,34.124335]]}},{"type":"Feature","properties":{"id":443146486,"highway":"unclassified"},"geometry":{"type":"LineString","coordinates":[[139.527154,34.120108],[139.526916,34.120151],[139.526825,34.120154],[139.52669,34.120112],[139.526587,34.120088],[139.526481,34.120087],[139.526352,34.120108],[139.526397,34.120638],[139.526434,34.120857],[139.526145,34.121013],[139.526226,34.121196],[139.526329,34.12138]]}},{"type":"Feature","properties":{"id":443146489,"highway":"service"},"geometry":{"type":"LineString","coordinates":[[139.528065,34.124611],[139.52808,34.124316],[139.52811,34.124237],[139.528196,34.124082],[139.52821,34.124056],[139.528281,34.123927],[139.528338,34.123879],[139.528411,34.123862],[139.52847,34.123867],[139.528537,34.123889],[139.528576,34.12393],[139.528596,34.123968],[139.528623,34.124073],[139.528662,34.124229],[139.528663,34.124372]]}},{"type":"Feature","properties":{"id":443146490,"highway":"unclassified"},"geometry":{"type":"LineString","coordinates":[[139.532212,34.121322],[139.532145,34.121185],[139.532135,34.121024],[139.532027,34.120664],[139.531993,34.120597],[139.53196,34.12057],[139.531732,34.120415],[139.531705,34.120372],[139.531707,34.120295],[139.531797,34.120016],[139.531797,34.119937],[139.531752,34.11987],[139.531596,34.119667],[139.531564,34.119554],[139.531562,34.119251]]}},{"type":"Feature","properties":{"id":443146491,"highway":"unclassified"},"geometry":{"type":"LineString","coordinates":[[139.544775,34.118781],[139.544832,34.118743],[139.544881,34.118737],[139.54495,34.118743],[139.545048,34.118762],[139.545131,34.118784],[139.545208,34.118798],[139.54529,34.118787],[139.545346,34.118747],[139.545396,34.118676],[139.545444,34.118605],[139.54551,34.118522],[139.545562,34.11845],[139.545654,34.118369],[139.54577,34.118293],[139.545863,34.118234],[139.545919,34.118192],[139.545984,34.11815],[139.546029,34.118122],[139.546081,34.118087],[139.546141,34.118046],[139.546179,34.118005],[139.546201,34.11796],[139.546207,34.117925],[139.546218,34.117803],[139.54622,34.117702],[139.546194,34.117579],[139.546147,34.117403],[139.546101,34.117309]]}},{"type":"Feature","properties":{"id":443146492,"highway":"service"},"geometry":{"type":"LineString","coordinates":[[139.52808,34.124316],[139.527789,34.12431],[139.527438,34.124304],[139.527376,34.124303],[139.52731,34.124302],[139.527243,34.124327],[139.527192,34.124385],[139.527174,34.12445],[139.527198,34.124516],[139.52725,34.124566],[139.527328,34.124592],[139.527374,34.124593],[139.527728,34.124602],[139.527944,34.124608],[139.528065,34.124611],[139.528182,34.124614],[139.528238,34.124616],[139.528327,34.124618],[139.528546,34.124624],[139.528622,34.124606],[139.528682,34.124562],[139.52871,34.124497],[139.528698,34.124424],[139.528663,34.124372],[139.528592,34.124342],[139.528527,34.124335],[139.528505,34.124334],[139.528371,34.124328],[139.528289,34.124325],[139.52808,34.124316]]}},{"type":"Feature","properties":{"id":443146493,"highway":"service"},"geometry":{"type":"LineString","coordinates":[[139.527272,34.124445],[139.527375,34.124447]]}},{"type":"Feature","properties":{"id":443146494,"highway":"service"},"geometry":{"type":"LineString","coordinates":[[139.52821,34.124056],[139.528623,34.124073]]}},{"type":"Feature","properties":{"id":443146495,"highway":"unclassified"},"geometry":{"type":"LineString","coordinates":[[139.54474,34.118844],[139.544775,34.118781]]}},{"type":"Feature","properties":{"id":443146496,"highway":"service"},"geometry":{"type":"LineString","coordinates":[[139.527374,34.124593],[139.527375,34.124447],[139.527376,34.124303]]}},{"type":"Feature","properties":{"id":443146497,"highway":"unclassified"},"geometry":{"type":"LineString","coordinates":[[139.529488,34.124025],[139.529077,34.124483],[139.52916,34.124843]]}},{"type":"Feature","properties":{"id":443146498,"highway":"residential"},"geometry":{"type":"LineString","coordinates":[[139.544495,34.117393],[139.544697,34.117209],[139.54478,34.117162],[139.545005,34.116891]]}},{"type":"Feature","properties":{"id":443146499,"highway":"service"},"geometry":{"type":"LineString","coordinates":[[139.528238,34.124616],[139.528241,34.124468],[139.528372,34.124469],[139.528371,34.124328]]}},{"type":"Feature","properties":{"id":443146500,"highway":"service"},"geometry":{"type":"LineString","coordinates":[[139.528182,34.124614],[139.528182,34.124422],[139.528293,34.124422],[139.528289,34.124325]]}},{"type":"Feature","properties":{"id":443146501,"highway":"service"},"geometry":{"type":"LineString","coordinates":[[139.527789,34.12431],[139.527785,34.124458],[139.527942,34.124464],[139.527944,34.124608]]}},{"type":"Feature","properties":{"id":443146502,"highway":"residential"},"geometry":{"type":"LineString","coordinates":[[139.544559,34.117524],[139.544495,34.117393],[139.544328,34.117181],[139.54432,34.117133],[139.544396,34.117053],[139.544346,34.11701]]}},{"type":"Feature","properties":{"id":443146503,"highway":"service"},"geometry":{"type":"LineString","coordinates":[[139.527928,34.123612],[139.528163,34.123968],[139.528159,34.124022],[139.528027,34.124234],[139.527981,34.12426],[139.527324,34.124243]]}},{"type":"Feature","properties":{"id":443146504,"highway":"unclassified"},"geometry":{"type":"LineString","coordinates":[[139.529411,34.123412],[139.529349,34.123392],[139.529273,34.123378],[139.529045,34.123448],[139.528172,34.12356],[139.527928,34.123612],[139.527142,34.123719]]}},{"type":"Feature","properties":{"id":443146505,"highway":"unclassified"},"geometry":{"type":"LineString","coordinates":[[139.528172,34.12356],[139.527929,34.123341],[139.527739,34.1229],[139.527709,34.122827],[139.527703,34.122719],[139.527691,34.122627],[139.527662,34.122549],[139.527404,34.122133]]}},{"type":"Feature","properties":{"id":443146506,"highway":"residential"},"geometry":{"type":"LineString","coordinates":[[139.545,34.117446],[139.545024,34.117324],[139.545182,34.117077],[139.545204,34.117019],[139.545185,34.11696],[139.545151,34.116925],[139.545005,34.116891],[139.544821,34.116875],[139.544515,34.116932]]}},{"type":"Feature","properties":{"id":443170375,"highway":"residential"},"geometry":{"type":"LineString","coordinates":[[139.50824,34.120012],[139.507494,34.120028],[139.507398,34.120059],[139.50728,34.120176],[139.506732,34.119934],[139.506368,34.119797],[139.505963,34.119546],[139.505917,34.11945],[139.505936,34.119371],[139.506007,34.119191]]}},{"type":"Feature","properties":{"id":451072518,"highway":"service"},"geometry":{"type":"LineString","coordinates":[[139.512051,34.109011],[139.511764,34.109373],[139.511745,34.109544],[139.511799,34.109735],[139.512022,34.109999],[139.512019,34.110084],[139.511974,34.110184],[139.511558,34.110374],[139.511472,34.110488],[139.511273,34.110932],[139.511202,34.110954],[139.51107,34.111023],[139.510957,34.111114],[139.510699,34.111452],[139.510664,34.11158],[139.510605,34.112158],[139.510541,34.112369],[139.510231,34.112944],[139.510277,34.113155],[139.510172,34.113519],[139.510158,34.11392]]}},{"type":"Feature","properties":{"id":451072531,"highway":"service"},"geometry":{"type":"LineString","coordinates":[[139.500977,34.114202],[139.500817,34.114359],[139.500733,34.114402],[139.500566,34.11453]]}},{"type":"Feature","properties":{"id":451072537,"highway":"service"},"geometry":{"type":"LineString","coordinates":[[139.50098,34.11371],[139.500743,34.114002],[139.50057,34.114189],[139.50056,34.11422],[139.500733,34.114402]]}},{"type":"Feature","properties":{"id":451072541,"highway":"service"},"geometry":{"type":"LineString","coordinates":[[139.502097,34.10264],[139.501756,34.102463],[139.50158,34.1024],[139.501419,34.102312],[139.501319,34.102305],[139.501114,34.102336]]}},{"type":"Feature","properties":{"id":451072554,"highway":"service"},"geometry":{"type":"LineString","coordinates":[[139.509909,34.11033],[139.510387,34.110048],[139.510875,34.109666],[139.510945,34.109659],[139.511355,34.109788],[139.511379,34.109815],[139.511379,34.110348],[139.511382,34.110512],[139.511202,34.110954]]}},{"type":"Feature","properties":{"id":452072772,"highway":"service"},"geometry":{"type":"LineString","coordinates":[[139.518231,34.119678],[139.518119,34.119758]]}},{"type":"Feature","properties":{"id":452072773,"highway":"service"},"geometry":{"type":"LineString","coordinates":[[139.518237,34.119805],[139.518231,34.119678],[139.518262,34.11935]]}},{"type":"Feature","properties":{"id":452239717,"highway":"residential"},"geometry":{"type":"LineString","coordinates":[[139.521286,34.119937],[139.521316,34.119884],[139.521347,34.119812],[139.52137,34.119757],[139.521395,34.119676],[139.521426,34.119554],[139.521472,34.119478],[139.521522,34.119392],[139.52156,34.119323],[139.52157,34.119228],[139.521562,34.119197],[139.521538,34.119163],[139.521491,34.119116],[139.521431,34.119062],[139.521329,34.118982],[139.521226,34.118906]]}},{"type":"Feature","properties":{"id":452423194,"highway":"residential"},"geometry":{"type":"LineString","coordinates":[[139.545507,34.117234],[139.545462,34.117426]]}},{"type":"Feature","properties":{"id":452423202,"highway":"residential"},"geometry":{"type":"LineString","coordinates":[[139.538764,34.119173],[139.538575,34.119036]]}},{"type":"Feature","properties":{"id":452423205,"highway":"residential"},"geometry":{"type":"LineString","coordinates":[[139.539857,34.118349],[139.539983,34.118324],[139.540093,34.118364],[139.540173,34.118572]]}},{"type":"Feature","properties":{"id":452423206,"highway":"service"},"geometry":{"type":"LineString","coordinates":[[139.538734,34.117438],[139.538817,34.117569],[139.538961,34.11766],[139.539447,34.118171],[139.539484,34.118269],[139.53945,34.11834],[139.539353,34.118464],[139.539342,34.118531],[139.539413,34.118716]]}},{"type":"Feature","properties":{"id":452423213,"highway":"service"},"geometry":{"type":"LineString","coordinates":[[139.529754,34.116948],[139.529926,34.116848],[139.530455,34.11615],[139.530962,34.114978],[139.53094,34.114869],[139.530841,34.114805],[139.530605,34.114756],[139.530543,34.114813],[139.530458,34.115313],[139.530358,34.115475],[139.530216,34.115562],[139.530031,34.115535],[139.529814,34.115591],[139.52972,34.115777],[139.529629,34.116159]]}},{"type":"Feature","properties":{"id":452423214,"highway":"service"},"geometry":{"type":"LineString","coordinates":[[139.529743,34.116861],[139.529754,34.116948],[139.529796,34.117292],[139.529748,34.117549],[139.529625,34.117771],[139.529641,34.11794],[139.529918,34.119104],[139.529923,34.119187]]}},{"type":"Feature","properties":{"id":452423215,"highway":"service"},"geometry":{"type":"LineString","coordinates":[[139.527297,34.117483],[139.527337,34.117647],[139.527326,34.117774],[139.527243,34.117876],[139.527063,34.118011],[139.526999,34.118133],[139.527015,34.118302],[139.52716,34.118842],[139.527238,34.118897],[139.527617,34.119032]]}},{"type":"Feature","properties":{"id":452423216,"highway":"residential"},"geometry":{"type":"LineString","coordinates":[[139.52962,34.120862],[139.530288,34.120882]]}},{"type":"Feature","properties":{"id":452423217,"highway":"residential"},"geometry":{"type":"LineString","coordinates":[[139.53021,34.120478],[139.530285,34.120793],[139.530288,34.120882],[139.530293,34.121024],[139.530374,34.12121],[139.530397,34.121436]]}},{"type":"Feature","properties":{"id":452977113,"highway":"service"},"geometry":{"type":"LineString","coordinates":[[139.499487,34.115441],[139.500023,34.115825]]}},{"type":"Feature","properties":{"id":1291742283,"highway":"unclassified"},"geometry":{"type":"LineString","coordinates":[[139.533681,34.108803],[139.533739,34.1089],[139.533792,34.10893],[139.534196,34.109088],[139.534294,34.109097],[139.534496,34.109001],[139.535765,34.108373],[139.535934,34.108304],[139.536151,34.10826],[139.536593,34.108161],[139.536774,34.10814],[139.537409,34.108165],[139.537555,34.108143],[139.537994,34.107973],[139.538724,34.107589],[139.538786,34.107557]]}},{"type":"Feature","properties":{"id":1291742285,"highway":"unclassified"},"geometry":{"type":"LineString","coordinates":[[139.552142,34.101788],[139.552065,34.101803],[139.551999,34.101779],[139.551848,34.101619],[139.551729,34.101495],[139.551542,34.101366],[139.551283,34.101241],[139.55122,34.101201],[139.551182,34.101155]]}},{"type":"Feature","properties":{"id":1291742286,"highway":"unclassified"},"geometry":{"type":"LineString","coordinates":[[139.552606,34.103663],[139.55263,34.103648],[139.552756,34.103651],[139.553014,34.103695],[139.553112,34.103702],[139.553202,34.103693],[139.553269,34.103645],[139.553336,34.103566],[139.553447,34.103288],[139.553532,34.103185],[139.553616,34.103142],[139.553739,34.103119],[139.553873,34.103139],[139.554146,34.103203],[139.554234,34.103202],[139.554341,34.103179],[139.554429,34.10312],[139.554499,34.103036],[139.554567,34.102908],[139.554578,34.102801],[139.554561,34.102708],[139.554516,34.102554],[139.554471,34.102419],[139.55448,34.102272]]}},{"type":"Feature","properties":{"id":1291742287,"highway":"unclassified"},"geometry":{"type":"LineString","coordinates":[[139.55253,34.103707],[139.552606,34.103663]]}},{"type":"Feature","properties":{"id":1294947245,"highway":"tertiary"},"geometry":{"type":"LineString","coordinates":[[139.530019,34.121476],[139.530035,34.121521],[139.530065,34.121585],[139.530109,34.121642],[139.530189,34.121734],[139.530663,34.122205]]}}]}