{"type":"FeatureCollection","features":[{"type":"Feature","properties":{"id":155000295,"highway":"residential"},"geometry":{"type":"LineString","coordinates":[[139.591494,33.896719],[139.591535,33.896686],[139.591611,33.896697],[139.591785,33.896784],[139.591837,33.896799],[139.591924,33.896798],[139.591966,33.896757],[139.592067,33.896661],[139.592284,33.896499],[139.592344,33.896417],[139.592538,33.896131],[139.592638,33.896062],[139.592684,33.896017],[139.592695,33.895986],[139.592764,33.895834],[139.592773,33.895761],[139.592775,33.895546],[139.59279,33.89539]]}},{"type":"Feature","properties":{"id":155000334,"highway":"secondary"},"geometry":{"type":"LineString","coordinates":[[139.629077,33.868647],[139.629098,33.86822],[139.629111,33.868036],[139.628898,33.867867],[139.628261,33.867606],[139.628205,33.867486],[139.628205,33.867355],[139.628371,33.867228],[139.628494,33.867147],[139.628473,33.866991],[139.628405,33.866903],[139.628159,33.866847],[139.62758,33.866825],[139.627267,33.866729],[139.627057,33.866504],[139.626832,33.866204],[139.626573,33.865784],[139.626505,33.865657],[139.626279,33.8656],[139.625978,33.865646],[139.625748,33.865625],[139.625578,33.865389],[139.625484,33.865265],[139.625195,33.865159],[139.624745,33.865255],[139.624077,33.865311],[139.623635,33.865452],[139.623499,33.865463],[139.623303,33.865431],[139.623138,33.865272],[139.623091,33.865177],[139.623184,33.864824],[139.623848,33.864125],[139.623933,33.864005],[139.623964,33.863889],[139.623873,33.863744],[139.623491,33.863627],[139.623269,33.863539],[139.623095,33.86326],[139.622887,33.863048],[139.622759,33.862903],[139.622793,33.862738],[139.622976,33.862515],[139.623184,33.86236],[139.623282,33.862162],[139.623133,33.861919],[139.622509,33.861664],[139.621871,33.861583],[139.62094,33.861505],[139.62043,33.861442],[139.620123,33.861371],[139.620017,33.86146],[139.620013,33.861558],[139.62014,33.861626],[139.62043,33.86159],[139.621679,33.861915],[139.621896,33.862021],[139.621994,33.862166],[139.622041,33.86237],[139.621875,33.862766],[139.62179,33.86308],[139.621901,33.863384],[139.621854,33.863652],[139.621769,33.863779],[139.621781,33.864019],[139.621879,33.864259],[139.621879,33.864517],[139.62182,33.864781],[139.621484,33.865007],[139.620612,33.865682],[139.619728,33.866522],[139.619634,33.866677],[139.619566,33.86696],[139.619609,33.867118],[139.619741,33.867242],[139.61997,33.86733],[139.620217,33.867323],[139.620536,33.867313],[139.621101,33.867464],[139.621348,33.86745],[139.62162,33.867415],[139.621862,33.867507],[139.622156,33.867676],[139.622249,33.867803],[139.622207,33.868146],[139.622245,33.86828],[139.622555,33.868403],[139.622708,33.868492],[139.622674,33.868728],[139.622572,33.869025],[139.622487,33.869357],[139.622475,33.869533],[139.622645,33.869678],[139.622691,33.869777],[139.622623,33.869851],[139.62247,33.86984],[139.622351,33.869706],[139.622296,33.869529],[139.622364,33.869124],[139.622372,33.868862],[139.622279,33.86871],[139.621922,33.868538],[139.621781,33.868442],[139.621731,33.86828],[139.621709,33.868065],[139.62162,33.867955],[139.621237,33.867909],[139.620612,33.867881],[139.620085,33.867959],[139.61963,33.868061],[139.618895,33.868393],[139.618636,33.868474],[139.618525,33.86846],[139.618402,33.868343],[139.618321,33.868202],[139.6181,33.868121],[139.61733,33.868174],[139.616931,33.868237],[139.616731,33.868262],[139.616612,33.868241],[139.616544,33.868075],[139.616573,33.867902],[139.61668,33.867817],[139.616795,33.867627],[139.617007,33.866921],[139.617262,33.866621],[139.617615,33.866437],[139.617896,33.866028],[139.617934,33.865886],[139.617874,33.865551],[139.617628,33.865361],[139.617266,33.865018],[139.617131,33.864912],[139.616948,33.864813],[139.61679,33.864552],[139.616676,33.864517],[139.616565,33.864584],[139.616548,33.864707],[139.616807,33.864891],[139.616926,33.864983],[139.617279,33.865611],[139.617296,33.865865],[139.617215,33.86601],[139.616455,33.866472],[139.616289,33.866617],[139.616153,33.866857],[139.616004,33.867041],[139.615659,33.867302],[139.615179,33.867676],[139.614945,33.867729],[139.614274,33.867634],[139.614069,33.867662],[139.613819,33.867824],[139.613721,33.867969],[139.613789,33.868728],[139.613929,33.869162],[139.614397,33.870041],[139.614983,33.870468],[139.61591,33.871033],[139.616148,33.87145],[139.616569,33.871746],[139.616637,33.871789],[139.61668,33.871912],[139.616599,33.872099],[139.616255,33.872632],[139.616157,33.872971],[139.616191,33.873084],[139.616412,33.873151],[139.617016,33.873518],[139.617088,33.873677],[139.617058,33.873765],[139.616952,33.873843],[139.616513,33.87395],[139.616301,33.874002],[139.616208,33.874072],[139.616289,33.874383],[139.616289,33.874489],[139.616208,33.874598],[139.615779,33.874704],[139.615609,33.874718],[139.615536,33.874852],[139.615634,33.875622],[139.615774,33.875788],[139.616229,33.876045],[139.616416,33.876204],[139.616557,33.876614],[139.616561,33.876762],[139.616416,33.876974],[139.616331,33.87709],[139.616297,33.877221],[139.616387,33.87733],[139.616739,33.877306],[139.61685,33.877284],[139.617011,33.877309],[139.617245,33.877563],[139.617377,33.877867],[139.617488,33.877909],[139.617607,33.877895],[139.617879,33.877616],[139.618253,33.877369],[139.618368,33.877267],[139.618414,33.877147],[139.618389,33.876939],[139.618134,33.876416],[139.617836,33.875862],[139.617772,33.875742],[139.617819,33.875625],[139.617942,33.875597],[139.618049,33.875692],[139.618172,33.876088],[139.618308,33.876317],[139.618597,33.876561],[139.61938,33.877288],[139.619783,33.877471],[139.620425,33.877514],[139.620672,33.877503],[139.620825,33.877577],[139.620936,33.877962],[139.620927,33.8781],[139.620778,33.878156],[139.620123,33.878139],[139.619443,33.878266],[139.619316,33.87834],[139.619273,33.878442],[139.619333,33.878527],[139.619469,33.878527],[139.619647,33.878421],[139.620119,33.878407],[139.620221,33.878421],[139.621127,33.878742],[139.621367,33.878781],[139.62152,33.878781],[139.621758,33.87867],[139.621862,33.878587],[139.622013,33.87856],[139.622073,33.878585],[139.622113,33.878647],[139.622079,33.878749],[139.621841,33.87886],[139.621405,33.87892],[139.621008,33.878903],[139.620408,33.878832],[139.620285,33.878876],[139.620174,33.878991],[139.620177,33.879259],[139.620374,33.879764],[139.620602,33.880473],[139.620744,33.880653],[139.620767,33.88078],[139.620716,33.88101],[139.620672,33.881125],[139.620447,33.881327],[139.620362,33.881525],[139.620359,33.881596],[139.620315,33.881696],[139.620211,33.881725],[139.619677,33.881684],[139.619392,33.881703],[139.619224,33.881677],[139.618642,33.881425],[139.618421,33.881202],[139.618238,33.881149],[139.617957,33.881146],[139.617237,33.88107],[139.617075,33.881013],[139.616877,33.880782],[139.616831,33.880742],[139.61668,33.88072],[139.616542,33.880768],[139.616301,33.880952],[139.616185,33.881013],[139.616068,33.881024],[139.615861,33.880904],[139.615747,33.880853],[139.615634,33.880867],[139.61553,33.880879],[139.615466,33.880817],[139.615472,33.880535],[139.615345,33.880094],[139.615283,33.879978],[139.615009,33.879787],[139.614871,33.879593],[139.614733,33.879499],[139.614439,33.87907],[139.614299,33.878924],[139.61418,33.87888],[139.614002,33.878883],[139.613374,33.879515],[139.613234,33.879969],[139.61306,33.880053],[139.612794,33.880147],[139.612718,33.880253],[139.612664,33.880533],[139.612616,33.880689],[139.612354,33.881026],[139.612165,33.88111],[139.612059,33.881128],[139.611986,33.881223],[139.611976,33.881308],[139.612188,33.881523],[139.612199,33.881615],[139.612054,33.882016],[139.61195,33.882475],[139.611978,33.88321],[139.612144,33.883765],[139.61209,33.883863],[139.61201,33.883922],[139.611863,33.883913],[139.611697,33.883825],[139.611487,33.883615],[139.611238,33.883468],[139.611119,33.883463],[139.610966,33.883542],[139.610622,33.88392],[139.61049,33.88413],[139.610409,33.884326],[139.610347,33.88462],[139.610318,33.884725],[139.610071,33.884934],[139.609986,33.885028],[139.609963,33.885217],[139.610052,33.885427],[139.610537,33.885829],[139.61069,33.886018],[139.61069,33.886262],[139.610722,33.886367],[139.611057,33.88672],[139.611334,33.886814],[139.611508,33.886906],[139.611568,33.887001],[139.611629,33.887334],[139.611687,33.887456],[139.611993,33.887684],[139.612422,33.888007],[139.612645,33.88828],[139.61297,33.888917],[139.612962,33.88899],[139.61286,33.889035],[139.612679,33.889046],[139.612171,33.889101],[139.612084,33.889145],[139.612074,33.889198],[139.61226,33.889558],[139.612256,33.889715],[139.612031,33.890622],[139.611935,33.891089],[139.611816,33.891977],[139.611795,33.892081],[139.611801,33.892222],[139.61195,33.892581],[139.611978,33.892697],[139.611959,33.892813],[139.611942,33.893083],[139.611891,33.893329],[139.611772,33.893471],[139.611495,33.893572],[139.611427,33.893609],[139.611312,33.893877],[139.611244,33.893934],[139.611066,33.893952],[139.610868,33.893898],[139.61069,33.893839],[139.610636,33.893696],[139.610526,33.893595],[139.610447,33.893547],[139.61035,33.893563],[139.610294,33.89365],[139.61026,33.893865],[139.610211,33.893941],[139.610088,33.894004],[139.609924,33.894008],[139.60982,33.89396],[139.609718,33.893966],[139.60965,33.89402],[139.609193,33.89483],[139.609199,33.894961],[139.609161,33.895015],[139.609078,33.89504],[139.608987,33.894933],[139.608938,33.894841],[139.608855,33.894814],[139.608759,33.894837],[139.608736,33.894892],[139.608768,33.895185],[139.608743,33.895273],[139.608462,33.895434],[139.608386,33.895471],[139.608308,33.895606],[139.608233,33.89568],[139.608024,33.896051],[139.607941,33.896178],[139.607899,33.89624],[139.607637,33.896305],[139.607433,33.896376],[139.607244,33.896432],[139.60714,33.896418],[139.606946,33.896178],[139.606751,33.896012],[139.606638,33.89597],[139.606574,33.896003],[139.606417,33.896323],[139.606279,33.896773],[139.606238,33.896838],[139.606077,33.896949],[139.605845,33.897352],[139.605675,33.897406],[139.605501,33.897353],[139.605397,33.89724],[139.605286,33.897225],[139.605184,33.89729],[139.605067,33.897496],[139.604925,33.897572],[139.604759,33.897558],[139.604544,33.897477],[139.604385,33.8975],[139.604304,33.897586],[139.604094,33.89805],[139.603958,33.898156],[139.603796,33.898209],[139.603581,33.898177],[139.603475,33.898114],[139.603301,33.897816],[139.603218,33.897699],[139.603106,33.897644],[139.602949,33.897681],[139.60278,33.897793],[139.602474,33.898004],[139.60234,33.898017],[139.602261,33.897953],[139.602197,33.897373],[139.602251,33.897115],[139.602257,33.896972],[139.602176,33.89682],[139.602104,33.896632],[139.602038,33.896561],[139.60197,33.896552],[139.60184,33.896591],[139.601666,33.896626],[139.601487,33.896614],[139.601273,33.896552],[139.601139,33.8964],[139.60106,33.896222],[139.600897,33.896175],[139.600763,33.896183],[139.600625,33.896314],[139.600486,33.896582],[139.600329,33.896766],[139.600223,33.896956],[139.600185,33.897145],[139.599961,33.897756],[139.599653,33.898183],[139.599525,33.89832],[139.599311,33.89835],[139.599034,33.89828],[139.598756,33.898251],[139.59824,33.898168],[139.597873,33.89802],[139.597746,33.897895],[139.597738,33.897727],[139.597606,33.897505],[139.597469,33.897407],[139.597247,33.897352],[139.597017,33.897323],[139.596643,33.897251],[139.596494,33.897288],[139.596297,33.897426],[139.596224,33.897539],[139.596139,33.897623],[139.596033,33.89764],[139.595831,33.897613],[139.595346,33.89753],[139.594989,33.897454],[139.594665,33.897205],[139.594462,33.897209],[139.594312,33.897172],[139.594206,33.897101],[139.594084,33.897003],[139.59382,33.89685],[139.593759,33.896792],[139.593723,33.89646],[139.593673,33.896373],[139.593425,33.896208],[139.593342,33.896014],[139.59324,33.895827],[139.593049,33.895655],[139.592949,33.895506],[139.592885,33.895457],[139.59279,33.89539]]}},{"type":"Feature","properties":{"id":155000337,"highway":"secondary"},"geometry":{"type":"LineString","coordinates":[[139.589225,33.89543],[139.589309,33.89552],[139.58945,33.895643],[139.58963,33.895795],[139.589705,33.895853],[139.590096,33.896168],[139.59038,33.896438],[139.590716,33.896745]]}},{"type":"Feature","properties":{"id":155000345,"highway":"secondary"},"geometry":{"type":"LineString","coordinates":[[139.590716,33.896745],[139.591848,33.897742],[139.592105,33.897888],[139.592207,33.897914],[139.592309,33.897869],[139.59236,33.8978],[139.592341,33.897706],[139.591877,33.897337],[139.591494,33.896719],[139.591152,33.896242],[139.591123,33.896074],[139.591132,33.895831],[139.591156,33.895767],[139.591216,33.895707],[139.591484,33.895402],[139.591683,33.895188],[139.59185,33.895091],[139.592082,33.895046],[139.592214,33.895051],[139.592289,33.895076],[139.592511,33.895248],[139.592576,33.895287],[139.592708,33.89535],[139.59279,33.89539]]}},{"type":"Feature","properties":{"id":424083560,"highway":"service"},"geometry":{"type":"LineString","coordinates":[[139.589225,33.89543],[139.588578,33.896206],[139.586826,33.897445]]}},{"type":"Feature","properties":{"id":428859015,"highway":"unclassified"},"geometry":{"type":"LineString","coordinates":[[139.591924,33.896798],[139.592105,33.896851],[139.592169,33.896862],[139.592209,33.896858],[139.592237,33.896842],[139.592467,33.8966],[139.592508,33.896588],[139.592556,33.896587],[139.592749,33.896637],[139.592734,33.896764],[139.592754,33.896954],[139.592758,33.897023],[139.5927,33.897094],[139.592691,33.897193],[139.59242,33.897678],[139.592341,33.897706]]}},{"type":"Feature","properties":{"id":428859018,"highway":"service"},"geometry":{"type":"LineString","coordinates":[[139.592276,33.895873],[139.592437,33.895685],[139.592542,33.895501],[139.592538,33.895378],[139.592576,33.895287]]}},{"type":"Feature","properties":{"id":428859019,"highway":"service"},"geometry":{"type":"LineString","coordinates":[[139.589705,33.895853],[139.590157,33.896314],[139.59042,33.896668],[139.590568,33.896968],[139.591238,33.897816]]}},{"type":"Feature","properties":{"id":428859026,"highway":"service"},"geometry":{"type":"LineString","coordinates":[[139.587918,33.894263],[139.588931,33.894956],[139.589036,33.895046],[139.589076,33.895115],[139.589117,33.895176],[139.58917,33.895328],[139.589225,33.89543]]}},{"type":"Feature","properties":{"id":428866610,"highway":"unclassified"},"geometry":{"type":"LineString","coordinates":[[139.592664,33.894789],[139.592857,33.894623],[139.592965,33.894531],[139.593076,33.894473],[139.593123,33.894429],[139.593154,33.894368],[139.593206,33.894292],[139.593378,33.894182],[139.593424,33.894134],[139.593461,33.893997],[139.593579,33.893844],[139.593716,33.893659],[139.593728,33.89362],[139.593719,33.893561],[139.593654,33.893466],[139.593625,33.893412],[139.593624,33.893364],[139.593653,33.893322],[139.593719,33.893304],[139.593791,33.893322],[139.593833,33.893374],[139.593897,33.893557],[139.59394,33.893626],[139.593951,33.893684],[139.593943,33.893829],[139.593972,33.893862],[139.594047,33.893876],[139.594107,33.893851],[139.594133,33.893811],[139.594117,33.89375],[139.594045,33.893667],[139.59403,33.893633],[139.594027,33.893573],[139.594113,33.893259],[139.594112,33.89319],[139.594097,33.893105],[139.593993,33.892857],[139.593972,33.892782],[139.593968,33.892718],[139.594012,33.892481],[139.594059,33.892326],[139.594069,33.892117],[139.594057,33.892018],[139.594077,33.891979],[139.59411,33.891965],[139.594159,33.891966],[139.594186,33.891986],[139.594204,33.89202],[139.594212,33.892156],[139.594245,33.892344],[139.594281,33.892372],[139.594326,33.892377],[139.59438,33.892361],[139.594403,33.89233],[139.594403,33.892292],[139.594334,33.892129],[139.594334,33.89208],[139.594342,33.891907],[139.594325,33.891855],[139.594231,33.891699],[139.594062,33.891248],[139.594035,33.891141],[139.59403,33.891014],[139.594043,33.890918],[139.594043,33.890861],[139.594012,33.890814],[139.593959,33.890784]]}},{"type":"Feature","properties":{"id":428866612,"highway":"service"},"geometry":{"type":"LineString","coordinates":[[139.589415,33.892733],[139.589649,33.892736],[139.589775,33.892716],[139.589949,33.892556],[139.590091,33.892489],[139.590223,33.892466],[139.5904,33.892302],[139.590507,33.892282],[139.590654,33.892277],[139.590791,33.892201],[139.591261,33.891776],[139.591397,33.891652],[139.591588,33.891612],[139.591786,33.891676],[139.592183,33.891765],[139.592331,33.891934],[139.592449,33.89201],[139.592454,33.89209],[139.592462,33.892215],[139.592537,33.892244],[139.592669,33.892217],[139.592706,33.892099],[139.592628,33.892012],[139.59254,33.891948],[139.592486,33.891807],[139.592529,33.891547],[139.592623,33.89138],[139.592623,33.891269],[139.592532,33.89118]]}},{"type":"Feature","properties":{"id":450213673,"highway":"service"},"geometry":{"type":"LineString","coordinates":[[139.590959,33.895711],[139.591123,33.896074]]}},{"type":"Feature","properties":{"id":450213675,"highway":"service"},"geometry":{"type":"LineString","coordinates":[[139.591597,33.896055],[139.591702,33.896095],[139.591835,33.896137],[139.591901,33.896212],[139.591972,33.896296],[139.592078,33.896368],[139.592344,33.896417]]}},{"type":"Feature","properties":{"id":611828113,"highway":"service"},"geometry":{"type":"LineString","coordinates":[[139.58963,33.895795],[139.588578,33.896206]]}},{"type":"Feature","properties":{"id":1304368024,"highway":"tertiary"},"geometry":{"type":"LineString","coordinates":[[139.59263,33.89471],[139.592603,33.894647]]}},{"type":"Feature","properties":{"id":1304368025,"highway":"tertiary"},"geometry":{"type":"LineString","coordinates":[[139.592708,33.89535],[139.592762,33.895286],[139.592818,33.895131],[139.592789,33.89503],[139.592713,33.894872],[139.592671,33.894807],[139.592664,33.894789],[139.59263,33.89471]]}}]}