{"type":"FeatureCollection","features":[{"type":"Feature","properties":{"id":127929387,"highway":"secondary"},"geometry":{"type":"LineString","coordinates":[[139.58138,36.963251],[139.581582,36.963456],[139.581743,36.963574],[139.581904,36.963625],[139.582103,36.963651],[139.582307,36.963698],[139.582642,36.963784],[139.583,36.963865],[139.583314,36.963916],[139.583582,36.963929],[139.583801,36.96392],[139.583981,36.963897],[139.584138,36.963891],[139.584319,36.963911],[139.584471,36.963953],[139.584686,36.964042],[139.584929,36.96416],[139.585067,36.964217],[139.585169,36.964237],[139.585324,36.964237],[139.585479,36.964231],[139.585741,36.964196],[139.58593,36.964159],[139.586038,36.964128],[139.586182,36.964032],[139.58637,36.963886],[139.586478,36.963788],[139.58662,36.963707],[139.586927,36.963572],[139.587276,36.963376],[139.587658,36.96316],[139.587829,36.963046],[139.587965,36.962986],[139.588068,36.962963],[139.588261,36.962957],[139.588722,36.962936],[139.589009,36.96294]]}},{"type":"Feature","properties":{"id":191058432,"highway":"unclassified"},"geometry":{"type":"LineString","coordinates":[[139.504555,36.907793],[139.504661,36.907568]]}},{"type":"Feature","properties":{"id":191058973,"highway":"secondary"},"geometry":{"type":"LineString","coordinates":[[139.556696,36.902453],[139.556502,36.902626],[139.556313,36.90275],[139.555703,36.903066],[139.55564,36.903116],[139.555542,36.903212],[139.555444,36.903347],[139.555374,36.90355],[139.555318,36.904113],[139.555297,36.904181]]}},{"type":"Feature","properties":{"id":191058985,"highway":"secondary"},"geometry":{"type":"LineString","coordinates":[[139.55689,36.902242],[139.556696,36.902453]]}},{"type":"Feature","properties":{"id":191058986,"highway":"secondary"},"geometry":{"type":"LineString","coordinates":[[139.559701,36.899864],[139.559427,36.900044]]}},{"type":"Feature","properties":{"id":191058987,"highway":"secondary"},"geometry":{"type":"LineString","coordinates":[[139.558374,36.900533],[139.558109,36.900721]]}},{"type":"Feature","properties":{"id":191059001,"highway":"secondary"},"geometry":{"type":"LineString","coordinates":[[139.558109,36.900721],[139.557988,36.900824],[139.557979,36.900883],[139.558003,36.900965],[139.558149,36.901199],[139.558149,36.901263],[139.558149,36.901322],[139.558138,36.901383],[139.558115,36.901438],[139.558086,36.901465],[139.558057,36.901479],[139.558027,36.901472],[139.557992,36.901455],[139.557964,36.901415],[139.557948,36.90138],[139.557938,36.901315],[139.557904,36.901216],[139.557868,36.901185],[139.557832,36.901152],[139.557781,36.901122],[139.55773,36.901101],[139.557694,36.9011],[139.557657,36.901111],[139.557627,36.901143],[139.557609,36.901195],[139.557594,36.901306],[139.557567,36.901392],[139.557485,36.901506],[139.557363,36.901651],[139.557278,36.901751],[139.55722,36.901873],[139.557133,36.902035],[139.557028,36.902153],[139.55689,36.902242]]}},{"type":"Feature","properties":{"id":191059008,"highway":"secondary"},"geometry":{"type":"LineString","coordinates":[[139.555198,36.904271],[139.555157,36.904269],[139.555104,36.904251],[139.555051,36.904184],[139.555031,36.904106],[139.554973,36.904014],[139.554935,36.903982],[139.554874,36.903968],[139.554793,36.903997],[139.554752,36.904033],[139.554822,36.904495],[139.554813,36.904874],[139.554693,36.905343],[139.554624,36.905527],[139.554565,36.905643],[139.554463,36.905775],[139.554156,36.906069],[139.55379,36.906374],[139.55358,36.906514],[139.553566,36.906592],[139.553596,36.906651],[139.553667,36.906694],[139.553777,36.906706],[139.55394,36.906637],[139.554151,36.906513],[139.554348,36.906423],[139.555111,36.905905],[139.555269,36.905828],[139.555312,36.905814],[139.55535,36.905824],[139.555382,36.905854],[139.555411,36.90596],[139.555362,36.906046],[139.555312,36.906096],[139.554518,36.90678],[139.55432,36.906967],[139.554223,36.907038],[139.55395,36.907164],[139.553814,36.907259],[139.553775,36.907325],[139.553748,36.90739],[139.55373,36.907439],[139.553732,36.907567],[139.553713,36.907719],[139.553425,36.908469],[139.55336,36.908587],[139.553176,36.908738],[139.553121,36.908791],[139.552992,36.909002],[139.552922,36.90907],[139.552832,36.909125],[139.552444,36.909241],[139.552258,36.909358],[139.552028,36.909452],[139.551883,36.909499],[139.551722,36.909629],[139.551553,36.909866],[139.551448,36.910122],[139.551393,36.910187],[139.551367,36.910207],[139.551246,36.910209],[139.55107,36.910164],[139.550853,36.910159],[139.550722,36.910188],[139.550587,36.910237],[139.550467,36.910341],[139.55037,36.910445],[139.550278,36.910626],[139.550125,36.910975],[139.550064,36.911057],[139.54997,36.911088],[139.549874,36.911064],[139.54981,36.911017],[139.549706,36.910876],[139.549517,36.910452],[139.549451,36.910389],[139.549387,36.910371],[139.549179,36.910365],[139.549037,36.910395],[139.548849,36.910463],[139.548729,36.910513],[139.548596,36.910598],[139.54847,36.910811],[139.548396,36.910974],[139.548337,36.911048],[139.548273,36.911101],[139.547958,36.911212],[139.547873,36.911259],[139.547755,36.911353],[139.547687,36.911451],[139.547635,36.911612],[139.547565,36.911939],[139.547439,36.912062],[139.547097,36.912162],[139.546899,36.912253],[139.54669,36.912299],[139.546508,36.912298],[139.546343,36.912275],[139.546045,36.912277],[139.545832,36.912303],[139.545667,36.912355],[139.545524,36.912424],[139.545348,36.912512],[139.545204,36.91262],[139.545014,36.912777],[139.544999,36.912808],[139.54496,36.912826],[139.544625,36.91314],[139.544549,36.913205]]}},{"type":"Feature","properties":{"id":191059020,"highway":"secondary"},"geometry":{"type":"LineString","coordinates":[[139.559427,36.900044],[139.559242,36.900114],[139.558899,36.900135],[139.558758,36.90017],[139.558653,36.900221],[139.558569,36.900288],[139.558374,36.900533]]}},{"type":"Feature","properties":{"id":191081164,"highway":"secondary"},"geometry":{"type":"LineString","coordinates":[[139.544549,36.913205],[139.544444,36.913264],[139.544392,36.913295],[139.544259,36.91334],[139.544091,36.913334],[139.543915,36.913289],[139.543628,36.913199],[139.543278,36.91312],[139.543151,36.913109],[139.54299,36.913132],[139.542934,36.913171],[139.54292,36.913194],[139.542929,36.913213]]}},{"type":"Feature","properties":{"id":191081165,"highway":"secondary"},"geometry":{"type":"LineString","coordinates":[[139.520445,36.963592],[139.520146,36.963746],[139.520045,36.963821],[139.519955,36.963979],[139.519949,36.964052],[139.519965,36.964157],[139.519963,36.964218],[139.519922,36.964282],[139.519843,36.964401],[139.519786,36.96451],[139.519734,36.964643],[139.519705,36.964694],[139.51966,36.964732],[139.519591,36.964766],[139.519361,36.964813],[139.519077,36.96489],[139.518984,36.964891],[139.518882,36.964865],[139.518731,36.964799],[139.51859,36.964759],[139.518327,36.964692],[139.518186,36.964671],[139.518005,36.964652],[139.517891,36.96466],[139.517739,36.96468],[139.51767,36.964673],[139.51761,36.964661],[139.517549,36.964621],[139.517474,36.964542],[139.517418,36.964497],[139.517325,36.964464],[139.517209,36.964451],[139.517092,36.964451],[139.516978,36.964456],[139.51688,36.964471],[139.516808,36.964497],[139.516737,36.96455],[139.516655,36.964623],[139.516596,36.964689],[139.516532,36.964767],[139.51647,36.964815],[139.516363,36.964878],[139.516259,36.964934],[139.516172,36.964976],[139.516085,36.964997],[139.516015,36.964997],[139.515842,36.964957],[139.515782,36.964957],[139.515746,36.964986],[139.51572,36.965052],[139.515709,36.965106],[139.515705,36.965194],[139.515699,36.965254],[139.515664,36.965361],[139.51565,36.965385],[139.515606,36.965404],[139.515443,36.965435],[139.515158,36.96551],[139.515009,36.965526],[139.514926,36.965546],[139.514847,36.965591],[139.514666,36.965704],[139.514602,36.965736],[139.514418,36.965807],[139.514333,36.965852],[139.514273,36.965902],[139.514234,36.965963],[139.514213,36.966035],[139.514207,36.966105],[139.514213,36.966189],[139.514228,36.966283],[139.514257,36.96638],[139.514325,36.966574],[139.51439,36.966715],[139.514468,36.966843],[139.514543,36.966937],[139.514647,36.967049],[139.514814,36.967212],[139.514869,36.967284],[139.514902,36.967363],[139.514917,36.967437],[139.514916,36.967522],[139.514902,36.967579],[139.514874,36.967632],[139.51482,36.967687],[139.514741,36.967733],[139.514642,36.967785],[139.514537,36.967816],[139.514454,36.96782],[139.514364,36.96781],[139.514201,36.967765],[139.514047,36.967717],[139.513961,36.967701],[139.513873,36.967698],[139.513794,36.967701],[139.513696,36.967728],[139.513601,36.967769],[139.513487,36.967837],[139.513405,36.967878],[139.513328,36.967903],[139.513239,36.967904],[139.513143,36.967879],[139.513043,36.967828],[139.512721,36.96762],[139.512511,36.967508],[139.51235,36.967433],[139.512231,36.967376],[139.512084,36.967323],[139.511923,36.967281],[139.511753,36.96725],[139.511615,36.967241],[139.511481,36.967243],[139.511292,36.967268],[139.511138,36.967291],[139.510993,36.967293],[139.510832,36.967288],[139.510688,36.967277],[139.510553,36.967287],[139.510419,36.967313],[139.510315,36.967348],[139.510204,36.967401],[139.510108,36.967483],[139.510057,36.967542]]}},{"type":"Feature","properties":{"id":191081166,"highway":"secondary"},"geometry":{"type":"LineString","coordinates":[[139.52406,36.946376],[139.524106,36.946498],[139.524142,36.946567],[139.5242,36.946635],[139.524325,36.946763],[139.524435,36.946845],[139.524585,36.946944],[139.524669,36.947014],[139.524765,36.947101],[139.524837,36.947201],[139.524892,36.947286],[139.52494,36.947375],[139.52507,36.947687],[139.525194,36.947934],[139.525229,36.948048],[139.525305,36.948426],[139.525336,36.948678],[139.525351,36.948828],[139.525389,36.949085],[139.525455,36.949256],[139.525528,36.949432],[139.525659,36.949789],[139.525693,36.949883],[139.525706,36.949964],[139.525701,36.950045],[139.525666,36.950142],[139.525469,36.950519],[139.525426,36.950599],[139.525348,36.950693],[139.525241,36.950794],[139.524935,36.951101],[139.524868,36.951188],[139.524833,36.951269],[139.52483,36.951384],[139.524844,36.951482],[139.524934,36.951771],[139.524959,36.951914],[139.524974,36.952036],[139.524977,36.952175],[139.52497,36.9523],[139.524919,36.952496],[139.524877,36.952648],[139.524809,36.952781],[139.524665,36.953007],[139.524557,36.953184],[139.524275,36.953607],[139.524209,36.953694],[139.524117,36.953786],[139.52402,36.953854],[139.523851,36.953932],[139.523492,36.954012]]}},{"type":"Feature","properties":{"id":191081171,"highway":"secondary"},"geometry":{"type":"LineString","coordinates":[[139.532207,36.941124],[139.53216,36.941197],[139.532019,36.941309],[139.531916,36.941361],[139.531825,36.941391],[139.531678,36.941404],[139.531604,36.941422],[139.531534,36.941455],[139.531427,36.941537],[139.531376,36.941595],[139.531325,36.941654],[139.531275,36.941693],[139.531221,36.94172],[139.53116,36.941734],[139.531105,36.94174],[139.531047,36.941735],[139.530985,36.941718],[139.530922,36.941688],[139.530632,36.941494],[139.530565,36.941465],[139.530481,36.941445],[139.530369,36.941423],[139.530224,36.941371],[139.5301,36.941343],[139.530011,36.941344],[139.529955,36.941353],[139.529899,36.941377],[139.529853,36.941412],[139.529819,36.94146],[139.529796,36.941518],[139.529793,36.941573],[139.529794,36.941669],[139.529805,36.941721],[139.529823,36.941767],[139.529849,36.941808],[139.52999,36.941965],[139.53003,36.942027],[139.530068,36.942107],[139.530094,36.942217],[139.530101,36.942283],[139.530111,36.942409],[139.530109,36.942473],[139.53005,36.942613],[139.530045,36.942681],[139.530031,36.942736],[139.530002,36.942829],[139.529961,36.942928],[139.529896,36.943161],[139.529894,36.943221],[139.529906,36.943283],[139.52993,36.943347],[139.529964,36.943424],[139.529978,36.94356],[139.529971,36.943618],[139.529941,36.943677],[139.529906,36.943742],[139.529852,36.943807],[139.529787,36.943874],[139.529756,36.943928],[139.529739,36.943982],[139.529746,36.944074],[139.52975,36.944146]]}},{"type":"Feature","properties":{"id":191081173,"highway":"secondary"},"geometry":{"type":"LineString","coordinates":[[139.535019,36.934617],[139.535075,36.934977],[139.535074,36.935029],[139.535047,36.935108],[139.535023,36.935222],[139.534993,36.935278],[139.534819,36.935493],[139.534759,36.935587],[139.534725,36.935691],[139.534707,36.935768],[139.534714,36.935815],[139.534738,36.935858],[139.534799,36.935948],[139.534815,36.935996],[139.534818,36.936042],[139.534816,36.936101],[139.534784,36.936186],[139.534737,36.936266],[139.534689,36.936324],[139.534579,36.936406],[139.53439,36.93659],[139.534332,36.936666],[139.534306,36.936737],[139.534282,36.936854],[139.534269,36.936952],[139.534268,36.937051],[139.534268,36.937207],[139.534275,36.937277],[139.534311,36.93743],[139.534324,36.937493],[139.534317,36.937574],[139.534295,36.937633],[139.534249,36.937722],[139.534197,36.937794],[139.534161,36.937844],[139.534114,36.937955],[139.534078,36.93801],[139.533944,36.938162],[139.533875,36.93823],[139.533741,36.938331],[139.533576,36.938445],[139.533496,36.938487],[139.533397,36.938532],[139.533325,36.938578],[139.533275,36.938625],[139.533257,36.938666],[139.533248,36.938711],[139.533252,36.938758],[139.533277,36.938819],[139.533301,36.938868],[139.533309,36.938912],[139.533329,36.939059],[139.53335,36.939139],[139.53335,36.939225],[139.53334,36.939298],[139.533319,36.939394],[139.533267,36.939508],[139.533204,36.939594],[139.533139,36.93967],[139.533072,36.939714],[139.533018,36.939745],[139.532582,36.939894],[139.532298,36.939982],[139.532194,36.940025],[139.532138,36.940057],[139.532106,36.940091],[139.532095,36.94014],[139.5321,36.940198],[139.532133,36.940282],[139.532233,36.94046],[139.532256,36.94052],[139.532274,36.940582],[139.532273,36.940655],[139.53226,36.940707],[139.532215,36.940798],[139.532199,36.940842],[139.532199,36.940892],[139.532224,36.940993],[139.532223,36.941082],[139.532207,36.941124]]}},{"type":"Feature","properties":{"id":191081174,"highway":"secondary"},"geometry":{"type":"LineString","coordinates":[[139.542929,36.913213],[139.542946,36.913286],[139.543098,36.913412],[139.543224,36.913473],[139.543365,36.913515],[139.543434,36.913558],[139.543453,36.913644],[139.543431,36.913754],[139.543373,36.913842],[139.543271,36.913945],[139.542888,36.91413],[139.542623,36.91435],[139.542576,36.914402],[139.542567,36.914463],[139.542614,36.914702],[139.542611,36.914742],[139.542589,36.914768],[139.542534,36.914805],[139.542402,36.914872],[139.542248,36.914933],[139.542116,36.914967],[139.541686,36.914955],[139.541641,36.91497],[139.541617,36.915005],[139.541563,36.915155],[139.541514,36.915332],[139.541491,36.915452],[139.541486,36.915497],[139.541494,36.915545],[139.541599,36.915743],[139.541604,36.91579],[139.541603,36.915827],[139.541591,36.915853],[139.54142,36.915913],[139.541301,36.91592],[139.541253,36.915875],[139.541098,36.915655],[139.540839,36.91543],[139.540741,36.915357],[139.540671,36.915327],[139.540482,36.915333],[139.540363,36.915357],[139.540201,36.91535],[139.5399,36.915142],[139.539802,36.915102],[139.539697,36.915085],[139.539409,36.915097],[139.539164,36.91513],[139.539052,36.915165],[139.538975,36.91522],[139.538736,36.915485],[139.538638,36.915542],[139.538575,36.915565],[139.5384,36.91557],[139.538246,36.915565],[139.538197,36.915553],[139.538071,36.915537],[139.537833,36.915525]]}},{"type":"Feature","properties":{"id":191081175,"highway":"secondary"},"geometry":{"type":"LineString","coordinates":[[139.532383,36.920908],[139.532329,36.920933],[139.532217,36.921001],[139.532169,36.921051],[139.532149,36.921113],[139.532154,36.921181],[139.532187,36.921255],[139.532259,36.921366],[139.532357,36.921523],[139.532385,36.921636],[139.532389,36.92176],[139.532385,36.921923],[139.53235,36.922064],[139.532336,36.922245],[139.532355,36.922358],[139.532462,36.922634],[139.532476,36.922701],[139.532462,36.922757],[139.532392,36.922875],[139.532266,36.92304],[139.53221,36.923136],[139.532119,36.923361],[139.532048,36.923485],[139.531831,36.923806],[139.531705,36.92411],[139.531461,36.924537],[139.531444,36.924602],[139.531452,36.924729],[139.53148,36.924769],[139.531531,36.924809],[139.531722,36.924909],[139.531948,36.925022],[139.532147,36.925134],[139.532644,36.92534],[139.532743,36.925372],[139.532813,36.925417],[139.533199,36.925935],[139.533276,36.926144],[139.533297,36.926262],[139.533297,36.926616],[139.533269,36.926769],[139.533276,36.926853],[139.533388,36.92709],[139.533479,36.92727],[139.533564,36.927473],[139.533606,36.927794],[139.533606,36.928259],[139.533601,36.928374],[139.533578,36.928436],[139.533488,36.928584],[139.533467,36.928639],[139.533464,36.928727],[139.533475,36.928817],[139.533538,36.928906],[139.533598,36.928966],[139.533935,36.929258],[139.534166,36.929608],[139.534176,36.929676],[139.53418,36.929789],[139.534195,36.929855],[139.5343,36.930204],[139.534307,36.930283],[139.5343,36.930368],[139.53418,36.930655],[139.53416,36.930733],[139.53416,36.930802],[139.534175,36.930855],[139.5343,36.931043],[139.53432,36.93114],[139.534335,36.93146],[139.53432,36.931877],[139.534292,36.931945],[139.53418,36.932062],[139.534032,36.932141],[139.533787,36.932186],[139.5337,36.932215],[139.533597,36.932248],[139.533533,36.93228],[139.533497,36.93232],[139.53349,36.932377],[139.533497,36.932425],[139.533525,36.932462],[139.533583,36.932496],[139.53385,36.932575],[139.533967,36.932621],[139.534027,36.932661],[139.534053,36.93271],[139.534075,36.932885],[139.53413,36.93302],[139.534193,36.933089],[139.53427,36.933139],[139.534313,36.933168],[139.534413,36.933233],[139.534474,36.933314],[139.53453,36.933466],[139.53454,36.933578],[139.534545,36.933629],[139.534552,36.933877],[139.534565,36.933977],[139.534591,36.934059],[139.534635,36.934123],[139.534686,36.934159],[139.534798,36.934215],[139.534903,36.934305],[139.534959,36.934384],[139.535001,36.93453],[139.535019,36.934617]]}},{"type":"Feature","properties":{"id":191081176,"highway":"secondary"},"geometry":{"type":"LineString","coordinates":[[139.537833,36.915525],[139.537557,36.915645],[139.537442,36.915685],[139.537341,36.915715],[139.537286,36.915745],[139.537241,36.915788],[139.537168,36.915858],[139.53711,36.915905],[139.537052,36.915934],[139.536999,36.915965],[139.536955,36.915983],[139.536914,36.915997],[139.536844,36.916004],[139.536676,36.916004],[139.53649,36.915998],[139.536242,36.916038],[139.536074,36.916078],[139.535976,36.916078],[139.535884,36.916049],[139.535611,36.915937],[139.535499,36.915914],[139.535289,36.915914],[139.535134,36.915959],[139.535099,36.91597],[139.534952,36.9161],[139.534672,36.91641],[139.534412,36.916669],[139.534104,36.917029],[139.533929,36.917199],[139.533796,36.917255],[139.533649,36.917244],[139.533572,36.91721],[139.53332,36.917007],[139.533201,36.916962],[139.533114,36.916963],[139.533011,36.916984],[139.532892,36.917046],[139.532689,36.917221],[139.532535,36.917317],[139.532289,36.917317],[139.53198,36.917289],[139.531658,36.917294],[139.531532,36.917323],[139.531405,36.917373],[139.531356,36.917407],[139.531307,36.917508],[139.531308,36.917626],[139.531391,36.917717],[139.531574,36.917824],[139.531882,36.917948],[139.532282,36.918049],[139.532689,36.918106],[139.532899,36.918123],[139.532976,36.918139],[139.533032,36.918139],[139.533186,36.918173],[139.533361,36.918229],[139.533502,36.918308],[139.533642,36.918421],[139.533719,36.918511],[139.533789,36.918686],[139.533787,36.918716],[139.533782,36.918917],[139.533719,36.919142],[139.533719,36.9193],[139.533972,36.91975],[139.534055,36.919919],[139.53412,36.920005]]}},{"type":"Feature","properties":{"id":191081253,"highway":"secondary"},"geometry":{"type":"LineString","coordinates":[[139.555999,36.914702],[139.556027,36.914693],[139.556081,36.914697],[139.55613,36.914714],[139.556159,36.914744],[139.556166,36.914798],[139.556175,36.914971],[139.556193,36.915043],[139.556221,36.915092],[139.556269,36.915126],[139.556387,36.915196],[139.556483,36.915262],[139.556533,36.915314],[139.556587,36.915396],[139.556614,36.915467],[139.556623,36.915517],[139.556623,36.915577],[139.556593,36.915655],[139.556557,36.915727],[139.55649,36.915813],[139.556411,36.915898],[139.556335,36.916065]]}},{"type":"Feature","properties":{"id":191081256,"highway":"secondary"},"geometry":{"type":"LineString","coordinates":[[139.544549,36.913205],[139.544581,36.913231],[139.544719,36.913248],[139.54502,36.913311],[139.54516,36.913359],[139.545291,36.913425],[139.54542,36.913495],[139.545575,36.913591],[139.54569,36.913625],[139.545802,36.913621],[139.54597,36.913583],[139.546187,36.913524],[139.546401,36.913541],[139.546566,36.913574],[139.546905,36.913647],[139.547165,36.913712],[139.547317,36.913767],[139.547371,36.913804],[139.547437,36.91385],[139.547535,36.913925],[139.54762,36.913996],[139.54768,36.914029],[139.547725,36.91404],[139.547809,36.914046],[139.547899,36.914049],[139.548043,36.914056],[139.548346,36.914057],[139.548479,36.914087],[139.54865,36.91416],[139.548829,36.914245],[139.548915,36.914276],[139.549044,36.91431],[139.549127,36.914319],[139.54931,36.914341],[139.549713,36.91435],[139.549923,36.914375],[139.550149,36.914405],[139.550204,36.914432],[139.55028,36.914497],[139.550388,36.914605],[139.550474,36.914712],[139.550566,36.914793],[139.550638,36.914837],[139.55069,36.914858],[139.550749,36.914868],[139.550838,36.914885],[139.550921,36.914885],[139.551015,36.914885],[139.551145,36.914892],[139.551347,36.914912],[139.551473,36.914927],[139.551606,36.914948],[139.551714,36.914977],[139.551858,36.915028],[139.552142,36.915148],[139.552265,36.915193],[139.552417,36.91523],[139.552661,36.915272],[139.552843,36.9153],[139.553046,36.91535],[139.553334,36.91544],[139.553803,36.915603],[139.55399,36.915693],[139.554145,36.915787],[139.554264,36.915862],[139.554366,36.915932],[139.554518,36.916067],[139.554563,36.916092],[139.554629,36.916115],[139.554754,36.91613],[139.555015,36.916137],[139.555244,36.916123],[139.555391,36.916116],[139.555513,36.916097],[139.555686,36.916083],[139.555843,36.916054],[139.55594,36.916037],[139.555993,36.91601],[139.556051,36.91596],[139.556273,36.915744],[139.556368,36.915665],[139.556405,36.915621],[139.556421,36.915573],[139.556425,36.915518],[139.556416,36.915472],[139.556388,36.915419],[139.55635,36.915366],[139.556298,36.915314],[139.556215,36.915242],[139.556181,36.91521],[139.556145,36.915147],[139.555999,36.914814],[139.555984,36.914762],[139.555999,36.914702]]}},{"type":"Feature","properties":{"id":191081258,"highway":"secondary"},"geometry":{"type":"LineString","coordinates":[[139.559269,36.944876],[139.559379,36.944996],[139.55944,36.945033],[139.559469,36.945064],[139.55948,36.945106],[139.559478,36.945171],[139.559373,36.945447],[139.559357,36.945491],[139.559358,36.945537],[139.559401,36.945576],[139.559446,36.945588],[139.559527,36.945582],[139.559702,36.945526],[139.559796,36.94552],[139.559885,36.945526],[139.559945,36.945548]]}},{"type":"Feature","properties":{"id":191081260,"highway":"secondary"},"geometry":{"type":"LineString","coordinates":[[139.549666,36.924295],[139.549677,36.924511]]}},{"type":"Feature","properties":{"id":191081261,"highway":"secondary"},"geometry":{"type":"LineString","coordinates":[[139.558872,36.944839],[139.558996,36.944859]]}},{"type":"Feature","properties":{"id":191081262,"highway":"secondary"},"geometry":{"type":"LineString","coordinates":[[139.558996,36.944859],[139.559269,36.944876]]}},{"type":"Feature","properties":{"id":191081263,"highway":"secondary"},"geometry":{"type":"LineString","coordinates":[[139.563879,36.953083],[139.563936,36.953115],[139.564007,36.953142],[139.564077,36.953159],[139.564172,36.953169],[139.564392,36.953156],[139.564469,36.953159],[139.564552,36.953176],[139.56467,36.953219],[139.564809,36.953281],[139.564879,36.953321],[139.565041,36.95345],[139.565342,36.953833],[139.565518,36.953996],[139.565735,36.954132],[139.566107,36.954323],[139.566766,36.954598],[139.567301,36.954829],[139.567566,36.954967],[139.567979,36.955151],[139.568532,36.955343],[139.568666,36.955395],[139.568931,36.955525],[139.569151,36.955643]]}},{"type":"Feature","properties":{"id":191081264,"highway":"secondary"},"geometry":{"type":"LineString","coordinates":[[139.552454,36.916325],[139.55242,36.916382],[139.552342,36.916515],[139.552212,36.916712],[139.552189,36.91675],[139.552138,36.916823],[139.552079,36.916889],[139.552008,36.916955],[139.551941,36.91701],[139.551884,36.91705],[139.551814,36.917093],[139.551764,36.917113],[139.551737,36.917116],[139.551711,36.917116],[139.551674,36.917107],[139.551655,36.917097],[139.551628,36.917078],[139.551606,36.917043],[139.551594,36.917008],[139.551582,36.916945],[139.551573,36.91688],[139.551524,36.916824],[139.551472,36.916803]]}},{"type":"Feature","properties":{"id":191081265,"highway":"secondary"},"geometry":{"type":"LineString","coordinates":[[139.549739,36.92457],[139.549834,36.924567],[139.549944,36.924555],[139.550105,36.924532],[139.550365,36.924537],[139.550555,36.924577],[139.55087,36.924724],[139.550975,36.924747],[139.551089,36.924741],[139.551327,36.924696],[139.551494,36.924696],[139.551664,36.924764],[139.552007,36.924995],[139.552162,36.925112],[139.552287,36.925231],[139.55247,36.925445],[139.552548,36.925512],[139.552765,36.925642],[139.553039,36.9258],[139.553151,36.925884],[139.553326,36.926132],[139.553649,36.926617],[139.553965,36.927028],[139.554042,36.927208],[139.554056,36.927411],[139.554035,36.927563],[139.554019,36.927612]]}},{"type":"Feature","properties":{"id":191081266,"highway":"secondary"},"geometry":{"type":"LineString","coordinates":[[139.554347,36.917015],[139.554111,36.917154],[139.554006,36.917182],[139.553908,36.917182],[139.553845,36.917125],[139.553516,36.916602],[139.553446,36.916522],[139.553362,36.916472],[139.553264,36.916477],[139.553209,36.916537],[139.553166,36.916618],[139.553079,36.916968],[139.553048,36.917074],[139.552977,36.917131],[139.552892,36.917135],[139.552796,36.91705],[139.552729,36.916869],[139.552729,36.91661],[139.552756,36.916508],[139.552771,36.916392],[139.552769,36.916342],[139.552747,36.916292],[139.552698,36.916255],[139.552648,36.916238],[139.552588,36.916227],[139.552563,36.916232],[139.552532,36.916243],[139.552488,36.91628],[139.552454,36.916325]]}},{"type":"Feature","properties":{"id":191081268,"highway":"secondary"},"geometry":{"type":"LineString","coordinates":[[139.559945,36.945548],[139.559982,36.945565],[139.56038,36.945823]]}},{"type":"Feature","properties":{"id":191081269,"highway":"secondary"},"geometry":{"type":"LineString","coordinates":[[139.551472,36.916803],[139.551399,36.91681],[139.551126,36.916985],[139.551007,36.916996],[139.550853,36.916968],[139.550496,36.916865],[139.550068,36.916765],[139.549858,36.916765],[139.549746,36.916815],[139.549679,36.916881],[139.549676,36.916934],[139.54969,36.916985],[139.549711,36.917013],[139.549809,36.917069],[139.550033,36.917148],[139.550426,36.917317],[139.550523,36.91739],[139.550579,36.917486],[139.550699,36.91783],[139.550769,36.917936],[139.550888,36.918055],[139.551035,36.918139],[139.551252,36.918252],[139.551413,36.918308],[139.551736,36.918449],[139.551911,36.91859],[139.552198,36.918877],[139.552478,36.919153],[139.552639,36.919272],[139.553045,36.919519],[139.553163,36.919598],[139.553223,36.919651],[139.553323,36.919751]]}},{"type":"Feature","properties":{"id":191081270,"highway":"secondary"},"geometry":{"type":"LineString","coordinates":[[139.573496,36.958352],[139.573497,36.958296],[139.573451,36.958227],[139.573365,36.958142],[139.573154,36.95798],[139.57307,36.957923],[139.572927,36.957865],[139.572855,36.957829],[139.572802,36.957791],[139.57276,36.957735],[139.572582,36.957479],[139.572514,36.957393],[139.572416,36.957329],[139.572267,36.957234],[139.572134,36.95716],[139.570803,36.956617],[139.570677,36.956562],[139.570587,36.956538],[139.570484,36.956533],[139.570382,36.956543],[139.570291,36.956574],[139.570223,36.95662],[139.570166,36.95667],[139.569946,36.95684],[139.569867,36.956869],[139.569753,36.956874],[139.569645,36.956851],[139.569502,36.956773],[139.569425,36.95672],[139.569375,36.956682],[139.569355,36.956635],[139.569344,36.956578],[139.569374,36.956524],[139.569431,36.956463],[139.569666,36.956328],[139.569694,36.956266],[139.569707,36.956212],[139.56967,36.956119],[139.56953,36.955952],[139.569304,36.95576],[139.569151,36.955643]]}},{"type":"Feature","properties":{"id":191081271,"highway":"secondary"},"geometry":{"type":"LineString","coordinates":[[139.556335,36.916065],[139.556254,36.916162],[139.556195,36.916202],[139.55613,36.916237],[139.556055,36.916272],[139.556002,36.916285],[139.5559,36.9163],[139.555777,36.916317],[139.555658,36.916352],[139.555483,36.91643],[139.55539,36.916497],[139.555324,36.916567],[139.555285,36.91662],[139.555253,36.916708],[139.55524,36.916753],[139.55523,36.916798],[139.555222,36.916829],[139.55521,36.91686],[139.555195,36.916884],[139.555159,36.916915],[139.555122,36.916937],[139.555057,36.91695],[139.555012,36.916945],[139.554952,36.916933],[139.554903,36.916917],[139.554824,36.91688],[139.554782,36.916863],[139.55475,36.916855],[139.554708,36.916853],[139.554661,36.916857],[139.554618,36.916865],[139.554578,36.916877],[139.554529,36.9169],[139.554347,36.917015]]}},{"type":"Feature","properties":{"id":191081272,"highway":"secondary"},"geometry":{"type":"LineString","coordinates":[[139.549677,36.924511],[139.549684,36.924537],[139.549696,36.92456],[139.549739,36.92457]]}},{"type":"Feature","properties":{"id":191081274,"highway":"secondary"},"geometry":{"type":"LineString","coordinates":[[139.557945,36.936782],[139.557928,36.936806],[139.557879,36.936908],[139.557872,36.93702],[139.5579,36.937099],[139.558033,36.937274],[139.558328,36.937561],[139.558517,36.937764],[139.558566,36.937843],[139.558629,36.937984],[139.558678,36.938197],[139.558763,36.938456],[139.558833,36.938564],[139.55912,36.938828],[139.559183,36.938918],[139.559211,36.939003],[139.55919,36.939341],[139.559189,36.940073],[139.559232,36.940248],[139.55931,36.940433],[139.559505,36.940759],[139.559567,36.940893],[139.559589,36.940985],[139.559632,36.941103],[139.55966,36.941261],[139.55966,36.941486],[139.559589,36.941677],[139.559422,36.941942],[139.559063,36.94237],[139.55846,36.943092],[139.55834,36.943278],[139.55827,36.943435],[139.558257,36.943543],[139.558249,36.943701],[139.558277,36.943909],[139.55832,36.94401],[139.558417,36.944118],[139.55848,36.944151],[139.558747,36.944241],[139.558817,36.944281],[139.558888,36.944382],[139.558895,36.944613],[139.558874,36.94472],[139.558872,36.944839]]}},{"type":"Feature","properties":{"id":191081275,"highway":"secondary"},"geometry":{"type":"LineString","coordinates":[[139.563286,36.952414],[139.563377,36.952501],[139.563554,36.952701],[139.563785,36.952976],[139.563879,36.953083]]}},{"type":"Feature","properties":{"id":191081276,"highway":"secondary"},"geometry":{"type":"LineString","coordinates":[[139.577452,36.960955],[139.577323,36.960972],[139.577208,36.961019],[139.576947,36.961127],[139.576871,36.961158],[139.576789,36.961161],[139.576722,36.961131],[139.576698,36.96108],[139.576728,36.961014],[139.576821,36.960919],[139.576838,36.960855],[139.576823,36.96078],[139.576668,36.960585],[139.576599,36.960517],[139.576496,36.960496],[139.576395,36.960504],[139.5763,36.960521],[139.576186,36.960525],[139.575925,36.960502],[139.575808,36.960464],[139.575715,36.960402],[139.575598,36.960307],[139.575502,36.960264],[139.575005,36.960152],[139.574896,36.960114],[139.574788,36.960031],[139.574735,36.95995],[139.57462,36.959668],[139.574555,36.95953],[139.574481,36.959417],[139.574387,36.95933],[139.574275,36.959258],[139.574134,36.95921],[139.57399,36.95917],[139.573869,36.959157],[139.57377,36.959162],[139.573644,36.959205],[139.573319,36.959327],[139.573204,36.959357],[139.573014,36.959374],[139.572762,36.959381],[139.572494,36.95937],[139.572368,36.95935],[139.572208,36.959311]]}},{"type":"Feature","properties":{"id":191081277,"highway":"secondary"},"geometry":{"type":"LineString","coordinates":[[139.56038,36.945823],[139.560404,36.945835],[139.560649,36.945971],[139.560776,36.94601],[139.561112,36.946049],[139.561442,36.946106],[139.561618,36.946151],[139.561828,36.946224],[139.561954,36.94628],[139.56241,36.946573],[139.562445,36.94659],[139.562536,36.946646],[139.562613,36.946748],[139.562705,36.946917],[139.562747,36.947046],[139.562775,36.947181],[139.562789,36.94753],[139.562768,36.948093],[139.56281,36.948335],[139.562852,36.948442],[139.562943,36.948504],[139.563069,36.948543],[139.563322,36.948594],[139.56356,36.948667],[139.563616,36.948707],[139.563686,36.948786],[139.563798,36.949023],[139.563812,36.949124],[139.56384,36.949474],[139.563896,36.94966],[139.563903,36.949908],[139.563868,36.950082],[139.563861,36.950189],[139.563819,36.950268],[139.5637,36.950352],[139.563321,36.950549],[139.563215,36.950611],[139.563152,36.950685],[139.563089,36.950775],[139.56304,36.950882],[139.562956,36.951135],[139.562956,36.951293],[139.562991,36.951372],[139.563096,36.951496],[139.563138,36.951592],[139.563138,36.951822],[139.563124,36.952098],[139.563138,36.9522],[139.563195,36.952318],[139.563286,36.952414]]}},{"type":"Feature","properties":{"id":191081278,"highway":"secondary"},"geometry":{"type":"LineString","coordinates":[[139.554736,36.929285],[139.554771,36.929478],[139.554799,36.929743],[139.554841,36.929918],[139.554856,36.930092],[139.55482,36.93025],[139.554814,36.930325],[139.554818,36.930376],[139.554839,36.930432],[139.555079,36.930813],[139.555132,36.930888],[139.555195,36.930963],[139.555264,36.931021],[139.555395,36.931106],[139.555815,36.931348],[139.555892,36.931407],[139.555926,36.931445],[139.555956,36.931489],[139.556068,36.931748],[139.556173,36.9319],[139.556313,36.932052],[139.556434,36.932114],[139.556566,36.932159],[139.556995,36.932255],[139.557093,36.932311],[139.557234,36.932457],[139.557311,36.932513],[139.557543,36.932626],[139.557704,36.932717],[139.557746,36.93275],[139.557764,36.932775],[139.557774,36.932806],[139.55778,36.93299],[139.557788,36.93323],[139.557823,36.933471],[139.557942,36.933855],[139.557949,36.934125],[139.557907,36.934208],[139.557872,36.934246],[139.557831,36.934276],[139.557706,36.934342],[139.55767,36.934363],[139.557641,36.934385],[139.557619,36.934412],[139.557607,36.934445],[139.557596,36.934481],[139.557556,36.93475],[139.557549,36.935071],[139.557577,36.935218],[139.557633,36.935364],[139.557703,36.935471],[139.557858,36.935635],[139.558089,36.935843],[139.558208,36.935973],[139.558251,36.936057],[139.558258,36.936198],[139.55811,36.936513],[139.558005,36.936699],[139.557945,36.936782]]}},{"type":"Feature","properties":{"id":191081279,"highway":"secondary"},"geometry":{"type":"LineString","coordinates":[[139.553742,36.920614],[139.553782,36.920691],[139.553887,36.920956],[139.554,36.921361],[139.55402,36.921519],[139.554035,36.921744],[139.554077,36.921863],[139.554119,36.921925],[139.554497,36.922229],[139.55468,36.922375],[139.55473,36.92246],[139.554758,36.92255],[139.554758,36.922888],[139.554716,36.923147],[139.554708,36.923273],[139.554716,36.923383],[139.554744,36.923484],[139.554849,36.923703],[139.555129,36.924177],[139.555171,36.924284],[139.555172,36.924331],[139.555164,36.924385],[139.55514,36.924419],[139.555094,36.924458],[139.554912,36.924532],[139.554821,36.924548],[139.554407,36.924679],[139.553923,36.924746],[139.553733,36.92478],[139.553383,36.924909],[139.553264,36.924926],[139.553173,36.924926],[139.553102,36.924921],[139.552983,36.924876],[139.552884,36.924819],[139.552702,36.92469],[139.552644,36.924666],[139.552427,36.924605],[139.552385,36.92458],[139.552337,36.924544],[139.552042,36.92425],[139.551944,36.924205],[139.551877,36.924186],[139.55181,36.924182],[139.55158,36.924205],[139.551375,36.92425],[139.55101,36.924295],[139.550905,36.924295],[139.550829,36.924284],[139.55073,36.92425],[139.550547,36.924194],[139.550445,36.924179],[139.550289,36.924169],[139.550175,36.924169],[139.550056,36.924174],[139.549948,36.924189],[139.549846,36.924215],[139.549756,36.92425],[139.549666,36.924295]]}},{"type":"Feature","properties":{"id":191081280,"highway":"secondary"},"geometry":{"type":"LineString","coordinates":[[139.554019,36.927612],[139.553963,36.927757],[139.55394,36.927838],[139.553932,36.927918],[139.55393,36.927978],[139.553945,36.928045]]}},{"type":"Feature","properties":{"id":191081281,"highway":"secondary"},"geometry":{"type":"LineString","coordinates":[[139.553323,36.919751],[139.553452,36.919914],[139.553565,36.920089],[139.55362,36.920348],[139.553655,36.920449],[139.553742,36.920614]]}},{"type":"Feature","properties":{"id":191081282,"highway":"secondary"},"geometry":{"type":"LineString","coordinates":[[139.554736,36.929285],[139.554715,36.929174],[139.554659,36.92896],[139.554568,36.928751],[139.554477,36.928583],[139.554449,36.928543]]}},{"type":"Feature","properties":{"id":191081285,"highway":"secondary"},"geometry":{"type":"LineString","coordinates":[[139.553945,36.928045],[139.553972,36.928072],[139.554096,36.928182],[139.55422,36.928295],[139.554336,36.928385],[139.554354,36.928403],[139.55438,36.928439],[139.554449,36.928543]]}},{"type":"Feature","properties":{"id":215086165,"highway":"unclassified"},"geometry":{"type":"LineString","coordinates":[[139.58883,36.961548],[139.588851,36.961522],[139.589188,36.961173],[139.589342,36.96101],[139.589443,36.960924],[139.589534,36.960866],[139.589626,36.960825],[139.589694,36.9608],[139.589755,36.960786],[139.589812,36.960779]]}},{"type":"Feature","properties":{"id":215086189,"highway":"residential"},"geometry":{"type":"LineString","coordinates":[[139.586073,36.95978],[139.586154,36.959957],[139.586256,36.960195],[139.586366,36.960446],[139.586405,36.960504],[139.586445,36.960548],[139.586493,36.960584],[139.586584,36.960634],[139.586773,36.960734],[139.586923,36.960803],[139.587016,36.960869],[139.587155,36.960978],[139.587222,36.961018],[139.587317,36.96105],[139.588553,36.961453],[139.58883,36.961548]]}},{"type":"Feature","properties":{"id":215086198,"highway":"residential"},"geometry":{"type":"LineString","coordinates":[[139.583814,36.959369],[139.583964,36.959375],[139.584052,36.959388],[139.584194,36.95943],[139.584383,36.959509],[139.584539,36.959556],[139.58468,36.959581],[139.584825,36.959584],[139.58521,36.959555],[139.585372,36.959503],[139.585458,36.959485],[139.585532,36.959485],[139.585607,36.959489],[139.585674,36.959505],[139.585759,36.959539],[139.585854,36.959593],[139.585987,36.959708],[139.586073,36.95978]]}},{"type":"Feature","properties":{"id":215086201,"highway":"unclassified"},"geometry":{"type":"LineString","coordinates":[[139.599838,36.976282],[139.599861,36.976395],[139.599854,36.97661],[139.599837,36.976786],[139.599726,36.977083],[139.599653,36.977176],[139.599541,36.97726],[139.59939,36.977308],[139.59898,36.97736],[139.598743,36.977431],[139.598583,36.97749],[139.598307,36.977613],[139.598028,36.977691],[139.597711,36.97775],[139.597595,36.977806],[139.597517,36.977862],[139.597444,36.977924],[139.597413,36.977998],[139.59738,36.978253],[139.597239,36.978637],[139.597175,36.978853],[139.597081,36.979495],[139.597049,36.979575],[139.596754,36.979944],[139.596404,36.980329],[139.596138,36.98075],[139.595747,36.981062],[139.595697,36.981127],[139.595662,36.981197],[139.595669,36.981281],[139.595739,36.981406],[139.595968,36.981553],[139.596024,36.981602],[139.59616,36.981866],[139.596913,36.982809],[139.597052,36.983009]]}},{"type":"Feature","properties":{"id":215086211,"highway":"unclassified"},"geometry":{"type":"LineString","coordinates":[[139.589285,36.96261],[139.589642,36.962607]]}},{"type":"Feature","properties":{"id":215086212,"highway":"unclassified"},"geometry":{"type":"LineString","coordinates":[[139.593563,36.963088],[139.593453,36.963333]]}},{"type":"Feature","properties":{"id":215086222,"highway":"unclassified"},"geometry":{"type":"LineString","coordinates":[[139.597052,36.983009],[139.597252,36.983237]]}},{"type":"Feature","properties":{"id":215086223,"highway":"unclassified"},"geometry":{"type":"LineString","coordinates":[[139.588272,36.962516],[139.58883,36.961548]]}},{"type":"Feature","properties":{"id":215086226,"highway":"unclassified"},"geometry":{"type":"LineString","coordinates":[[139.599867,36.976248],[139.599838,36.976282]]}},{"type":"Feature","properties":{"id":215086236,"highway":"unclassified"},"geometry":{"type":"LineString","coordinates":[[139.57971,36.961458],[139.579496,36.961724]]}},{"type":"Feature","properties":{"id":215086239,"highway":"unclassified"},"geometry":{"type":"LineString","coordinates":[[139.579496,36.961724],[139.579465,36.961782]]}},{"type":"Feature","properties":{"id":215086252,"highway":"unclassified"},"geometry":{"type":"LineString","coordinates":[[139.600088,36.975965],[139.599867,36.976248]]}},{"type":"Feature","properties":{"id":215086269,"highway":"residential"},"geometry":{"type":"LineString","coordinates":[[139.583355,36.959299],[139.583814,36.959369]]}},{"type":"Feature","properties":{"id":215086277,"highway":"unclassified"},"geometry":{"type":"LineString","coordinates":[[139.589642,36.962607],[139.589682,36.962617],[139.589807,36.962621]]}},{"type":"Feature","properties":{"id":215086282,"highway":"unclassified"},"geometry":{"type":"LineString","coordinates":[[139.589812,36.960779],[139.589896,36.960784],[139.590149,36.960846],[139.590191,36.960869],[139.590822,36.96101],[139.591089,36.961089],[139.59125,36.961145],[139.591321,36.961184],[139.591433,36.961224],[139.591861,36.961438],[139.592064,36.961505],[139.592793,36.961714],[139.592968,36.961798],[139.593109,36.961905],[139.59362,36.962418],[139.593648,36.962514],[139.59369,36.962629],[139.593715,36.962724],[139.593713,36.962839],[139.593685,36.962923],[139.593563,36.963088]]}},{"type":"Feature","properties":{"id":215086292,"highway":"residential"},"geometry":{"type":"LineString","coordinates":[[139.586073,36.95978],[139.58618,36.959836],[139.586412,36.960013],[139.586548,36.960113],[139.586653,36.960166],[139.586818,36.960233],[139.586932,36.960268],[139.587066,36.960291],[139.587352,36.960321],[139.587604,36.960336],[139.588401,36.960328],[139.588589,36.960334],[139.588724,36.960345],[139.588942,36.960374],[139.589014,36.960378],[139.589162,36.96038],[139.589196,36.960387],[139.589234,36.960408],[139.589364,36.960503],[139.58948,36.960562],[139.589691,36.960667],[139.589748,36.960712],[139.589812,36.960779]]}},{"type":"Feature","properties":{"id":215086301,"highway":"unclassified"},"geometry":{"type":"LineString","coordinates":[[139.580095,36.961364],[139.580361,36.961449],[139.58095,36.961685],[139.581267,36.961763],[139.581734,36.96187],[139.582111,36.961949],[139.58241,36.962012],[139.582923,36.962119],[139.583175,36.962147],[139.583331,36.962144],[139.583442,36.962142],[139.583575,36.962125],[139.583814,36.962114],[139.583982,36.962097],[139.584284,36.962085],[139.584845,36.962102],[139.585354,36.962163],[139.585692,36.962162],[139.586079,36.96215],[139.586537,36.962163],[139.586795,36.962189],[139.586996,36.962245],[139.587294,36.962365],[139.587456,36.962403],[139.587593,36.96241]]}},{"type":"Feature","properties":{"id":215086326,"highway":"residential"},"geometry":{"type":"LineString","coordinates":[[139.580095,36.961364],[139.580167,36.961246],[139.580231,36.961136],[139.58032,36.960939],[139.58035,36.960898],[139.580384,36.960876],[139.580632,36.960786],[139.581529,36.96052],[139.581667,36.960467],[139.58177,36.960406],[139.581835,36.960346],[139.58187,36.960288],[139.581889,36.96021],[139.581912,36.960063],[139.58193,36.960011],[139.58196,36.959968],[139.582012,36.95993],[139.582229,36.959847],[139.582415,36.959758],[139.582757,36.959555],[139.582805,36.959505],[139.582825,36.959444],[139.582822,36.959395],[139.582804,36.959344],[139.582699,36.959197],[139.582682,36.95915],[139.582679,36.959079],[139.582702,36.959017],[139.582744,36.958987],[139.582807,36.958979],[139.582927,36.958987],[139.583044,36.95902],[139.58311,36.959055],[139.583174,36.959114],[139.583284,36.959242],[139.583355,36.959299]]}},{"type":"Feature","properties":{"id":215086337,"highway":"unclassified"},"geometry":{"type":"LineString","coordinates":[[139.589285,36.96261],[139.589065,36.962637],[139.588801,36.96263],[139.588272,36.962516]]}},{"type":"Feature","properties":{"id":215086348,"highway":"unclassified"},"geometry":{"type":"LineString","coordinates":[[139.593453,36.963333],[139.593451,36.96345],[139.593448,36.964171]]}},{"type":"Feature","properties":{"id":215086371,"highway":"unclassified"},"geometry":{"type":"LineString","coordinates":[[139.580095,36.961364],[139.58004,36.961353],[139.579982,36.961342],[139.579864,36.961342],[139.579824,36.96136],[139.57971,36.961458]]}},{"type":"Feature","properties":{"id":215086392,"highway":"unclassified"},"geometry":{"type":"LineString","coordinates":[[139.597252,36.983237],[139.597603,36.983595],[139.597765,36.983801],[139.597949,36.984111],[139.59812,36.984343],[139.598249,36.984479],[139.598399,36.984606],[139.598525,36.984685],[139.598855,36.984832],[139.59898,36.984922],[139.599095,36.985019],[139.599154,36.985155],[139.599161,36.985246],[139.599141,36.985334],[139.599004,36.985511],[139.598779,36.985667],[139.598665,36.985722]]}},{"type":"Feature","properties":{"id":427332508,"highway":"residential"},"geometry":{"type":"LineString","coordinates":[[139.582111,36.961949],[139.581958,36.962442],[139.582767,36.962697],[139.582864,36.962675],[139.582938,36.962576],[139.583115,36.962426],[139.583331,36.962144]]}},{"type":"Feature","properties":{"id":427332510,"highway":"residential"},"geometry":{"type":"LineString","coordinates":[[139.583825,36.962261],[139.583879,36.962287],[139.583929,36.96235],[139.584016,36.962471],[139.584042,36.962562],[139.583984,36.962587],[139.583887,36.962572],[139.583831,36.962529],[139.583799,36.96243],[139.583783,36.962315],[139.583825,36.962261],[139.583814,36.962114]]}},{"type":"Feature","properties":{"id":430135586,"highway":"secondary"},"geometry":{"type":"LineString","coordinates":[[139.589009,36.96294],[139.589182,36.96292],[139.589327,36.962894],[139.589415,36.962862],[139.589534,36.962796],[139.589681,36.962703],[139.589807,36.962621],[139.589896,36.962582],[139.589992,36.96255],[139.590123,36.962526],[139.590259,36.962508],[139.590457,36.962505],[139.590596,36.962504],[139.590685,36.962507],[139.590764,36.962518],[139.590925,36.962564],[139.591267,36.962702],[139.591577,36.962808],[139.591757,36.962857],[139.591934,36.962925],[139.591987,36.962965],[139.592013,36.96301],[139.592026,36.963073],[139.592017,36.963239],[139.592031,36.963296],[139.592069,36.963359],[139.59213,36.963405],[139.592225,36.963472],[139.592609,36.963704],[139.592748,36.963787],[139.593032,36.963956],[139.593448,36.964171],[139.594102,36.964439],[139.594816,36.964778],[139.596289,36.965486],[139.596559,36.965623],[139.596998,36.965776],[139.597536,36.965913]]}},{"type":"Feature","properties":{"id":430135600,"highway":"secondary"},"geometry":{"type":"LineString","coordinates":[[139.598003,36.966045],[139.598135,36.966124],[139.598265,36.96627],[139.598397,36.9664],[139.5987,36.966989],[139.599079,36.967567],[139.599334,36.967794],[139.599507,36.967896],[139.599923,36.968113],[139.6003,36.968336],[139.600496,36.968547],[139.600647,36.96874],[139.601569,36.97016],[139.601742,36.970394],[139.601862,36.970535],[139.602045,36.970712],[139.602391,36.970921],[139.602771,36.971067],[139.603114,36.971157],[139.603277,36.971174],[139.603471,36.971173],[139.603686,36.97114],[139.603923,36.971032],[139.60416,36.97085],[139.60444,36.970447],[139.604537,36.970292]]}},{"type":"Feature","properties":{"id":430135619,"highway":"secondary"},"geometry":{"type":"LineString","coordinates":[[139.597536,36.965913],[139.598003,36.966045]]}},{"type":"Feature","properties":{"id":430135621,"highway":"service"},"geometry":{"type":"LineString","coordinates":[[139.592607,36.963939],[139.592748,36.963787]]}},{"type":"Feature","properties":{"id":501219611,"highway":"secondary"},"geometry":{"type":"LineString","coordinates":[[139.55528,36.904226],[139.555198,36.904271]]}},{"type":"Feature","properties":{"id":501219612,"highway":"secondary"},"geometry":{"type":"LineString","coordinates":[[139.555297,36.904181],[139.55528,36.904226]]}},{"type":"Feature","properties":{"id":501219617,"highway":"secondary"},"geometry":{"type":"LineString","coordinates":[[139.572208,36.959311],[139.572172,36.959283],[139.572154,36.959252]]}},{"type":"Feature","properties":{"id":501219618,"highway":"secondary"},"geometry":{"type":"LineString","coordinates":[[139.572154,36.959252],[139.572142,36.959171],[139.572194,36.9591],[139.572286,36.958992],[139.572563,36.958861],[139.572972,36.958685],[139.573295,36.958555],[139.573365,36.958512],[139.573463,36.958427],[139.573496,36.958352]]}},{"type":"Feature","properties":{"id":501219621,"highway":"secondary"},"geometry":{"type":"LineString","coordinates":[[139.581327,36.963152],[139.58138,36.963251]]}},{"type":"Feature","properties":{"id":501219622,"highway":"secondary"},"geometry":{"type":"LineString","coordinates":[[139.577452,36.960955],[139.577628,36.960964],[139.577762,36.961005],[139.577886,36.961075],[139.57807,36.96124],[139.578341,36.96147],[139.578461,36.961562],[139.578613,36.961619],[139.578781,36.96165],[139.579103,36.961689],[139.57929,36.961726],[139.579465,36.961782],[139.580169,36.962198],[139.580452,36.962376],[139.580741,36.962557],[139.580927,36.962737],[139.581178,36.962967],[139.581327,36.963152]]}},{"type":"Feature","properties":{"id":501219623,"highway":"unclassified"},"geometry":{"type":"LineString","coordinates":[[139.587593,36.96241],[139.587804,36.962406]]}},{"type":"Feature","properties":{"id":501219624,"highway":"unclassified"},"geometry":{"type":"LineString","coordinates":[[139.587804,36.962406],[139.587959,36.962448],[139.588272,36.962516]]}},{"type":"Feature","properties":{"id":627991398,"highway":"service"},"geometry":{"type":"LineString","coordinates":[[139.574555,36.95953],[139.574286,36.959609]]}},{"type":"Feature","properties":{"id":627991399,"highway":"service"},"geometry":{"type":"LineString","coordinates":[[139.574402,36.959819],[139.574286,36.959609],[139.574055,36.959395]]}},{"type":"Feature","properties":{"id":839829544,"highway":"secondary"},"geometry":{"type":"LineString","coordinates":[[139.502596,36.976774],[139.50256,36.976642],[139.502313,36.976238],[139.50221,36.976126],[139.502129,36.976032],[139.502034,36.975945],[139.501888,36.97582],[139.501842,36.97576],[139.501628,36.975331],[139.501511,36.975015],[139.501533,36.974802],[139.501542,36.974524],[139.501514,36.974375],[139.501468,36.974291],[139.501416,36.974207],[139.501321,36.97412],[139.501174,36.974007],[139.500985,36.973878],[139.500878,36.973807],[139.500759,36.973738],[139.500643,36.973689],[139.500567,36.973659],[139.500343,36.973598],[139.50027,36.973548],[139.50024,36.973494]]}},{"type":"Feature","properties":{"id":892348293,"highway":"secondary"},"geometry":{"type":"LineString","coordinates":[[139.53412,36.920005],[139.534132,36.920062],[139.534126,36.920108],[139.534114,36.920152],[139.534088,36.920176],[139.533951,36.920275],[139.533919,36.920317],[139.533857,36.920484],[139.53382,36.920548],[139.533771,36.920604],[139.533678,36.920701],[139.533622,36.920742],[139.533452,36.920822],[139.533307,36.920906],[139.533153,36.92099],[139.533094,36.921004],[139.533036,36.921007],[139.532963,36.920987],[139.532838,36.920952],[139.532739,36.920933],[139.53244,36.920895],[139.532383,36.920908]]}},{"type":"Feature","properties":{"id":892348294,"highway":"secondary"},"geometry":{"type":"LineString","coordinates":[[139.505244,36.97633],[139.50543,36.976383],[139.505544,36.976422],[139.505673,36.976474],[139.505797,36.976516],[139.505887,36.976528],[139.505957,36.976513],[139.506001,36.976456],[139.506011,36.976395],[139.505997,36.97634],[139.505953,36.976294],[139.50587,36.976251],[139.505737,36.976216],[139.505623,36.976187],[139.505551,36.976151],[139.505498,36.976091],[139.505447,36.976022],[139.505386,36.975921],[139.505332,36.975859],[139.505258,36.975804],[139.505167,36.97576],[139.50506,36.975724],[139.504952,36.975698],[139.504887,36.975666],[139.504821,36.97562],[139.504754,36.975549],[139.504671,36.975442],[139.504576,36.975327],[139.504496,36.975246],[139.504416,36.975199],[139.504291,36.975164],[139.504132,36.975138],[139.503925,36.975119],[139.503833,36.975099],[139.503766,36.975072],[139.503725,36.975026],[139.503699,36.974974],[139.5037,36.974925],[139.503715,36.97488],[139.503766,36.974844],[139.503819,36.974829],[139.503885,36.974836],[139.504018,36.974891],[139.504142,36.97494],[139.504287,36.974986],[139.504443,36.975025],[139.504573,36.975049],[139.504707,36.975076],[139.504833,36.975104],[139.504939,36.975153],[139.505068,36.975211],[139.505184,36.975237],[139.505317,36.975262],[139.505526,36.975282],[139.5058,36.975311],[139.505962,36.975317],[139.506206,36.975305],[139.506259,36.975284],[139.50629,36.975239],[139.506308,36.975177],[139.506308,36.975116],[139.506299,36.975082],[139.506268,36.975052],[139.506214,36.975037],[139.506146,36.975027],[139.505968,36.97503],[139.50585,36.975023],[139.505753,36.974997],[139.505644,36.974949],[139.505482,36.974882],[139.505167,36.974717],[139.505069,36.97465],[139.504821,36.974462],[139.504498,36.974249],[139.504192,36.974065],[139.504134,36.974015],[139.504083,36.97395],[139.503866,36.973658],[139.503803,36.97356],[139.503713,36.973397],[139.50366,36.973291],[139.503652,36.973224],[139.503666,36.973151],[139.503703,36.973105],[139.503782,36.973049],[139.503853,36.973038],[139.503937,36.97305],[139.504044,36.973123],[139.504141,36.973196],[139.504164,36.973238],[139.504165,36.973501],[139.504177,36.973555],[139.504278,36.973715],[139.50436,36.973769],[139.504597,36.973883],[139.50488,36.973981],[139.505286,36.974082],[139.505516,36.974098],[139.505777,36.974105],[139.505859,36.974082],[139.506212,36.973742],[139.506314,36.973675],[139.506395,36.973658],[139.5065,36.973668],[139.506558,36.973704],[139.506591,36.973753],[139.506634,36.973834],[139.506727,36.973966],[139.506949,36.974255],[139.507106,36.974503],[139.50727,36.974681],[139.507373,36.974752],[139.507438,36.974778],[139.507514,36.974777],[139.507592,36.974761],[139.507788,36.974656],[139.507944,36.974595],[139.508178,36.974583],[139.508376,36.974593],[139.508547,36.974619],[139.508856,36.974714],[139.509112,36.974815],[139.509228,36.974845],[139.509316,36.974849],[139.509386,36.974836],[139.509469,36.974803],[139.509558,36.974762],[139.509649,36.974744],[139.509754,36.974742],[139.5099,36.974767],[139.509986,36.974767],[139.510077,36.974736],[139.51016,36.974689],[139.510195,36.974642],[139.510219,36.974575],[139.510214,36.974516],[139.510172,36.974445],[139.510125,36.974393],[139.510055,36.974344],[139.509897,36.97422],[139.509794,36.974142],[139.509701,36.974087],[139.509609,36.973999],[139.509528,36.973911],[139.509393,36.973757],[139.509326,36.973669],[139.509225,36.973521]]}},{"type":"Feature","properties":{"id":892348295,"highway":"secondary"},"geometry":{"type":"LineString","coordinates":[[139.50024,36.973494],[139.500227,36.973413],[139.50026,36.973352],[139.500314,36.973307],[139.500389,36.973287],[139.500471,36.973292],[139.500541,36.973312],[139.500599,36.973357],[139.50069,36.97343],[139.500813,36.973509],[139.501097,36.973658],[139.501331,36.973792],[139.501522,36.973924],[139.501718,36.974069],[139.501777,36.974135],[139.501805,36.974203],[139.50182,36.974312],[139.501828,36.97458],[139.501837,36.974702],[139.501877,36.974841],[139.501919,36.97495],[139.501986,36.975048],[139.502065,36.975154],[139.502156,36.975256],[139.502205,36.975299],[139.502258,36.975322],[139.502322,36.975328],[139.50238,36.975317],[139.502419,36.975286],[139.502443,36.97524],[139.502445,36.97519],[139.502435,36.975135],[139.5024,36.975079],[139.502344,36.975024],[139.502207,36.974951],[139.502136,36.974907],[139.502093,36.97486],[139.502073,36.97479],[139.502053,36.974577],[139.502057,36.974492],[139.502076,36.974433],[139.502111,36.974381],[139.502158,36.974343],[139.502213,36.974325],[139.502255,36.97432],[139.502301,36.974328],[139.502343,36.974352],[139.502383,36.974399],[139.502403,36.974454],[139.502406,36.974502],[139.502394,36.974668],[139.502403,36.974722],[139.502432,36.97481],[139.502509,36.974904],[139.502636,36.975047],[139.502878,36.975299],[139.502988,36.975386],[139.503127,36.975463],[139.503316,36.975547],[139.503488,36.975616],[139.50359,36.97564],[139.503719,36.975677],[139.503842,36.975722],[139.503976,36.975791],[139.504035,36.975831],[139.504104,36.975912],[139.504188,36.97596],[139.504256,36.975996],[139.504325,36.976038],[139.504559,36.976138],[139.504838,36.976222],[139.505244,36.97633]]}},{"type":"Feature","properties":{"id":892348296,"highway":"secondary"},"geometry":{"type":"LineString","coordinates":[[139.509225,36.973521],[139.509147,36.973394],[139.508988,36.972976],[139.508921,36.972646],[139.508872,36.972556],[139.508677,36.972384],[139.508651,36.972328],[139.508643,36.972251],[139.508642,36.971843],[139.508632,36.97178],[139.508567,36.971708],[139.50849,36.971669],[139.508181,36.971617],[139.507989,36.971567],[139.507896,36.971516],[139.507805,36.971407],[139.507435,36.970789],[139.507272,36.970578],[139.507211,36.970474],[139.507172,36.970326],[139.507212,36.970169],[139.507223,36.969848],[139.507287,36.969494],[139.50729,36.9693],[139.507495,36.969005],[139.507578,36.968914],[139.507655,36.968861],[139.507769,36.968821],[139.507864,36.968819],[139.507948,36.968852],[139.508019,36.968901],[139.50815,36.968944],[139.508434,36.968977],[139.50865,36.96896],[139.508939,36.968924],[139.509146,36.968875],[139.50926,36.968829],[139.509435,36.968721],[139.509512,36.968653],[139.509798,36.968272],[139.509835,36.968202],[139.510057,36.967542]]}},{"type":"Feature","properties":{"id":892348297,"highway":"secondary"},"geometry":{"type":"LineString","coordinates":[[139.522364,36.955569],[139.522272,36.955746],[139.52218,36.955904],[139.522138,36.956044],[139.522124,36.956242],[139.522145,36.956444],[139.522201,36.956613],[139.52231,36.956801],[139.522333,36.956842],[139.522335,36.956874],[139.52232,36.956911],[139.522194,36.957114],[139.522173,36.957193],[139.522173,36.957296],[139.52223,36.957476],[139.522222,36.957627],[139.522138,36.957898],[139.522138,36.958044],[139.522258,36.958287],[139.522398,36.95849],[139.522412,36.95862],[139.522307,36.958935],[139.522306,36.95902],[139.522357,36.959237],[139.522362,36.959262],[139.522461,36.95943],[139.522615,36.959633],[139.522868,36.960067],[139.522861,36.960118],[139.522784,36.960219],[139.522657,36.96032],[139.522349,36.96049],[139.522222,36.96054],[139.522131,36.960563],[139.521774,36.960574],[139.52164,36.960602],[139.52157,36.960636],[139.521472,36.960732],[139.521458,36.960766],[139.521451,36.960878],[139.521472,36.961019],[139.521472,36.961103],[139.521452,36.961158],[139.521345,36.961397],[139.521282,36.961492],[139.521233,36.961538],[139.521002,36.961723],[139.520974,36.961774],[139.520981,36.961864],[139.521023,36.961988],[139.521044,36.962055],[139.521093,36.96214],[139.521239,36.96228],[139.521256,36.962311],[139.521264,36.96237],[139.521261,36.962714],[139.52118,36.963205],[139.521163,36.963252],[139.521127,36.963283],[139.521033,36.963331],[139.520742,36.963464],[139.52058,36.963509],[139.520524,36.963549],[139.520445,36.963592]]}},{"type":"Feature","properties":{"id":892348298,"highway":"secondary"},"geometry":{"type":"LineString","coordinates":[[139.523492,36.954012],[139.523341,36.954048],[139.523257,36.954098],[139.523173,36.954177],[139.522997,36.954374],[139.522822,36.954639],[139.52259,36.954954],[139.522555,36.955015],[139.522478,36.955257],[139.522443,36.955393],[139.522364,36.955569]]}},{"type":"Feature","properties":{"id":892348299,"highway":"secondary"},"geometry":{"type":"LineString","coordinates":[[139.52975,36.944146],[139.529793,36.944347],[139.529823,36.944497],[139.529956,36.945458],[139.52995,36.945807],[139.52993,36.945925],[139.52991,36.946007],[139.52985,36.946122],[139.529731,36.946263],[139.52931,36.94659],[139.529226,36.946641],[139.529167,36.946668],[139.529065,36.946719],[139.528945,36.946758],[139.528497,36.94678],[139.528356,36.946808],[139.528202,36.946882],[139.527851,36.947135],[139.527655,36.94722],[139.527472,36.94727],[139.527312,36.947265],[139.52701,36.947197],[139.526863,36.947124],[139.526807,36.947079],[139.526603,36.94687],[139.52654,36.946814],[139.526463,36.946769],[139.526351,36.946752],[139.52579,36.946747],[139.525551,36.946707],[139.525362,36.946651],[139.52513,36.946566],[139.524997,36.946483],[139.524808,36.946308],[139.524747,36.946268],[139.524527,36.946105],[139.524379,36.946049],[139.524302,36.946026],[139.524211,36.946021],[139.524186,36.946028],[139.524148,36.946044],[139.524081,36.946089],[139.52405,36.946128],[139.524036,36.94619],[139.524039,36.946313],[139.52406,36.946376]]}},{"type":"Feature","properties":{"id":1415348390,"highway":"unclassified"},"geometry":{"type":"LineString","coordinates":[[139.605325,36.991541],[139.605247,36.991388],[139.605161,36.991278],[139.605016,36.991186],[139.604834,36.991136],[139.60439,36.991053],[139.603817,36.990983],[139.603639,36.990942],[139.603494,36.990874],[139.603149,36.990682],[139.60281,36.990535],[139.602355,36.990418],[139.601836,36.990353],[139.601692,36.990313],[139.601512,36.99024],[139.601268,36.990108],[139.601016,36.989869],[139.60084,36.989618],[139.600711,36.989383],[139.600621,36.989122],[139.600583,36.989045],[139.600451,36.988944],[139.600279,36.988875],[139.600151,36.988768],[139.599976,36.988562],[139.599748,36.988287],[139.599581,36.988133],[139.599444,36.988054],[139.599174,36.987916],[139.599089,36.987892],[139.598925,36.987795],[139.598795,36.987688],[139.598756,36.987619],[139.598709,36.9875],[139.598721,36.987254],[139.598784,36.986653],[139.598776,36.986254],[139.598726,36.98603],[139.598665,36.985722]]}},{"type":"Feature","properties":{"id":1462511871,"highway":"service"},"geometry":{"type":"LineString","coordinates":[[139.590685,36.962507],[139.59073,36.962241]]}},{"type":"Feature","properties":{"id":1462513568,"highway":"residential"},"geometry":{"type":"LineString","coordinates":[[139.589065,36.962637],[139.589228,36.961958],[139.589249,36.9618],[139.589281,36.961714],[139.589501,36.9615],[139.589678,36.961414]]}}]}