{"type":"FeatureCollection","features":[{"type":"Feature","properties":{"id":66723527,"highway":"trunk"},"geometry":{"type":"LineString","coordinates":[[139.691997,36.919561],[139.692052,36.919617]]}},{"type":"Feature","properties":{"id":107523157,"highway":"unclassified"},"geometry":{"type":"LineString","coordinates":[[139.608896,37.014239],[139.608907,37.014136],[139.608936,37.014078],[139.608998,37.014019],[139.609038,37.013998],[139.609188,37.013946],[139.60943,37.013923],[139.60951,37.013903],[139.609656,37.013839],[139.609741,37.013792],[139.609809,37.013685],[139.609996,37.013508],[139.610027,37.013451],[139.610028,37.013391],[139.610013,37.013331],[139.609879,37.013141],[139.60987,37.013049],[139.609899,37.012977],[139.609989,37.012888],[139.610074,37.012772],[139.610104,37.012617],[139.610129,37.012544],[139.610245,37.01243],[139.610281,37.01237],[139.610296,37.012315],[139.610284,37.012242],[139.610201,37.011972],[139.6102,37.011914],[139.610201,37.011853],[139.610251,37.011692],[139.610248,37.011609],[139.610244,37.011539],[139.610214,37.011505],[139.610123,37.011466],[139.609774,37.011397],[139.609643,37.011344],[139.609593,37.011303],[139.609583,37.011251],[139.609571,37.011053],[139.609548,37.010983],[139.609534,37.010925],[139.609552,37.010866],[139.609622,37.010707],[139.609695,37.010613],[139.609819,37.010509],[139.609895,37.010413],[139.610157,37.010142],[139.610305,37.009935],[139.610436,37.009749],[139.610495,37.009611],[139.610625,37.009089],[139.610637,37.008752],[139.610649,37.008646],[139.610869,37.00826],[139.610901,37.008157],[139.610908,37.008024],[139.610872,37.007874],[139.61085,37.007511],[139.610874,37.007403],[139.610928,37.007301],[139.611028,37.007196],[139.611232,37.007055],[139.611321,37.007029],[139.611433,37.007007],[139.611562,37.006967],[139.611751,37.006876],[139.612007,37.006613],[139.612237,37.006418],[139.612325,37.006365],[139.612458,37.006326],[139.612526,37.006327],[139.61258,37.006356],[139.612646,37.006416],[139.612673,37.006466],[139.612674,37.006525],[139.61265,37.006581],[139.612565,37.006766],[139.61251,37.006939],[139.612508,37.007078],[139.612514,37.007195],[139.612524,37.007258],[139.612563,37.007313],[139.612595,37.007339],[139.612651,37.007357],[139.612711,37.007355],[139.612752,37.007345],[139.612796,37.007317],[139.612821,37.007282],[139.612846,37.007216],[139.612856,37.007064],[139.612915,37.006822],[139.613056,37.006374],[139.613099,37.005837],[139.613141,37.005497],[139.613164,37.005429],[139.613196,37.005387],[139.613248,37.005341],[139.613628,37.005139],[139.613806,37.005029],[139.613847,37.004977],[139.613854,37.004931],[139.61383,37.004878],[139.61376,37.004854],[139.613599,37.004864],[139.613337,37.004931],[139.61324,37.004934],[139.61315,37.004925],[139.612937,37.00488],[139.61264,37.004833],[139.612537,37.004832],[139.612465,37.004846],[139.612418,37.00487],[139.612383,37.004908],[139.612349,37.004959],[139.612349,37.005024],[139.612376,37.005208],[139.612376,37.005269],[139.612361,37.005321],[139.61226,37.005434],[139.612123,37.005538],[139.611919,37.005628],[139.611848,37.005678],[139.611794,37.005807],[139.611712,37.005943],[139.611645,37.005985],[139.611464,37.006045],[139.611232,37.006089],[139.611114,37.006093],[139.610973,37.006089],[139.610853,37.00606],[139.610766,37.006005],[139.610676,37.005927],[139.610571,37.005876],[139.610501,37.005863],[139.610386,37.00587],[139.610312,37.005886],[139.610096,37.005976],[139.609809,37.006144],[139.609708,37.006185],[139.609605,37.006195],[139.609379,37.006197],[139.609302,37.006225],[139.609247,37.006269],[139.6092,37.006323],[139.609156,37.00656],[139.609146,37.007117],[139.609073,37.007309],[139.609064,37.007399],[139.609072,37.007484],[139.609121,37.007554],[139.609217,37.007695],[139.609239,37.00777],[139.609238,37.007825],[139.609194,37.007873],[139.609091,37.007925],[139.608998,37.007998],[139.608935,37.008121],[139.6089,37.008262],[139.608861,37.008326],[139.608825,37.008365],[139.608786,37.008381],[139.608734,37.008381],[139.608687,37.008371],[139.608649,37.008328],[139.608636,37.00827],[139.608625,37.008142],[139.608609,37.008104],[139.608586,37.00808],[139.608531,37.008054],[139.608476,37.008043],[139.608416,37.008047],[139.608313,37.008071],[139.6082,37.008076],[139.60815,37.00806],[139.608109,37.008022],[139.608061,37.007957],[139.60804,37.007902],[139.608048,37.007854],[139.608145,37.007734],[139.608153,37.007682],[139.608157,37.007629],[139.608146,37.00759],[139.608026,37.007514],[139.608004,37.007489],[139.607969,37.007446],[139.607876,37.007177],[139.607665,37.006717],[139.607654,37.006684],[139.607586,37.006649],[139.607417,37.006576],[139.607367,37.006554],[139.607326,37.006514],[139.607293,37.006439],[139.607264,37.00626],[139.607188,37.006118],[139.607173,37.006045],[139.607186,37.005895],[139.607285,37.005684],[139.607311,37.005606],[139.607312,37.005554],[139.607296,37.005482],[139.607202,37.005309],[139.607174,37.005203],[139.607155,37.005122],[139.607158,37.004923],[139.607181,37.004761],[139.607158,37.004696],[139.607121,37.004652],[139.607066,37.00463],[139.607012,37.004635],[139.606937,37.00467],[139.606888,37.004725],[139.606777,37.005048],[139.606703,37.005164],[139.60665,37.005214],[139.606616,37.005235],[139.606547,37.005248],[139.60649,37.005249],[139.606415,37.00522],[139.606341,37.005173],[139.606148,37.004962],[139.605968,37.004804],[139.605885,37.004749],[139.605813,37.004725],[139.605746,37.004704],[139.605664,37.0047],[139.60558,37.004718],[139.605522,37.004749],[139.605471,37.004809],[139.60544,37.004854],[139.605413,37.004977],[139.605449,37.00519],[139.60547,37.005252],[139.605463,37.00581],[139.605429,37.005997],[139.605429,37.006141],[139.60546,37.006235],[139.605583,37.006413],[139.605687,37.006546],[139.605921,37.006786],[139.60598,37.006884],[139.605983,37.006963],[139.605964,37.007031],[139.605777,37.007217],[139.605732,37.007316],[139.605708,37.007413],[139.605706,37.007483],[139.605754,37.007625],[139.605773,37.007698],[139.605763,37.007777],[139.605718,37.007839],[139.605673,37.007856],[139.605601,37.007849],[139.605523,37.007827],[139.605377,37.007751],[139.605266,37.007659],[139.605231,37.007617],[139.605215,37.007553],[139.605212,37.007391],[139.605252,37.007297],[139.60538,37.007126],[139.605396,37.007083],[139.605392,37.007003],[139.605378,37.006953],[139.605325,37.006864],[139.605242,37.006782],[139.604969,37.006602],[139.60484,37.006482],[139.604644,37.006139],[139.604633,37.006075],[139.604619,37.005629],[139.604609,37.005445],[139.60457,37.005364],[139.604499,37.005267],[139.604426,37.005226],[139.604347,37.00518],[139.604264,37.005167],[139.604138,37.005165],[139.60403,37.005183],[139.603915,37.005209],[139.60369,37.005278],[139.60328,37.005368],[139.603156,37.005372],[139.603092,37.005346],[139.603062,37.005302],[139.603066,37.005228],[139.603113,37.005157],[139.603206,37.005088],[139.603345,37.005024],[139.60376,37.004942],[139.603883,37.004899],[139.604087,37.004812],[139.604309,37.004737],[139.604406,37.004687],[139.60451,37.004596],[139.604597,37.004468],[139.604657,37.004258],[139.604794,37.00406],[139.604912,37.003829],[139.60496,37.003784],[139.60559,37.0036],[139.605844,37.003492],[139.605948,37.003443],[139.606109,37.003321],[139.606149,37.003259],[139.606183,37.003182],[139.606203,37.00308],[139.606214,37.002793],[139.606227,37.002734],[139.606284,37.002653],[139.60651,37.002488],[139.606577,37.002405],[139.606754,37.001964],[139.606926,37.001757],[139.607237,37.001503],[139.607316,37.001424],[139.60736,37.001301],[139.607348,37.001199],[139.60728,37.001075],[139.607059,37.000796],[139.607069,37.000679],[139.607123,37.000435],[139.607099,37.000299],[139.607059,37.00022],[139.60698,37.000144],[139.606827,37.000054],[139.606757,37.000029],[139.606593,36.999921],[139.606536,36.999855],[139.606489,36.999747],[139.606485,36.999663],[139.606411,36.999493],[139.606131,36.999273],[139.606064,36.999179],[139.606015,36.998911],[139.605909,36.998599],[139.605688,36.998174],[139.605677,36.997838],[139.605616,36.997709],[139.605479,36.997517],[139.605244,36.997036],[139.605166,36.996902],[139.605071,36.99681],[139.60476,36.996636],[139.604706,36.996595],[139.604543,36.996432],[139.604462,36.996276],[139.604387,36.996176],[139.60426,36.99608],[139.604165,36.99598],[139.603968,36.995622],[139.603852,36.995315],[139.603733,36.995083],[139.603553,36.99467],[139.603489,36.994424],[139.60347,36.994096],[139.603497,36.993979],[139.603556,36.993897],[139.603886,36.99358],[139.604025,36.993361],[139.604091,36.993216],[139.604705,36.992418],[139.605144,36.992054],[139.605213,36.991982],[139.605286,36.991863],[139.605322,36.991741],[139.605325,36.991541]]}},{"type":"Feature","properties":{"id":215086146,"highway":"trunk"},"geometry":{"type":"LineString","coordinates":[[139.694614,36.936259],[139.694467,36.936177]]}},{"type":"Feature","properties":{"id":215086147,"highway":"trunk"},"geometry":{"type":"LineString","coordinates":[[139.690617,36.931929],[139.690577,36.931684]]}},{"type":"Feature","properties":{"id":215086148,"highway":"trunk"},"geometry":{"type":"LineString","coordinates":[[139.691913,36.934729],[139.691836,36.93466]]}},{"type":"Feature","properties":{"id":215086150,"highway":"trunk"},"geometry":{"type":"LineString","coordinates":[[139.698725,36.914631],[139.700623,36.91106]]}},{"type":"Feature","properties":{"id":215086152,"highway":"trunk"},"geometry":{"type":"LineString","coordinates":[[139.690545,36.931496],[139.690145,36.929193]]}},{"type":"Feature","properties":{"id":215086154,"highway":"trunk"},"geometry":{"type":"LineString","coordinates":[[139.690057,36.928659],[139.690019,36.928504],[139.68994,36.92826],[139.689813,36.927922],[139.689655,36.927474],[139.689343,36.926864],[139.688219,36.924771],[139.688118,36.924611]]}},{"type":"Feature","properties":{"id":215086155,"highway":"trunk"},"geometry":{"type":"LineString","coordinates":[[139.690132,36.929099],[139.690057,36.928659]]}},{"type":"Feature","properties":{"id":215086156,"highway":"trunk"},"geometry":{"type":"LineString","coordinates":[[139.694467,36.936177],[139.692412,36.93505],[139.692173,36.93491],[139.692032,36.934814],[139.691913,36.934729]]}},{"type":"Feature","properties":{"id":215086157,"highway":"trunk"},"geometry":{"type":"LineString","coordinates":[[139.694702,36.918046],[139.695121,36.91788],[139.695272,36.917808],[139.695392,36.917737],[139.695471,36.91767],[139.69554,36.917597],[139.695598,36.917521],[139.69573,36.917334],[139.695977,36.91697],[139.696314,36.91652],[139.69655,36.916205],[139.696897,36.915771],[139.696986,36.915697],[139.697055,36.91565],[139.69714,36.915619],[139.697262,36.915584],[139.697363,36.915563],[139.697803,36.915506],[139.697916,36.915485],[139.698009,36.915464],[139.698099,36.91544],[139.698173,36.9154],[139.698248,36.915353],[139.698321,36.915277],[139.698453,36.915125],[139.698517,36.915018],[139.698588,36.914896],[139.698725,36.914631]]}},{"type":"Feature","properties":{"id":215086158,"highway":"trunk"},"geometry":{"type":"LineString","coordinates":[[139.691836,36.93466],[139.691586,36.934437],[139.691378,36.934212],[139.691156,36.933905],[139.691028,36.933678],[139.690907,36.933425],[139.690778,36.932895],[139.690617,36.931929]]}},{"type":"Feature","properties":{"id":215086164,"highway":"unclassified"},"geometry":{"type":"LineString","coordinates":[[139.691826,36.984226],[139.692048,36.984329],[139.692284,36.984522],[139.692633,36.984832],[139.693739,36.985772],[139.694179,36.986006],[139.694944,36.986324],[139.695776,36.986882],[139.696237,36.987023],[139.696585,36.987173],[139.697087,36.987401],[139.697795,36.987961],[139.697856,36.987991],[139.697944,36.988042]]}},{"type":"Feature","properties":{"id":215086171,"highway":"unclassified"},"geometry":{"type":"LineString","coordinates":[[139.698501,36.990119],[139.698238,36.990585],[139.698119,36.990704],[139.698081,36.990781],[139.698062,36.990862],[139.698064,36.990942],[139.697648,36.991288],[139.697286,36.991889],[139.697191,36.992188],[139.697125,36.992497],[139.697102,36.992803],[139.69708,36.992874],[139.697028,36.992947],[139.696922,36.993052],[139.696883,36.993162],[139.696764,36.993748],[139.696808,36.993844]]}},{"type":"Feature","properties":{"id":215086175,"highway":"unclassified"},"geometry":{"type":"LineString","coordinates":[[139.676656,36.934408],[139.67707,36.934284],[139.677577,36.934118],[139.677961,36.933945]]}},{"type":"Feature","properties":{"id":215086177,"highway":"unclassified"},"geometry":{"type":"LineString","coordinates":[[139.696026,36.922329],[139.695941,36.922349],[139.695856,36.922339],[139.695678,36.922232],[139.695392,36.922028],[139.69536,36.921922],[139.695523,36.921756],[139.695563,36.921589],[139.695545,36.921438],[139.695409,36.921087],[139.695383,36.920999]]}},{"type":"Feature","properties":{"id":215086181,"highway":"unclassified"},"geometry":{"type":"LineString","coordinates":[[139.600088,36.975965],[139.600356,36.975633],[139.600485,36.975478],[139.600841,36.975203],[139.601114,36.975075],[139.601221,36.975044],[139.601349,36.975039],[139.601512,36.975058],[139.601724,36.975109],[139.601874,36.975116],[139.602004,36.975164],[139.602158,36.975255],[139.602272,36.975344],[139.602482,36.975503],[139.602575,36.975554],[139.60267,36.975581],[139.602834,36.975586],[139.602907,36.975573],[139.603197,36.975446],[139.603477,36.975236]]}},{"type":"Feature","properties":{"id":215086185,"highway":"unclassified"},"geometry":{"type":"LineString","coordinates":[[139.615805,36.966418],[139.615835,36.966504],[139.61584,36.966637],[139.615779,36.966927],[139.615769,36.967142],[139.615797,36.967561],[139.615867,36.96795],[139.616098,36.968372],[139.616149,36.968508],[139.61614,36.968682],[139.616063,36.968881],[139.615867,36.9692],[139.615687,36.969428],[139.615327,36.969747],[139.615227,36.969875],[139.61516,36.97],[139.615034,36.970396],[139.614935,36.970587],[139.614714,36.970907],[139.614699,36.971018],[139.614723,36.971053],[139.614966,36.97131],[139.615032,36.971441],[139.615102,36.972145],[139.615542,36.973501]]}},{"type":"Feature","properties":{"id":215086196,"highway":"unclassified"},"geometry":{"type":"LineString","coordinates":[[139.678517,36.932009],[139.678424,36.931675],[139.678392,36.9316],[139.677881,36.931355],[139.677783,36.931212],[139.677869,36.931102],[139.678069,36.931072],[139.678794,36.931073],[139.678998,36.930965],[139.679005,36.930798],[139.678832,36.930693],[139.67803,36.930482],[139.677948,36.930445],[139.677912,36.930369],[139.677924,36.930275],[139.677995,36.930208],[139.678321,36.930058],[139.678517,36.929986],[139.678661,36.929938],[139.678868,36.929868],[139.678968,36.929842]]}},{"type":"Feature","properties":{"id":215086210,"highway":"residential"},"geometry":{"type":"LineString","coordinates":[[139.692183,36.998654],[139.692123,36.998724]]}},{"type":"Feature","properties":{"id":215086214,"highway":"unclassified"},"geometry":{"type":"LineString","coordinates":[[139.6922,36.983876],[139.691959,36.984037]]}},{"type":"Feature","properties":{"id":215086218,"highway":"unclassified"},"geometry":{"type":"LineString","coordinates":[[139.619596,36.979719],[139.619841,36.979851]]}},{"type":"Feature","properties":{"id":215086228,"highway":"unclassified"},"geometry":{"type":"LineString","coordinates":[[139.69821,36.98817],[139.698911,36.988442],[139.69901,36.988481]]}},{"type":"Feature","properties":{"id":215086233,"highway":"unclassified"},"geometry":{"type":"LineString","coordinates":[[139.621189,36.980549],[139.621303,36.980577]]}},{"type":"Feature","properties":{"id":215086235,"highway":"unclassified"},"geometry":{"type":"LineString","coordinates":[[139.621303,36.980577],[139.621621,36.98066]]}},{"type":"Feature","properties":{"id":215086238,"highway":"unclassified"},"geometry":{"type":"LineString","coordinates":[[139.678616,36.932361],[139.679138,36.932281],[139.679641,36.932204]]}},{"type":"Feature","properties":{"id":215086240,"highway":"unclassified"},"geometry":{"type":"LineString","coordinates":[[139.6987,36.985211],[139.698779,36.985065]]}},{"type":"Feature","properties":{"id":215086241,"highway":"unclassified"},"geometry":{"type":"LineString","coordinates":[[139.679641,36.932204],[139.680198,36.932093],[139.680608,36.932012]]}},{"type":"Feature","properties":{"id":215086242,"highway":"unclassified"},"geometry":{"type":"LineString","coordinates":[[139.669657,36.934386],[139.67002,36.934268]]}},{"type":"Feature","properties":{"id":215086244,"highway":"unclassified"},"geometry":{"type":"LineString","coordinates":[[139.616725,36.975784],[139.616756,36.97602]]}},{"type":"Feature","properties":{"id":215086252,"highway":"unclassified"},"geometry":{"type":"LineString","coordinates":[[139.600088,36.975965],[139.599867,36.976248]]}},{"type":"Feature","properties":{"id":215086257,"highway":"unclassified"},"geometry":{"type":"LineString","coordinates":[[139.615542,36.973501],[139.615669,36.973751]]}},{"type":"Feature","properties":{"id":215086260,"highway":"unclassified"},"geometry":{"type":"LineString","coordinates":[[139.60379,36.975028],[139.603477,36.975236]]}},{"type":"Feature","properties":{"id":215086262,"highway":"unclassified"},"geometry":{"type":"LineString","coordinates":[[139.603745,36.971235],[139.603941,36.971533]]}},{"type":"Feature","properties":{"id":215086271,"highway":"unclassified"},"geometry":{"type":"LineString","coordinates":[[139.67002,36.934268],[139.670185,36.934248]]}},{"type":"Feature","properties":{"id":215086276,"highway":"unclassified"},"geometry":{"type":"LineString","coordinates":[[139.678616,36.932361],[139.678517,36.932009]]}},{"type":"Feature","properties":{"id":215086279,"highway":"unclassified"},"geometry":{"type":"LineString","coordinates":[[139.679516,36.931807],[139.679641,36.932204]]}},{"type":"Feature","properties":{"id":215086280,"highway":"unclassified"},"geometry":{"type":"LineString","coordinates":[[139.695383,36.920999],[139.695094,36.92098]]}},{"type":"Feature","properties":{"id":215086285,"highway":"unclassified"},"geometry":{"type":"LineString","coordinates":[[139.690132,36.929099],[139.690587,36.928961],[139.690962,36.928784],[139.691189,36.92862],[139.691337,36.928446],[139.691557,36.928261],[139.691771,36.927984],[139.691917,36.927709],[139.692036,36.927444],[139.692193,36.927205],[139.692352,36.926955],[139.692406,36.926628],[139.692312,36.926199],[139.692197,36.92606],[139.692026,36.926014],[139.691847,36.926054],[139.69161,36.926248],[139.691471,36.926305],[139.691318,36.926244],[139.69124,36.926126],[139.691195,36.925709],[139.69103,36.925575],[139.690825,36.925548],[139.690594,36.925629],[139.690431,36.925596],[139.690374,36.925441],[139.690219,36.925366],[139.689894,36.925266],[139.689786,36.925186],[139.689608,36.924942],[139.689474,36.924856],[139.689289,36.924784],[139.688487,36.924597],[139.688108,36.924482],[139.688026,36.92447]]}},{"type":"Feature","properties":{"id":215086290,"highway":"unclassified"},"geometry":{"type":"LineString","coordinates":[[139.698901,36.988576],[139.698816,36.98864],[139.698106,36.989119],[139.697812,36.989376],[139.69664,36.990346],[139.695672,36.99087],[139.695307,36.991287],[139.695118,36.991434],[139.694514,36.991778],[139.693701,36.991957],[139.693596,36.992007],[139.693386,36.992232],[139.693351,36.99234],[139.693421,36.992531],[139.693925,36.992965],[139.693813,36.993224],[139.693351,36.993794],[139.692931,36.994432],[139.692807,36.995067],[139.692817,36.995546],[139.693153,36.99634],[139.693104,36.997191],[139.692746,36.997833],[139.692183,36.998654]]}},{"type":"Feature","properties":{"id":215086308,"highway":"unclassified"},"geometry":{"type":"LineString","coordinates":[[139.603745,36.971235],[139.603702,36.971175],[139.603686,36.97114]]}},{"type":"Feature","properties":{"id":215086309,"highway":"unclassified"},"geometry":{"type":"LineString","coordinates":[[139.692735,36.983446],[139.692635,36.98353],[139.6922,36.983876]]}},{"type":"Feature","properties":{"id":215086311,"highway":"unclassified"},"geometry":{"type":"LineString","coordinates":[[139.699852,36.986886],[139.699836,36.986955],[139.699637,36.987558],[139.699511,36.987775],[139.69901,36.988481],[139.698901,36.988576]]}},{"type":"Feature","properties":{"id":215086312,"highway":"unclassified"},"geometry":{"type":"LineString","coordinates":[[139.677786,36.932135],[139.677886,36.932471],[139.678616,36.932361]]}},{"type":"Feature","properties":{"id":215086315,"highway":"unclassified"},"geometry":{"type":"LineString","coordinates":[[139.676286,36.93252],[139.676116,36.932197],[139.676616,36.932027],[139.677151,36.931887]]}},{"type":"Feature","properties":{"id":215086316,"highway":"unclassified"},"geometry":{"type":"LineString","coordinates":[[139.698501,36.990119],[139.698454,36.990032],[139.697812,36.989376]]}},{"type":"Feature","properties":{"id":215086321,"highway":"unclassified"},"geometry":{"type":"LineString","coordinates":[[139.691959,36.984037],[139.691872,36.98412],[139.691826,36.984226],[139.691454,36.984863],[139.691022,36.985463],[139.690692,36.985908],[139.690425,36.986155],[139.690173,36.98641],[139.689593,36.986743],[139.688703,36.987083],[139.688244,36.987395],[139.688131,36.987555],[139.688105,36.987716],[139.68811,36.988087],[139.688083,36.988236],[139.68801,36.988345],[139.687919,36.988444],[139.687747,36.988566],[139.687648,36.988602],[139.687377,36.988658],[139.687029,36.988684],[139.686294,36.988643],[139.685551,36.988683],[139.685059,36.988713],[139.684556,36.988894],[139.684371,36.98896],[139.683568,36.989083],[139.683436,36.989116],[139.683019,36.989245],[139.682802,36.989286],[139.682576,36.989271],[139.682161,36.989256],[139.681686,36.989262],[139.680897,36.989307],[139.680663,36.989356],[139.679409,36.989554],[139.679157,36.989633],[139.678993,36.989768],[139.678863,36.989938],[139.678617,36.990124],[139.6782,36.990288],[139.678041,36.990288],[139.67668,36.989958],[139.676252,36.989792],[139.674655,36.989431],[139.673728,36.989286],[139.672895,36.989064],[139.672502,36.988973],[139.672057,36.988912],[139.671654,36.988808],[139.670818,36.988741],[139.670152,36.988815],[139.669863,36.988849],[139.669123,36.988856],[139.668653,36.98897],[139.668288,36.989134],[139.668146,36.989172],[139.668028,36.989164],[139.667759,36.989005],[139.667285,36.988746],[139.666987,36.988641]]}},{"type":"Feature","properties":{"id":215086322,"highway":"unclassified"},"geometry":{"type":"LineString","coordinates":[[139.676656,36.934408],[139.675978,36.934446],[139.675226,36.934764],[139.675085,36.935093],[139.674664,36.935233],[139.67441,36.935352],[139.674307,36.935383],[139.674214,36.935361],[139.674165,36.935287],[139.674154,36.935169],[139.67422,36.934898],[139.674192,36.934802],[139.674163,36.934763],[139.674095,36.934722],[139.67392,36.93468],[139.673545,36.934658],[139.673208,36.93469],[139.673035,36.934731],[139.671793,36.935239],[139.671449,36.935328],[139.671349,36.935329],[139.671262,36.935307],[139.671169,36.935271],[139.671071,36.935204],[139.670916,36.935069],[139.670664,36.934781],[139.670306,36.934319],[139.670218,36.934254],[139.670185,36.934248]]}},{"type":"Feature","properties":{"id":215086325,"highway":"unclassified"},"geometry":{"type":"LineString","coordinates":[[139.686147,36.930444],[139.686162,36.930593],[139.686084,36.930674],[139.685416,36.931005],[139.685147,36.931241],[139.685024,36.931286],[139.683683,36.931426],[139.683354,36.93151],[139.68298,36.931834],[139.682399,36.932152],[139.682082,36.932192],[139.681629,36.932128],[139.681364,36.932246],[139.681208,36.932457],[139.681135,36.93279],[139.680984,36.932949],[139.680168,36.93332],[139.679929,36.933472],[139.679497,36.933615],[139.679096,36.933768],[139.679033,36.933779],[139.67891,36.933723],[139.678796,36.933738],[139.677961,36.933945]]}},{"type":"Feature","properties":{"id":215086329,"highway":"unclassified"},"geometry":{"type":"LineString","coordinates":[[139.679641,36.932204],[139.679719,36.93251],[139.680621,36.932318],[139.680608,36.932012]]}},{"type":"Feature","properties":{"id":215086330,"highway":"unclassified"},"geometry":{"type":"LineString","coordinates":[[139.619841,36.979851],[139.619909,36.979891],[139.620722,36.980364],[139.62099,36.980499],[139.621189,36.980549]]}},{"type":"Feature","properties":{"id":215086335,"highway":"residential"},"geometry":{"type":"LineString","coordinates":[[139.697944,36.988042],[139.69821,36.98817]]}},{"type":"Feature","properties":{"id":215086364,"highway":"unclassified"},"geometry":{"type":"LineString","coordinates":[[139.698901,36.988576],[139.699082,36.988776],[139.69908,36.988827],[139.699017,36.988943],[139.698995,36.989019],[139.698989,36.989175],[139.698955,36.989247],[139.698859,36.989372],[139.698801,36.989452],[139.698762,36.989539],[139.698712,36.98969],[139.698501,36.990119]]}},{"type":"Feature","properties":{"id":215086367,"highway":"unclassified"},"geometry":{"type":"LineString","coordinates":[[139.680608,36.932012],[139.680664,36.932],[139.680736,36.931953],[139.680758,36.931895],[139.680764,36.931784],[139.680719,36.931529]]}},{"type":"Feature","properties":{"id":215086369,"highway":"unclassified"},"geometry":{"type":"LineString","coordinates":[[139.698901,36.988576],[139.698911,36.988442],[139.698896,36.988391],[139.698948,36.988165],[139.698958,36.987865],[139.698918,36.987479],[139.698941,36.987284],[139.699122,36.986829],[139.699393,36.986914],[139.699435,36.986822]]}},{"type":"Feature","properties":{"id":215086370,"highway":"unclassified"},"geometry":{"type":"LineString","coordinates":[[139.691063,36.999106],[139.691135,36.999111],[139.691516,36.999078],[139.691766,36.999006],[139.691943,36.99892],[139.692123,36.998724]]}},{"type":"Feature","properties":{"id":215086378,"highway":"unclassified"},"geometry":{"type":"LineString","coordinates":[[139.603941,36.971533],[139.603998,36.971611],[139.604012,36.971679],[139.604006,36.972023],[139.604151,36.972545],[139.604264,36.973004],[139.604401,36.97388],[139.60457,36.974643],[139.604565,36.97481],[139.604504,36.974894],[139.604457,36.974922],[139.604268,36.974962],[139.603942,36.974988],[139.603883,36.975001],[139.60379,36.975028]]}},{"type":"Feature","properties":{"id":215086379,"highway":"unclassified"},"geometry":{"type":"LineString","coordinates":[[139.617796,36.965752],[139.617589,36.965872],[139.617381,36.965959],[139.616969,36.96609],[139.616689,36.966285],[139.616476,36.966337],[139.616217,36.966359],[139.615923,36.966404],[139.615805,36.966418]]}},{"type":"Feature","properties":{"id":215086385,"highway":"unclassified"},"geometry":{"type":"LineString","coordinates":[[139.693592,36.920341],[139.693729,36.920406],[139.69422,36.920446],[139.694982,36.920456],[139.695119,36.920468],[139.695234,36.920485],[139.695361,36.920543],[139.695428,36.920612],[139.695428,36.920809],[139.695383,36.920999]]}},{"type":"Feature","properties":{"id":215086386,"highway":"unclassified"},"geometry":{"type":"LineString","coordinates":[[139.616725,36.975784],[139.616725,36.975738],[139.616728,36.975686],[139.616776,36.975573],[139.616788,36.975489],[139.616776,36.975331],[139.616737,36.975261],[139.616653,36.975151],[139.616243,36.974857],[139.616071,36.974703],[139.615937,36.974404],[139.61588,36.973967],[139.615859,36.97391],[139.615746,36.973823],[139.615669,36.973751]]}},{"type":"Feature","properties":{"id":215086389,"highway":"unclassified"},"geometry":{"type":"LineString","coordinates":[[139.698588,36.985669],[139.698554,36.985756],[139.698298,36.986291]]}},{"type":"Feature","properties":{"id":215086395,"highway":"residential"},"geometry":{"type":"LineString","coordinates":[[139.635531,36.933061],[139.635502,36.933154],[139.635479,36.933282],[139.635473,36.933414],[139.635471,36.933643],[139.63546,36.93371],[139.635428,36.933744],[139.635374,36.93377],[139.635304,36.933779],[139.635178,36.933773],[139.635109,36.933783],[139.635054,36.933809],[139.634981,36.933864],[139.634907,36.933933],[139.634831,36.934019],[139.634741,36.934134],[139.63468,36.934244],[139.634646,36.93432],[139.634634,36.934368],[139.63462,36.934474],[139.634617,36.934499],[139.634586,36.934645],[139.634546,36.934782],[139.63447,36.934947],[139.634443,36.934987],[139.634411,36.935011],[139.634254,36.93509],[139.634203,36.935135],[139.634182,36.935192],[139.634182,36.935266],[139.634199,36.935331],[139.634239,36.935444],[139.634252,36.935502],[139.634252,36.935556],[139.634241,36.935625],[139.634203,36.935757],[139.634193,36.935831],[139.634189,36.935932],[139.634199,36.935975],[139.634229,36.936029],[139.634284,36.936081],[139.634378,36.93613],[139.634506,36.936172],[139.63472,36.936256],[139.634868,36.936322],[139.634998,36.936392],[139.635143,36.936482],[139.635237,36.936572],[139.635311,36.936672],[139.635389,36.936802],[139.635433,36.936904],[139.635489,36.937047],[139.635519,36.937105],[139.635546,36.937132],[139.63558,36.93715],[139.635609,36.937144],[139.635636,36.937116],[139.635651,36.937057],[139.635647,36.936982],[139.635622,36.936859],[139.635567,36.93671],[139.635536,36.936651],[139.635534,36.936616],[139.635544,36.936574],[139.635578,36.93654],[139.635613,36.936534],[139.635653,36.936534],[139.635691,36.936547],[139.635729,36.936585],[139.635766,36.936634],[139.635843,36.936819],[139.635878,36.937107]]}},{"type":"Feature","properties":{"id":215086396,"highway":"residential"},"geometry":{"type":"LineString","coordinates":[[139.696128,36.922505],[139.696305,36.922419],[139.696498,36.92235],[139.696731,36.922333],[139.697,36.922233],[139.698043,36.922054],[139.698198,36.922254],[139.698246,36.922416],[139.697566,36.922581]]}},{"type":"Feature","properties":{"id":215086398,"highway":"unclassified"},"geometry":{"type":"LineString","coordinates":[[139.616756,36.97602],[139.616799,36.976134],[139.616809,36.976364],[139.616736,36.976829],[139.616737,36.977424],[139.616954,36.977824],[139.617362,36.978173],[139.617538,36.978263],[139.617818,36.978612],[139.618877,36.979311],[139.619596,36.979719]]}},{"type":"Feature","properties":{"id":215086423,"highway":"tertiary"},"geometry":{"type":"LineString","coordinates":[[139.603999,36.968689],[139.604364,36.968396]]}},{"type":"Feature","properties":{"id":215086424,"highway":"tertiary"},"geometry":{"type":"LineString","coordinates":[[139.670072,36.93395],[139.670116,36.933957],[139.670216,36.933974],[139.670271,36.93402],[139.670353,36.934094],[139.670645,36.934456],[139.670833,36.934664],[139.671001,36.934796],[139.671304,36.934914],[139.671477,36.934942],[139.671677,36.934936],[139.671907,36.934888],[139.67214,36.934804],[139.672376,36.934684],[139.672619,36.934533],[139.67322,36.934121],[139.6734,36.934042],[139.673607,36.934012],[139.674205,36.934012],[139.67445,36.933977],[139.674591,36.933935]]}},{"type":"Feature","properties":{"id":215086439,"highway":"tertiary"},"geometry":{"type":"LineString","coordinates":[[139.669864,36.934002],[139.669945,36.933962],[139.670072,36.93395]]}},{"type":"Feature","properties":{"id":215086442,"highway":"tertiary"},"geometry":{"type":"LineString","coordinates":[[139.666012,36.935892],[139.6666,36.936053],[139.667044,36.936066],[139.667452,36.935993],[139.668045,36.935855],[139.668601,36.935703],[139.669025,36.935485],[139.669341,36.935201],[139.669558,36.934842],[139.669657,36.934386],[139.66976,36.934104],[139.669864,36.934002]]}},{"type":"Feature","properties":{"id":215086464,"highway":"tertiary"},"geometry":{"type":"LineString","coordinates":[[139.610362,36.968069],[139.61034,36.967729],[139.609894,36.967737],[139.609536,36.96775],[139.609092,36.967757],[139.608967,36.96773],[139.60893,36.967758],[139.608801,36.967785],[139.608632,36.967832],[139.608366,36.967892],[139.6075,36.967987],[139.607084,36.967994],[139.60627,36.968051],[139.605587,36.968014],[139.604885,36.968042],[139.604364,36.968396]]}},{"type":"Feature","properties":{"id":215086474,"highway":"secondary"},"geometry":{"type":"LineString","coordinates":[[139.681563,36.931318],[139.682293,36.93117],[139.682798,36.931078],[139.684423,36.930775],[139.685523,36.930577]]}},{"type":"Feature","properties":{"id":215086475,"highway":"tertiary"},"geometry":{"type":"LineString","coordinates":[[139.60444,36.970447],[139.604399,36.970408],[139.604356,36.970345],[139.604381,36.970047],[139.604322,36.969767],[139.603964,36.96915],[139.603903,36.968949],[139.603879,36.968822],[139.603999,36.968689]]}},{"type":"Feature","properties":{"id":215086480,"highway":"trunk"},"geometry":{"type":"LineString","coordinates":[[139.692052,36.919617],[139.692871,36.920435]]}},{"type":"Feature","properties":{"id":215086481,"highway":"trunk"},"geometry":{"type":"LineString","coordinates":[[139.69702,36.933597],[139.696991,36.933546],[139.696949,36.933513],[139.696887,36.933478],[139.696816,36.93345],[139.695903,36.933156],[139.695822,36.933115],[139.695776,36.93306],[139.695756,36.932994],[139.695749,36.932845],[139.695806,36.932569],[139.695869,36.932405],[139.695932,36.932279],[139.696261,36.931845],[139.696358,36.93169],[139.696505,36.931338],[139.696717,36.930824],[139.696761,36.930753],[139.696802,36.930715],[139.696864,36.930681],[139.696993,36.930633],[139.697106,36.930624],[139.697283,36.930627],[139.697365,36.930624],[139.697437,36.930602],[139.697502,36.930545],[139.697533,36.930482],[139.697531,36.930401],[139.69751,36.930332],[139.697292,36.930031],[139.697266,36.929942],[139.69728,36.92987],[139.697319,36.929792],[139.697435,36.929642],[139.69746,36.929589],[139.697467,36.929546],[139.697471,36.929483],[139.697446,36.92922],[139.697458,36.92915],[139.697478,36.929094],[139.697526,36.929032],[139.697732,36.928846],[139.697954,36.92862],[139.698315,36.928193],[139.698384,36.92812],[139.698482,36.92804],[139.698862,36.92777],[139.698963,36.927691],[139.699066,36.927571],[139.699133,36.927487],[139.699181,36.927402],[139.699186,36.927326],[139.699156,36.927241],[139.698957,36.92698],[139.698911,36.9269],[139.698871,36.926793],[139.698681,36.925607],[139.698675,36.925555],[139.698689,36.925508],[139.698726,36.925442],[139.69881,36.925377],[139.69884,36.925335],[139.69885,36.925275],[139.698844,36.925233],[139.698829,36.925178],[139.698777,36.925131],[139.698432,36.925001],[139.698379,36.924972],[139.698334,36.924927],[139.69829,36.924866],[139.698134,36.92459],[139.698108,36.924512],[139.698088,36.924321],[139.698051,36.924211],[139.697727,36.923577],[139.697643,36.923443],[139.697505,36.923299],[139.697206,36.923056],[139.697124,36.923014],[139.697035,36.922991],[139.696785,36.923015],[139.696671,36.922991],[139.696571,36.922932],[139.696171,36.922561],[139.696128,36.922505],[139.696026,36.922329],[139.695923,36.922097],[139.695864,36.921903],[139.695828,36.921751],[139.695794,36.921443],[139.695775,36.921374],[139.695705,36.921145],[139.695685,36.921041],[139.695691,36.920975],[139.695754,36.920869],[139.695782,36.920808],[139.695794,36.920727],[139.695788,36.920634],[139.695761,36.920557],[139.695705,36.920483],[139.695623,36.920406],[139.695517,36.920358],[139.695417,36.920325],[139.695309,36.920305],[139.695134,36.920303],[139.694461,36.920347],[139.694144,36.920363],[139.693807,36.920344],[139.693708,36.920341],[139.693592,36.920341],[139.693238,36.920395],[139.693164,36.920425],[139.693072,36.920471],[139.693029,36.920479],[139.692983,36.920477],[139.69293,36.920465],[139.692871,36.920435]]}},{"type":"Feature","properties":{"id":215086483,"highway":"primary"},"geometry":{"type":"LineString","coordinates":[[139.692762,36.90038],[139.69284,36.900301],[139.692911,36.900262],[139.692995,36.900237],[139.693494,36.900178],[139.693887,36.900151],[139.693956,36.900136],[139.694019,36.90011],[139.694072,36.900065],[139.694102,36.900025],[139.694117,36.899975],[139.694114,36.899928],[139.694087,36.899875],[139.694039,36.899822],[139.69397,36.899784],[139.693629,36.899615],[139.69325,36.899366],[139.693111,36.899229],[139.692928,36.899022],[139.692829,36.898884],[139.692739,36.898713],[139.692678,36.898541],[139.692645,36.898363],[139.692627,36.898183],[139.692613,36.897893],[139.692649,36.897517],[139.692728,36.897207]]}},{"type":"Feature","properties":{"id":215086484,"highway":"primary"},"geometry":{"type":"LineString","coordinates":[[139.70138,36.9072],[139.693136,36.90518]]}},{"type":"Feature","properties":{"id":215086486,"highway":"primary"},"geometry":{"type":"LineString","coordinates":[[139.692511,36.900773],[139.692762,36.90038]]}},{"type":"Feature","properties":{"id":215086489,"highway":"primary"},"geometry":{"type":"LineString","coordinates":[[139.693136,36.90518],[139.69299,36.905138],[139.692913,36.905089],[139.692901,36.905024],[139.692945,36.904949],[139.693114,36.904829],[139.693401,36.904655],[139.693497,36.90457],[139.693523,36.904492],[139.693524,36.904405],[139.693502,36.904319],[139.693437,36.904198],[139.693408,36.90415],[139.693393,36.904044],[139.693414,36.903949],[139.693414,36.903818],[139.693342,36.903521],[139.693322,36.903439],[139.69331,36.903348],[139.693318,36.903236],[139.693393,36.903003],[139.693407,36.902937],[139.693398,36.902858],[139.693323,36.90278],[139.693223,36.902732],[139.693136,36.902685],[139.69308,36.902608],[139.693021,36.902473],[139.692982,36.902341]]}},{"type":"Feature","properties":{"id":215086496,"highway":"secondary"},"geometry":{"type":"LineString","coordinates":[[139.64879,36.932706],[139.650202,36.931966],[139.651071,36.931462],[139.651934,36.930945],[139.652631,36.930586],[139.653421,36.930185],[139.654204,36.92987],[139.654752,36.929717],[139.65505,36.929656],[139.655433,36.929593],[139.655865,36.929546]]}},{"type":"Feature","properties":{"id":215086497,"highway":"secondary"},"geometry":{"type":"LineString","coordinates":[[139.666399,36.930908],[139.666554,36.930842],[139.666712,36.930782],[139.666909,36.930724],[139.667124,36.930685],[139.667415,36.930668]]}},{"type":"Feature","properties":{"id":215086498,"highway":"secondary"},"geometry":{"type":"LineString","coordinates":[[139.685523,36.930577],[139.68588,36.930505],[139.686147,36.930444],[139.686325,36.930397],[139.686426,36.93037],[139.686654,36.93029],[139.68803,36.929847]]}},{"type":"Feature","properties":{"id":215086499,"highway":"secondary"},"geometry":{"type":"LineString","coordinates":[[139.66175,36.932752],[139.661892,36.933022],[139.662033,36.933245],[139.6622,36.933475]]}},{"type":"Feature","properties":{"id":215086501,"highway":"secondary"},"geometry":{"type":"LineString","coordinates":[[139.635262,36.934951],[139.635734,36.934764],[139.636599,36.934465],[139.637149,36.934292],[139.637646,36.93416],[139.638344,36.933997],[139.639072,36.93387],[139.639809,36.933782],[139.640552,36.933748],[139.641194,36.933752],[139.641886,36.93378],[139.642614,36.933843],[139.64324,36.933917],[139.643692,36.933983],[139.64423,36.93403],[139.644856,36.934053],[139.64557,36.933997],[139.646196,36.933891],[139.646849,36.933691],[139.648142,36.933059]]}},{"type":"Feature","properties":{"id":215086502,"highway":"secondary"},"geometry":{"type":"LineString","coordinates":[[139.625243,36.946554],[139.62515,36.946226],[139.62513,36.94601],[139.62513,36.945744],[139.625151,36.945543],[139.625246,36.945293],[139.625389,36.944987],[139.625609,36.944709],[139.625804,36.944519],[139.625993,36.944378],[139.626285,36.944202],[139.626597,36.944052],[139.626813,36.943928],[139.627027,36.943781],[139.627215,36.943634],[139.627377,36.943455],[139.627479,36.943308],[139.627639,36.943005]]}},{"type":"Feature","properties":{"id":215086503,"highway":"secondary"},"geometry":{"type":"LineString","coordinates":[[139.67423,36.934187],[139.67443,36.934055],[139.674591,36.933935],[139.67476,36.933798],[139.675339,36.933126],[139.67564,36.932889],[139.67595,36.932683],[139.676286,36.93252],[139.676687,36.932385],[139.677044,36.932282],[139.677388,36.932209],[139.677786,36.932135],[139.678517,36.932009],[139.679037,36.931904],[139.679516,36.931807],[139.679909,36.93172],[139.680081,36.931684],[139.680399,36.931617],[139.680719,36.931529],[139.681103,36.931431],[139.681563,36.931318]]}},{"type":"Feature","properties":{"id":215086504,"highway":"secondary"},"geometry":{"type":"LineString","coordinates":[[139.606156,36.968847],[139.606519,36.968462],[139.606692,36.96832],[139.606911,36.968218],[139.607163,36.968146],[139.607347,36.968126],[139.60756,36.968113],[139.608658,36.968096],[139.609085,36.968092],[139.609603,36.968081],[139.610133,36.968073],[139.610362,36.968069],[139.611393,36.968054],[139.611606,36.968026],[139.611661,36.968019],[139.611835,36.967964],[139.612062,36.967847],[139.612146,36.967797],[139.612336,36.96758]]}},{"type":"Feature","properties":{"id":215086505,"highway":"secondary"},"geometry":{"type":"LineString","coordinates":[[139.623646,36.959627],[139.623703,36.959419],[139.623741,36.959236]]}},{"type":"Feature","properties":{"id":215086506,"highway":"secondary"},"geometry":{"type":"LineString","coordinates":[[139.604899,36.969797],[139.606156,36.968847]]}},{"type":"Feature","properties":{"id":215086507,"highway":"secondary"},"geometry":{"type":"LineString","coordinates":[[139.666064,36.931123],[139.666221,36.93101],[139.666399,36.930908]]}},{"type":"Feature","properties":{"id":215086508,"highway":"secondary"},"geometry":{"type":"LineString","coordinates":[[139.655865,36.929546],[139.656307,36.929531],[139.656769,36.92954],[139.657142,36.929564],[139.657413,36.929597],[139.657804,36.929669]]}},{"type":"Feature","properties":{"id":215086509,"highway":"secondary"},"geometry":{"type":"LineString","coordinates":[[139.633913,36.935505],[139.635044,36.93504]]}},{"type":"Feature","properties":{"id":215086511,"highway":"secondary"},"geometry":{"type":"LineString","coordinates":[[139.623307,36.960785],[139.623329,36.960718],[139.623357,36.960639]]}},{"type":"Feature","properties":{"id":215086512,"highway":"secondary"},"geometry":{"type":"LineString","coordinates":[[139.648142,36.933059],[139.64879,36.932706]]}},{"type":"Feature","properties":{"id":215086513,"highway":"secondary"},"geometry":{"type":"LineString","coordinates":[[139.604537,36.970292],[139.604899,36.969797]]}},{"type":"Feature","properties":{"id":215086515,"highway":"secondary"},"geometry":{"type":"LineString","coordinates":[[139.622874,36.961836],[139.623023,36.961479],[139.623133,36.961212],[139.623307,36.960785]]}},{"type":"Feature","properties":{"id":215086516,"highway":"secondary"},"geometry":{"type":"LineString","coordinates":[[139.628195,36.939987],[139.628493,36.93952],[139.628769,36.939118],[139.628953,36.93888]]}},{"type":"Feature","properties":{"id":215086517,"highway":"secondary"},"geometry":{"type":"LineString","coordinates":[[139.672139,36.934693],[139.672331,36.934676],[139.672563,36.934633],[139.672924,36.93455],[139.673541,36.934415],[139.673797,36.934355],[139.673968,36.934307],[139.674091,36.934261],[139.67423,36.934187]]}},{"type":"Feature","properties":{"id":215086518,"highway":"secondary"},"geometry":{"type":"LineString","coordinates":[[139.665513,36.93238],[139.665538,36.932013],[139.665579,36.931826],[139.665655,36.93164],[139.665737,36.931474],[139.665851,36.931307],[139.666008,36.931176]]}},{"type":"Feature","properties":{"id":215086519,"highway":"secondary"},"geometry":{"type":"LineString","coordinates":[[139.623741,36.959236],[139.623808,36.958856],[139.623847,36.958521],[139.623925,36.957734],[139.623978,36.957085],[139.624018,36.956464]]}},{"type":"Feature","properties":{"id":215086520,"highway":"secondary"},"geometry":{"type":"LineString","coordinates":[[139.617117,36.964009],[139.617283,36.963993],[139.617435,36.964005],[139.617722,36.964041],[139.618244,36.964136],[139.61934,36.964373],[139.619899,36.964457]]}},{"type":"Feature","properties":{"id":215086521,"highway":"secondary"},"geometry":{"type":"LineString","coordinates":[[139.625005,36.948548],[139.62505,36.948441],[139.6251,36.94832],[139.625215,36.948015],[139.625285,36.947678],[139.625322,36.947334],[139.625322,36.946987],[139.625243,36.946554]]}},{"type":"Feature","properties":{"id":215086522,"highway":"secondary"},"geometry":{"type":"LineString","coordinates":[[139.623681,36.95034],[139.623953,36.949972],[139.624218,36.949636],[139.624625,36.949131],[139.624832,36.948829],[139.625005,36.948548]]}},{"type":"Feature","properties":{"id":215086523,"highway":"secondary"},"geometry":{"type":"LineString","coordinates":[[139.619899,36.964457],[139.6201,36.964447],[139.620315,36.964404],[139.620567,36.964298],[139.620786,36.964149],[139.620949,36.963987],[139.62146,36.963552],[139.621856,36.963194],[139.622252,36.962758],[139.622471,36.962492],[139.622659,36.962236],[139.622874,36.961836]]}},{"type":"Feature","properties":{"id":215086525,"highway":"secondary"},"geometry":{"type":"LineString","coordinates":[[139.627639,36.943005],[139.627736,36.942762],[139.627769,36.942479],[139.62778,36.942168],[139.627691,36.941758],[139.627629,36.941503],[139.627613,36.941278],[139.627624,36.941053],[139.627697,36.940809],[139.627779,36.940613],[139.627892,36.940405],[139.628195,36.939987]]}},{"type":"Feature","properties":{"id":215086526,"highway":"secondary"},"geometry":{"type":"LineString","coordinates":[[139.628953,36.93888],[139.629302,36.938448],[139.629784,36.937983],[139.630223,36.937605],[139.630704,36.937211],[139.631241,36.936844],[139.631773,36.936517],[139.632094,36.936335],[139.632455,36.936158],[139.632961,36.935926],[139.633913,36.935505]]}},{"type":"Feature","properties":{"id":215093445,"highway":"trunk"},"geometry":{"type":"LineString","coordinates":[[139.697015,36.933826],[139.696985,36.933891],[139.696952,36.933943],[139.696806,36.934079],[139.696716,36.934135],[139.696582,36.934182],[139.69632,36.934243],[139.696121,36.93429],[139.696025,36.934298],[139.695868,36.934282],[139.695796,36.934293],[139.69575,36.934311],[139.695711,36.934342],[139.695691,36.934382],[139.695688,36.934424],[139.695697,36.934475],[139.695727,36.934517],[139.695764,36.934557],[139.696115,36.934701],[139.696167,36.934736],[139.696187,36.934759],[139.696203,36.93479],[139.6962,36.934829],[139.69619,36.934871],[139.69617,36.934904],[139.696105,36.934946],[139.696023,36.934978],[139.69592,36.934988],[139.69581,36.93499],[139.695697,36.934984],[139.695522,36.934957],[139.695442,36.934959],[139.695375,36.934973],[139.695324,36.93499],[139.695285,36.935025],[139.695248,36.935092],[139.695163,36.935266],[139.694945,36.935707],[139.69487,36.935856],[139.694614,36.936259]]}},{"type":"Feature","properties":{"id":215093447,"highway":"trunk"},"geometry":{"type":"LineString","coordinates":[[139.69702,36.933597],[139.697033,36.933649],[139.697037,36.933705],[139.697034,36.933755],[139.697015,36.933826]]}},{"type":"Feature","properties":{"id":306249571,"highway":"trunk"},"geometry":{"type":"LineString","coordinates":[[139.689025,36.920542],[139.689276,36.920379],[139.68946,36.920272],[139.689562,36.92022],[139.689689,36.920161],[139.68979,36.920128],[139.689906,36.920096],[139.690019,36.920079],[139.690133,36.920067],[139.690264,36.920058],[139.690711,36.920057],[139.690817,36.92005],[139.690955,36.920034],[139.69109,36.920002],[139.69125,36.919945],[139.691432,36.919867],[139.691634,36.919763],[139.691997,36.919561]]}},{"type":"Feature","properties":{"id":427332503,"highway":"unclassified"},"geometry":{"type":"LineString","coordinates":[[139.670116,36.933957],[139.670021,36.933762],[139.669895,36.933559],[139.669597,36.933293],[139.669388,36.933132],[139.669243,36.933038],[139.669084,36.932994],[139.668878,36.932997],[139.668709,36.933046],[139.668543,36.933166],[139.668459,36.933324],[139.668446,36.934131],[139.668425,36.934395],[139.668361,36.93454],[139.668245,36.934723],[139.668152,36.934797]]}},{"type":"Feature","properties":{"id":427332504,"highway":"tertiary"},"geometry":{"type":"LineString","coordinates":[[139.612062,36.967847],[139.612117,36.967878],[139.612192,36.967891],[139.612282,36.967897],[139.612621,36.967889],[139.613029,36.967862],[139.61337,36.967862],[139.613536,36.967781],[139.61362,36.967626],[139.613967,36.966809],[139.614099,36.966723],[139.614268,36.966714],[139.614574,36.966762],[139.614736,36.966756],[139.615439,36.966476],[139.615805,36.966418]]}},{"type":"Feature","properties":{"id":427332505,"highway":"unclassified"},"geometry":{"type":"LineString","coordinates":[[139.609085,36.968092],[139.609092,36.967757]]}},{"type":"Feature","properties":{"id":427332506,"highway":"tertiary"},"geometry":{"type":"LineString","coordinates":[[139.612062,36.967847],[139.611822,36.967625],[139.611669,36.967696],[139.611549,36.967737],[139.611382,36.967764],[139.611205,36.967773],[139.610975,36.967777],[139.610774,36.967775],[139.6105,36.967752],[139.61034,36.967729]]}},{"type":"Feature","properties":{"id":427332507,"highway":"unclassified"},"geometry":{"type":"LineString","coordinates":[[139.62124,36.963313],[139.620698,36.963678],[139.620328,36.963862],[139.619866,36.964162],[139.619437,36.964357],[139.619099,36.96446],[139.618871,36.964531],[139.618812,36.964597],[139.618801,36.964678],[139.618809,36.964737],[139.618842,36.964781]]}},{"type":"Feature","properties":{"id":427332509,"highway":"unclassified"},"geometry":{"type":"LineString","coordinates":[[139.617796,36.965752],[139.618123,36.965512],[139.61838,36.965298],[139.618616,36.964972],[139.61878,36.964816],[139.618842,36.964781],[139.618978,36.964704],[139.619351,36.964539],[139.619636,36.964391],[139.619759,36.964348],[139.619882,36.964342],[139.620116,36.964318],[139.620287,36.964275],[139.620456,36.964196],[139.620537,36.964117],[139.620566,36.964046],[139.62062,36.963995],[139.6207,36.963976],[139.620786,36.963957],[139.620949,36.963987]]}},{"type":"Feature","properties":{"id":428857210,"highway":"trunk"},"geometry":{"type":"LineString","coordinates":[[139.691997,36.919561],[139.692315,36.919339],[139.692517,36.919189],[139.692784,36.918983],[139.69296,36.918851],[139.693108,36.918755],[139.693296,36.918658],[139.693993,36.918359]]}},{"type":"Feature","properties":{"id":428857213,"highway":"trunk"},"geometry":{"type":"LineString","coordinates":[[139.693993,36.918359],[139.694702,36.918046]]}},{"type":"Feature","properties":{"id":430132641,"highway":"secondary"},"geometry":{"type":"LineString","coordinates":[[139.635044,36.93504],[139.635174,36.934987],[139.635262,36.934951]]}},{"type":"Feature","properties":{"id":430132648,"highway":"secondary"},"geometry":{"type":"LineString","coordinates":[[139.658107,36.92974],[139.658459,36.929849],[139.658962,36.930022],[139.659403,36.930215],[139.65984,36.930453],[139.660268,36.930775],[139.660722,36.931194],[139.661031,36.931505],[139.66124,36.931796],[139.66144,36.932126],[139.66175,36.932752]]}},{"type":"Feature","properties":{"id":430132649,"highway":"residential"},"geometry":{"type":"LineString","coordinates":[[139.679037,36.931904],[139.679138,36.932281]]}},{"type":"Feature","properties":{"id":430132651,"highway":"residential"},"geometry":{"type":"LineString","coordinates":[[139.680198,36.932093],[139.680081,36.931684]]}},{"type":"Feature","properties":{"id":430132652,"highway":"secondary"},"geometry":{"type":"LineString","coordinates":[[139.667415,36.930668],[139.667674,36.930674],[139.667842,36.930698],[139.668066,36.930757],[139.66831,36.930836],[139.668487,36.930922],[139.668657,36.931016],[139.668816,36.931145],[139.668926,36.931261],[139.66904,36.931379]]}},{"type":"Feature","properties":{"id":430132653,"highway":"trunk"},"geometry":{"type":"LineString","coordinates":[[139.690145,36.929193],[139.690132,36.929099]]}},{"type":"Feature","properties":{"id":430132655,"highway":"residential"},"geometry":{"type":"LineString","coordinates":[[139.628281,36.941694],[139.628174,36.94154],[139.628152,36.94142],[139.628206,36.941274],[139.628206,36.94118],[139.628141,36.941103],[139.627959,36.940965],[139.627927,36.940888],[139.627938,36.940802],[139.628056,36.940597],[139.628077,36.940528],[139.628045,36.94046],[139.627892,36.940405]]}},{"type":"Feature","properties":{"id":430132662,"highway":"service"},"geometry":{"type":"LineString","coordinates":[[139.662278,36.93767],[139.662471,36.93699],[139.662569,36.936412],[139.662595,36.935407],[139.662649,36.93471],[139.662632,36.934556],[139.662587,36.934455],[139.662513,36.934376],[139.66275,36.934107]]}},{"type":"Feature","properties":{"id":430132663,"highway":"secondary"},"geometry":{"type":"LineString","coordinates":[[139.68803,36.929847],[139.688313,36.929756],[139.688467,36.929681],[139.688696,36.929534],[139.688869,36.929427],[139.68909,36.9293],[139.689273,36.929242],[139.689455,36.929202],[139.689563,36.929183],[139.689869,36.929142],[139.690132,36.929099]]}},{"type":"Feature","properties":{"id":430132664,"highway":"secondary"},"geometry":{"type":"LineString","coordinates":[[139.657804,36.929669],[139.657885,36.929688],[139.658107,36.92974]]}},{"type":"Feature","properties":{"id":430132665,"highway":"residential"},"geometry":{"type":"LineString","coordinates":[[139.635174,36.934987],[139.635051,36.934877],[139.634992,36.934791],[139.634977,36.934714],[139.634973,36.934646],[139.634929,36.934594],[139.634794,36.93453],[139.63462,36.934474]]}},{"type":"Feature","properties":{"id":430132669,"highway":"secondary"},"geometry":{"type":"LineString","coordinates":[[139.66943,36.931964],[139.669703,36.932421],[139.669902,36.93272],[139.670105,36.932983],[139.670463,36.933454],[139.671127,36.934275],[139.671306,36.934446],[139.671487,36.934559],[139.671719,36.934644],[139.671962,36.934689],[139.672139,36.934693]]}},{"type":"Feature","properties":{"id":430132670,"highway":"secondary"},"geometry":{"type":"LineString","coordinates":[[139.66904,36.931379],[139.66916,36.931545],[139.66943,36.931964]]}},{"type":"Feature","properties":{"id":430132672,"highway":"secondary"},"geometry":{"type":"LineString","coordinates":[[139.6622,36.933475],[139.662488,36.933811],[139.662614,36.93396],[139.66273,36.934086],[139.66275,36.934107],[139.663148,36.934361],[139.663352,36.934446],[139.663529,36.934508],[139.663768,36.934537],[139.664024,36.934527],[139.664311,36.934473],[139.664526,36.934401],[139.664772,36.934275],[139.664971,36.934148],[139.665185,36.933927],[139.665335,36.933705],[139.66542,36.933498],[139.665473,36.933268],[139.665486,36.932966],[139.665513,36.93238]]}},{"type":"Feature","properties":{"id":430135585,"highway":"secondary"},"geometry":{"type":"LineString","coordinates":[[139.624018,36.956464],[139.624025,36.956278]]}},{"type":"Feature","properties":{"id":430135591,"highway":"secondary"},"geometry":{"type":"LineString","coordinates":[[139.612601,36.967038],[139.612617,36.967005],[139.612985,36.96627],[139.613137,36.966064],[139.613344,36.965839],[139.61361,36.965668],[139.613677,36.965635],[139.613877,36.965536],[139.614269,36.965342],[139.614791,36.965084],[139.615225,36.96487],[139.615571,36.964699],[139.616595,36.964189],[139.616775,36.96411],[139.616938,36.964054],[139.617117,36.964009]]}},{"type":"Feature","properties":{"id":430135592,"highway":"secondary"},"geometry":{"type":"LineString","coordinates":[[139.624006,36.955751],[139.623975,36.955507],[139.623919,36.95529],[139.62381,36.954931],[139.623624,36.954461]]}},{"type":"Feature","properties":{"id":430135594,"highway":"secondary"},"geometry":{"type":"LineString","coordinates":[[139.612336,36.96758],[139.612601,36.967038]]}},{"type":"Feature","properties":{"id":430135596,"highway":"residential"},"geometry":{"type":"LineString","coordinates":[[139.608658,36.968096],[139.608652,36.968405],[139.609006,36.968409],[139.609012,36.968645],[139.609044,36.96871],[139.609108,36.968752],[139.609232,36.968801],[139.609961,36.968851],[139.610572,36.968872],[139.610793,36.968868],[139.611045,36.968787],[139.611571,36.968458],[139.611668,36.968364],[139.611683,36.968302],[139.611651,36.968216],[139.611606,36.968026]]}},{"type":"Feature","properties":{"id":430135599,"highway":"residential"},"geometry":{"type":"LineString","coordinates":[[139.615225,36.96487],[139.615431,36.965132]]}},{"type":"Feature","properties":{"id":430135600,"highway":"secondary"},"geometry":{"type":"LineString","coordinates":[[139.598003,36.966045],[139.598135,36.966124],[139.598265,36.96627],[139.598397,36.9664],[139.5987,36.966989],[139.599079,36.967567],[139.599334,36.967794],[139.599507,36.967896],[139.599923,36.968113],[139.6003,36.968336],[139.600496,36.968547],[139.600647,36.96874],[139.601569,36.97016],[139.601742,36.970394],[139.601862,36.970535],[139.602045,36.970712],[139.602391,36.970921],[139.602771,36.971067],[139.603114,36.971157],[139.603277,36.971174],[139.603471,36.971173],[139.603686,36.97114],[139.603923,36.971032],[139.60416,36.97085],[139.60444,36.970447],[139.604537,36.970292]]}},{"type":"Feature","properties":{"id":430135601,"highway":"unclassified"},"geometry":{"type":"LineString","coordinates":[[139.62505,36.948441],[139.624804,36.948442],[139.624622,36.948434],[139.624439,36.948408]]}},{"type":"Feature","properties":{"id":430135603,"highway":"secondary"},"geometry":{"type":"LineString","coordinates":[[139.623357,36.960639],[139.623431,36.960398],[139.623539,36.960047],[139.623646,36.959627]]}},{"type":"Feature","properties":{"id":430135604,"highway":"secondary"},"geometry":{"type":"LineString","coordinates":[[139.623624,36.954461],[139.623458,36.954022],[139.623267,36.953533]]}},{"type":"Feature","properties":{"id":430135606,"highway":"residential"},"geometry":{"type":"LineString","coordinates":[[139.615005,36.965356],[139.614791,36.965084]]}},{"type":"Feature","properties":{"id":430135610,"highway":"secondary"},"geometry":{"type":"LineString","coordinates":[[139.624025,36.956278],[139.624027,36.955984],[139.624006,36.955751]]}},{"type":"Feature","properties":{"id":430135611,"highway":"secondary"},"geometry":{"type":"LineString","coordinates":[[139.623267,36.953533],[139.623165,36.953139],[139.623113,36.952885],[139.623081,36.95259],[139.62308,36.952227],[139.623157,36.951635],[139.623274,36.951147],[139.623471,36.950711],[139.623681,36.95034]]}},{"type":"Feature","properties":{"id":430135612,"highway":"residential"},"geometry":{"type":"LineString","coordinates":[[139.613677,36.965635],[139.61345,36.965373],[139.613143,36.965471],[139.612977,36.965591],[139.612874,36.965696],[139.612762,36.965853],[139.612632,36.965984],[139.612547,36.966125],[139.61245,36.966292],[139.612365,36.966423],[139.6123,36.966665],[139.612246,36.966845],[139.612225,36.966896],[139.612617,36.967005],[139.612858,36.967089],[139.612981,36.967094],[139.61309,36.967053],[139.613165,36.966988],[139.613213,36.966851],[139.613326,36.966496],[139.613406,36.966328],[139.61348,36.966224],[139.613568,36.966136],[139.613649,36.966034],[139.613864,36.965899],[139.614087,36.965789],[139.614479,36.965595],[139.615005,36.965356],[139.615431,36.965132],[139.615776,36.964951],[139.615571,36.964699]]}},{"type":"Feature","properties":{"id":430135613,"highway":"residential"},"geometry":{"type":"LineString","coordinates":[[139.614269,36.965342],[139.614479,36.965595]]}},{"type":"Feature","properties":{"id":430135614,"highway":"residential"},"geometry":{"type":"LineString","coordinates":[[139.625065,36.959136],[139.624993,36.959008],[139.624196,36.959106],[139.624036,36.959164],[139.623869,36.959483],[139.623703,36.959419]]}},{"type":"Feature","properties":{"id":430135615,"highway":"residential"},"geometry":{"type":"LineString","coordinates":[[139.609961,36.968851],[139.610129,36.968353],[139.610133,36.968073]]}},{"type":"Feature","properties":{"id":430135618,"highway":"service"},"geometry":{"type":"LineString","coordinates":[[139.610336,36.967619],[139.61034,36.967729]]}},{"type":"Feature","properties":{"id":431337765,"highway":"trunk"},"geometry":{"type":"LineString","coordinates":[[139.728512,37.013342],[139.728314,37.013101],[139.727197,37.011742],[139.72716,37.0117],[139.726934,37.011424],[139.726586,37.010998],[139.726465,37.010851],[139.726046,37.010366],[139.725806,37.010059],[139.725762,37.009997],[139.725331,37.009383],[139.72507,37.008959],[139.724942,37.008732],[139.724859,37.008566],[139.724803,37.00845],[139.724769,37.008346],[139.724739,37.008235],[139.724703,37.008041],[139.724601,37.007276],[139.72456,37.00701],[139.72451,37.006782],[139.72445,37.006608],[139.724379,37.006445],[139.7243,37.006306],[139.724165,37.006089],[139.724071,37.005889],[139.724004,37.005696],[139.723875,37.005143],[139.72381,37.0049],[139.723725,37.004651],[139.723673,37.004529],[139.723593,37.004376],[139.723431,37.004179],[139.723193,37.003897],[139.722952,37.003618],[139.722657,37.00329],[139.722227,37.002876],[139.721824,37.00249],[139.721341,37.002045],[139.721198,37.001907],[139.721045,37.001715],[139.720958,37.001559],[139.720827,37.001325],[139.720751,37.001205],[139.720673,37.001109],[139.720557,37.000996],[139.72034,37.000807],[139.720151,37.000609],[139.720071,37.000513],[139.720003,37.000417],[139.719543,36.999678],[139.719409,36.999524],[139.719242,36.999366],[139.71904,36.999176],[139.718877,36.999065],[139.718705,36.998975],[139.718367,36.998829],[139.715283,36.997551],[139.715004,36.997433],[139.714873,36.997366],[139.714767,36.997301],[139.714616,36.997178],[139.714265,36.996912],[139.714187,36.996844],[139.714085,36.996741],[139.713984,36.996637],[139.713837,36.996466],[139.713693,36.996255],[139.713573,36.99611],[139.713422,36.995965],[139.713222,36.995812],[139.712338,36.99515],[139.712191,36.995032],[139.712061,36.994911],[139.711928,36.994771],[139.710929,36.993547],[139.71069,36.993277],[139.710595,36.993157],[139.710503,36.993024],[139.710448,36.992904],[139.710412,36.992799],[139.710395,36.992699],[139.710385,36.992587],[139.710347,36.992422],[139.710241,36.992037],[139.710178,36.991861],[139.710116,36.991708],[139.70983,36.991091],[139.709735,36.990858],[139.709639,36.990561],[139.709573,36.990442],[139.709445,36.990271],[139.708876,36.98959],[139.708776,36.989477],[139.708671,36.98938],[139.708533,36.989306],[139.707019,36.988834],[139.706766,36.988747],[139.705934,36.988395],[139.705841,36.98836],[139.705692,36.988317],[139.705046,36.98816],[139.704059,36.988011],[139.70378,36.987952],[139.703422,36.987853],[139.700738,36.987019],[139.700531,36.986968],[139.700363,36.986935],[139.699852,36.986886],[139.699625,36.98686],[139.699532,36.986844],[139.699435,36.986822],[139.699366,36.9868],[139.699293,36.986771],[139.699101,36.986681]]}},{"type":"Feature","properties":{"id":505956585,"highway":"residential"},"geometry":{"type":"LineString","coordinates":[[139.640118,36.99232],[139.640202,36.992331]]}},{"type":"Feature","properties":{"id":505956587,"highway":"unclassified"},"geometry":{"type":"LineString","coordinates":[[139.639927,36.992287],[139.640118,36.99232]]}},{"type":"Feature","properties":{"id":506676187,"highway":"service"},"geometry":{"type":"LineString","coordinates":[[139.662513,36.934376],[139.662321,36.934274]]}},{"type":"Feature","properties":{"id":627936975,"highway":"service"},"geometry":{"type":"LineString","coordinates":[[139.611601,36.967616],[139.610576,36.967625],[139.61048,36.967623],[139.610336,36.967619],[139.610226,36.967616],[139.610223,36.967502],[139.610469,36.967497],[139.61048,36.967623]]}},{"type":"Feature","properties":{"id":648982471,"highway":"trunk"},"geometry":{"type":"LineString","coordinates":[[139.697228,36.939865],[139.696967,36.939567],[139.696598,36.939059],[139.696306,36.938511],[139.696175,36.938284],[139.696132,36.938191],[139.696085,36.938071],[139.69602,36.937964],[139.695965,36.937903],[139.695852,36.937792],[139.695764,36.937701],[139.695714,36.937644],[139.695679,36.937585],[139.695638,36.937488],[139.695558,36.937246],[139.695477,36.937079],[139.695399,36.936929],[139.695315,36.936808],[139.695188,36.936655],[139.695062,36.936546],[139.69495,36.936456],[139.694837,36.936377],[139.694614,36.936259]]}},{"type":"Feature","properties":{"id":683523472,"highway":"unclassified"},"geometry":{"type":"LineString","coordinates":[[139.698554,36.985756],[139.698837,36.985811],[139.698953,36.985807],[139.699123,36.985764],[139.69924,36.985767],[139.699438,36.985814],[139.699754,36.985812],[139.699908,36.98585],[139.700205,36.98596],[139.700551,36.986041],[139.700754,36.986098],[139.70142,36.986295],[139.701978,36.986505],[139.702128,36.986544],[139.70274,36.986636],[139.703283,36.986664],[139.704247,36.986917]]}},{"type":"Feature","properties":{"id":870664457,"highway":"trunk"},"geometry":{"type":"LineString","coordinates":[[139.697752,36.940287],[139.697688,36.940215],[139.69758,36.940133],[139.697468,36.94005],[139.697228,36.939865]]}},{"type":"Feature","properties":{"id":870664458,"highway":"trunk"},"geometry":{"type":"LineString","coordinates":[[139.700079,36.943694],[139.700015,36.943539],[139.699908,36.943396],[139.699782,36.943264],[139.699655,36.94315],[139.698512,36.942538],[139.698403,36.942482],[139.698314,36.942395],[139.698244,36.942285],[139.698186,36.942072],[139.698136,36.941786],[139.698116,36.94155],[139.698116,36.941339]]}},{"type":"Feature","properties":{"id":870664459,"highway":"trunk"},"geometry":{"type":"LineString","coordinates":[[139.697646,36.940407],[139.697979,36.940839]]}},{"type":"Feature","properties":{"id":870664460,"highway":"trunk"},"geometry":{"type":"LineString","coordinates":[[139.695213,36.951631],[139.695212,36.95154]]}},{"type":"Feature","properties":{"id":870664461,"highway":"trunk"},"geometry":{"type":"LineString","coordinates":[[139.694988,36.952552],[139.695072,36.952434],[139.695144,36.952304],[139.695184,36.952204],[139.695205,36.952098],[139.695213,36.951631]]}},{"type":"Feature","properties":{"id":870664462,"highway":"trunk"},"geometry":{"type":"LineString","coordinates":[[139.695192,36.954367],[139.695226,36.954189],[139.695199,36.954014],[139.695133,36.953877],[139.695035,36.953684],[139.694937,36.953474],[139.69486,36.953235],[139.694832,36.953018],[139.69486,36.952832],[139.694907,36.952706],[139.694988,36.952552]]}},{"type":"Feature","properties":{"id":870664463,"highway":"trunk"},"geometry":{"type":"LineString","coordinates":[[139.695212,36.95154],[139.695196,36.951448],[139.69514,36.951317],[139.69507,36.951205],[139.695001,36.951115],[139.694949,36.951001],[139.694925,36.950883],[139.694898,36.950448],[139.694881,36.950186],[139.694884,36.950007],[139.694912,36.94993],[139.69496,36.949857],[139.695019,36.949795],[139.695147,36.9497],[139.695242,36.949671],[139.695316,36.949662],[139.695406,36.949656],[139.69672,36.949973],[139.696859,36.950004],[139.696991,36.95001],[139.69712,36.950004],[139.697278,36.949971],[139.697515,36.949901],[139.697916,36.949784]]}},{"type":"Feature","properties":{"id":870664468,"highway":"unclassified"},"geometry":{"type":"LineString","coordinates":[[139.69862,36.985555],[139.69852,36.98552],[139.698479,36.985505],[139.697716,36.985202],[139.697575,36.98515],[139.697215,36.985036],[139.697035,36.98497],[139.69676,36.984842],[139.696539,36.984769],[139.69629,36.984683],[139.696085,36.984651],[139.695983,36.984644],[139.695928,36.984646],[139.695857,36.984717],[139.695843,36.984742],[139.695842,36.984764],[139.695848,36.984783],[139.696001,36.984897],[139.696052,36.984943],[139.696112,36.985019],[139.696126,36.985053],[139.696089,36.985276],[139.696045,36.985445]]}},{"type":"Feature","properties":{"id":870664469,"highway":"trunk"},"geometry":{"type":"LineString","coordinates":[[139.698671,36.986455],[139.698512,36.986373],[139.698368,36.986316],[139.698298,36.986291],[139.69712,36.985849],[139.696045,36.985445],[139.69591,36.985394],[139.695734,36.985333],[139.695529,36.985239],[139.695225,36.985083],[139.695086,36.984996],[139.694898,36.98485],[139.694257,36.984325],[139.694125,36.984221],[139.694026,36.984151],[139.693911,36.984088],[139.693779,36.984034],[139.693655,36.983978],[139.693448,36.983867],[139.692735,36.983446],[139.691777,36.982924],[139.691665,36.98285],[139.691562,36.982767],[139.691495,36.982699],[139.691446,36.982622],[139.691395,36.982523],[139.691372,36.982449],[139.691359,36.982379],[139.691359,36.982227],[139.691369,36.982147],[139.691574,36.98165],[139.691607,36.981563],[139.691638,36.981468],[139.691656,36.981367],[139.691659,36.981245],[139.691607,36.980796],[139.691603,36.980709],[139.691614,36.980614],[139.691625,36.980515],[139.691733,36.980024],[139.691768,36.97991],[139.691876,36.979582],[139.691887,36.979518],[139.691887,36.979453],[139.691731,36.978566],[139.691717,36.978465],[139.691692,36.978251],[139.691675,36.978151],[139.691644,36.97807],[139.691601,36.97798],[139.691372,36.977619],[139.691122,36.97728],[139.690903,36.976982],[139.690858,36.976922],[139.690804,36.976837],[139.690609,36.976466],[139.690562,36.976366],[139.690514,36.976221],[139.690491,36.976118],[139.690477,36.975992],[139.69047,36.975814],[139.690455,36.975717],[139.690435,36.975627],[139.690401,36.975527],[139.69037,36.97546],[139.690295,36.975327],[139.690241,36.97526],[139.690065,36.975051],[139.689855,36.97486],[139.689762,36.974764],[139.689654,36.974652],[139.689251,36.974165],[139.68864,36.973413],[139.688556,36.973298],[139.688392,36.973],[139.688324,36.972852],[139.688284,36.972737],[139.688255,36.972578],[139.688251,36.972462],[139.688272,36.972338],[139.688335,36.972216],[139.68861,36.971852],[139.688675,36.971795],[139.688808,36.971703],[139.689784,36.971212],[139.690133,36.971027],[139.690264,36.970942],[139.690387,36.970835],[139.690524,36.97068],[139.69059,36.970597],[139.690628,36.970518],[139.690633,36.970426],[139.690617,36.970354],[139.690562,36.970183],[139.690521,36.970121],[139.690452,36.970055],[139.690199,36.96988],[139.689886,36.969689],[139.68968,36.969538],[139.689415,36.969321],[139.689207,36.969161],[139.689013,36.96906],[139.688853,36.968996],[139.688538,36.968882],[139.688063,36.968736],[139.687726,36.96859],[139.687541,36.968477],[139.687335,36.968322],[139.68716,36.968183],[139.687051,36.968056],[139.686966,36.967929],[139.686825,36.967681],[139.686736,36.967528],[139.68657,36.967148],[139.686553,36.967045],[139.68654,36.966917],[139.686559,36.966649],[139.686588,36.966515],[139.686644,36.966385],[139.686911,36.965936],[139.687022,36.965718],[139.687101,36.965556],[139.687166,36.965341],[139.687311,36.964781],[139.687378,36.964571],[139.687441,36.964431],[139.687523,36.964287],[139.688001,36.963571],[139.688121,36.963421],[139.688222,36.96335],[139.688316,36.963308],[139.688424,36.96328],[139.688585,36.963271],[139.688831,36.963285],[139.689012,36.963318],[139.689142,36.963372],[139.689237,36.963435],[139.689735,36.963903],[139.689966,36.964179],[139.690128,36.964321],[139.690325,36.964436],[139.690553,36.964508],[139.691128,36.964608],[139.691525,36.964674],[139.691819,36.964716],[139.691995,36.964722],[139.69216,36.964712],[139.692375,36.964693],[139.69257,36.964665],[139.69362,36.964349],[139.694561,36.964019],[139.695213,36.963876],[139.695962,36.963677],[139.696086,36.96364],[139.696186,36.963591],[139.696264,36.96352],[139.696334,36.963446],[139.696368,36.963369],[139.696409,36.963279],[139.69646,36.963193],[139.696527,36.963111],[139.696624,36.963029],[139.697025,36.962694],[139.697402,36.962419],[139.697508,36.962324],[139.697576,36.962243],[139.69762,36.962175],[139.697649,36.962064],[139.697714,36.961834],[139.697801,36.961414],[139.697818,36.961345],[139.69783,36.961276],[139.697853,36.960754],[139.69785,36.960517],[139.697834,36.960387],[139.69781,36.960272],[139.69763,36.95971],[139.697475,36.959242],[139.697415,36.959112],[139.697187,36.958739],[139.697094,36.958628],[139.696992,36.958528],[139.696734,36.958327],[139.69665,36.958284],[139.696553,36.958266],[139.696428,36.958251],[139.696018,36.958234],[139.695771,36.95821],[139.695578,36.958182],[139.694912,36.958064],[139.69418,36.957936],[139.693985,36.957893],[139.693813,36.957827],[139.693701,36.957784],[139.693549,36.957685],[139.693379,36.957564],[139.693283,36.957458],[139.69327,36.957423],[139.693212,36.957266],[139.693182,36.95706],[139.693184,36.956905],[139.693224,36.956757],[139.69339,36.95641],[139.693461,36.956285],[139.693734,36.955978],[139.69379,36.955914],[139.693826,36.955829],[139.693847,36.955723],[139.69387,36.955655],[139.693906,36.955584],[139.693966,36.955503],[139.694132,36.955352],[139.694264,36.955268],[139.694433,36.955202],[139.69455,36.955158],[139.694656,36.955096],[139.694757,36.955014],[139.694856,36.954885],[139.695053,36.954617],[139.695117,36.954531],[139.695192,36.954367]]}},{"type":"Feature","properties":{"id":870664470,"highway":"trunk"},"geometry":{"type":"LineString","coordinates":[[139.699101,36.986681],[139.698671,36.986455]]}},{"type":"Feature","properties":{"id":870680319,"highway":"trunk"},"geometry":{"type":"LineString","coordinates":[[139.688597,36.920868],[139.689025,36.920542]]}},{"type":"Feature","properties":{"id":870680320,"highway":"trunk"},"geometry":{"type":"LineString","coordinates":[[139.688255,36.921147],[139.688597,36.920868]]}},{"type":"Feature","properties":{"id":870680321,"highway":"trunk"},"geometry":{"type":"LineString","coordinates":[[139.688061,36.921309],[139.688255,36.921147]]}},{"type":"Feature","properties":{"id":870680322,"highway":"trunk"},"geometry":{"type":"LineString","coordinates":[[139.687776,36.921557],[139.688061,36.921309]]}},{"type":"Feature","properties":{"id":870680323,"highway":"trunk"},"geometry":{"type":"LineString","coordinates":[[139.687446,36.92194],[139.687521,36.921824],[139.687619,36.921718],[139.687776,36.921557]]}},{"type":"Feature","properties":{"id":870680324,"highway":"trunk"},"geometry":{"type":"LineString","coordinates":[[139.687288,36.922445],[139.687307,36.922337],[139.687333,36.922226],[139.68737,36.922101],[139.687401,36.922025],[139.687446,36.92194]]}},{"type":"Feature","properties":{"id":870680325,"highway":"trunk"},"geometry":{"type":"LineString","coordinates":[[139.687283,36.92276],[139.68728,36.922641],[139.68728,36.922539],[139.687288,36.922445]]}},{"type":"Feature","properties":{"id":870680326,"highway":"trunk"},"geometry":{"type":"LineString","coordinates":[[139.68759,36.92372],[139.6875,36.923532],[139.687427,36.92334],[139.687344,36.923091],[139.687313,36.922982],[139.687295,36.922875],[139.687283,36.92276]]}},{"type":"Feature","properties":{"id":870680327,"highway":"trunk"},"geometry":{"type":"LineString","coordinates":[[139.687755,36.924025],[139.68759,36.92372]]}},{"type":"Feature","properties":{"id":870680328,"highway":"trunk"},"geometry":{"type":"LineString","coordinates":[[139.688118,36.924611],[139.688026,36.92447],[139.687899,36.924279],[139.687755,36.924025]]}},{"type":"Feature","properties":{"id":870680329,"highway":"trunk"},"geometry":{"type":"LineString","coordinates":[[139.690577,36.931684],[139.690545,36.931496]]}},{"type":"Feature","properties":{"id":870680330,"highway":"trunk"},"geometry":{"type":"LineString","coordinates":[[139.697916,36.949784],[139.698679,36.949579],[139.698855,36.949514],[139.698999,36.949453],[139.699186,36.949358],[139.699365,36.94926],[139.699581,36.94912],[139.699757,36.94898],[139.700039,36.948698],[139.700116,36.948607]]}},{"type":"Feature","properties":{"id":979493514,"highway":"service"},"geometry":{"type":"LineString","coordinates":[[139.698666,36.985458],[139.698685,36.985489],[139.698882,36.985551],[139.698933,36.985529],[139.698968,36.985453],[139.698935,36.985413],[139.698765,36.985364],[139.698699,36.985387],[139.698666,36.985458],[139.69862,36.985555],[139.698588,36.985669]]}},{"type":"Feature","properties":{"id":979493515,"highway":"unclassified"},"geometry":{"type":"LineString","coordinates":[[139.69852,36.98552],[139.6987,36.985211]]}},{"type":"Feature","properties":{"id":1153416268,"highway":"primary"},"geometry":{"type":"LineString","coordinates":[[139.692463,36.901245],[139.692469,36.901092],[139.692486,36.900883],[139.692511,36.900773]]}},{"type":"Feature","properties":{"id":1153416269,"highway":"primary"},"geometry":{"type":"LineString","coordinates":[[139.692982,36.902341],[139.692917,36.902127]]}},{"type":"Feature","properties":{"id":1153416270,"highway":"primary"},"geometry":{"type":"LineString","coordinates":[[139.692917,36.902127],[139.692879,36.902002],[139.692788,36.90185],[139.692658,36.901745],[139.692579,36.901622],[139.69255,36.901535]]}},{"type":"Feature","properties":{"id":1153416271,"highway":"primary"},"geometry":{"type":"LineString","coordinates":[[139.69255,36.901535],[139.69249,36.901355],[139.692463,36.901245]]}},{"type":"Feature","properties":{"id":1415343176,"highway":"secondary"},"geometry":{"type":"LineString","coordinates":[[139.666008,36.931176],[139.666064,36.931123]]}},{"type":"Feature","properties":{"id":1415348390,"highway":"unclassified"},"geometry":{"type":"LineString","coordinates":[[139.605325,36.991541],[139.605247,36.991388],[139.605161,36.991278],[139.605016,36.991186],[139.604834,36.991136],[139.60439,36.991053],[139.603817,36.990983],[139.603639,36.990942],[139.603494,36.990874],[139.603149,36.990682],[139.60281,36.990535],[139.602355,36.990418],[139.601836,36.990353],[139.601692,36.990313],[139.601512,36.99024],[139.601268,36.990108],[139.601016,36.989869],[139.60084,36.989618],[139.600711,36.989383],[139.600621,36.989122],[139.600583,36.989045],[139.600451,36.988944],[139.600279,36.988875],[139.600151,36.988768],[139.599976,36.988562],[139.599748,36.988287],[139.599581,36.988133],[139.599444,36.988054],[139.599174,36.987916],[139.599089,36.987892],[139.598925,36.987795],[139.598795,36.987688],[139.598756,36.987619],[139.598709,36.9875],[139.598721,36.987254],[139.598784,36.986653],[139.598776,36.986254],[139.598726,36.98603],[139.598665,36.985722]]}},{"type":"Feature","properties":{"id":1427593752,"highway":"trunk"},"geometry":{"type":"LineString","coordinates":[[139.698116,36.941339],[139.698145,36.941118],[139.698133,36.940958],[139.698118,36.940867],[139.698077,36.940777]]}},{"type":"Feature","properties":{"id":1427593753,"highway":"trunk"},"geometry":{"type":"LineString","coordinates":[[139.698077,36.940777],[139.697752,36.940287]]}},{"type":"Feature","properties":{"id":1427593754,"highway":"trunk"},"geometry":{"type":"LineString","coordinates":[[139.697228,36.939865],[139.697415,36.940101],[139.697569,36.940306],[139.697646,36.940407]]}},{"type":"Feature","properties":{"id":1427593755,"highway":"trunk"},"geometry":{"type":"LineString","coordinates":[[139.697979,36.940839],[139.698043,36.940963],[139.698072,36.941065],[139.698091,36.941174],[139.698116,36.941339]]}},{"type":"Feature","properties":{"id":1430497208,"highway":"residential"},"geometry":{"type":"LineString","coordinates":[[139.614087,36.965789],[139.613877,36.965536]]}}]}