{"type":"FeatureCollection","features":[{"type":"Feature","properties":{"id":107523157,"highway":"unclassified"},"geometry":{"type":"LineString","coordinates":[[139.608896,37.014239],[139.608907,37.014136],[139.608936,37.014078],[139.608998,37.014019],[139.609038,37.013998],[139.609188,37.013946],[139.60943,37.013923],[139.60951,37.013903],[139.609656,37.013839],[139.609741,37.013792],[139.609809,37.013685],[139.609996,37.013508],[139.610027,37.013451],[139.610028,37.013391],[139.610013,37.013331],[139.609879,37.013141],[139.60987,37.013049],[139.609899,37.012977],[139.609989,37.012888],[139.610074,37.012772],[139.610104,37.012617],[139.610129,37.012544],[139.610245,37.01243],[139.610281,37.01237],[139.610296,37.012315],[139.610284,37.012242],[139.610201,37.011972],[139.6102,37.011914],[139.610201,37.011853],[139.610251,37.011692],[139.610248,37.011609],[139.610244,37.011539],[139.610214,37.011505],[139.610123,37.011466],[139.609774,37.011397],[139.609643,37.011344],[139.609593,37.011303],[139.609583,37.011251],[139.609571,37.011053],[139.609548,37.010983],[139.609534,37.010925],[139.609552,37.010866],[139.609622,37.010707],[139.609695,37.010613],[139.609819,37.010509],[139.609895,37.010413],[139.610157,37.010142],[139.610305,37.009935],[139.610436,37.009749],[139.610495,37.009611],[139.610625,37.009089],[139.610637,37.008752],[139.610649,37.008646],[139.610869,37.00826],[139.610901,37.008157],[139.610908,37.008024],[139.610872,37.007874],[139.61085,37.007511],[139.610874,37.007403],[139.610928,37.007301],[139.611028,37.007196],[139.611232,37.007055],[139.611321,37.007029],[139.611433,37.007007],[139.611562,37.006967],[139.611751,37.006876],[139.612007,37.006613],[139.612237,37.006418],[139.612325,37.006365],[139.612458,37.006326],[139.612526,37.006327],[139.61258,37.006356],[139.612646,37.006416],[139.612673,37.006466],[139.612674,37.006525],[139.61265,37.006581],[139.612565,37.006766],[139.61251,37.006939],[139.612508,37.007078],[139.612514,37.007195],[139.612524,37.007258],[139.612563,37.007313],[139.612595,37.007339],[139.612651,37.007357],[139.612711,37.007355],[139.612752,37.007345],[139.612796,37.007317],[139.612821,37.007282],[139.612846,37.007216],[139.612856,37.007064],[139.612915,37.006822],[139.613056,37.006374],[139.613099,37.005837],[139.613141,37.005497],[139.613164,37.005429],[139.613196,37.005387],[139.613248,37.005341],[139.613628,37.005139],[139.613806,37.005029],[139.613847,37.004977],[139.613854,37.004931],[139.61383,37.004878],[139.61376,37.004854],[139.613599,37.004864],[139.613337,37.004931],[139.61324,37.004934],[139.61315,37.004925],[139.612937,37.00488],[139.61264,37.004833],[139.612537,37.004832],[139.612465,37.004846],[139.612418,37.00487],[139.612383,37.004908],[139.612349,37.004959],[139.612349,37.005024],[139.612376,37.005208],[139.612376,37.005269],[139.612361,37.005321],[139.61226,37.005434],[139.612123,37.005538],[139.611919,37.005628],[139.611848,37.005678],[139.611794,37.005807],[139.611712,37.005943],[139.611645,37.005985],[139.611464,37.006045],[139.611232,37.006089],[139.611114,37.006093],[139.610973,37.006089],[139.610853,37.00606],[139.610766,37.006005],[139.610676,37.005927],[139.610571,37.005876],[139.610501,37.005863],[139.610386,37.00587],[139.610312,37.005886],[139.610096,37.005976],[139.609809,37.006144],[139.609708,37.006185],[139.609605,37.006195],[139.609379,37.006197],[139.609302,37.006225],[139.609247,37.006269],[139.6092,37.006323],[139.609156,37.00656],[139.609146,37.007117],[139.609073,37.007309],[139.609064,37.007399],[139.609072,37.007484],[139.609121,37.007554],[139.609217,37.007695],[139.609239,37.00777],[139.609238,37.007825],[139.609194,37.007873],[139.609091,37.007925],[139.608998,37.007998],[139.608935,37.008121],[139.6089,37.008262],[139.608861,37.008326],[139.608825,37.008365],[139.608786,37.008381],[139.608734,37.008381],[139.608687,37.008371],[139.608649,37.008328],[139.608636,37.00827],[139.608625,37.008142],[139.608609,37.008104],[139.608586,37.00808],[139.608531,37.008054],[139.608476,37.008043],[139.608416,37.008047],[139.608313,37.008071],[139.6082,37.008076],[139.60815,37.00806],[139.608109,37.008022],[139.608061,37.007957],[139.60804,37.007902],[139.608048,37.007854],[139.608145,37.007734],[139.608153,37.007682],[139.608157,37.007629],[139.608146,37.00759],[139.608026,37.007514],[139.608004,37.007489],[139.607969,37.007446],[139.607876,37.007177],[139.607665,37.006717],[139.607654,37.006684],[139.607586,37.006649],[139.607417,37.006576],[139.607367,37.006554],[139.607326,37.006514],[139.607293,37.006439],[139.607264,37.00626],[139.607188,37.006118],[139.607173,37.006045],[139.607186,37.005895],[139.607285,37.005684],[139.607311,37.005606],[139.607312,37.005554],[139.607296,37.005482],[139.607202,37.005309],[139.607174,37.005203],[139.607155,37.005122],[139.607158,37.004923],[139.607181,37.004761],[139.607158,37.004696],[139.607121,37.004652],[139.607066,37.00463],[139.607012,37.004635],[139.606937,37.00467],[139.606888,37.004725],[139.606777,37.005048],[139.606703,37.005164],[139.60665,37.005214],[139.606616,37.005235],[139.606547,37.005248],[139.60649,37.005249],[139.606415,37.00522],[139.606341,37.005173],[139.606148,37.004962],[139.605968,37.004804],[139.605885,37.004749],[139.605813,37.004725],[139.605746,37.004704],[139.605664,37.0047],[139.60558,37.004718],[139.605522,37.004749],[139.605471,37.004809],[139.60544,37.004854],[139.605413,37.004977],[139.605449,37.00519],[139.60547,37.005252],[139.605463,37.00581],[139.605429,37.005997],[139.605429,37.006141],[139.60546,37.006235],[139.605583,37.006413],[139.605687,37.006546],[139.605921,37.006786],[139.60598,37.006884],[139.605983,37.006963],[139.605964,37.007031],[139.605777,37.007217],[139.605732,37.007316],[139.605708,37.007413],[139.605706,37.007483],[139.605754,37.007625],[139.605773,37.007698],[139.605763,37.007777],[139.605718,37.007839],[139.605673,37.007856],[139.605601,37.007849],[139.605523,37.007827],[139.605377,37.007751],[139.605266,37.007659],[139.605231,37.007617],[139.605215,37.007553],[139.605212,37.007391],[139.605252,37.007297],[139.60538,37.007126],[139.605396,37.007083],[139.605392,37.007003],[139.605378,37.006953],[139.605325,37.006864],[139.605242,37.006782],[139.604969,37.006602],[139.60484,37.006482],[139.604644,37.006139],[139.604633,37.006075],[139.604619,37.005629],[139.604609,37.005445],[139.60457,37.005364],[139.604499,37.005267],[139.604426,37.005226],[139.604347,37.00518],[139.604264,37.005167],[139.604138,37.005165],[139.60403,37.005183],[139.603915,37.005209],[139.60369,37.005278],[139.60328,37.005368],[139.603156,37.005372],[139.603092,37.005346],[139.603062,37.005302],[139.603066,37.005228],[139.603113,37.005157],[139.603206,37.005088],[139.603345,37.005024],[139.60376,37.004942],[139.603883,37.004899],[139.604087,37.004812],[139.604309,37.004737],[139.604406,37.004687],[139.60451,37.004596],[139.604597,37.004468],[139.604657,37.004258],[139.604794,37.00406],[139.604912,37.003829],[139.60496,37.003784],[139.60559,37.0036],[139.605844,37.003492],[139.605948,37.003443],[139.606109,37.003321],[139.606149,37.003259],[139.606183,37.003182],[139.606203,37.00308],[139.606214,37.002793],[139.606227,37.002734],[139.606284,37.002653],[139.60651,37.002488],[139.606577,37.002405],[139.606754,37.001964],[139.606926,37.001757],[139.607237,37.001503],[139.607316,37.001424],[139.60736,37.001301],[139.607348,37.001199],[139.60728,37.001075],[139.607059,37.000796],[139.607069,37.000679],[139.607123,37.000435],[139.607099,37.000299],[139.607059,37.00022],[139.60698,37.000144],[139.606827,37.000054],[139.606757,37.000029],[139.606593,36.999921],[139.606536,36.999855],[139.606489,36.999747],[139.606485,36.999663],[139.606411,36.999493],[139.606131,36.999273],[139.606064,36.999179],[139.606015,36.998911],[139.605909,36.998599],[139.605688,36.998174],[139.605677,36.997838],[139.605616,36.997709],[139.605479,36.997517],[139.605244,36.997036],[139.605166,36.996902],[139.605071,36.99681],[139.60476,36.996636],[139.604706,36.996595],[139.604543,36.996432],[139.604462,36.996276],[139.604387,36.996176],[139.60426,36.99608],[139.604165,36.99598],[139.603968,36.995622],[139.603852,36.995315],[139.603733,36.995083],[139.603553,36.99467],[139.603489,36.994424],[139.60347,36.994096],[139.603497,36.993979],[139.603556,36.993897],[139.603886,36.99358],[139.604025,36.993361],[139.604091,36.993216],[139.604705,36.992418],[139.605144,36.992054],[139.605213,36.991982],[139.605286,36.991863],[139.605322,36.991741],[139.605325,36.991541]]}},{"type":"Feature","properties":{"id":107528055,"highway":"unclassified"},"geometry":{"type":"LineString","coordinates":[[139.608896,37.014239],[139.608914,37.01429],[139.608977,37.014352],[139.609068,37.014391],[139.609151,37.014398],[139.609291,37.014375],[139.609366,37.014379],[139.609427,37.014391],[139.609835,37.014495],[139.609929,37.014521],[139.609991,37.014546],[139.610028,37.01458],[139.610048,37.014619],[139.610059,37.014668],[139.610051,37.014713],[139.610017,37.014819],[139.61001,37.01487],[139.610017,37.014932],[139.610041,37.014958],[139.610185,37.01505],[139.610206,37.015084],[139.610206,37.015169],[139.610173,37.015228],[139.610084,37.015313],[139.610055,37.015351],[139.610038,37.015396],[139.610037,37.015441],[139.610057,37.015505],[139.610178,37.015788],[139.610184,37.015841],[139.610178,37.015901],[139.610136,37.015969],[139.610094,37.016008],[139.609876,37.016109],[139.609806,37.016171],[139.609792,37.016209],[139.6098,37.016252],[139.609831,37.016283],[139.609933,37.016363],[139.609982,37.016397],[139.61001,37.016442],[139.610014,37.016507],[139.610003,37.016549],[139.609876,37.016746],[139.609862,37.01678],[139.609858,37.016851],[139.609869,37.016912],[139.609906,37.016979],[139.609953,37.017024],[139.610003,37.017046],[139.61006,37.017053],[139.610129,37.017049],[139.610199,37.017033],[139.610501,37.016909],[139.610677,37.016876],[139.61114,37.016622],[139.611288,37.016498],[139.611365,37.016391],[139.611407,37.016295],[139.611408,37.016024],[139.611421,37.015884],[139.611463,37.015709],[139.611493,37.015659],[139.611539,37.015621],[139.611592,37.015604],[139.61167,37.015612],[139.611706,37.01564],[139.611722,37.015682],[139.611737,37.015783],[139.611814,37.015969],[139.611983,37.016222],[139.612032,37.016368],[139.61206,37.01665],[139.612103,37.016706],[139.612201,37.016751],[139.612306,37.016751],[139.612412,37.016729],[139.612685,37.016628],[139.612811,37.016554],[139.61305,37.016442],[139.613345,37.016368],[139.613467,37.01636],[139.613563,37.016369],[139.613631,37.016388],[139.613689,37.016414],[139.613715,37.016448],[139.613715,37.016473],[139.613691,37.016515],[139.613627,37.016562],[139.613532,37.016608],[139.613513,37.016616],[139.613325,37.016723],[139.613078,37.016909],[139.612846,37.017073],[139.612813,37.017108],[139.612788,37.017151],[139.612785,37.017213],[139.612797,37.017242],[139.612845,37.017273],[139.613025,37.017321],[139.613086,37.017338],[139.613117,37.017368],[139.613117,37.017399],[139.613098,37.017423],[139.61305,37.017439],[139.6121,37.017452],[139.612011,37.017473],[139.611456,37.017737],[139.61133,37.017839],[139.611288,37.017923],[139.611288,37.017991],[139.611323,37.018103],[139.611478,37.018384],[139.611493,37.018438],[139.611489,37.018489],[139.611483,37.018515],[139.611456,37.018539],[139.611406,37.018549],[139.61135,37.018547],[139.611281,37.018529],[139.611041,37.018439],[139.610789,37.018351],[139.61063,37.018296],[139.610558,37.018278],[139.61048,37.018278],[139.610431,37.018284],[139.610382,37.0183],[139.610305,37.018346],[139.610192,37.018475],[139.610024,37.018717],[139.609946,37.018864],[139.609917,37.01889],[139.609862,37.018926],[139.609761,37.018983],[139.609733,37.019006],[139.609701,37.01905],[139.609694,37.019091],[139.609704,37.019134],[139.609746,37.019178],[139.60982,37.01923],[139.61001,37.019314],[139.610088,37.019367],[139.610113,37.019406],[139.610115,37.019436],[139.6101,37.019457],[139.609918,37.019669],[139.609831,37.019803],[139.609799,37.019822],[139.609753,37.019824],[139.609694,37.019809],[139.609441,37.019686],[139.609372,37.019653],[139.609295,37.019627],[139.609216,37.019607],[139.609109,37.019605],[139.609028,37.019608],[139.608917,37.019629],[139.608865,37.019649],[139.608773,37.019714],[139.608549,37.019895],[139.608514,37.019951],[139.608507,37.020005],[139.60851,37.020074],[139.608577,37.020357],[139.608581,37.02042],[139.608577,37.020503],[139.608528,37.020599],[139.608469,37.020657],[139.60838,37.020717],[139.608049,37.020841],[139.607995,37.020865],[139.60795,37.020904],[139.607918,37.020943],[139.607913,37.020965],[139.607906,37.020993],[139.607908,37.021045],[139.607942,37.021091],[139.608029,37.02116],[139.60809,37.021183],[139.608176,37.021201],[139.608471,37.021212],[139.608823,37.021229],[139.6093,37.021296],[139.609413,37.021342],[139.609445,37.021374],[139.609459,37.021406],[139.609458,37.021445],[139.609448,37.021493],[139.60941,37.021535],[139.609349,37.021578],[139.609244,37.021623],[139.609111,37.021657],[139.608928,37.021685],[139.608858,37.021724],[139.608781,37.02182],[139.608738,37.021848],[139.608681,37.021861],[139.608436,37.021865],[139.608376,37.021874],[139.608332,37.021888],[139.608303,37.021905],[139.608239,37.021978],[139.608127,37.022192],[139.608071,37.022237],[139.608029,37.022248],[139.607966,37.02222],[139.607903,37.022175],[139.607841,37.022111],[139.607762,37.022034],[139.607657,37.021944],[139.607563,37.021883],[139.607523,37.021873],[139.607474,37.021876],[139.607411,37.021927],[139.60727,37.022096],[139.607193,37.022152],[139.606954,37.022237],[139.60687,37.022293],[139.606786,37.022395],[139.606624,37.022642],[139.606547,37.022721],[139.60647,37.022772],[139.606322,37.022845],[139.606266,37.022879],[139.606034,37.022992],[139.60595,37.023065],[139.60588,37.023145],[139.605753,37.023341],[139.605732,37.02342],[139.605725,37.023487],[139.605753,37.023546],[139.605803,37.023606],[139.605859,37.023651],[139.606104,37.023759],[139.606168,37.02377],[139.606399,37.023781],[139.60646,37.023797],[139.606519,37.023826],[139.606898,37.024017],[139.60701,37.024046],[139.607308,37.02404],[139.607518,37.024034],[139.60764,37.024034],[139.60769,37.024052],[139.607832,37.024136],[139.607895,37.024159],[139.608152,37.024157],[139.608211,37.02417],[139.608334,37.024271],[139.608394,37.024311],[139.608507,37.024365],[139.608584,37.024389],[139.608663,37.024411],[139.608703,37.024429],[139.608726,37.024452],[139.608745,37.024491],[139.608781,37.024642],[139.608806,37.024697],[139.608879,37.024772],[139.608905,37.024789],[139.608968,37.024827],[139.609047,37.024852],[139.609222,37.024855],[139.60927,37.024867],[139.609294,37.024891],[139.609293,37.024936],[139.609265,37.025015],[139.609261,37.025112],[139.609272,37.025172],[139.609335,37.025262],[139.609384,37.025364],[139.609418,37.025459],[139.609448,37.025561],[139.609469,37.025691],[139.609511,37.025752],[139.609579,37.025811],[139.609673,37.025847],[139.609758,37.025871],[139.609897,37.025894],[139.610136,37.025927],[139.610431,37.025995],[139.610634,37.026029],[139.610683,37.026046],[139.610731,37.026077],[139.610752,37.026107],[139.610762,37.026156],[139.610761,37.026165]]}}]}