{"type":"FeatureCollection","features":[{"type":"Feature","properties":{"id":155148397,"highway":"service"},"geometry":{"type":"LineString","coordinates":[[139.761271,32.464336],[139.761324,32.464371],[139.761355,32.464389],[139.761396,32.464423],[139.761433,32.464465],[139.761451,32.464505],[139.761471,32.464556],[139.761499,32.464831],[139.761511,32.465067],[139.76151,32.465184],[139.761513,32.46521]]}},{"type":"Feature","properties":{"id":155148398,"highway":"residential"},"geometry":{"type":"LineString","coordinates":[[139.763114,32.465516],[139.763099,32.465862],[139.763098,32.465893],[139.763115,32.46602],[139.763176,32.466206],[139.763226,32.466285],[139.763231,32.466429],[139.763273,32.466718],[139.76329,32.46687],[139.763286,32.467027],[139.763296,32.467288],[139.763318,32.46734]]}},{"type":"Feature","properties":{"id":155148399,"highway":"unclassified"},"geometry":{"type":"LineString","coordinates":[[139.760614,32.46723],[139.760645,32.466828],[139.760586,32.466604],[139.760554,32.46642],[139.760514,32.466176],[139.760467,32.466059]]}},{"type":"Feature","properties":{"id":155148400,"highway":"residential"},"geometry":{"type":"LineString","coordinates":[[139.76198,32.465202],[139.762046,32.465215],[139.762101,32.46523],[139.762207,32.465284],[139.762274,32.465348],[139.762305,32.465418],[139.76239,32.465471],[139.762491,32.465509],[139.762579,32.465544],[139.762674,32.46557],[139.762858,32.465564],[139.762989,32.465515],[139.763114,32.465516]]}},{"type":"Feature","properties":{"id":155148402,"highway":"service"},"geometry":{"type":"LineString","coordinates":[[139.760396,32.463921],[139.760558,32.463974],[139.760755,32.464065],[139.760897,32.464157],[139.761063,32.464173],[139.761119,32.464184],[139.761144,32.464205],[139.761199,32.464257],[139.76124,32.464308],[139.761271,32.464336]]}},{"type":"Feature","properties":{"id":155148404,"highway":"residential"},"geometry":{"type":"LineString","coordinates":[[139.760274,32.466218],[139.759751,32.466094],[139.75952,32.466105],[139.75936,32.466036],[139.759157,32.466015],[139.759031,32.465964],[139.758934,32.465792],[139.758817,32.465708],[139.758798,32.465465],[139.759006,32.46517],[139.759308,32.464965],[139.759412,32.464844],[139.759406,32.464627]]}},{"type":"Feature","properties":{"id":155148406,"highway":"service"},"geometry":{"type":"LineString","coordinates":[[139.763736,32.465491],[139.76378,32.465494],[139.763943,32.465443],[139.764034,32.465425],[139.764154,32.465433],[139.764288,32.465393],[139.764386,32.465347],[139.764456,32.465295],[139.764521,32.4652],[139.764567,32.46515],[139.764609,32.465115],[139.764781,32.465093],[139.764896,32.465093]]}},{"type":"Feature","properties":{"id":155148415,"highway":"residential"},"geometry":{"type":"LineString","coordinates":[[139.758547,32.465048],[139.758689,32.464918],[139.758743,32.464878],[139.758861,32.464845],[139.758995,32.4648],[139.759153,32.464725],[139.759223,32.464678],[139.759295,32.464645],[139.759406,32.464627],[139.759508,32.464608],[139.759655,32.464646],[139.759734,32.464687],[139.759737,32.464753],[139.759743,32.46482],[139.759754,32.464917],[139.759817,32.464948],[139.759958,32.464945],[139.760092,32.464928]]}},{"type":"Feature","properties":{"id":155148421,"highway":"unclassified"},"geometry":{"type":"LineString","coordinates":[[139.759119,32.468675],[139.758931,32.468594],[139.758939,32.468569],[139.759328,32.468188],[139.759419,32.468147],[139.759581,32.468162],[139.759919,32.468277],[139.760143,32.468431],[139.760203,32.46842],[139.760344,32.468076],[139.760509,32.467989],[139.76059,32.467737],[139.760594,32.467529],[139.76061,32.467449],[139.760614,32.46723]]}},{"type":"Feature","properties":{"id":155148422,"highway":"unclassified"},"geometry":{"type":"LineString","coordinates":[[139.762035,32.467724],[139.761993,32.46785],[139.76196,32.467933],[139.761948,32.468137],[139.761917,32.468329],[139.761815,32.468768],[139.761749,32.469056],[139.761565,32.469447]]}},{"type":"Feature","properties":{"id":155148423,"highway":"residential"},"geometry":{"type":"LineString","coordinates":[[139.763114,32.465516],[139.763332,32.465516],[139.763556,32.465509],[139.763674,32.465508],[139.763736,32.465491]]}},{"type":"Feature","properties":{"id":155148439,"highway":"unclassified"},"geometry":{"type":"LineString","coordinates":[[139.758885,32.47077],[139.758759,32.470655],[139.758463,32.470398],[139.758216,32.470265],[139.757892,32.470123],[139.757489,32.469971],[139.757189,32.469834],[139.757123,32.469768],[139.757092,32.4697],[139.757094,32.46956],[139.757194,32.469234],[139.757434,32.468873],[139.757556,32.468729],[139.757758,32.468526],[139.757834,32.46841],[139.758054,32.467892],[139.758125,32.467747],[139.758572,32.467239],[139.758861,32.46715],[139.759096,32.467085],[139.759298,32.467094],[139.759602,32.467096],[139.759787,32.466998],[139.759958,32.466756]]}},{"type":"Feature","properties":{"id":155148443,"highway":"residential"},"geometry":{"type":"LineString","coordinates":[[139.760036,32.464544],[139.760106,32.464559],[139.76014,32.464531],[139.760177,32.464489],[139.760248,32.464361],[139.760345,32.464181],[139.760394,32.46405],[139.760396,32.463921],[139.760402,32.463795],[139.760451,32.463713],[139.760462,32.46355],[139.760484,32.46337],[139.76047,32.463259],[139.760471,32.463169],[139.760499,32.463033],[139.760636,32.462861],[139.760641,32.462734],[139.760749,32.462632],[139.760825,32.462399],[139.760982,32.461634],[139.761095,32.461352]]}},{"type":"Feature","properties":{"id":155148474,"highway":"service"},"geometry":{"type":"LineString","coordinates":[[139.763736,32.465491],[139.763745,32.46546],[139.763739,32.465342],[139.763716,32.465225],[139.763662,32.46511],[139.76362,32.46504],[139.763559,32.464968],[139.763496,32.464665],[139.763515,32.46448],[139.763675,32.463919],[139.763649,32.463781],[139.76355,32.463412],[139.763548,32.46324],[139.763881,32.462786],[139.763901,32.462558],[139.763943,32.462435],[139.764041,32.462298],[139.76398,32.462074],[139.764008,32.461823],[139.763991,32.461757],[139.764086,32.461058]]}},{"type":"Feature","properties":{"id":155148477,"highway":"unclassified"},"geometry":{"type":"LineString","coordinates":[[139.760467,32.466059],[139.760545,32.465853],[139.760593,32.465772],[139.760695,32.465692],[139.760803,32.465627],[139.760865,32.465574],[139.760891,32.46551],[139.760889,32.465445],[139.760901,32.465383],[139.760905,32.465342]]}},{"type":"Feature","properties":{"id":155148482,"highway":"unclassified"},"geometry":{"type":"LineString","coordinates":[[139.759958,32.466756],[139.759917,32.466511],[139.759942,32.466475],[139.760052,32.46639],[139.760274,32.466218]]}},{"type":"Feature","properties":{"id":155148496,"highway":"residential"},"geometry":{"type":"LineString","coordinates":[[139.760614,32.46723],[139.760885,32.467325],[139.761172,32.46739],[139.761329,32.467369],[139.761431,32.467293],[139.7616,32.467292],[139.761704,32.467345],[139.761777,32.467411],[139.76184,32.467537],[139.761961,32.467688],[139.762035,32.467724]]}},{"type":"Feature","properties":{"id":155148500,"highway":"secondary"},"geometry":{"type":"LineString","coordinates":[[139.768781,32.459367],[139.768869,32.459407],[139.768983,32.45946],[139.769161,32.459544],[139.769508,32.459605],[139.769832,32.45955],[139.771014,32.459146],[139.77155,32.459074],[139.772081,32.459041],[139.77226,32.45897],[139.772391,32.458895],[139.772498,32.458791],[139.772547,32.45872],[139.772586,32.458665],[139.772772,32.458538],[139.773017,32.458448],[139.773163,32.458319],[139.773401,32.457995],[139.773494,32.457737],[139.773503,32.457674],[139.77353,32.457553],[139.773573,32.457493],[139.77364,32.457469],[139.773692,32.457428],[139.773702,32.457362],[139.7737,32.457273],[139.773733,32.457213],[139.773802,32.457175],[139.773928,32.457157],[139.774015,32.45712],[139.774137,32.457045],[139.774243,32.457034],[139.774316,32.457056],[139.774422,32.457127],[139.774499,32.45714],[139.774573,32.457125],[139.77464,32.457073],[139.774766,32.456919],[139.77484,32.45687],[139.774939,32.456839],[139.775037,32.456776],[139.775129,32.456737],[139.775195,32.456736],[139.775247,32.456758]]}},{"type":"Feature","properties":{"id":155148501,"highway":"secondary"},"geometry":{"type":"LineString","coordinates":[[139.75883,32.462686],[139.758613,32.462635],[139.758517,32.462566],[139.758487,32.462409],[139.758481,32.462338],[139.758496,32.462261],[139.758538,32.462188],[139.758601,32.462123],[139.758696,32.462044],[139.758723,32.461989],[139.758746,32.4619],[139.758742,32.461853],[139.758721,32.461764],[139.758705,32.461696],[139.758702,32.461624],[139.758713,32.461521],[139.758754,32.461416],[139.758808,32.461309],[139.758806,32.461274],[139.7588,32.461239],[139.758778,32.461207],[139.758752,32.461186],[139.758718,32.461177],[139.758633,32.461182],[139.75857,32.461186],[139.758519,32.461188],[139.758442,32.461179],[139.758371,32.461135],[139.758331,32.461077],[139.75831,32.461024],[139.758318,32.460971],[139.758366,32.460909],[139.758421,32.460851],[139.758471,32.460812],[139.758489,32.460758],[139.758496,32.460729],[139.75849,32.460674],[139.758462,32.460639],[139.758419,32.460614],[139.758391,32.460576],[139.758377,32.460531],[139.75839,32.460444],[139.758406,32.460363],[139.758417,32.460304],[139.758443,32.460234],[139.758445,32.460176],[139.758439,32.460144],[139.758422,32.460103],[139.758367,32.460064],[139.758273,32.460022],[139.758215,32.459991],[139.75817,32.459939],[139.758159,32.459883],[139.758168,32.459824],[139.758194,32.459752],[139.758248,32.459619],[139.758258,32.459573],[139.758272,32.459465],[139.758283,32.459164],[139.758282,32.459114],[139.758272,32.459084],[139.758257,32.459058],[139.758216,32.459047],[139.758158,32.45905],[139.758084,32.459066],[139.758004,32.459075],[139.757958,32.459062],[139.757764,32.458898],[139.757738,32.458812],[139.757723,32.458745],[139.757714,32.458654],[139.757712,32.458556],[139.757708,32.458497],[139.757703,32.458448],[139.757689,32.458428],[139.757662,32.458399],[139.757603,32.458348],[139.757567,32.458323],[139.757545,32.458296],[139.757535,32.458246],[139.757558,32.458167],[139.757578,32.458119],[139.757664,32.457974],[139.757791,32.457719],[139.757813,32.45762],[139.757845,32.457484],[139.757858,32.45736],[139.757855,32.45731],[139.757832,32.457269],[139.757769,32.457238],[139.757704,32.457204],[139.757656,32.457153],[139.757634,32.457127],[139.757628,32.457085],[139.757644,32.457038],[139.757668,32.45694],[139.757666,32.456842],[139.757662,32.456765],[139.757681,32.456727],[139.757716,32.456692],[139.757756,32.45666],[139.757812,32.456637],[139.757834,32.456604],[139.757838,32.456565],[139.757807,32.456525],[139.757767,32.456487],[139.757754,32.456455],[139.757761,32.456419],[139.757789,32.456377],[139.757837,32.456342],[139.757923,32.456322],[139.757961,32.456315],[139.758006,32.4563],[139.75804,32.456277],[139.758064,32.45625],[139.758072,32.45622],[139.758061,32.45616],[139.758011,32.456109],[139.757933,32.456089],[139.757878,32.456064],[139.757825,32.45603],[139.75778,32.455984],[139.757773,32.455939],[139.757778,32.455895],[139.757795,32.455872],[139.757834,32.455828],[139.757901,32.455783],[139.75805,32.455669],[139.758091,32.455627],[139.758136,32.45559],[139.758171,32.455545],[139.758199,32.455502],[139.758214,32.455446],[139.758213,32.455382],[139.758208,32.455344],[139.758182,32.45531],[139.758129,32.455217],[139.758043,32.455116],[139.757995,32.45506],[139.757964,32.45501],[139.757956,32.454956],[139.757956,32.454912],[139.757969,32.45485],[139.758,32.454757],[139.758018,32.454709],[139.758039,32.454665],[139.758045,32.454608],[139.758046,32.454548],[139.758013,32.454419],[139.757991,32.454344],[139.757981,32.454267],[139.757987,32.454238],[139.757991,32.454128],[139.758086,32.454066],[139.758195,32.454057],[139.758344,32.454026],[139.758419,32.453971],[139.758462,32.453885],[139.758465,32.453802],[139.75841,32.453636],[139.758361,32.453527],[139.758361,32.45343],[139.75835,32.453378],[139.758296,32.453298],[139.758174,32.453156],[139.758152,32.453124],[139.758122,32.453059],[139.758129,32.452984],[139.758172,32.45287],[139.758271,32.452764],[139.758404,32.452668],[139.758449,32.452608],[139.758469,32.452558],[139.758486,32.452491],[139.758529,32.452444],[139.758611,32.45239],[139.758646,32.45234],[139.758661,32.452293],[139.758669,32.452236],[139.758648,32.452189],[139.758585,32.452116],[139.758581,32.45206],[139.758603,32.451987],[139.758658,32.451869],[139.758704,32.451813],[139.758764,32.451743],[139.758796,32.451689],[139.758801,32.451646],[139.758807,32.451592],[139.758794,32.451526],[139.758773,32.451485],[139.758715,32.45134],[139.75845,32.451177],[139.758408,32.451123],[139.75835,32.451023],[139.758327,32.450882],[139.758358,32.450742],[139.758494,32.450598],[139.758688,32.450565],[139.758856,32.450518],[139.758926,32.450482],[139.759076,32.450283]]}},{"type":"Feature","properties":{"id":155148503,"highway":"secondary"},"geometry":{"type":"LineString","coordinates":[[139.760354,32.465192],[139.760499,32.465172],[139.760688,32.465198],[139.760905,32.465342],[139.76101,32.465356],[139.761165,32.465371],[139.761252,32.465366],[139.761336,32.465334],[139.761383,32.465284],[139.761455,32.465235],[139.761513,32.46521],[139.761712,32.465185],[139.76188,32.465173],[139.761941,32.465179],[139.76198,32.465202]]}},{"type":"Feature","properties":{"id":155148504,"highway":"secondary"},"geometry":{"type":"LineString","coordinates":[[139.760036,32.464544],[139.760033,32.464669],[139.760072,32.464812],[139.760092,32.464928],[139.76017,32.465045],[139.760282,32.465149],[139.760354,32.465192]]}},{"type":"Feature","properties":{"id":155148505,"highway":"unclassified"},"geometry":{"type":"LineString","coordinates":[[139.760274,32.466218],[139.760467,32.466059]]}},{"type":"Feature","properties":{"id":155148507,"highway":"unclassified"},"geometry":{"type":"LineString","coordinates":[[139.759958,32.466756],[139.760062,32.46698],[139.760084,32.467071],[139.760614,32.46723]]}},{"type":"Feature","properties":{"id":155148509,"highway":"residential"},"geometry":{"type":"LineString","coordinates":[[139.762035,32.467724],[139.762131,32.467746],[139.762294,32.467723]]}},{"type":"Feature","properties":{"id":365866367,"highway":"secondary"},"geometry":{"type":"LineString","coordinates":[[139.768781,32.459367],[139.768565,32.459319],[139.768097,32.459265],[139.767699,32.45923],[139.767281,32.459142],[139.766765,32.459031],[139.766385,32.458907],[139.765497,32.458694],[139.765036,32.458628],[139.76457,32.458596],[139.764462,32.458555],[139.764335,32.458482],[139.764095,32.458272],[139.7638,32.457992],[139.76356,32.457768],[139.763447,32.457662],[139.76339,32.457576],[139.763357,32.457479],[139.763331,32.457237],[139.763275,32.456921],[139.763244,32.456798],[139.763192,32.456537],[139.763109,32.456373],[139.763002,32.456191],[139.762702,32.455797],[139.762547,32.45544],[139.76249,32.455137],[139.762437,32.454931],[139.762412,32.454622],[139.762397,32.454486],[139.76236,32.45414],[139.762392,32.453838],[139.762439,32.45364],[139.762551,32.453467],[139.762762,32.45326],[139.762886,32.453026],[139.762916,32.452968],[139.762937,32.452614],[139.762903,32.452321],[139.762781,32.451967],[139.762706,32.451745],[139.762704,32.451705],[139.762694,32.451501],[139.762715,32.451343],[139.762824,32.451164],[139.762894,32.451105],[139.763027,32.450987],[139.763445,32.450763],[139.764164,32.450484],[139.764374,32.450423],[139.764494,32.450384],[139.764577,32.45034],[139.764619,32.450278],[139.764626,32.450211],[139.76461,32.450155],[139.764562,32.450097]]}},{"type":"Feature","properties":{"id":365866368,"highway":"secondary"},"geometry":{"type":"LineString","coordinates":[[139.764562,32.450097],[139.76132,32.446968],[139.761274,32.446928],[139.761231,32.446899],[139.761187,32.446877],[139.761138,32.446857],[139.761086,32.446842],[139.761032,32.44683],[139.760977,32.446824],[139.7609,32.44682]]}},{"type":"Feature","properties":{"id":427598327,"highway":"service"},"geometry":{"type":"LineString","coordinates":[[139.763943,32.462435],[139.763646,32.462445],[139.763556,32.462419],[139.763503,32.462347],[139.763495,32.462241],[139.763533,32.461936],[139.763476,32.461827],[139.763384,32.461771]]}},{"type":"Feature","properties":{"id":427598332,"highway":"unclassified"},"geometry":{"type":"LineString","coordinates":[[139.766385,32.458907],[139.766335,32.458727],[139.766136,32.458547],[139.765962,32.458351],[139.765876,32.458123],[139.765665,32.458027],[139.765573,32.457905],[139.765611,32.457786],[139.765809,32.457758],[139.766102,32.457758],[139.766359,32.457693],[139.766478,32.457595],[139.766483,32.457437],[139.766338,32.457207],[139.766414,32.456974],[139.766566,32.456531],[139.766619,32.456221],[139.766689,32.455853],[139.766782,32.455627],[139.766814,32.455494],[139.7662,32.455177],[139.766079,32.455022],[139.765866,32.454968],[139.765319,32.454938],[139.764932,32.454769]]}},{"type":"Feature","properties":{"id":427598334,"highway":"unclassified"},"geometry":{"type":"LineString","coordinates":[[139.762397,32.454486],[139.762674,32.454537],[139.762876,32.454541],[139.763109,32.454487],[139.763312,32.454553],[139.76359,32.454592],[139.763868,32.454535],[139.764002,32.454557],[139.764132,32.454641],[139.764317,32.454794],[139.764612,32.454937],[139.764806,32.454962],[139.764938,32.454882],[139.764932,32.454769],[139.764844,32.454611],[139.764777,32.45449],[139.764788,32.454295],[139.764758,32.454263],[139.764702,32.454259],[139.764523,32.454249],[139.764456,32.454189],[139.764455,32.454124],[139.76452,32.454013],[139.764615,32.453934],[139.764685,32.453919],[139.765004,32.453925],[139.765058,32.45389],[139.765085,32.453835],[139.765027,32.453703],[139.76493,32.453507],[139.764929,32.453392],[139.764978,32.453321],[139.764931,32.453108],[139.764775,32.452673],[139.764766,32.452442]]}},{"type":"Feature","properties":{"id":427598335,"highway":"unclassified"},"geometry":{"type":"LineString","coordinates":[[139.759937,32.468822],[139.760203,32.46842]]}},{"type":"Feature","properties":{"id":427598337,"highway":"unclassified"},"geometry":{"type":"LineString","coordinates":[[139.771617,32.460802],[139.771666,32.460892],[139.771763,32.460956],[139.771841,32.460974],[139.772111,32.460928],[139.772186,32.460884],[139.772257,32.46075],[139.772313,32.460679],[139.772671,32.460469],[139.772853,32.460445],[139.772996,32.460407],[139.773157,32.46035],[139.773255,32.460259],[139.773349,32.460154],[139.773477,32.460098],[139.773755,32.459907],[139.773827,32.459775],[139.773899,32.459671],[139.773941,32.459627],[139.774002,32.459573],[139.774114,32.459512],[139.77423,32.459488],[139.774335,32.459469],[139.774473,32.459425],[139.774631,32.459378],[139.774903,32.459354],[139.775277,32.45924],[139.775368,32.459195],[139.775404,32.45916],[139.775444,32.45911],[139.775472,32.45904],[139.775519,32.458985],[139.775632,32.458896],[139.77576,32.458795],[139.775901,32.458693],[139.775979,32.458585],[139.776054,32.458462],[139.7761,32.458358],[139.776208,32.458246],[139.776298,32.458171],[139.77642,32.458086],[139.776525,32.458037],[139.776672,32.458013],[139.77673,32.458002],[139.776788,32.45796],[139.776828,32.457889],[139.776823,32.457819],[139.776836,32.457718],[139.77686,32.457659],[139.776915,32.4576],[139.777049,32.457523],[139.777136,32.457509],[139.77724,32.457524],[139.777327,32.457534],[139.777413,32.457534],[139.77747,32.457496],[139.777497,32.457449],[139.777506,32.457379],[139.777509,32.457293],[139.777509,32.457223],[139.777548,32.457164],[139.7776,32.457094],[139.777678,32.456987],[139.777706,32.456907],[139.777734,32.456815],[139.777754,32.456727],[139.777738,32.456613]]}},{"type":"Feature","properties":{"id":427598340,"highway":"secondary"},"geometry":{"type":"LineString","coordinates":[[139.774149,32.458542],[139.774263,32.458479],[139.774415,32.458388],[139.774534,32.458299],[139.774637,32.458206],[139.774736,32.458106],[139.77482,32.458],[139.774884,32.457897],[139.774944,32.457776],[139.775296,32.456924],[139.775305,32.456872],[139.775299,32.456828],[139.775284,32.456793],[139.775247,32.456758]]}},{"type":"Feature","properties":{"id":454675752,"highway":"service"},"geometry":{"type":"LineString","coordinates":[[139.758112,32.446903],[139.758853,32.447575],[139.759095,32.4478],[139.759292,32.447992],[139.759359,32.448014],[139.759423,32.447991],[139.759822,32.447728]]}},{"type":"Feature","properties":{"id":553599815,"highway":"secondary"},"geometry":{"type":"LineString","coordinates":[[139.759684,32.449736],[139.759778,32.449683],[139.759868,32.449634],[139.759984,32.449548],[139.760032,32.449475],[139.760056,32.449375],[139.760115,32.449316],[139.760285,32.449129],[139.760378,32.44905],[139.760427,32.448934],[139.760469,32.448863],[139.760606,32.448729],[139.760614,32.448682],[139.760588,32.448513],[139.76061,32.44845],[139.760768,32.448289],[139.760897,32.448177],[139.761011,32.447976],[139.761185,32.447626],[139.761317,32.447495],[139.761413,32.447394],[139.761445,32.447245],[139.761451,32.447195],[139.76148,32.44715],[139.761547,32.447138],[139.761609,32.447156],[139.761677,32.447198],[139.761777,32.447207],[139.76198,32.447185],[139.762384,32.447114],[139.762572,32.447043],[139.762788,32.446957],[139.763023,32.446886],[139.763079,32.446869],[139.76309,32.446834],[139.763048,32.44681],[139.762989,32.446813],[139.762623,32.446896],[139.762415,32.446965],[139.762337,32.446985],[139.762259,32.446981],[139.762054,32.446878],[139.761977,32.44684],[139.761769,32.446855],[139.761608,32.446813],[139.761598,32.446767],[139.761617,32.446748],[139.761732,32.446752],[139.761788,32.446751],[139.761806,32.446717],[139.761786,32.446694],[139.761687,32.446649],[139.761543,32.446643],[139.761199,32.446604],[139.761095,32.446609],[139.760925,32.446682],[139.760847,32.44682]]}},{"type":"Feature","properties":{"id":553599818,"highway":"service"},"geometry":{"type":"LineString","coordinates":[[139.759822,32.447728],[139.760107,32.447538],[139.760201,32.447475],[139.760584,32.446975],[139.76069,32.446879],[139.760847,32.44682]]}},{"type":"Feature","properties":{"id":559415812,"highway":"service"},"geometry":{"type":"LineString","coordinates":[[139.763556,32.465509],[139.76358,32.465624],[139.763657,32.465694],[139.763701,32.465791],[139.763732,32.466029],[139.763787,32.466161],[139.76383,32.466247],[139.763871,32.466287],[139.763926,32.466294]]}},{"type":"Feature","properties":{"id":560024762,"highway":"service"},"geometry":{"type":"LineString","coordinates":[[139.763943,32.466856],[139.763837,32.466743],[139.763652,32.466546]]}},{"type":"Feature","properties":{"id":560024764,"highway":"service"},"geometry":{"type":"LineString","coordinates":[[139.761042,32.464787],[139.761051,32.464896],[139.761047,32.464967],[139.761035,32.465047],[139.761011,32.465123],[139.761011,32.465209],[139.760964,32.46525],[139.760905,32.465342]]}},{"type":"Feature","properties":{"id":560024767,"highway":"secondary"},"geometry":{"type":"LineString","coordinates":[[139.76198,32.465202],[139.762038,32.465302],[139.762086,32.465512],[139.762098,32.465621],[139.762097,32.466159],[139.762116,32.466587],[139.762131,32.466768],[139.762115,32.466972],[139.762113,32.467092],[139.762131,32.467231],[139.762133,32.467377],[139.762113,32.467565],[139.762154,32.467634],[139.762294,32.467723],[139.76263,32.467664],[139.762732,32.467642],[139.762814,32.467615],[139.762897,32.467581],[139.762972,32.467537],[139.763067,32.467474],[139.76317,32.467415],[139.763318,32.46734]]}},{"type":"Feature","properties":{"id":560024770,"highway":"unclassified"},"geometry":{"type":"LineString","coordinates":[[139.762113,32.467565],[139.762035,32.467724]]}},{"type":"Feature","properties":{"id":560024771,"highway":"service"},"geometry":{"type":"LineString","coordinates":[[139.763785,32.467068],[139.763759,32.467046],[139.763797,32.467002],[139.763943,32.466856],[139.764151,32.466744],[139.764216,32.466735]]}},{"type":"Feature","properties":{"id":560217439,"highway":"service"},"geometry":{"type":"LineString","coordinates":[[139.761511,32.465067],[139.7614,32.465124],[139.761364,32.465148],[139.761327,32.465166],[139.761287,32.465195],[139.761237,32.465211],[139.761174,32.465216],[139.761011,32.465209]]}},{"type":"Feature","properties":{"id":560217440,"highway":"secondary"},"geometry":{"type":"LineString","coordinates":[[139.765267,32.464913],[139.765395,32.464847],[139.76548,32.464827],[139.765603,32.464822],[139.765687,32.464846],[139.765756,32.46489],[139.765794,32.464918]]}},{"type":"Feature","properties":{"id":560303875,"highway":"service"},"geometry":{"type":"LineString","coordinates":[[139.760107,32.447538],[139.760044,32.447444],[139.760408,32.446754],[139.760341,32.44668]]}},{"type":"Feature","properties":{"id":560303878,"highway":"service"},"geometry":{"type":"LineString","coordinates":[[139.766263,32.464538],[139.766276,32.464625],[139.766008,32.464905],[139.765977,32.464943],[139.765981,32.464992],[139.766031,32.465029],[139.766096,32.46506],[139.766175,32.465056],[139.766254,32.465039],[139.766331,32.46501],[139.766364,32.465022]]}},{"type":"Feature","properties":{"id":560303880,"highway":"service"},"geometry":{"type":"LineString","coordinates":[[139.759095,32.4478],[139.760192,32.44693],[139.760341,32.44668],[139.760442,32.446544],[139.76002,32.446408],[139.759714,32.44644],[139.759521,32.446285]]}},{"type":"Feature","properties":{"id":560714105,"highway":"secondary"},"geometry":{"type":"LineString","coordinates":[[139.771617,32.460802],[139.77189,32.460759],[139.772012,32.460726],[139.772119,32.460664],[139.772181,32.460621],[139.772255,32.460571],[139.772349,32.460498],[139.772444,32.46039],[139.772639,32.46012],[139.772699,32.459984],[139.772752,32.459929],[139.772861,32.459868],[139.772946,32.459844],[139.773082,32.459831],[139.773262,32.459738],[139.773477,32.459607],[139.773582,32.459485],[139.773779,32.459201],[139.773896,32.459094],[139.774031,32.458965],[139.774095,32.458849],[139.774114,32.458775],[139.774118,32.458664],[139.774115,32.458596],[139.774127,32.458565],[139.774149,32.458542]]}},{"type":"Feature","properties":{"id":560714106,"highway":"secondary"},"geometry":{"type":"LineString","coordinates":[[139.765794,32.464918],[139.765961,32.465092],[139.766049,32.465135],[139.766158,32.465142],[139.766241,32.465114],[139.766294,32.46508],[139.766319,32.465064],[139.766364,32.465022],[139.766398,32.464987],[139.76645,32.464887],[139.766599,32.464531],[139.766712,32.464336],[139.766786,32.464242],[139.766892,32.46418],[139.766983,32.464167],[139.767067,32.464164],[139.767152,32.464194],[139.767248,32.464246],[139.767282,32.464259],[139.767334,32.464279],[139.767439,32.464285],[139.767622,32.464235],[139.767724,32.464154],[139.767845,32.46406],[139.768034,32.463995],[139.768237,32.463995],[139.768437,32.46395],[139.768494,32.463915],[139.768541,32.463833],[139.768533,32.463727],[139.768521,32.463627],[139.768547,32.46353],[139.768887,32.463064],[139.768911,32.46291],[139.768875,32.462733],[139.768791,32.462319],[139.768804,32.462218],[139.768821,32.462159],[139.768895,32.462095],[139.769059,32.46207],[139.769327,32.46207],[139.769456,32.462125],[139.769593,32.462156],[139.769713,32.46212],[139.769778,32.462061],[139.769826,32.461948],[139.76989,32.461772],[139.770024,32.461701],[139.770127,32.461697],[139.770203,32.461678],[139.770281,32.461621],[139.770323,32.461557],[139.770421,32.461398],[139.7705,32.461343],[139.770589,32.461265],[139.770643,32.461188],[139.770667,32.461102],[139.770733,32.460958],[139.770832,32.46084],[139.770961,32.460791],[139.771093,32.460758],[139.771211,32.460761],[139.771411,32.46081],[139.771617,32.460802]]}},{"type":"Feature","properties":{"id":560714107,"highway":"secondary"},"geometry":{"type":"LineString","coordinates":[[139.763318,32.46734],[139.763431,32.467281],[139.763584,32.467188],[139.763785,32.467068],[139.763922,32.466968],[139.764216,32.466735],[139.764319,32.466646],[139.764423,32.466525],[139.764482,32.466422],[139.764562,32.46629],[139.764626,32.466126],[139.764703,32.465956],[139.764791,32.465816],[139.764865,32.465662],[139.76486,32.465579],[139.764829,32.465507],[139.764773,32.465386],[139.764763,32.465302],[139.764795,32.465217],[139.764818,32.465177],[139.764866,32.465115],[139.764896,32.465093],[139.764924,32.465072],[139.765009,32.465044],[139.765122,32.464993],[139.765267,32.464913]]}},{"type":"Feature","properties":{"id":560714114,"highway":"unclassified"},"geometry":{"type":"LineString","coordinates":[[139.777738,32.456613],[139.777712,32.45646],[139.777708,32.456367],[139.777723,32.456316],[139.777764,32.456304],[139.777821,32.456316],[139.777846,32.456355],[139.777859,32.456406],[139.777885,32.456519],[139.778009,32.456653],[139.778061,32.456727],[139.778133,32.45686],[139.778164,32.456886],[139.778202,32.456879],[139.778235,32.456856],[139.778238,32.456839]]}},{"type":"Feature","properties":{"id":561250719,"highway":"service"},"geometry":{"type":"LineString","coordinates":[[139.759643,32.466481],[139.759769,32.466495],[139.759917,32.466511]]}},{"type":"Feature","properties":{"id":561525779,"highway":"service"},"geometry":{"type":"LineString","coordinates":[[139.759922,32.465477],[139.759997,32.465482],[139.760086,32.465439],[139.760226,32.465318],[139.760354,32.465192]]}},{"type":"Feature","properties":{"id":561525787,"highway":"service"},"geometry":{"type":"LineString","coordinates":[[139.766968,32.464783],[139.767023,32.464804],[139.767066,32.464862],[139.767118,32.464972],[139.767095,32.465049],[139.766929,32.46507],[139.766872,32.46502],[139.766866,32.464921],[139.766905,32.464837],[139.766968,32.464783],[139.766957,32.464706],[139.766926,32.46463],[139.766859,32.464512],[139.766808,32.46443],[139.766787,32.464365],[139.766818,32.464296],[139.766855,32.464254],[139.766944,32.46423],[139.767084,32.464237],[139.767205,32.464273],[139.767282,32.464259]]}},{"type":"Feature","properties":{"id":664318904,"highway":"service"},"geometry":{"type":"LineString","coordinates":[[139.762935,32.451656],[139.762935,32.451776],[139.762966,32.451853],[139.762996,32.451873],[139.76306,32.451892]]}},{"type":"Feature","properties":{"id":664318905,"highway":"service"},"geometry":{"type":"LineString","coordinates":[[139.762704,32.451705],[139.762797,32.451744],[139.762898,32.451727],[139.762935,32.451656],[139.762932,32.451573],[139.762915,32.451519],[139.762891,32.451456],[139.762878,32.451408],[139.762878,32.451365]]}},{"type":"Feature","properties":{"id":664318906,"highway":"service"},"geometry":{"type":"LineString","coordinates":[[139.762781,32.451967],[139.762922,32.451921],[139.76306,32.451892],[139.763206,32.451912],[139.763314,32.451981],[139.763402,32.452086],[139.763483,32.452163],[139.763554,32.452221],[139.763632,32.452289],[139.763672,32.452354],[139.763713,32.45242],[139.763706,32.452577],[139.763645,32.452671],[139.763561,32.452734],[139.763513,32.452859],[139.763486,32.452959],[139.763439,32.452979],[139.76331,32.452973],[139.76327,32.452922],[139.763227,32.452897]]}},{"type":"Feature","properties":{"id":664318907,"highway":"service"},"geometry":{"type":"LineString","coordinates":[[139.762886,32.453026],[139.762966,32.453073],[139.76304,32.453079],[139.763111,32.453065],[139.763189,32.453016],[139.763216,32.452956],[139.763227,32.452897],[139.763233,32.452868],[139.763239,32.452791],[139.763243,32.45272],[139.763233,32.452648],[139.763192,32.452608],[139.763162,32.452594],[139.763118,32.452583]]}},{"type":"Feature","properties":{"id":684940391,"highway":"tertiary"},"geometry":{"type":"LineString","coordinates":[[139.760847,32.44682],[139.760617,32.44683]]}},{"type":"Feature","properties":{"id":739437069,"highway":"tertiary"},"geometry":{"type":"LineString","coordinates":[[139.760617,32.44683],[139.760499,32.446862],[139.760395,32.446907],[139.760311,32.446964],[139.760053,32.447153]]}},{"type":"Feature","properties":{"id":739437070,"highway":"tertiary"},"geometry":{"type":"LineString","coordinates":[[139.760053,32.447153],[139.759738,32.447404],[139.759706,32.447453],[139.759691,32.447531],[139.759729,32.447638],[139.759822,32.447728]]}},{"type":"Feature","properties":{"id":946477334,"highway":"secondary"},"geometry":{"type":"LineString","coordinates":[[139.7609,32.44682],[139.760847,32.44682]]}},{"type":"Feature","properties":{"id":1380614664,"highway":"secondary"},"geometry":{"type":"LineString","coordinates":[[139.760036,32.464544],[139.760063,32.464322],[139.760097,32.464171],[139.760047,32.464019],[139.759946,32.46387],[139.759739,32.463793],[139.759535,32.463771],[139.759398,32.463682],[139.759211,32.463454],[139.758948,32.462766],[139.75883,32.462686]]}}]}