{"type":"FeatureCollection","features":[{"type":"Feature","properties":{"id":155005883,"highway":"unclassified"},"geometry":{"type":"LineString","coordinates":[[139.785721,33.075789],[139.785975,33.075282],[139.786077,33.075055],[139.786252,33.074628],[139.786434,33.074217],[139.786456,33.074175],[139.786533,33.074028],[139.7866,33.073792],[139.786689,33.073522],[139.786793,33.073315],[139.786893,33.073223],[139.78707,33.073201],[139.787268,33.073212],[139.787507,33.073295],[139.787797,33.073441],[139.788092,33.073464],[139.788617,33.073484],[139.788741,33.073495],[139.789018,33.07345],[139.789076,33.073441],[139.789476,33.073441],[139.789618,33.073428],[139.789863,33.073392],[139.789897,33.073387],[139.790106,33.073412],[139.79054,33.073538],[139.790685,33.073556],[139.790817,33.073563],[139.790905,33.073529],[139.791074,33.073416],[139.791351,33.073216],[139.791455,33.073185],[139.79171,33.073151],[139.792051,33.073088],[139.792394,33.073025],[139.792584,33.073097],[139.79288,33.073197],[139.793591,33.073437],[139.793624,33.07346],[139.793659,33.073496]]}},{"type":"Feature","properties":{"id":155006011,"highway":"unclassified"},"geometry":{"type":"LineString","coordinates":[[139.771569,33.099892],[139.771525,33.099834],[139.771428,33.099716],[139.771363,33.099606],[139.771315,33.099453],[139.771223,33.099321],[139.771132,33.099213],[139.770939,33.099051],[139.77077,33.098924],[139.770638,33.098853]]}},{"type":"Feature","properties":{"id":155006047,"highway":"unclassified"},"geometry":{"type":"LineString","coordinates":[[139.777697,33.100833],[139.777739,33.100713],[139.778209,33.100771],[139.779531,33.100975],[139.779727,33.099999]]}},{"type":"Feature","properties":{"id":155006138,"highway":"tertiary"},"geometry":{"type":"LineString","coordinates":[[139.77228,33.099881],[139.772333,33.09992],[139.772381,33.099955],[139.772631,33.100015],[139.772788,33.100049],[139.772913,33.100079]]}},{"type":"Feature","properties":{"id":155006155,"highway":"unclassified"},"geometry":{"type":"LineString","coordinates":[[139.781344,33.098534],[139.781119,33.098534],[139.781061,33.098511],[139.780518,33.098287],[139.780446,33.098262],[139.780362,33.098245],[139.780217,33.098252],[139.780026,33.098256],[139.77991,33.098245],[139.779775,33.098231],[139.779673,33.098245],[139.779357,33.098352],[139.779222,33.098368],[139.778917,33.098289],[139.778799,33.098272],[139.778036,33.098425],[139.777825,33.098415],[139.777715,33.098445],[139.777404,33.098638],[139.777168,33.09893],[139.777139,33.098971],[139.777124,33.099028],[139.777496,33.099547],[139.778385,33.099974],[139.778732,33.099839],[139.779727,33.099999]]}},{"type":"Feature","properties":{"id":155006848,"highway":"secondary"},"geometry":{"type":"LineString","coordinates":[[139.789957,33.074671],[139.79011,33.074654],[139.790301,33.074627],[139.790384,33.074616],[139.790558,33.074591],[139.790832,33.074501],[139.791081,33.074402],[139.791182,33.074347],[139.791467,33.074178],[139.791784,33.073962],[139.791823,33.07394],[139.791926,33.073895],[139.792024,33.073861],[139.792232,33.073813],[139.792535,33.073797],[139.792696,33.073796],[139.79281,33.073791],[139.792951,33.073767],[139.793394,33.0736],[139.793659,33.073496],[139.793781,33.073453],[139.793904,33.073387],[139.794403,33.072977],[139.794477,33.072918],[139.7946,33.072837],[139.794714,33.072772],[139.794888,33.072698],[139.795028,33.072636],[139.795127,33.072568],[139.795175,33.072511],[139.79522,33.07244],[139.795238,33.072393],[139.795263,33.072329],[139.795299,33.072107],[139.795377,33.071616],[139.795403,33.071545],[139.795459,33.071458],[139.795511,33.07139],[139.795601,33.071304],[139.795681,33.071237],[139.79587,33.071137],[139.795952,33.071093],[139.796022,33.071055],[139.796171,33.070975],[139.796467,33.070815],[139.796573,33.070766],[139.796644,33.070742],[139.796949,33.070663],[139.797447,33.070549],[139.797525,33.070532],[139.797568,33.070521],[139.798108,33.070383],[139.79813,33.070377],[139.798449,33.070301],[139.798703,33.07024],[139.798782,33.070221],[139.799169,33.070108],[139.799546,33.069979],[139.799739,33.069911],[139.79982,33.069881],[139.800229,33.069734],[139.800327,33.069704],[139.80043,33.069667],[139.80052,33.06965],[139.800622,33.069646],[139.800678,33.069652],[139.800894,33.069698],[139.801027,33.06973],[139.801103,33.069759],[139.801173,33.069801],[139.80124,33.069855],[139.801287,33.069904],[139.801429,33.070111],[139.801483,33.070167],[139.801554,33.070231],[139.801612,33.070273],[139.801693,33.070307],[139.801826,33.070356],[139.801908,33.070379],[139.801982,33.070409],[139.802129,33.070497],[139.802231,33.070589],[139.802361,33.070676],[139.802435,33.07071],[139.802518,33.070735],[139.802613,33.070751],[139.802704,33.070748],[139.802797,33.070737],[139.802884,33.070714],[139.803615,33.070513],[139.803828,33.070441],[139.803989,33.070369],[139.804076,33.07032],[139.80419,33.070246],[139.804338,33.070124],[139.804439,33.070046],[139.804532,33.069985],[139.804768,33.069868],[139.805232,33.06972],[139.805688,33.069567],[139.805897,33.069515],[139.806048,33.069474],[139.806136,33.069443],[139.806203,33.069411],[139.806313,33.069356],[139.806399,33.069297],[139.80649,33.069216],[139.80667,33.069025],[139.807419,33.068108],[139.807461,33.068057],[139.807597,33.06789],[139.807979,33.067422],[139.808055,33.067351],[139.808156,33.067277],[139.80834,33.067185],[139.808547,33.067097],[139.808741,33.06703],[139.808988,33.066949],[139.80904,33.066931],[139.809044,33.066929],[139.809384,33.066818],[139.810344,33.066512],[139.810539,33.066448],[139.810955,33.06631],[139.811154,33.066256],[139.811245,33.066242],[139.811322,33.066232],[139.811469,33.066226],[139.811862,33.066234],[139.812038,33.066234],[139.812321,33.066206],[139.81245,33.066184],[139.8125,33.066174],[139.812526,33.066167],[139.813439,33.065911],[139.813541,33.065892],[139.813648,33.065879],[139.813908,33.06587],[139.814793,33.065989],[139.815104,33.066032],[139.815254,33.066063],[139.815395,33.066128],[139.815485,33.066169],[139.816266,33.066698],[139.816367,33.066767],[139.81652,33.066814],[139.816672,33.06684],[139.816882,33.066877],[139.818327,33.067133],[139.818811,33.067219],[139.819028,33.06732],[139.819231,33.067479],[139.819445,33.067693],[139.819662,33.067832],[139.820027,33.067949],[139.82022,33.067972],[139.820451,33.06796],[139.820606,33.067886],[139.820773,33.067733],[139.821116,33.06736],[139.821274,33.067286],[139.82146,33.067246],[139.821693,33.067243],[139.821982,33.067199],[139.822358,33.067199],[139.822642,33.067223],[139.822755,33.067216],[139.823004,33.067144],[139.8232,33.067135],[139.823428,33.067228],[139.823857,33.067444],[139.823983,33.067468],[139.824252,33.067464],[139.824416,33.067507],[139.82493,33.067641],[139.82511,33.067751],[139.82595,33.068538],[139.826328,33.068954],[139.827087,33.069999],[139.827119,33.07013],[139.827095,33.070417],[139.827111,33.070575],[139.827285,33.071285],[139.827296,33.071458],[139.827226,33.071959],[139.827261,33.072134],[139.827296,33.072393],[139.827264,33.072512],[139.827127,33.072761],[139.827118,33.072834],[139.827108,33.072973],[139.827146,33.073813],[139.827111,33.074029],[139.826931,33.074913],[139.82695,33.075065],[139.827014,33.075151],[139.827135,33.075191],[139.827267,33.075169],[139.827414,33.075142],[139.827559,33.075099],[139.827867,33.074987],[139.828023,33.074975],[139.828184,33.075036],[139.82838,33.075169],[139.828594,33.075358],[139.828884,33.075614],[139.829216,33.075844],[139.829275,33.075886],[139.829381,33.07592],[139.829453,33.075944],[139.829533,33.075967],[139.830002,33.07605],[139.830383,33.076162],[139.830474,33.076245],[139.8307,33.07658],[139.830745,33.076706],[139.830735,33.076814],[139.830517,33.077171],[139.830297,33.077679],[139.830281,33.07781],[139.830335,33.077949],[139.830437,33.078079],[139.830549,33.078158],[139.830625,33.078178],[139.830799,33.078149],[139.831059,33.078086],[139.831236,33.078003],[139.831539,33.077863],[139.831708,33.077819],[139.831928,33.077825],[139.832143,33.077893],[139.832306,33.077996],[139.832491,33.078187],[139.832612,33.078279],[139.832743,33.078311],[139.832878,33.078322],[139.833081,33.078304],[139.833323,33.078288],[139.833521,33.078288],[139.833698,33.078252],[139.834272,33.0781],[139.834393,33.078093],[139.83453,33.078106],[139.835141,33.078302],[139.83527,33.078324],[139.835557,33.078311],[139.835898,33.078259],[139.836137,33.078266],[139.836558,33.078284],[139.836953,33.078346],[139.837526,33.078419],[139.839489,33.078716],[139.839877,33.078759],[139.840266,33.078801],[139.840563,33.078844],[139.840808,33.078877],[139.841006,33.07892],[139.841141,33.078985],[139.841796,33.079302],[139.842445,33.079646],[139.842528,33.079678],[139.842794,33.079781],[139.842962,33.079881],[139.843081,33.079954],[139.843204,33.080059],[139.843408,33.080241],[139.843491,33.080282],[139.843508,33.080284],[139.843748,33.080315],[139.843928,33.080338],[139.844097,33.080358],[139.844262,33.080388],[139.844404,33.080433],[139.844715,33.08053],[139.845076,33.080612],[139.845238,33.080649],[139.84563,33.080762],[139.845892,33.080894],[139.846464,33.081036],[139.846598,33.081127],[139.846724,33.081192],[139.846958,33.081262],[139.847094,33.081283],[139.847363,33.081286],[139.847657,33.081274],[139.848003,33.081238],[139.848658,33.081222],[139.84888,33.081236],[139.848963,33.081233],[139.849028,33.081227],[139.849217,33.081165],[139.849321,33.081122],[139.849408,33.081091],[139.8495,33.081078],[139.849574,33.081075],[139.849684,33.081071],[139.849774,33.081074],[139.849862,33.081087],[139.849945,33.081108],[139.850111,33.081164],[139.850231,33.081212],[139.850411,33.081308],[139.850519,33.081358],[139.850625,33.081385],[139.850775,33.081395],[139.851038,33.081363],[139.851144,33.081356],[139.851242,33.081357],[139.85133,33.081368],[139.851409,33.081384],[139.851524,33.081426],[139.85158,33.081448],[139.851636,33.081484],[139.851702,33.081554]]}},{"type":"Feature","properties":{"id":155007033,"highway":"secondary"},"geometry":{"type":"LineString","coordinates":[[139.782535,33.091433],[139.782506,33.091561],[139.782499,33.091667],[139.782505,33.091798],[139.782534,33.091945],[139.782553,33.092115],[139.78255,33.092226],[139.782537,33.092321],[139.782507,33.092454],[139.782471,33.09257],[139.782367,33.092776],[139.78233,33.092876],[139.782304,33.092975],[139.782278,33.093188],[139.782281,33.093266],[139.782298,33.093545],[139.782301,33.093613],[139.782302,33.093717],[139.782271,33.093911],[139.781973,33.094809],[139.781826,33.095275],[139.781524,33.096235],[139.781261,33.097068],[139.781219,33.097354],[139.781256,33.097683],[139.781262,33.09774],[139.781266,33.097774],[139.781344,33.098534],[139.781411,33.098775],[139.781473,33.098868],[139.781579,33.099001],[139.781828,33.099297],[139.782418,33.099954],[139.782559,33.100147],[139.782617,33.100227],[139.782657,33.100297],[139.782703,33.10038],[139.782822,33.100656],[139.782866,33.10076],[139.782937,33.10088],[139.783012,33.100958],[139.783139,33.101031],[139.783258,33.101076],[139.783509,33.101154],[139.783691,33.101295],[139.783833,33.101418],[139.784153,33.101638],[139.784346,33.101832],[139.784437,33.101942],[139.784458,33.101971],[139.78452,33.102056],[139.784587,33.102143],[139.78462,33.102185],[139.784731,33.102322],[139.78486,33.102429],[139.784947,33.102492],[139.785088,33.102557],[139.785444,33.10265],[139.785578,33.102688],[139.785856,33.102769],[139.786206,33.102878],[139.786307,33.102912],[139.786323,33.102917],[139.786556,33.102996],[139.786954,33.10313],[139.786992,33.103142],[139.787736,33.103384],[139.788546,33.103656],[139.788624,33.103682],[139.788876,33.103771],[139.788951,33.103798],[139.788928,33.103892],[139.788918,33.103931],[139.788925,33.104239],[139.78893,33.104492],[139.788927,33.10463],[139.78892,33.104711],[139.788884,33.104804],[139.788801,33.105024],[139.788682,33.105283],[139.788674,33.105301],[139.788534,33.10548],[139.788392,33.105587],[139.787678,33.105857],[139.787477,33.105929],[139.787434,33.105944],[139.786916,33.106067],[139.786657,33.106123],[139.786586,33.106144],[139.78638,33.106204],[139.786015,33.106381],[139.785727,33.106538]]}},{"type":"Feature","properties":{"id":155007154,"highway":"secondary"},"geometry":{"type":"LineString","coordinates":[[139.783162,33.083113],[139.783243,33.084468],[139.783265,33.084544],[139.783288,33.084582]]}},{"type":"Feature","properties":{"id":155007204,"highway":"secondary"},"geometry":{"type":"LineString","coordinates":[[139.784342,33.08517],[139.784455,33.085273],[139.784565,33.085407],[139.784636,33.085537],[139.784759,33.085823],[139.784825,33.08601],[139.784905,33.086371],[139.784938,33.086586],[139.784951,33.086787],[139.784955,33.087072],[139.78493,33.087201],[139.784896,33.087328],[139.784853,33.087442],[139.784368,33.088351],[139.784309,33.088457],[139.784254,33.088591]]}},{"type":"Feature","properties":{"id":155007234,"highway":"secondary"},"geometry":{"type":"LineString","coordinates":[[139.771569,33.099892],[139.771728,33.100121],[139.771808,33.100188]]}},{"type":"Feature","properties":{"id":155007247,"highway":"secondary"},"geometry":{"type":"LineString","coordinates":[[139.771808,33.100188],[139.771923,33.100113],[139.772218,33.099921],[139.77228,33.099881]]}},{"type":"Feature","properties":{"id":155007286,"highway":"secondary"},"geometry":{"type":"LineString","coordinates":[[139.77228,33.099881],[139.772603,33.099651],[139.772604,33.099625],[139.772604,33.099579],[139.772445,33.099397],[139.772377,33.099384],[139.771651,33.099841],[139.771569,33.099892]]}},{"type":"Feature","properties":{"id":440737713,"highway":"secondary"},"geometry":{"type":"LineString","coordinates":[[139.78423,33.088711],[139.784203,33.088984],[139.784093,33.089178],[139.783942,33.089272],[139.783555,33.089445]]}},{"type":"Feature","properties":{"id":444874254,"highway":"service"},"geometry":{"type":"LineString","coordinates":[[139.772333,33.100273],[139.772218,33.099921]]}},{"type":"Feature","properties":{"id":446343162,"highway":"unclassified"},"geometry":{"type":"LineString","coordinates":[[139.781579,33.099001],[139.781089,33.099515],[139.781129,33.099601],[139.781129,33.099695],[139.781084,33.099816],[139.781084,33.099922],[139.78118,33.100012],[139.781336,33.100115],[139.781647,33.100531],[139.781918,33.10083],[139.7822,33.101261],[139.78228,33.101427]]}},{"type":"Feature","properties":{"id":446343173,"highway":"residential"},"geometry":{"type":"LineString","coordinates":[[139.780217,33.098252],[139.780149,33.098],[139.780136,33.097892],[139.780133,33.097844],[139.78014,33.097766],[139.780142,33.097683],[139.780157,33.097631],[139.780209,33.097588],[139.780258,33.097563],[139.780297,33.09755],[139.780388,33.097532],[139.780455,33.097528],[139.780514,33.097519],[139.780608,33.097483],[139.7807,33.097447],[139.780777,33.097423],[139.78085,33.097406],[139.780959,33.09738],[139.781097,33.09736],[139.781219,33.097354]]}},{"type":"Feature","properties":{"id":446343214,"highway":"residential"},"geometry":{"type":"LineString","coordinates":[[139.781266,33.097774],[139.781503,33.097773],[139.781949,33.097803],[139.781994,33.097807],[139.782171,33.097821],[139.782246,33.097838],[139.782281,33.097864],[139.782499,33.098053],[139.782603,33.098176],[139.782622,33.098266],[139.782641,33.098486],[139.782654,33.098567],[139.782691,33.098592],[139.782711,33.098605],[139.78276,33.098635],[139.782823,33.098673],[139.782936,33.098785],[139.783102,33.098891],[139.783169,33.09901],[139.783215,33.09916],[139.783207,33.099313],[139.783225,33.099639],[139.78329,33.100016],[139.783294,33.100147],[139.783224,33.100147],[139.783134,33.1002],[139.783055,33.100259],[139.782966,33.100276],[139.782863,33.100305],[139.782703,33.10038]]}},{"type":"Feature","properties":{"id":446343226,"highway":"service"},"geometry":{"type":"LineString","coordinates":[[139.782927,33.098474],[139.78276,33.098635]]}},{"type":"Feature","properties":{"id":446343235,"highway":"service"},"geometry":{"type":"LineString","coordinates":[[139.781998,33.097584],[139.781994,33.097807]]}},{"type":"Feature","properties":{"id":446343237,"highway":"service"},"geometry":{"type":"LineString","coordinates":[[139.780888,33.099706],[139.781089,33.099515]]}},{"type":"Feature","properties":{"id":446343260,"highway":"service"},"geometry":{"type":"LineString","coordinates":[[139.782777,33.099058],[139.782683,33.099114],[139.782514,33.099195],[139.78231,33.099278]]}},{"type":"Feature","properties":{"id":446343267,"highway":"service"},"geometry":{"type":"LineString","coordinates":[[139.780755,33.098585],[139.780825,33.098567],[139.781032,33.098551]]}},{"type":"Feature","properties":{"id":446343290,"highway":"service"},"geometry":{"type":"LineString","coordinates":[[139.780884,33.09782],[139.781131,33.097752],[139.781262,33.09774]]}},{"type":"Feature","properties":{"id":446343301,"highway":"service"},"geometry":{"type":"LineString","coordinates":[[139.781077,33.098751],[139.781032,33.098551],[139.781061,33.098511]]}},{"type":"Feature","properties":{"id":446343313,"highway":"service"},"geometry":{"type":"LineString","coordinates":[[139.781981,33.0969],[139.782003,33.096949],[139.782008,33.097084],[139.781652,33.097391],[139.781256,33.097683]]}},{"type":"Feature","properties":{"id":446343316,"highway":"service"},"geometry":{"type":"LineString","coordinates":[[139.78004,33.096697],[139.779839,33.096877],[139.77974,33.096929],[139.779686,33.096985]]}},{"type":"Feature","properties":{"id":446343328,"highway":"unclassified"},"geometry":{"type":"LineString","coordinates":[[139.793271,33.111795],[139.793292,33.111756],[139.793317,33.111721],[139.793596,33.11135],[139.793781,33.111105],[139.793801,33.111089],[139.793926,33.110988],[139.794144,33.110848],[139.794227,33.110795],[139.794479,33.110672],[139.794597,33.11058],[139.794683,33.110461],[139.794701,33.110341],[139.794736,33.110234],[139.794932,33.110189],[139.795055,33.110153],[139.795243,33.109973],[139.79552,33.109614],[139.795699,33.109391],[139.796155,33.109005],[139.796236,33.108904],[139.796297,33.10874],[139.796378,33.108603],[139.796539,33.108553],[139.796761,33.108486],[139.796906,33.10838],[139.796987,33.108227],[139.797046,33.108104],[139.797027,33.10794],[139.797067,33.107801],[139.797249,33.107488],[139.797252,33.107365],[139.797212,33.107192],[139.797271,33.107073],[139.797416,33.106958],[139.797706,33.106807],[139.798223,33.106459],[139.798529,33.10636],[139.798722,33.106291],[139.798808,33.106176],[139.798808,33.106034],[139.798762,33.105902],[139.798706,33.105819],[139.798797,33.105691],[139.798926,33.105648],[139.799108,33.105621],[139.799191,33.105572],[139.799334,33.105408],[139.79947,33.105356],[139.799717,33.105264],[139.799921,33.105172],[139.799996,33.105098],[139.800023,33.104994],[139.799988,33.10492],[139.799955,33.104897],[139.799805,33.104758],[139.799826,33.104668],[139.800028,33.104486],[139.800403,33.104347],[139.800494,33.104226],[139.800604,33.103754],[139.800548,33.103666],[139.800435,33.103617],[139.800052,33.103637],[139.799821,33.103572],[139.79973,33.103572],[139.799564,33.103594],[139.79947,33.103549],[139.799459,33.103473],[139.79958,33.103203],[139.799596,33.102943],[139.799679,33.102662],[139.799818,33.102485],[139.799942,33.102235],[139.799923,33.102179],[139.799856,33.102139],[139.799776,33.102134],[139.799687,33.102143],[139.799486,33.102213],[139.799325,33.102253],[139.799065,33.102309],[139.798821,33.102469],[139.798681,33.102541],[139.798622,33.102536],[139.798603,33.102494],[139.798633,33.102444],[139.798743,33.102287],[139.798756,33.102201],[139.798737,33.102105],[139.798676,33.101941],[139.798826,33.101658],[139.798909,33.101399],[139.799244,33.100963],[139.79925,33.100856],[139.799223,33.100797],[139.799151,33.100757],[139.799041,33.100757],[139.798649,33.100831],[139.798568,33.100802],[139.798566,33.100721],[139.798609,33.100633],[139.798759,33.100451],[139.799008,33.100343],[139.799231,33.10013],[139.7994,33.100011],[139.799572,33.099916],[139.799826,33.099694],[139.800025,33.099458],[139.800097,33.099352],[139.800108,33.099242],[139.800105,33.099137],[139.800164,33.099065],[139.800317,33.098905],[139.800368,33.098799],[139.800366,33.098734],[139.800191,33.098766],[139.800044,33.098775],[139.799993,33.098734],[139.800006,33.098644],[139.800092,33.098519],[139.800199,33.098355],[139.8004,33.098222],[139.800569,33.098013],[139.800741,33.097867],[139.800846,33.09773],[139.800867,33.097559],[139.800881,33.097397],[139.800929,33.097301],[139.80106,33.09709],[139.801125,33.096986],[139.801106,33.096912],[139.801055,33.096789],[139.801058,33.096609],[139.800985,33.096521],[139.800859,33.09649],[139.80073,33.096526],[139.800588,33.09671],[139.800446,33.096818],[139.800376,33.09691],[139.800194,33.097015],[139.80002,33.097137],[139.799859,33.097395],[139.79973,33.097532],[139.799652,33.097566],[139.799523,33.097703],[139.799427,33.097735],[139.799371,33.097703],[139.799354,33.097631],[139.799295,33.097514],[139.799218,33.097429],[139.799083,33.097357],[139.799049,33.09731],[139.79907,33.097231],[139.79911,33.09709],[139.799075,33.097009],[139.79896,33.096917],[139.79892,33.096811],[139.798995,33.096755],[139.799129,33.096667],[139.799169,33.096532],[139.799094,33.096458],[139.798968,33.096454],[139.798866,33.096474],[139.798442,33.096568],[139.798239,33.096685],[139.798021,33.096813],[139.797582,33.096867],[139.797492,33.096883],[139.797311,33.096917],[139.797166,33.09698],[139.797088,33.097069],[139.796973,33.09726],[139.796868,33.097402],[139.796686,33.097537],[139.796544,33.097642],[139.796399,33.097683],[139.796163,33.097705],[139.795873,33.097667],[139.795661,33.097613],[139.795505,33.097528],[139.795385,33.097431],[139.795315,33.097303],[139.795261,33.097184],[139.795192,33.097076],[139.79495,33.096926],[139.794816,33.096856],[139.794604,33.096577],[139.794347,33.096442],[139.794205,33.096204],[139.7941,33.096123],[139.794046,33.095975],[139.793985,33.095831],[139.793832,33.095809],[139.793488,33.095656],[139.793424,33.09558],[139.793336,33.095452],[139.793078,33.095348],[139.792912,33.095335],[139.792791,33.095249],[139.792786,33.095157],[139.792788,33.094986],[139.792703,33.094937],[139.792523,33.094829],[139.792445,33.094679],[139.792413,33.094515],[139.792413,33.094328],[139.792346,33.094124],[139.792373,33.093962],[139.792322,33.09384],[139.792241,33.093777],[139.792118,33.09369],[139.79204,33.093528],[139.791949,33.093481],[139.791828,33.093483],[139.791742,33.093445],[139.791638,33.093377],[139.79148,33.093321],[139.791329,33.093209],[139.790962,33.092787],[139.790737,33.092472],[139.790637,33.092279],[139.790667,33.092141],[139.790656,33.091984],[139.790584,33.091917],[139.790433,33.09191],[139.790272,33.091843],[139.790138,33.091753],[139.790103,33.091629],[139.79017,33.091483],[139.790315,33.091074],[139.790313,33.091007],[139.79023,33.090778],[139.790141,33.090737],[139.790028,33.090755],[139.789927,33.090849],[139.789808,33.090901],[139.789648,33.09091],[139.789519,33.090847],[139.78942,33.090717],[139.789371,33.090575],[139.78936,33.09042],[139.789401,33.090312],[139.789529,33.090178],[139.789744,33.090108],[139.789825,33.090034],[139.789843,33.089926],[139.789755,33.089858],[139.78958,33.089822],[139.789516,33.089739],[139.789532,33.089629],[139.789602,33.089528],[139.789739,33.089474],[139.789868,33.089476],[139.790007,33.089476],[139.790087,33.089422],[139.790128,33.089294],[139.790187,33.088755],[139.790168,33.088609],[139.790039,33.088501],[139.789924,33.088377],[139.789934,33.088261],[139.790036,33.08813],[139.790042,33.088007],[139.789964,33.087924],[139.789913,33.087829],[139.789916,33.087649],[139.789913,33.087301],[139.789798,33.087094],[139.789642,33.08702],[139.789326,33.086919],[139.789256,33.086802],[139.789079,33.086355],[139.788964,33.086256],[139.788792,33.086173],[139.788701,33.086087],[139.788663,33.085975],[139.78865,33.085728],[139.788585,33.085625],[139.788446,33.085524],[139.787408,33.085],[139.787206,33.084917],[139.787097,33.084872],[139.785402,33.083944],[139.785037,33.083735],[139.784752,33.083519],[139.784573,33.083337],[139.784444,33.083117],[139.784417,33.083099],[139.78409,33.082993],[139.78363,33.08271],[139.783535,33.082675],[139.78321,33.082652],[139.783081,33.082637]]}},{"type":"Feature","properties":{"id":446343368,"highway":"service"},"geometry":{"type":"LineString","coordinates":[[139.779271,33.097706],[139.779344,33.097711],[139.779469,33.097779],[139.779712,33.097796],[139.779937,33.097837],[139.780133,33.097844]]}},{"type":"Feature","properties":{"id":446343380,"highway":"residential"},"geometry":{"type":"LineString","coordinates":[[139.781411,33.098775],[139.78185,33.09878],[139.781896,33.098774],[139.782072,33.098749],[139.782316,33.098704],[139.782662,33.098605],[139.782691,33.098592]]}},{"type":"Feature","properties":{"id":446343398,"highway":"service"},"geometry":{"type":"LineString","coordinates":[[139.779539,33.096583],[139.779694,33.096866],[139.779686,33.096985],[139.779657,33.097107],[139.77971,33.097214],[139.779906,33.097417],[139.780091,33.097583],[139.780157,33.097631]]}},{"type":"Feature","properties":{"id":446343403,"highway":"service"},"geometry":{"type":"LineString","coordinates":[[139.778892,33.098807],[139.778858,33.098873],[139.778796,33.09894],[139.778772,33.098996],[139.778847,33.099059],[139.77959,33.099232],[139.779906,33.099317],[139.780327,33.099367],[139.781089,33.099515]]}},{"type":"Feature","properties":{"id":446343405,"highway":"residential"},"geometry":{"type":"LineString","coordinates":[[139.781896,33.098774],[139.781931,33.09883],[139.782162,33.099115],[139.78231,33.099278],[139.782334,33.099303],[139.782471,33.099503],[139.782455,33.099687],[139.782477,33.099775],[139.7826,33.100096],[139.782559,33.100147]]}},{"type":"Feature","properties":{"id":446436281,"highway":"secondary"},"geometry":{"type":"LineString","coordinates":[[139.784254,33.088591],[139.78423,33.088711]]}},{"type":"Feature","properties":{"id":446436282,"highway":"secondary"},"geometry":{"type":"LineString","coordinates":[[139.783555,33.089445],[139.783449,33.089515]]}},{"type":"Feature","properties":{"id":446436283,"highway":"secondary"},"geometry":{"type":"LineString","coordinates":[[139.783449,33.089515],[139.783348,33.089626],[139.783283,33.089721],[139.782535,33.091433]]}},{"type":"Feature","properties":{"id":446436284,"highway":"secondary"},"geometry":{"type":"LineString","coordinates":[[139.783288,33.084582],[139.783348,33.084667],[139.783444,33.08475],[139.78361,33.084851],[139.783708,33.084887],[139.783788,33.084917],[139.78398,33.084975],[139.784013,33.084985],[139.784195,33.085065],[139.784249,33.085104],[139.784342,33.08517]]}},{"type":"Feature","properties":{"id":446436305,"highway":"service"},"geometry":{"type":"LineString","coordinates":[[139.781826,33.095275],[139.782054,33.095375],[139.78214,33.095591],[139.782183,33.095802],[139.782183,33.096072],[139.782247,33.096229],[139.782349,33.096391],[139.782456,33.096539],[139.782604,33.096692],[139.782687,33.096804],[139.782768,33.097069],[139.78284,33.097254],[139.782918,33.097427],[139.783028,33.097564],[139.783106,33.09764],[139.783175,33.097714],[139.783277,33.097761],[139.783363,33.097766],[139.783444,33.097735],[139.783548,33.097609],[139.783604,33.097535],[139.78372,33.097521],[139.78383,33.097573],[139.783883,33.097667],[139.783883,33.097761]]}},{"type":"Feature","properties":{"id":446436306,"highway":"unclassified"},"geometry":{"type":"LineString","coordinates":[[139.781973,33.094809],[139.781899,33.094794],[139.78181,33.094764],[139.781744,33.094708],[139.781596,33.094558],[139.781546,33.094482],[139.781459,33.094225],[139.781444,33.094082],[139.781468,33.093947],[139.781507,33.093754],[139.781375,33.093645],[139.780984,33.093308],[139.78071,33.093083],[139.780501,33.092782],[139.780587,33.092611],[139.780517,33.09244],[139.78034,33.092238],[139.780254,33.092067],[139.780329,33.091946],[139.780426,33.09178],[139.780587,33.0908],[139.780496,33.089829],[139.780673,33.089209],[139.780705,33.08889],[139.780341,33.087606],[139.78027,33.087357]]}},{"type":"Feature","properties":{"id":446436333,"highway":"service"},"geometry":{"type":"LineString","coordinates":[[139.780729,33.0952],[139.780691,33.095308],[139.780842,33.095366],[139.780895,33.095452],[139.780858,33.09564],[139.781185,33.095896],[139.781271,33.095959],[139.781524,33.096235]]}},{"type":"Feature","properties":{"id":446436334,"highway":"service"},"geometry":{"type":"LineString","coordinates":[[139.783526,33.078127],[139.783726,33.078221],[139.783879,33.078495],[139.783771,33.078722],[139.783914,33.079093],[139.78397,33.079315],[139.78419,33.079778],[139.784769,33.08036]]}},{"type":"Feature","properties":{"id":446436336,"highway":"service"},"geometry":{"type":"LineString","coordinates":[[139.782702,33.092433],[139.782485,33.092789],[139.782403,33.093036],[139.782385,33.093202],[139.782489,33.093431],[139.782509,33.093623],[139.782437,33.093798],[139.78233,33.093896],[139.782271,33.093911]]}},{"type":"Feature","properties":{"id":446488645,"highway":"residential"},"geometry":{"type":"LineString","coordinates":[[139.794986,33.071094],[139.794937,33.070984],[139.794933,33.070939],[139.794937,33.070905],[139.794996,33.070737],[139.795008,33.070658],[139.79501,33.070616],[139.795006,33.070597],[139.794999,33.070577],[139.794985,33.070561],[139.794962,33.070547],[139.794938,33.07054],[139.794872,33.070532],[139.794526,33.070534],[139.794473,33.070521],[139.794446,33.070489],[139.794443,33.070428],[139.794456,33.070163]]}},{"type":"Feature","properties":{"id":446488647,"highway":"residential"},"geometry":{"type":"LineString","coordinates":[[139.79462,33.071847],[139.794719,33.071717],[139.794794,33.071581],[139.794833,33.071463],[139.794872,33.071282],[139.794921,33.071165],[139.794957,33.071117],[139.794986,33.071094],[139.795027,33.071091],[139.795069,33.071096],[139.795129,33.071127],[139.795183,33.071164],[139.795244,33.071229],[139.795314,33.071289],[139.795396,33.071338],[139.795457,33.071364],[139.795511,33.07139]]}},{"type":"Feature","properties":{"id":446488648,"highway":"residential"},"geometry":{"type":"LineString","coordinates":[[139.795971,33.066319],[139.796034,33.066284],[139.796125,33.066219],[139.796181,33.066198],[139.796232,33.066196],[139.796356,33.066253],[139.796554,33.066372],[139.796633,33.066428],[139.796742,33.066535],[139.796861,33.066597],[139.796903,33.066603],[139.796947,33.066599],[139.797305,33.066482]]}},{"type":"Feature","properties":{"id":446488649,"highway":"residential"},"geometry":{"type":"LineString","coordinates":[[139.787206,33.084917],[139.787085,33.085189],[139.787082,33.085416],[139.78698,33.08555],[139.786959,33.085627],[139.787007,33.085696],[139.787219,33.085854],[139.787313,33.085872],[139.787557,33.085834],[139.787656,33.085816],[139.787771,33.085807],[139.788056,33.086043],[139.788536,33.08611],[139.788701,33.086087]]}},{"type":"Feature","properties":{"id":446488653,"highway":"residential"},"geometry":{"type":"LineString","coordinates":[[139.797278,33.070025],[139.79721,33.069983],[139.796735,33.0693],[139.79672,33.06928],[139.796599,33.069142],[139.796543,33.06908],[139.796535,33.068877],[139.796503,33.068718],[139.796436,33.068486],[139.796423,33.068453],[139.796382,33.068345],[139.796291,33.068225],[139.796173,33.067933],[139.796165,33.067826],[139.796154,33.067693],[139.796101,33.067472],[139.796042,33.067239],[139.79602,33.067122],[139.796095,33.067032],[139.796254,33.066951]]}},{"type":"Feature","properties":{"id":446488660,"highway":"service"},"geometry":{"type":"LineString","coordinates":[[139.791131,33.074154],[139.79117,33.074302],[139.791182,33.074347]]}},{"type":"Feature","properties":{"id":446488665,"highway":"residential"},"geometry":{"type":"LineString","coordinates":[[139.794477,33.072918],[139.794436,33.072894],[139.794139,33.072717],[139.794042,33.072664],[139.793948,33.072602],[139.793821,33.07251],[139.793828,33.072462],[139.793837,33.072409],[139.793845,33.072341],[139.793837,33.072308],[139.793822,33.072287],[139.793791,33.072248],[139.793756,33.072216],[139.793722,33.072197],[139.793674,33.072178],[139.793604,33.072161],[139.793496,33.072157],[139.793313,33.072135],[139.79317,33.072117],[139.79282,33.07205],[139.792781,33.072035],[139.79272,33.072013],[139.792629,33.071909],[139.792647,33.071809],[139.792683,33.071729],[139.792712,33.071666],[139.79279,33.071544],[139.792803,33.071486],[139.792763,33.071393],[139.792661,33.071288],[139.792578,33.071133],[139.792541,33.071077],[139.792398,33.070859],[139.79235,33.070724],[139.792331,33.070656],[139.792256,33.070584],[139.792207,33.070533]]}},{"type":"Feature","properties":{"id":446488666,"highway":"service"},"geometry":{"type":"LineString","coordinates":[[139.802527,33.093131],[139.802528,33.093174],[139.802512,33.093208],[139.80246,33.093229],[139.802347,33.093232],[139.802182,33.093322],[139.801949,33.093494],[139.80165,33.093744],[139.801478,33.093913],[139.801325,33.094085],[139.801211,33.094273],[139.801021,33.09452],[139.800953,33.094661],[139.800868,33.094761],[139.800818,33.094813],[139.800734,33.095129],[139.800688,33.095276],[139.800641,33.095343],[139.800469,33.095439],[139.80026,33.095516],[139.800064,33.095547],[139.800005,33.095575],[139.799903,33.095656],[139.799832,33.095753],[139.799749,33.095804],[139.7995,33.095899],[139.799305,33.096],[139.798864,33.096161],[139.798491,33.096272],[139.798338,33.096385],[139.798232,33.096432],[139.797964,33.096513],[139.797679,33.096656],[139.797555,33.096747],[139.7975,33.096805],[139.797492,33.096883]]}},{"type":"Feature","properties":{"id":446488667,"highway":"unclassified"},"geometry":{"type":"LineString","coordinates":[[139.796241,33.066849],[139.796112,33.066622],[139.796002,33.066395],[139.795971,33.066319],[139.795876,33.066271],[139.795836,33.066233],[139.795552,33.065754],[139.795493,33.065639],[139.79547,33.065496],[139.795443,33.065268],[139.795452,33.065228],[139.795485,33.065177],[139.7958,33.064859],[139.796139,33.064517],[139.796448,33.064221],[139.796473,33.064182],[139.796462,33.064095],[139.796417,33.063949],[139.796384,33.063916],[139.796339,33.06389],[139.796272,33.063866],[139.796209,33.063856],[139.795903,33.06389],[139.795838,33.063921],[139.795808,33.063954],[139.795762,33.064021],[139.795718,33.064074],[139.795685,33.064085],[139.795652,33.064088],[139.795602,33.064071],[139.795571,33.064046],[139.795561,33.063999],[139.79557,33.063951],[139.795602,33.06392],[139.795883,33.06374],[139.796165,33.063627],[139.796212,33.063617],[139.796256,33.063615],[139.79635,33.063628],[139.796465,33.063645],[139.796513,33.063646],[139.796545,33.063632],[139.796574,33.063612],[139.796584,33.063577],[139.796582,33.063542],[139.79658,33.063519],[139.79657,33.063502],[139.796542,33.063484],[139.796513,33.063472],[139.796444,33.06346],[139.796325,33.063439],[139.796252,33.063429],[139.796163,33.063428],[139.796074,33.063444],[139.795986,33.063477],[139.795726,33.063592],[139.795639,33.06362],[139.79552,33.063638],[139.795487,33.063637],[139.795456,33.063625],[139.795434,33.063604],[139.795434,33.063574],[139.79546,33.063533],[139.795497,33.06351],[139.795662,33.063416]]}},{"type":"Feature","properties":{"id":446488668,"highway":"service"},"geometry":{"type":"LineString","coordinates":[[139.796879,33.068676],[139.797121,33.068648],[139.797292,33.068651]]}},{"type":"Feature","properties":{"id":446488669,"highway":"service"},"geometry":{"type":"LineString","coordinates":[[139.795075,33.070309],[139.794888,33.070172],[139.794764,33.070049]]}},{"type":"Feature","properties":{"id":446488670,"highway":"service"},"geometry":{"type":"LineString","coordinates":[[139.793526,33.072632],[139.793649,33.072605],[139.793765,33.072554],[139.793821,33.07251]]}},{"type":"Feature","properties":{"id":446488672,"highway":"residential"},"geometry":{"type":"LineString","coordinates":[[139.797271,33.070113],[139.797412,33.070302],[139.797506,33.070493],[139.797525,33.070532]]}},{"type":"Feature","properties":{"id":446488675,"highway":"unclassified"},"geometry":{"type":"LineString","coordinates":[[139.798746,33.065162],[139.798715,33.065163],[139.798664,33.06517],[139.798608,33.065186],[139.798547,33.065223],[139.798505,33.065277],[139.798485,33.065346],[139.798472,33.065417],[139.798454,33.065483],[139.798385,33.065528],[139.79804,33.065555],[139.797703,33.065582],[139.797413,33.065604],[139.797323,33.065616],[139.797109,33.065774],[139.797,33.065878],[139.796999,33.065924],[139.797305,33.066482],[139.797571,33.066966],[139.797602,33.066996],[139.797644,33.067009],[139.797921,33.067009],[139.797966,33.067011],[139.798009,33.067021],[139.798038,33.067044],[139.798063,33.067074],[139.798131,33.067211],[139.79822,33.067495],[139.798259,33.067656],[139.798263,33.067738],[139.798203,33.067961],[139.798165,33.068074],[139.797972,33.068195],[139.797916,33.068274],[139.797865,33.068505],[139.797811,33.06866],[139.79774,33.068802],[139.797701,33.068921],[139.797689,33.069026],[139.797642,33.069075],[139.797497,33.069101],[139.797468,33.069126],[139.797442,33.069148],[139.797558,33.069518],[139.797635,33.069765],[139.797638,33.069843],[139.797595,33.069887],[139.797355,33.06996],[139.797278,33.070025],[139.797271,33.070113],[139.797249,33.070155],[139.797156,33.070205],[139.796913,33.070299],[139.796864,33.070337],[139.796923,33.070497],[139.796943,33.07063],[139.796949,33.070663]]}},{"type":"Feature","properties":{"id":446488678,"highway":"service"},"geometry":{"type":"LineString","coordinates":[[139.792429,33.073547],[139.792413,33.073628],[139.79244,33.073704],[139.792504,33.073767],[139.792535,33.073797]]}},{"type":"Feature","properties":{"id":446488680,"highway":"unclassified"},"geometry":{"type":"LineString","coordinates":[[139.796644,33.070742],[139.796626,33.070704],[139.796594,33.0706],[139.796574,33.070495],[139.796584,33.07036],[139.796538,33.070324],[139.796396,33.070262],[139.796302,33.070233],[139.7962,33.070227],[139.796064,33.070234],[139.79603,33.070228],[139.796011,33.070203],[139.795925,33.070057],[139.795804,33.069792],[139.795759,33.069731],[139.795733,33.069712],[139.795692,33.069716],[139.795575,33.069754],[139.79531,33.069855],[139.795236,33.069889],[139.7952,33.069898],[139.795134,33.069898],[139.795028,33.069906],[139.794829,33.070018],[139.794764,33.070049],[139.794652,33.070104],[139.794599,33.07013],[139.794546,33.070155],[139.7945,33.070162],[139.794456,33.070163],[139.794361,33.070121],[139.794229,33.070062],[139.794127,33.070012],[139.79366,33.069754]]}},{"type":"Feature","properties":{"id":446488682,"highway":"service"},"geometry":{"type":"LineString","coordinates":[[139.79618,33.069446],[139.796313,33.069332],[139.796486,33.069204],[139.796599,33.069142]]}},{"type":"Feature","properties":{"id":446488683,"highway":"service"},"geometry":{"type":"LineString","coordinates":[[139.797348,33.068227],[139.797356,33.068455],[139.797317,33.06862],[139.797292,33.068651]]}},{"type":"Feature","properties":{"id":446488684,"highway":"service"},"geometry":{"type":"LineString","coordinates":[[139.79437,33.071739],[139.794127,33.071587],[139.793959,33.071445],[139.793638,33.071187]]}},{"type":"Feature","properties":{"id":446488685,"highway":"service"},"geometry":{"type":"LineString","coordinates":[[139.795424,33.070348],[139.795313,33.070236],[139.795242,33.070112],[139.7952,33.069898]]}},{"type":"Feature","properties":{"id":446488688,"highway":"service"},"geometry":{"type":"LineString","coordinates":[[139.787002,33.074095],[139.787069,33.07427],[139.787096,33.074455],[139.787107,33.074628],[139.78718,33.074869]]}},{"type":"Feature","properties":{"id":446488689,"highway":"service"},"geometry":{"type":"LineString","coordinates":[[139.797386,33.069091],[139.797312,33.068924],[139.797275,33.068814],[139.797283,33.06871],[139.797292,33.068651]]}},{"type":"Feature","properties":{"id":446488690,"highway":"service"},"geometry":{"type":"LineString","coordinates":[[139.792392,33.073304],[139.792438,33.07323],[139.792515,33.073192],[139.792794,33.073219],[139.79288,33.073197]]}},{"type":"Feature","properties":{"id":446488691,"highway":"residential"},"geometry":{"type":"LineString","coordinates":[[139.796735,33.0693],[139.796938,33.069238],[139.79717,33.069175],[139.797331,33.069108],[139.797386,33.069091],[139.797468,33.069126]]}},{"type":"Feature","properties":{"id":446488697,"highway":"residential"},"geometry":{"type":"LineString","coordinates":[[139.795238,33.072393],[139.795195,33.072343],[139.795071,33.072197],[139.794926,33.072062],[139.794789,33.071978],[139.79467,33.071868],[139.79462,33.071847],[139.79453,33.07181],[139.79437,33.071739]]}},{"type":"Feature","properties":{"id":446488699,"highway":"residential"},"geometry":{"type":"LineString","coordinates":[[139.793604,33.072161],[139.793638,33.072071],[139.793681,33.071993],[139.793795,33.071896],[139.793821,33.07188],[139.793848,33.071873],[139.79387,33.071873],[139.793887,33.071878],[139.79404,33.071979],[139.794056,33.071985],[139.794068,33.071981],[139.794106,33.071959],[139.794214,33.07186],[139.79437,33.071739]]}},{"type":"Feature","properties":{"id":446488701,"highway":"residential"},"geometry":{"type":"LineString","coordinates":[[139.79662,33.067053],[139.796462,33.067055],[139.79639,33.06704],[139.796296,33.066988],[139.796254,33.066951],[139.796243,33.066908],[139.796241,33.066849],[139.796524,33.066747],[139.796742,33.066535]]}},{"type":"Feature","properties":{"id":446488702,"highway":"service"},"geometry":{"type":"LineString","coordinates":[[139.790018,33.073873],[139.790029,33.073787],[139.790107,33.073738],[139.790176,33.073774],[139.790187,33.073848],[139.790185,33.073994],[139.790163,33.074154],[139.790201,33.074327],[139.790301,33.074627]]}},{"type":"Feature","properties":{"id":446516237,"highway":"service"},"geometry":{"type":"LineString","coordinates":[[139.798894,33.063882],[139.798927,33.063899],[139.799029,33.063926],[139.799118,33.063949],[139.799174,33.064],[139.799228,33.064057],[139.799299,33.064153],[139.799342,33.064243],[139.799422,33.06445],[139.79948,33.064536],[139.799516,33.06459],[139.799583,33.064655],[139.799696,33.064655],[139.799779,33.064603],[139.799867,33.064554],[139.800251,33.064574],[139.800425,33.064597],[139.800624,33.064637]]}},{"type":"Feature","properties":{"id":446516238,"highway":"service"},"geometry":{"type":"LineString","coordinates":[[139.798765,33.064938],[139.798703,33.064901],[139.798631,33.064827],[139.798561,33.064709],[139.798528,33.064604],[139.798507,33.06451],[139.798525,33.06429],[139.798558,33.064247],[139.798615,33.064219],[139.7987,33.064209],[139.79882,33.064189],[139.798947,33.064161],[139.798987,33.06414],[139.799013,33.064098],[139.799025,33.064041],[139.799012,33.064005],[139.798982,33.063976],[139.798941,33.06396],[139.798802,33.063924]]}},{"type":"Feature","properties":{"id":446516244,"highway":"service"},"geometry":{"type":"LineString","coordinates":[[139.79891,33.063769],[139.798894,33.063882],[139.798802,33.063924],[139.79866,33.063949],[139.798475,33.063983],[139.798403,33.063979],[139.798352,33.063956],[139.798255,33.063738],[139.798258,33.063672],[139.798304,33.063605],[139.798362,33.06357],[139.798446,33.063529],[139.798714,33.06347],[139.798784,33.063475],[139.798822,33.063506],[139.798861,33.063553],[139.798915,33.063628],[139.79891,33.063769]]}},{"type":"Feature","properties":{"id":446516267,"highway":"residential"},"geometry":{"type":"LineString","coordinates":[[139.798703,33.07024],[139.798701,33.070198],[139.798663,33.069568],[139.798647,33.069119]]}},{"type":"Feature","properties":{"id":446516276,"highway":"residential"},"geometry":{"type":"LineString","coordinates":[[139.797775,33.069474],[139.797706,33.069305],[139.797698,33.06911],[139.797689,33.069026]]}},{"type":"Feature","properties":{"id":446516293,"highway":"service"},"geometry":{"type":"LineString","coordinates":[[139.798717,33.064581],[139.79877,33.064592],[139.798816,33.064616],[139.798852,33.064664],[139.798878,33.064724],[139.798884,33.064791],[139.798884,33.064845],[139.79887,33.064869],[139.798765,33.064938]]}},{"type":"Feature","properties":{"id":446516294,"highway":"service"},"geometry":{"type":"LineString","coordinates":[[139.799457,33.063942],[139.799428,33.064124],[139.799422,33.064315],[139.799487,33.064493],[139.79948,33.064536]]}},{"type":"Feature","properties":{"id":446516298,"highway":"residential"},"geometry":{"type":"LineString","coordinates":[[139.798042,33.06942],[139.798114,33.069344],[139.798375,33.069243],[139.798458,33.069182],[139.798565,33.069123],[139.798647,33.069119]]}},{"type":"Feature","properties":{"id":446516300,"highway":"service"},"geometry":{"type":"LineString","coordinates":[[139.798528,33.064604],[139.798631,33.064578],[139.798717,33.064581],[139.79875,33.06463],[139.798773,33.064691],[139.798765,33.064938],[139.798746,33.065162]]}},{"type":"Feature","properties":{"id":446516319,"highway":"unclassified"},"geometry":{"type":"LineString","coordinates":[[139.808692,33.065652],[139.808678,33.065554],[139.808657,33.065529],[139.808597,33.065525],[139.808481,33.065536],[139.808351,33.065565],[139.80831,33.065555],[139.808284,33.065543],[139.808181,33.065461],[139.80813,33.065386],[139.808079,33.06534],[139.80798,33.065309],[139.807628,33.065303],[139.807496,33.065349],[139.807211,33.065355],[139.807091,33.065439],[139.807059,33.065453],[139.807,33.065479],[139.806905,33.065471],[139.806697,33.065371],[139.806525,33.065335],[139.806321,33.065246],[139.806213,33.065214],[139.806152,33.065195],[139.806095,33.065165],[139.80598,33.064955],[139.805894,33.064859],[139.8058,33.064817],[139.80562,33.064816],[139.805528,33.064833],[139.80547,33.064845],[139.805101,33.06503],[139.805078,33.065059],[139.805054,33.06509],[139.805045,33.065167],[139.805077,33.065229],[139.805153,33.065313],[139.805296,33.065473],[139.805294,33.065574],[139.805256,33.065644],[139.804918,33.065758],[139.80484,33.065806],[139.804787,33.065941],[139.804725,33.065994],[139.804612,33.066003],[139.804432,33.065909],[139.804367,33.065876],[139.80418,33.065783],[139.804081,33.065779],[139.804054,33.06583],[139.804054,33.066006],[139.803974,33.066087],[139.803912,33.066118],[139.803797,33.066109],[139.803648,33.06604],[139.803498,33.06597],[139.803297,33.065927],[139.803173,33.065835],[139.803133,33.065726],[139.80312,33.065691],[139.802953,33.065446],[139.802889,33.0654],[139.80265,33.065338],[139.80262,33.065328],[139.802294,33.065392],[139.801991,33.065453],[139.801931,33.065482],[139.801794,33.065783],[139.801803,33.066064],[139.801832,33.066102],[139.801972,33.066201],[139.802003,33.066232],[139.802022,33.066278],[139.802031,33.066309],[139.802033,33.066347],[139.802023,33.06638],[139.802001,33.0664],[139.801935,33.066432],[139.801864,33.066442],[139.801787,33.066429],[139.801706,33.066395],[139.80152,33.066317],[139.801412,33.066249],[139.80136,33.066129],[139.801314,33.065945],[139.801293,33.065736],[139.801261,33.065525],[139.80129,33.065412],[139.80128,33.065343],[139.801111,33.065089],[139.801078,33.064936],[139.801049,33.064844],[139.800958,33.064765],[139.800636,33.064805],[139.800579,33.064841],[139.800553,33.064947],[139.800507,33.065005],[139.800113,33.065149],[139.799681,33.065048],[139.799552,33.065039],[139.799418,33.065075],[139.79919,33.065202],[139.799108,33.065207],[139.798746,33.065162]]}},{"type":"Feature","properties":{"id":446516322,"highway":"residential"},"geometry":{"type":"LineString","coordinates":[[139.79813,33.070377],[139.79814,33.070342],[139.798192,33.070144],[139.798205,33.069995],[139.798192,33.069849],[139.798141,33.069631],[139.798071,33.069451],[139.798042,33.06942],[139.797775,33.069474],[139.797558,33.069518]]}},{"type":"Feature","properties":{"id":446653797,"highway":"residential"},"geometry":{"type":"LineString","coordinates":[[139.797568,33.070521],[139.797586,33.070559],[139.797765,33.070941],[139.798041,33.070989],[139.798261,33.071],[139.798432,33.071007],[139.798653,33.070838],[139.798674,33.070787],[139.798539,33.070614],[139.798492,33.070526],[139.798485,33.070493],[139.798458,33.070348],[139.798449,33.070301]]}},{"type":"Feature","properties":{"id":446653798,"highway":"residential"},"geometry":{"type":"LineString","coordinates":[[139.79819,33.071815],[139.798281,33.0718],[139.798338,33.071796],[139.798387,33.071809],[139.798503,33.072044],[139.798526,33.072054],[139.798607,33.072057],[139.798675,33.072058],[139.798708,33.072088],[139.798737,33.072144],[139.798774,33.072303],[139.798789,33.072331],[139.799046,33.072456],[139.799246,33.072515],[139.799289,33.072516],[139.799539,33.072394],[139.799583,33.072364],[139.79961,33.072346],[139.799624,33.072298],[139.799621,33.072225],[139.799586,33.072159],[139.799464,33.071971],[139.799467,33.071921],[139.79949,33.071861],[139.799531,33.071812],[139.799567,33.071782],[139.799655,33.071741],[139.799744,33.071732],[139.799805,33.071731],[139.799906,33.071735],[139.799975,33.07176],[139.800029,33.071796],[139.800193,33.072007],[139.800237,33.072037],[139.800294,33.072044],[139.80059,33.072012],[139.800644,33.071985],[139.800692,33.071908],[139.800861,33.071739],[139.800974,33.071662],[139.801135,33.071552],[139.801281,33.071498],[139.801306,33.071483],[139.801316,33.071456],[139.80132,33.071435],[139.801319,33.071399],[139.801283,33.07133],[139.801266,33.071293],[139.80126,33.071235],[139.801281,33.071069],[139.801282,33.071029],[139.801277,33.070985],[139.801267,33.070963],[139.801253,33.070946],[139.801224,33.070918],[139.801184,33.070898],[139.801134,33.070879],[139.801072,33.070864],[139.801005,33.070848],[139.800874,33.070821],[139.800832,33.070811],[139.800835,33.070565],[139.800836,33.070527],[139.800862,33.070388],[139.800873,33.070229],[139.800848,33.070141],[139.800813,33.070031],[139.800708,33.06989],[139.800634,33.069792],[139.800542,33.069782],[139.800449,33.069802],[139.800314,33.069838],[139.800283,33.06983],[139.800252,33.069774],[139.800229,33.069734]]}},{"type":"Feature","properties":{"id":446653800,"highway":"residential"},"geometry":{"type":"LineString","coordinates":[[139.79694,33.072013],[139.796945,33.071824],[139.796939,33.071708],[139.796945,33.07165],[139.79705,33.071522],[139.797201,33.071367],[139.797228,33.071322],[139.797231,33.071275],[139.797149,33.071181],[139.797094,33.071103],[139.797043,33.071002],[139.796992,33.07083],[139.796954,33.070711],[139.796949,33.070663]]}},{"type":"Feature","properties":{"id":446653801,"highway":"residential"},"geometry":{"type":"LineString","coordinates":[[139.791823,33.07394],[139.791854,33.07397],[139.7923,33.074394],[139.792372,33.074478],[139.79242,33.074563],[139.792528,33.074617],[139.792646,33.074642],[139.792737,33.074626],[139.792844,33.074583],[139.792935,33.074502],[139.793053,33.074473],[139.793477,33.074385],[139.793641,33.074376],[139.793812,33.074338],[139.793948,33.074295]]}},{"type":"Feature","properties":{"id":446653802,"highway":"unclassified"},"geometry":{"type":"LineString","coordinates":[[139.790703,33.075731],[139.790839,33.075806],[139.791053,33.076125],[139.79107,33.07615],[139.791274,33.076469],[139.791386,33.076582],[139.791561,33.076651],[139.791818,33.076625],[139.792259,33.076541],[139.792648,33.076382],[139.792899,33.07627],[139.793056,33.0762],[139.793236,33.076065],[139.793713,33.075677]]}},{"type":"Feature","properties":{"id":446653803,"highway":"residential"},"geometry":{"type":"LineString","coordinates":[[139.795299,33.072107],[139.795345,33.072121],[139.795393,33.072136],[139.795444,33.072246],[139.795524,33.072289],[139.795631,33.072323],[139.795918,33.072395],[139.79605,33.072457],[139.796248,33.072626],[139.796471,33.072822],[139.796512,33.072864],[139.796616,33.072972],[139.796806,33.073141],[139.797002,33.073345],[139.797206,33.073563]]}},{"type":"Feature","properties":{"id":446653804,"highway":"residential"},"geometry":{"type":"LineString","coordinates":[[139.799744,33.071732],[139.799739,33.071554],[139.799731,33.071444],[139.79968,33.07135],[139.799599,33.071276],[139.799454,33.071132],[139.79935,33.07101],[139.79924,33.070993],[139.799074,33.070961],[139.799059,33.070958],[139.798886,33.070921],[139.798781,33.070885],[139.798746,33.070849],[139.798674,33.070787]]}},{"type":"Feature","properties":{"id":446653808,"highway":"residential"},"geometry":{"type":"LineString","coordinates":[[139.79871,33.071735],[139.798546,33.07154],[139.798452,33.071508],[139.798411,33.071499],[139.797965,33.071396],[139.797627,33.071386],[139.797547,33.071403],[139.797324,33.071533],[139.797158,33.071646],[139.797045,33.071792],[139.796977,33.071921],[139.79694,33.072013],[139.79688,33.072124],[139.796807,33.072316],[139.796749,33.0724],[139.796827,33.072623],[139.796804,33.072664],[139.796684,33.072727],[139.796572,33.072806],[139.796512,33.072864]]}},{"type":"Feature","properties":{"id":446653812,"highway":"residential"},"geometry":{"type":"LineString","coordinates":[[139.798754,33.070405],[139.798716,33.070281],[139.798703,33.07024]]}},{"type":"Feature","properties":{"id":446653815,"highway":"service"},"geometry":{"type":"LineString","coordinates":[[139.798112,33.070641],[139.798114,33.07053],[139.79811,33.070431],[139.798108,33.070383]]}},{"type":"Feature","properties":{"id":446653816,"highway":"service"},"geometry":{"type":"LineString","coordinates":[[139.789583,33.07598],[139.789579,33.076118],[139.789579,33.076376],[139.78955,33.076624],[139.789496,33.076772],[139.789419,33.076907],[139.789309,33.077035],[139.789252,33.077143],[139.789244,33.077269],[139.789287,33.077473],[139.789333,33.077628],[139.789424,33.077768],[139.789494,33.077819],[139.78959,33.077873],[139.78963,33.077972],[139.789684,33.078044],[139.789791,33.078078],[139.789971,33.078109],[139.790105,33.078116],[139.790226,33.078139],[139.790392,33.078183],[139.790507,33.078262]]}},{"type":"Feature","properties":{"id":446653824,"highway":"residential"},"geometry":{"type":"LineString","coordinates":[[139.797231,33.071275],[139.797726,33.07098],[139.797765,33.070941]]}},{"type":"Feature","properties":{"id":446653826,"highway":"unclassified"},"geometry":{"type":"LineString","coordinates":[[139.789145,33.074725],[139.789099,33.075064],[139.789092,33.075132],[139.789081,33.075246],[139.789131,33.075381],[139.789268,33.075534],[139.789459,33.075693],[139.789571,33.075866],[139.789583,33.07598],[139.790021,33.076059],[139.790126,33.076076],[139.790398,33.07612],[139.790473,33.076118],[139.790558,33.076089],[139.790612,33.076028],[139.790658,33.07594],[139.790703,33.075731],[139.790687,33.075617],[139.790588,33.075125],[139.790545,33.074958],[139.790545,33.074801],[139.790554,33.074659],[139.790558,33.074591]]}},{"type":"Feature","properties":{"id":446653827,"highway":"service"},"geometry":{"type":"LineString","coordinates":[[139.794952,33.073028],[139.794937,33.07298],[139.794899,33.072942],[139.794757,33.072811],[139.794714,33.072772]]}},{"type":"Feature","properties":{"id":446653831,"highway":"service"},"geometry":{"type":"LineString","coordinates":[[139.797965,33.071396],[139.797903,33.071296],[139.797841,33.071145],[139.797765,33.070941]]}},{"type":"Feature","properties":{"id":446653832,"highway":"residential"},"geometry":{"type":"LineString","coordinates":[[139.79011,33.074654],[139.790186,33.075039],[139.790328,33.075161],[139.790588,33.075125]]}},{"type":"Feature","properties":{"id":446653833,"highway":"residential"},"geometry":{"type":"LineString","coordinates":[[139.795556,33.073154],[139.795478,33.073138],[139.795376,33.073043],[139.795057,33.072671],[139.795028,33.072636]]}},{"type":"Feature","properties":{"id":446653841,"highway":"residential"},"geometry":{"type":"LineString","coordinates":[[139.798485,33.070493],[139.798754,33.070405],[139.799055,33.070368],[139.799341,33.070314],[139.799894,33.0703]]}},{"type":"Feature","properties":{"id":446653842,"highway":"residential"},"geometry":{"type":"LineString","coordinates":[[139.793394,33.0736],[139.79341,33.073648],[139.793521,33.073916],[139.793699,33.074077],[139.793846,33.074188],[139.793948,33.074295]]}},{"type":"Feature","properties":{"id":446653844,"highway":"service"},"geometry":{"type":"LineString","coordinates":[[139.798913,33.071252],[139.79894,33.071232],[139.799042,33.071158],[139.799083,33.071106],[139.799079,33.071046],[139.799059,33.070958]]}},{"type":"Feature","properties":{"id":446653851,"highway":"residential"},"geometry":{"type":"LineString","coordinates":[[139.792951,33.073767],[139.792939,33.073804],[139.79291,33.073846],[139.792711,33.07399],[139.792682,33.074055],[139.792795,33.074228],[139.792935,33.074502]]}},{"type":"Feature","properties":{"id":446653855,"highway":"residential"},"geometry":{"type":"LineString","coordinates":[[139.796171,33.070975],[139.796197,33.071012],[139.796261,33.071102],[139.796363,33.071174],[139.796494,33.071254],[139.796617,33.071391],[139.796727,33.071526],[139.796835,33.071618],[139.796939,33.071708]]}},{"type":"Feature","properties":{"id":446653857,"highway":"residential"},"geometry":{"type":"LineString","coordinates":[[139.795952,33.071093],[139.795974,33.071128],[139.796124,33.071352],[139.796173,33.071396],[139.796231,33.071452],[139.796353,33.07163],[139.796469,33.071784],[139.796607,33.071917],[139.796698,33.07201],[139.796796,33.072082],[139.79688,33.072124]]}},{"type":"Feature","properties":{"id":1042247345,"highway":"residential"},"geometry":{"type":"LineString","coordinates":[[139.799739,33.069911],[139.799756,33.069946],[139.799846,33.070188],[139.799894,33.0703],[139.80024,33.070608],[139.800305,33.070637],[139.800412,33.070597],[139.800629,33.070548],[139.800785,33.070527],[139.800836,33.070527]]}},{"type":"Feature","properties":{"id":1042247399,"highway":"residential"},"geometry":{"type":"LineString","coordinates":[[139.796584,33.07036],[139.796659,33.070363],[139.796864,33.070337]]}},{"type":"Feature","properties":{"id":1042247400,"highway":"residential"},"geometry":{"type":"LineString","coordinates":[[139.796124,33.071352],[139.7958,33.07147],[139.795854,33.071643]]}},{"type":"Feature","properties":{"id":1042247401,"highway":"service"},"geometry":{"type":"LineString","coordinates":[[139.790126,33.076076],[139.790134,33.075926],[139.790137,33.07581],[139.790116,33.075527]]}},{"type":"Feature","properties":{"id":1042247410,"highway":"service"},"geometry":{"type":"LineString","coordinates":[[139.783867,33.084754],[139.783708,33.084887]]}},{"type":"Feature","properties":{"id":1042247411,"highway":"service"},"geometry":{"type":"LineString","coordinates":[[139.784491,33.084996],[139.784304,33.084914],[139.784192,33.084873],[139.784077,33.084836],[139.784048,33.084825],[139.783867,33.084754],[139.783752,33.084724],[139.783613,33.084696],[139.783437,33.084649]]}},{"type":"Feature","properties":{"id":1042247412,"highway":"service"},"geometry":{"type":"LineString","coordinates":[[139.784249,33.085104],[139.784308,33.085019],[139.784312,33.084958],[139.784304,33.084914]]}},{"type":"Feature","properties":{"id":1075256774,"highway":"service"},"geometry":{"type":"LineString","coordinates":[[139.783134,33.1002],[139.783075,33.099914],[139.783036,33.09965]]}},{"type":"Feature","properties":{"id":1449320724,"highway":"unclassified"},"geometry":{"type":"LineString","coordinates":[[139.776142,33.099981],[139.776244,33.100424],[139.776279,33.10064]]}},{"type":"Feature","properties":{"id":1449320725,"highway":"unclassified"},"geometry":{"type":"LineString","coordinates":[[139.771824,33.098676],[139.772508,33.099164]]}},{"type":"Feature","properties":{"id":1449320726,"highway":"service"},"geometry":{"type":"LineString","coordinates":[[139.772779,33.099151],[139.772669,33.099204]]}},{"type":"Feature","properties":{"id":1449320727,"highway":"unclassified"},"geometry":{"type":"LineString","coordinates":[[139.772884,33.099451],[139.772712,33.099568],[139.77268,33.099581],[139.772604,33.099625]]}},{"type":"Feature","properties":{"id":1449320728,"highway":"unclassified"},"geometry":{"type":"LineString","coordinates":[[139.771712,33.099361],[139.771768,33.099285],[139.771854,33.099231],[139.771953,33.09919],[139.772119,33.099146],[139.772229,33.099123],[139.772508,33.099164],[139.772669,33.099204],[139.772768,33.099323],[139.772884,33.099451],[139.772943,33.099487],[139.773125,33.099521],[139.773466,33.099577],[139.773718,33.099588],[139.773975,33.09959],[139.774096,33.099579],[139.774138,33.09957],[139.774184,33.099555],[139.774273,33.099528],[139.774716,33.099545]]}},{"type":"Feature","properties":{"id":1449952016,"highway":"unclassified"},"geometry":{"type":"LineString","coordinates":[[139.771363,33.099606],[139.771065,33.099547]]}},{"type":"Feature","properties":{"id":1449952017,"highway":"unclassified"},"geometry":{"type":"LineString","coordinates":[[139.774138,33.09957],[139.774115,33.099648],[139.774002,33.099919],[139.773995,33.09995],[139.774005,33.100256]]}},{"type":"Feature","properties":{"id":1454307924,"highway":"secondary"},"geometry":{"type":"LineString","coordinates":[[139.789659,33.074685],[139.789957,33.074671]]}},{"type":"Feature","properties":{"id":1454307925,"highway":"secondary"},"geometry":{"type":"LineString","coordinates":[[139.783162,33.083113],[139.783159,33.082975],[139.783081,33.082637],[139.783063,33.08254],[139.783052,33.082429],[139.783049,33.08211],[139.783052,33.082073],[139.783077,33.081757],[139.783095,33.08153],[139.783149,33.081134],[139.783152,33.080998],[139.783199,33.079318],[139.78321,33.078811],[139.783232,33.078718],[139.783526,33.078127],[139.783837,33.077503],[139.784028,33.077121],[139.784052,33.077071],[139.784168,33.07692],[139.78449,33.076687],[139.784637,33.076592],[139.785017,33.076348],[139.785431,33.076082],[139.785501,33.076026],[139.785552,33.075986],[139.785721,33.075789],[139.786273,33.075147],[139.786429,33.07501],[139.786473,33.074993],[139.786595,33.074947],[139.786777,33.074893],[139.787101,33.074875],[139.78718,33.074869],[139.787214,33.074866],[139.787839,33.074821],[139.789145,33.074725],[139.789659,33.074685]]}},{"type":"Feature","properties":{"id":1499374364,"highway":"service"},"geometry":{"type":"LineString","coordinates":[[139.790046,33.075493],[139.790064,33.075511],[139.790088,33.075522],[139.790116,33.075527],[139.790144,33.075523],[139.79017,33.075512],[139.79019,33.075495],[139.790201,33.075473],[139.790204,33.075449],[139.790197,33.075426],[139.790181,33.075406],[139.790159,33.075391],[139.790132,33.075384],[139.790104,33.075384],[139.790077,33.075392],[139.790055,33.075406],[139.79004,33.075426],[139.790033,33.075448],[139.790035,33.075471],[139.790046,33.075493]]}}]}