{"type":"FeatureCollection","features":[{"type":"Feature","properties":{"id":107523881,"highway":"secondary"},"geometry":{"type":"LineString","coordinates":[[139.790393,37.114188],[139.790424,37.114129],[139.79047,37.114067],[139.790646,37.114005],[139.790752,37.113983],[139.790949,37.113971],[139.791117,37.113994],[139.791364,37.114056],[139.791547,37.114146],[139.791674,37.114214],[139.791772,37.114276],[139.791969,37.114445],[139.79206,37.114552],[139.79218,37.114732],[139.792232,37.114794],[139.792285,37.114839],[139.792364,37.114842],[139.79244,37.114816],[139.792565,37.114754],[139.792637,37.114715],[139.792679,37.11467],[139.792672,37.114597],[139.79244,37.114146],[139.792032,37.113459],[139.791792,37.113115],[139.791715,37.112958],[139.791695,37.112884],[139.791701,37.112771],[139.791765,37.112653],[139.791827,37.112563],[139.792052,37.112237],[139.792672,37.111375],[139.792862,37.111081],[139.793215,37.110582],[139.793347,37.110394],[139.793642,37.110016],[139.794072,37.10955],[139.794935,37.108716],[139.795202,37.108463],[139.795392,37.108299],[139.795505,37.108282],[139.79587,37.108277],[139.795984,37.108237],[139.796145,37.108108],[139.796265,37.107973],[139.796399,37.107865],[139.796554,37.107792],[139.796912,37.107663],[139.797165,37.107539],[139.797398,37.107432],[139.798431,37.106818],[139.79879,37.106649],[139.799366,37.10639],[139.799409,37.106333],[139.799416,37.106226],[139.79931,37.105837],[139.799261,37.105622],[139.799275,37.105302],[139.799303,37.105082],[139.799331,37.104874],[139.799366,37.104762],[139.799521,37.104469],[139.799542,37.104317],[139.799507,37.104192],[139.799488,37.104164],[139.799451,37.104107],[139.799295,37.103945],[139.799212,37.103844],[139.799205,37.103804],[139.799219,37.103719],[139.799317,37.103606],[139.799394,37.103583],[139.799711,37.103544],[139.799992,37.103499],[139.800063,37.103471],[139.800175,37.103381],[139.800351,37.103212],[139.800449,37.103138],[139.801567,37.102813],[139.80201,37.102666],[139.802102,37.102604],[139.802552,37.10203],[139.802601,37.101934],[139.802608,37.101816],[139.802594,37.101771],[139.802601,37.101573],[139.802692,37.101348],[139.802692,37.10123],[139.80258,37.100813],[139.802531,37.100424],[139.802502,37.100323],[139.802439,37.100227],[139.802214,37.10012],[139.801849,37.099929],[139.801764,37.099901],[139.801413,37.099861],[139.801286,37.099827],[139.801181,37.099748],[139.800885,37.099602],[139.800709,37.099534],[139.800442,37.099461],[139.800295,37.099405],[139.800217,37.099343],[139.800175,37.099258],[139.800167,37.09914],[139.800147,37.09905],[139.799985,37.098819],[139.799859,37.098667],[139.79976,37.098577],[139.799675,37.098537],[139.79952,37.098503],[139.79938,37.098441],[139.799344,37.098417],[139.799254,37.098357],[139.799219,37.098301],[139.799219,37.098222],[139.79936,37.098036],[139.799395,37.097957],[139.799415,37.097873],[139.799492,37.097783],[139.79969,37.097642],[139.799717,37.097597],[139.799752,37.097399],[139.799845,37.097208],[139.7999,37.097123],[139.800182,37.096677],[139.800232,37.09657],[139.800232,37.096397],[139.800202,37.09626],[139.800105,37.095968],[139.800007,37.095772],[139.799942,37.095585],[139.799935,37.095512],[139.799929,37.095128],[139.79997,37.09483],[139.799977,37.093732],[139.800027,37.093484],[139.800111,37.09322],[139.800174,37.093073],[139.800231,37.092983],[139.800322,37.09282],[139.800463,37.092499],[139.80054,37.092279],[139.800596,37.091992],[139.800617,37.091744],[139.800638,37.091631],[139.800645,37.091518],[139.800617,37.091423],[139.80061,37.091316],[139.800624,37.091271],[139.800617,37.091259],[139.800674,37.091226],[139.80099,37.090984],[139.801103,37.090905],[139.801384,37.090764],[139.801999,37.090404],[139.802054,37.090386]]}},{"type":"Feature","properties":{"id":107524201,"highway":"unclassified"},"geometry":{"type":"LineString","coordinates":[[139.746718,37.070984],[139.746816,37.070933],[139.746855,37.070901],[139.746866,37.070868],[139.746863,37.070838],[139.746821,37.07039],[139.746718,37.07015],[139.746493,37.070051],[139.746086,37.070017],[139.745931,37.069814],[139.74598,37.069459],[139.746332,37.068865],[139.746352,37.068807],[139.746364,37.068757],[139.746355,37.0687],[139.746332,37.068659],[139.746289,37.068625],[139.746193,37.068586],[139.746112,37.06857],[139.745996,37.068572],[139.745924,37.068558],[139.745871,37.068522],[139.745819,37.068472],[139.745791,37.068419],[139.745786,37.068359],[139.74579,37.068298],[139.745811,37.068175],[139.745882,37.068014],[139.745999,37.067793],[139.746006,37.067733],[139.745999,37.067667],[139.745972,37.067613],[139.745878,37.067517],[139.745795,37.067424],[139.745757,37.067356],[139.745693,37.067153],[139.745666,37.067118],[139.745618,37.0671],[139.745534,37.067112],[139.745461,37.067133],[139.745157,37.067334],[139.745046,37.067381],[139.74494,37.067391],[139.744857,37.067381],[139.744817,37.067374],[139.744773,37.067346],[139.744576,37.06715],[139.74451,37.067101],[139.744401,37.067046],[139.744212,37.066946],[139.744174,37.066915],[139.744164,37.066888],[139.744168,37.066857],[139.744186,37.066819],[139.744231,37.066806],[139.744289,37.066805],[139.744406,37.066842],[139.7446,37.066929],[139.744763,37.067013],[139.744888,37.067087],[139.744936,37.0671],[139.745002,37.0671],[139.74505,37.067099],[139.745099,37.067083],[139.74536,37.066923],[139.74547,37.066855],[139.745538,37.066826],[139.745587,37.066817],[139.745661,37.066821],[139.745741,37.066842],[139.745791,37.066879],[139.745853,37.066946],[139.745929,37.067069],[139.745986,37.067185],[139.746042,37.067308],[139.746179,37.067547],[139.746217,37.067633],[139.746249,37.067724],[139.746287,37.067898],[139.746309,37.067995],[139.746332,37.068059],[139.746368,37.068117],[139.746413,37.068169],[139.746468,37.068213],[139.746509,37.068227],[139.746545,37.068234],[139.746576,37.068217],[139.746595,37.068198],[139.746604,37.06815],[139.746501,37.067817],[139.746463,37.067734],[139.746322,37.067472],[139.746269,37.067364],[139.746222,37.067257],[139.746146,37.067018],[139.74611,37.066936],[139.746075,37.066864],[139.74601,37.066769],[139.745948,37.066699],[139.74588,37.066624],[139.745807,37.066581],[139.74575,37.066555],[139.745694,37.066538],[139.745626,37.066536],[139.745569,37.066539],[139.74546,37.066569],[139.745377,37.066604],[139.745329,37.066615],[139.745282,37.066616],[139.745243,37.066616],[139.745202,37.066604],[139.745173,37.06658],[139.745156,37.066552],[139.745147,37.066515],[139.745136,37.066462],[139.745155,37.066393],[139.745246,37.066178],[139.745296,37.066076]]}},{"type":"Feature","properties":{"id":107525842,"highway":"trunk"},"geometry":{"type":"LineString","coordinates":[[139.745507,37.077477],[139.745808,37.077396],[139.74593,37.077362],[139.746025,37.077332],[139.746096,37.077306],[139.746177,37.077272],[139.746251,37.077237],[139.746321,37.077195],[139.746386,37.077149],[139.746509,37.077066],[139.746627,37.076974],[139.74671,37.076909],[139.746867,37.07677]]}},{"type":"Feature","properties":{"id":107527741,"highway":"trunk"},"geometry":{"type":"LineString","coordinates":[[139.746867,37.07677],[139.747188,37.076474],[139.747437,37.076217],[139.747609,37.076015],[139.747766,37.075809],[139.747872,37.075644],[139.747968,37.075476],[139.748019,37.075362],[139.748056,37.075226],[139.748091,37.075095],[139.748117,37.074904],[139.748137,37.074739],[139.748137,37.074561],[139.748111,37.074394],[139.748076,37.074176],[139.748031,37.073915],[139.747997,37.073653],[139.74797,37.073394]]}},{"type":"Feature","properties":{"id":107528259,"highway":"unclassified"},"geometry":{"type":"LineString","coordinates":[[139.746718,37.070984],[139.746458,37.071087],[139.746331,37.071154],[139.746261,37.071228],[139.74624,37.071459],[139.746212,37.071521],[139.746163,37.071594],[139.746092,37.071645],[139.745917,37.071718],[139.74579,37.07178],[139.745713,37.071836],[139.745673,37.071882],[139.745647,37.071923],[139.745635,37.071958],[139.745634,37.072011],[139.745642,37.072076],[139.745667,37.072121],[139.745703,37.072162],[139.745744,37.072192],[139.745792,37.072211],[139.745846,37.072217],[139.745933,37.072223],[139.746156,37.072231],[139.746247,37.072242],[139.746373,37.072281],[139.746458,37.072332],[139.746521,37.072382],[139.74657,37.072472],[139.746605,37.072567],[139.746612,37.072641],[139.746577,37.07272],[139.746521,37.072804],[139.746486,37.072838],[139.746401,37.072883],[139.746324,37.072905],[139.746205,37.072888],[139.746064,37.072838],[139.745664,37.072714],[139.745411,37.072624],[139.74506,37.072517],[139.744983,37.0725],[139.744877,37.072497],[139.744793,37.072506],[139.744753,37.072517],[139.744709,37.072539],[139.744651,37.072597],[139.74462,37.072648],[139.744616,37.072709],[139.744629,37.072799],[139.744674,37.0729],[139.744842,37.073153],[139.744926,37.073317],[139.744934,37.073377],[139.744926,37.07344],[139.744884,37.073536],[139.744863,37.07357],[139.744758,37.073654],[139.744709,37.073661],[139.744659,37.073654],[139.744599,37.073628],[139.74447,37.073553],[139.744273,37.073435],[139.744028,37.073328],[139.743655,37.073215],[139.743508,37.073181],[139.743404,37.073178],[139.74329,37.073181],[139.743164,37.073192],[139.743002,37.073226],[139.742946,37.073252],[139.742904,37.073283],[139.742881,37.073312],[139.742867,37.07335],[139.742863,37.073396],[139.742869,37.073423],[139.742896,37.073454],[139.74296,37.073497],[139.743381,37.073739],[139.743634,37.073943],[139.74381,37.074105],[139.744091,37.074472],[139.744169,37.074561]]}},{"type":"Feature","properties":{"id":107529695,"highway":"unclassified"},"geometry":{"type":"LineString","coordinates":[[139.744169,37.074561],[139.744336,37.074748],[139.744371,37.074782],[139.744653,37.075092],[139.744681,37.075126],[139.744688,37.07521],[139.744631,37.075306],[139.744533,37.075384],[139.744498,37.075401],[139.744393,37.075396],[139.744336,37.075373],[139.744133,37.075238],[139.743971,37.075165],[139.74388,37.075146],[139.743813,37.075146],[139.74373,37.075154],[139.743664,37.075174],[139.743626,37.075206],[139.743607,37.075233],[139.743604,37.075269],[139.743613,37.075315],[139.743642,37.075364],[139.743696,37.075429],[139.743769,37.075499],[139.743951,37.075654],[139.744229,37.075905],[139.744297,37.075985],[139.744308,37.076008],[139.744309,37.076034],[139.744297,37.076096],[139.74427,37.07614],[139.744241,37.076161],[139.744188,37.076176],[139.744132,37.076186],[139.744029,37.076194],[139.743959,37.0762],[139.743892,37.07621],[139.743834,37.076224],[139.743786,37.076243],[139.743735,37.07627],[139.743509,37.07642],[139.743421,37.076465],[139.743347,37.076491],[139.743265,37.076508],[139.743224,37.076508],[139.743187,37.076499],[139.743155,37.076479],[139.743132,37.076446],[139.743118,37.076406],[139.743108,37.076188],[139.743094,37.076086],[139.743072,37.07602],[139.743041,37.075961],[139.743012,37.075929],[139.742967,37.075901],[139.742886,37.075869],[139.742834,37.075861],[139.74278,37.075862],[139.742755,37.075875],[139.742732,37.075908],[139.742718,37.075953],[139.742711,37.075997],[139.742707,37.076151],[139.742658,37.076359],[139.742447,37.076821],[139.742363,37.076911],[139.742251,37.07699],[139.742145,37.077029],[139.741836,37.077041],[139.741457,37.077041],[139.741351,37.077063],[139.741113,37.077058],[139.740752,37.076972],[139.740668,37.076957],[139.740611,37.076957],[139.740551,37.076969],[139.740518,37.076995],[139.740506,37.077018],[139.740501,37.07705],[139.740509,37.077176],[139.74053,37.077299],[139.74053,37.077457],[139.740459,37.077576],[139.740396,37.077649],[139.74027,37.077716],[139.740101,37.077761],[139.739574,37.077756],[139.739383,37.077756]]}},{"type":"Feature","properties":{"id":114505002,"highway":"trunk"},"geometry":{"type":"LineString","coordinates":[[139.74797,37.073394],[139.74726,37.069208]]}},{"type":"Feature","properties":{"id":115910771,"highway":"trunk"},"geometry":{"type":"LineString","coordinates":[[139.726628,37.041962],[139.726531,37.041805],[139.726436,37.041689],[139.726296,37.041548],[139.726166,37.041443],[139.72597,37.04133],[139.724743,37.040832],[139.72455,37.040725],[139.724364,37.040571],[139.724214,37.040377],[139.724086,37.040183],[139.723559,37.039282],[139.723539,37.039241],[139.723473,37.0391],[139.723408,37.038933],[139.723344,37.038721],[139.723329,37.038592],[139.723329,37.038442],[139.72334,37.038321],[139.723378,37.038152],[139.723435,37.037962],[139.723521,37.037773],[139.723773,37.037337],[139.725304,37.034694],[139.725537,37.034371],[139.726228,37.033623],[139.726444,37.033355],[139.726599,37.033089],[139.727316,37.031311],[139.727724,37.03011],[139.728126,37.028904],[139.728233,37.0286],[139.728255,37.028425],[139.728265,37.028231],[139.72826,37.028117],[139.728241,37.027988],[139.728202,37.027811],[139.728145,37.027648],[139.727821,37.026886],[139.727729,37.026691],[139.727663,37.026535],[139.727601,37.026333],[139.727516,37.025965],[139.727462,37.025783],[139.727433,37.025707],[139.727373,37.025598],[139.727148,37.025219],[139.727087,37.025119],[139.72705,37.025027],[139.727027,37.024917],[139.726892,37.02407],[139.726873,37.023907],[139.726874,37.023764],[139.726913,37.023582],[139.726973,37.023463],[139.727055,37.02335]]}},{"type":"Feature","properties":{"id":115910846,"highway":"trunk"},"geometry":{"type":"LineString","coordinates":[[139.758321,36.99448],[139.75814,36.994484],[139.757971,36.994492],[139.757811,36.994527],[139.757658,36.994573],[139.757546,36.994618],[139.743754,37.005348]]}},{"type":"Feature","properties":{"id":115910849,"highway":"trunk"},"geometry":{"type":"LineString","coordinates":[[139.736884,37.009536],[139.736843,37.009688],[139.736778,37.009824],[139.736695,37.009964],[139.736587,37.010114],[139.736457,37.010259],[139.736263,37.010418],[139.736076,37.01052],[139.735813,37.010657],[139.735601,37.01075],[139.735377,37.010837],[139.73515,37.010912],[139.734861,37.010975],[139.734642,37.011011],[139.733176,37.011173],[139.732952,37.011185],[139.732779,37.011179],[139.732602,37.011153],[139.732402,37.011098],[139.732261,37.011035],[139.732116,37.010958],[139.731993,37.010871],[139.731349,37.010291],[139.731204,37.010181],[139.731045,37.010101],[139.730891,37.01005],[139.730715,37.010005],[139.728105,37.009651],[139.727974,37.00966],[139.727883,37.009693],[139.727801,37.009741],[139.727737,37.0098],[139.727676,37.009873],[139.727633,37.00997],[139.727635,37.010065],[139.727663,37.01017],[139.727745,37.010278],[139.727872,37.010419],[139.728091,37.010637],[139.729029,37.011523],[139.729233,37.011767],[139.729383,37.011977],[139.729475,37.012155],[139.729571,37.012371],[139.729622,37.012532],[139.729693,37.012748],[139.729728,37.0129],[139.729765,37.013146],[139.729763,37.013464],[139.72977,37.013815],[139.729795,37.014079]]}},{"type":"Feature","properties":{"id":115910874,"highway":"trunk"},"geometry":{"type":"LineString","coordinates":[[139.740688,37.006521],[139.740332,37.006591],[139.74025,37.006615],[139.739676,37.006925],[139.739582,37.006971],[139.73938,37.007044],[139.738738,37.007222],[139.738627,37.007263],[139.738385,37.0074],[139.738284,37.007461],[139.73816,37.007568],[139.73752,37.008135],[139.737154,37.008482]]}},{"type":"Feature","properties":{"id":115910894,"highway":"trunk"},"geometry":{"type":"LineString","coordinates":[[139.727055,37.02335],[139.727114,37.023271]]}},{"type":"Feature","properties":{"id":115910903,"highway":"trunk"},"geometry":{"type":"LineString","coordinates":[[139.74726,37.069208],[139.747164,37.068749],[139.747117,37.068589],[139.747055,37.068422],[139.746978,37.068248],[139.746709,37.067812],[139.746641,37.067683],[139.746568,37.067552],[139.746488,37.067343],[139.746376,37.067079],[139.746318,37.066958],[139.746248,37.066825],[139.746163,37.066709],[139.746062,37.066586],[139.745922,37.066475],[139.745296,37.066076],[139.745147,37.065979],[139.744907,37.065852],[139.744571,37.065626],[139.74439,37.065482],[139.744186,37.065325],[139.743964,37.065117],[139.742563,37.063587],[139.741363,37.062276],[139.741233,37.06214],[139.741094,37.062024],[139.740919,37.061899],[139.740744,37.061792],[139.740655,37.061747],[139.740546,37.061698],[139.739719,37.061409],[139.739528,37.061331],[139.739348,37.061246],[139.739211,37.061158],[139.739085,37.061066],[139.738979,37.060967],[139.738899,37.060848],[139.738787,37.060674],[139.73862,37.060344],[139.738562,37.060232],[139.73849,37.060113],[139.738395,37.059999],[139.738292,37.059883],[139.738135,37.059756]]}},{"type":"Feature","properties":{"id":115910927,"highway":"trunk"},"geometry":{"type":"LineString","coordinates":[[139.736957,37.008865],[139.736935,37.008954],[139.736925,37.009049],[139.7369,37.009426],[139.736884,37.009536]]}},{"type":"Feature","properties":{"id":115910941,"highway":"trunk"},"geometry":{"type":"LineString","coordinates":[[139.729795,37.014079],[139.72971,37.014074],[139.729683,37.014073],[139.729589,37.014058],[139.729494,37.014035],[139.729382,37.014001]]}},{"type":"Feature","properties":{"id":115911100,"highway":"trunk"},"geometry":{"type":"LineString","coordinates":[[139.729382,37.014001],[139.729296,37.013971],[139.729154,37.013906],[139.729056,37.013855]]}},{"type":"Feature","properties":{"id":115911112,"highway":"trunk"},"geometry":{"type":"LineString","coordinates":[[139.726755,37.042223],[139.726701,37.042079],[139.726628,37.041962]]}},{"type":"Feature","properties":{"id":215086162,"highway":"unclassified"},"geometry":{"type":"LineString","coordinates":[[139.76669,37.059583],[139.766687,37.059715],[139.766242,37.060411],[139.766025,37.061048],[139.766047,37.061246],[139.76613,37.061369],[139.766327,37.061527],[139.767345,37.062124],[139.767999,37.062299],[139.76856,37.062327]]}},{"type":"Feature","properties":{"id":215086166,"highway":"unclassified"},"geometry":{"type":"LineString","coordinates":[[139.737088,37.059012],[139.737102,37.058899],[139.737015,37.058564],[139.736974,37.058184],[139.737013,37.058006],[139.7371,37.057856],[139.737347,37.057544],[139.737453,37.057516],[139.737923,37.057324],[139.737984,37.057327],[139.738048,37.057335],[139.738225,37.057393],[139.738335,37.057432],[139.738432,37.057461],[139.738533,37.057477],[139.739242,37.057468],[139.739422,37.057478],[139.739612,37.057505],[139.739837,37.057549],[139.740278,37.05767],[139.740746,37.057725]]}},{"type":"Feature","properties":{"id":215086167,"highway":"unclassified"},"geometry":{"type":"LineString","coordinates":[[139.773005,37.06713],[139.772944,37.067087],[139.772663,37.066749],[139.772234,37.065994],[139.772115,37.065436],[139.772094,37.064766],[139.771946,37.064451],[139.771729,37.064242],[139.771335,37.064135],[139.771244,37.063983]]}},{"type":"Feature","properties":{"id":215086168,"highway":"unclassified"},"geometry":{"type":"LineString","coordinates":[[139.724325,37.04773],[139.724605,37.04726],[139.724902,37.047018],[139.725376,37.046565],[139.725817,37.045931],[139.726272,37.04518],[139.726489,37.045038],[139.72667,37.044953],[139.72707,37.044965],[139.727703,37.045136],[139.728293,37.045439],[139.728987,37.045602],[139.729116,37.045558]]}},{"type":"Feature","properties":{"id":215086169,"highway":"unclassified"},"geometry":{"type":"LineString","coordinates":[[139.770933,37.063733],[139.770901,37.063746],[139.770703,37.063696],[139.770373,37.063431],[139.769327,37.063285],[139.768877,37.063014],[139.768779,37.062828],[139.7688,37.062659],[139.769172,37.062423],[139.769373,37.062189]]}},{"type":"Feature","properties":{"id":215086174,"highway":"unclassified"},"geometry":{"type":"LineString","coordinates":[[139.77265,37.064245],[139.772656,37.064389],[139.772747,37.064716],[139.772747,37.064924],[139.7726,37.065341],[139.772719,37.06596],[139.772888,37.066338],[139.773162,37.06667],[139.773402,37.067114],[139.773365,37.067144],[139.773005,37.06713]]}},{"type":"Feature","properties":{"id":215086180,"highway":"residential"},"geometry":{"type":"LineString","coordinates":[[139.744348,37.056833],[139.744275,37.056856],[139.744093,37.056842],[139.743486,37.056573],[139.743146,37.056545],[139.742845,37.05663],[139.742416,37.05701],[139.741781,37.05727],[139.740285,37.057294],[139.73847,37.057247],[139.738314,37.057292],[139.738225,37.057393]]}},{"type":"Feature","properties":{"id":215086184,"highway":"unclassified"},"geometry":{"type":"LineString","coordinates":[[139.715425,37.052546],[139.716716,37.052611],[139.717241,37.052569],[139.717944,37.052445],[139.718122,37.052369],[139.718782,37.051834],[139.719182,37.051661],[139.71941,37.051595],[139.719771,37.051497],[139.720154,37.051385],[139.720535,37.051265],[139.721122,37.05124],[139.721652,37.05115],[139.722059,37.051],[139.722253,37.050791],[139.722339,37.050569],[139.722856,37.04994]]}},{"type":"Feature","properties":{"id":215086187,"highway":"service"},"geometry":{"type":"LineString","coordinates":[[139.770189,37.062691],[139.770183,37.062578],[139.770244,37.062028],[139.770352,37.061937],[139.770605,37.06187],[139.770811,37.061947],[139.771594,37.062628],[139.772145,37.062952],[139.772328,37.062952],[139.77258,37.062799],[139.772725,37.062586],[139.772755,37.062382],[139.772809,37.062336],[139.773525,37.062621]]}},{"type":"Feature","properties":{"id":215086188,"highway":"unclassified"},"geometry":{"type":"LineString","coordinates":[[139.777645,37.067739],[139.777543,37.067675],[139.777298,37.067662],[139.777186,37.067701],[139.775409,37.068545],[139.774995,37.06868],[139.77477,37.068692],[139.774623,37.068601],[139.774475,37.068235],[139.774278,37.067987],[139.773885,37.067796],[139.773639,37.06748],[139.77333,37.067351],[139.773005,37.06713]]}},{"type":"Feature","properties":{"id":215086206,"highway":"residential"},"geometry":{"type":"LineString","coordinates":[[139.723641,37.035417],[139.723585,37.035894],[139.723536,37.036112],[139.723444,37.036248],[139.723363,37.036354],[139.723228,37.036463],[139.723152,37.036491],[139.723007,37.0364],[139.722933,37.036382],[139.722851,37.036384],[139.722543,37.036567],[139.722245,37.036992],[139.722155,37.037282],[139.722214,37.037933],[139.722232,37.039302],[139.722186,37.039681],[139.722069,37.040046]]}},{"type":"Feature","properties":{"id":215086220,"highway":"unclassified"},"geometry":{"type":"LineString","coordinates":[[139.780924,37.074505],[139.780996,37.074755]]}},{"type":"Feature","properties":{"id":215086230,"highway":"unclassified"},"geometry":{"type":"LineString","coordinates":[[139.769221,37.062074],[139.769373,37.062189]]}},{"type":"Feature","properties":{"id":215086234,"highway":"unclassified"},"geometry":{"type":"LineString","coordinates":[[139.793067,37.075859],[139.793216,37.076073]]}},{"type":"Feature","properties":{"id":215086243,"highway":"residential"},"geometry":{"type":"LineString","coordinates":[[139.723072,37.036889],[139.723255,37.037064]]}},{"type":"Feature","properties":{"id":215086249,"highway":"unclassified"},"geometry":{"type":"LineString","coordinates":[[139.777645,37.067739],[139.777776,37.067931]]}},{"type":"Feature","properties":{"id":215086254,"highway":"residential"},"geometry":{"type":"LineString","coordinates":[[139.744895,37.056075],[139.744348,37.056833]]}},{"type":"Feature","properties":{"id":215086255,"highway":"unclassified"},"geometry":{"type":"LineString","coordinates":[[139.76651,37.05942],[139.76669,37.059583]]}},{"type":"Feature","properties":{"id":215086256,"highway":"unclassified"},"geometry":{"type":"LineString","coordinates":[[139.735787,37.056804],[139.73609,37.056836]]}},{"type":"Feature","properties":{"id":215086259,"highway":"unclassified"},"geometry":{"type":"LineString","coordinates":[[139.777746,37.067954],[139.777776,37.067931]]}},{"type":"Feature","properties":{"id":215086266,"highway":"residential"},"geometry":{"type":"LineString","coordinates":[[139.727667,37.026707],[139.727729,37.026691]]}},{"type":"Feature","properties":{"id":215086272,"highway":"unclassified"},"geometry":{"type":"LineString","coordinates":[[139.783231,37.077467],[139.78308,37.077242]]}},{"type":"Feature","properties":{"id":215086273,"highway":"unclassified"},"geometry":{"type":"LineString","coordinates":[[139.740746,37.057725],[139.741156,37.057738],[139.741984,37.057929],[139.742594,37.057941],[139.744196,37.057466],[139.744779,37.057343],[139.745102,37.057331],[139.746044,37.057625],[139.748186,37.057809],[139.748966,37.058079],[139.749457,37.05818],[139.750479,37.058289],[139.751094,37.058355],[139.751578,37.05866],[139.752288,37.059392],[139.752512,37.059488],[139.752856,37.05955],[139.753993,37.059527],[139.755658,37.059612],[139.756381,37.059471],[139.758609,37.059324],[139.758864,37.059317],[139.759153,37.059322],[139.759297,37.059338],[139.759796,37.059385],[139.760068,37.05941],[139.76014,37.05943],[139.760259,37.059488],[139.760561,37.059814],[139.761151,37.060006],[139.761284,37.060091],[139.761509,37.060327],[139.76153,37.06053],[139.761425,37.060868],[139.761425,37.061043],[139.761601,37.061414],[139.761734,37.061521],[139.761903,37.061594],[139.76297,37.061831],[139.763645,37.061938],[139.763932,37.061927],[139.764367,37.061769],[139.764957,37.061392],[139.765722,37.059813],[139.766187,37.059425],[139.76651,37.05942]]}},{"type":"Feature","properties":{"id":215086274,"highway":"unclassified"},"geometry":{"type":"LineString","coordinates":[[139.771071,37.063787],[139.771244,37.063983]]}},{"type":"Feature","properties":{"id":215086278,"highway":"residential"},"geometry":{"type":"LineString","coordinates":[[139.744895,37.056075],[139.745039,37.055875]]}},{"type":"Feature","properties":{"id":215086281,"highway":"residential"},"geometry":{"type":"LineString","coordinates":[[139.79301,37.075806],[139.793067,37.075859]]}},{"type":"Feature","properties":{"id":215086283,"highway":"unclassified"},"geometry":{"type":"LineString","coordinates":[[139.780422,37.07374],[139.780387,37.07365],[139.779341,37.072792],[139.778738,37.07206],[139.77852,37.071655],[139.778379,37.071187],[139.778344,37.070872],[139.778448,37.070595],[139.778427,37.070535],[139.777544,37.070439],[139.776975,37.070602],[139.776524,37.070545],[139.776356,37.070477],[139.775388,37.06983],[139.775142,37.069639],[139.775079,37.069537],[139.775091,37.069425],[139.775205,37.069317],[139.776111,37.068984],[139.776833,37.068619],[139.777746,37.067954]]}},{"type":"Feature","properties":{"id":215086287,"highway":"unclassified"},"geometry":{"type":"LineString","coordinates":[[139.719763,37.043055],[139.720099,37.043065],[139.720485,37.04348],[139.721017,37.043731],[139.721362,37.04373],[139.721933,37.04353],[139.722172,37.043529],[139.722325,37.043624],[139.722944,37.044229],[139.722931,37.044675],[139.722812,37.045354],[139.722853,37.045531],[139.72296,37.045551],[139.723079,37.045482],[139.723111,37.04504],[139.723293,37.044867],[139.723614,37.044964],[139.723771,37.04516],[139.723392,37.046107],[139.722858,37.047855],[139.722798,37.048306],[139.722802,37.04896]]}},{"type":"Feature","properties":{"id":215086296,"highway":"service"},"geometry":{"type":"LineString","coordinates":[[139.766642,37.061184],[139.766622,37.061143],[139.766619,37.061013],[139.76691,37.060496],[139.767145,37.060271],[139.767542,37.060225],[139.768489,37.060368],[139.768815,37.060353],[139.768958,37.060276],[139.770704,37.059081],[139.771268,37.058619],[139.771805,37.057572],[139.771918,37.057439],[139.773262,37.056751],[139.773476,37.056764],[139.773675,37.057025],[139.773782,37.057364],[139.773736,37.057722],[139.773821,37.057847],[139.773848,37.057868],[139.774049,37.057891],[139.774356,37.057799],[139.774694,37.057369],[139.775106,37.05738]]}},{"type":"Feature","properties":{"id":215086299,"highway":"residential"},"geometry":{"type":"LineString","coordinates":[[139.727354,37.022941],[139.727517,37.024059],[139.727789,37.024511],[139.728766,37.025014],[139.729468,37.025466],[139.729867,37.025628],[139.730138,37.025645],[139.7308,37.025536],[139.731001,37.025557],[139.731241,37.025648],[139.73194,37.026305],[139.732089,37.026567],[139.732122,37.027016],[139.732211,37.027348],[139.732644,37.027982],[139.73307,37.029013],[139.733719,37.029985],[139.733829,37.030559],[139.734015,37.030731],[139.73481,37.031099],[139.73508,37.031304],[139.735499,37.031952],[139.735792,37.032604],[139.736186,37.033048],[139.736555,37.033367]]}},{"type":"Feature","properties":{"id":215086307,"highway":"unclassified"},"geometry":{"type":"LineString","coordinates":[[139.771071,37.063787],[139.770992,37.063753],[139.770933,37.063733]]}},{"type":"Feature","properties":{"id":215086314,"highway":"unclassified"},"geometry":{"type":"LineString","coordinates":[[139.722857,37.049332],[139.722906,37.049439],[139.722856,37.04994]]}},{"type":"Feature","properties":{"id":215086317,"highway":"unclassified"},"geometry":{"type":"LineString","coordinates":[[139.735787,37.056804],[139.73543,37.056794],[139.735361,37.056793],[139.73531,37.056818]]}},{"type":"Feature","properties":{"id":215086331,"highway":"residential"},"geometry":{"type":"LineString","coordinates":[[139.7209,37.037865],[139.721688,37.037904],[139.721765,37.037916],[139.722214,37.037933]]}},{"type":"Feature","properties":{"id":215086332,"highway":"unclassified"},"geometry":{"type":"LineString","coordinates":[[139.780996,37.074755],[139.781023,37.074824],[139.781111,37.074996],[139.781132,37.075047]]}},{"type":"Feature","properties":{"id":215086334,"highway":"unclassified"},"geometry":{"type":"LineString","coordinates":[[139.769221,37.062074],[139.769146,37.062101],[139.76882,37.062265],[139.76856,37.062327]]}},{"type":"Feature","properties":{"id":215086344,"highway":"residential"},"geometry":{"type":"LineString","coordinates":[[139.723255,37.037064],[139.723336,37.037145],[139.723399,37.037203],[139.723773,37.037337]]}},{"type":"Feature","properties":{"id":215086347,"highway":"unclassified"},"geometry":{"type":"LineString","coordinates":[[139.722802,37.04896],[139.722817,37.049153],[139.722824,37.049203],[139.722837,37.049273],[139.722857,37.049332]]}},{"type":"Feature","properties":{"id":215086349,"highway":"residential"},"geometry":{"type":"LineString","coordinates":[[139.723072,37.036889],[139.723019,37.03683],[139.723014,37.036804],[139.722987,37.036637],[139.722952,37.036445],[139.723152,37.036491]]}},{"type":"Feature","properties":{"id":215086350,"highway":"unclassified"},"geometry":{"type":"LineString","coordinates":[[139.742563,37.063587],[139.741664,37.063335],[139.741545,37.063262],[139.741328,37.062795],[139.741317,37.062461],[139.741363,37.062276]]}},{"type":"Feature","properties":{"id":215086357,"highway":"residential"},"geometry":{"type":"LineString","coordinates":[[139.727281,37.026837],[139.727358,37.026799],[139.727421,37.026772],[139.727495,37.02675],[139.727534,37.026738],[139.727667,37.026707]]}},{"type":"Feature","properties":{"id":215086358,"highway":"unclassified"},"geometry":{"type":"LineString","coordinates":[[139.770189,37.062691],[139.770212,37.062866],[139.770282,37.063009],[139.77083,37.063409],[139.770914,37.063516],[139.770933,37.063733]]}},{"type":"Feature","properties":{"id":215086362,"highway":"residential"},"geometry":{"type":"LineString","coordinates":[[139.727281,37.026837],[139.72719,37.026928],[139.72702,37.027142],[139.726862,37.027501],[139.7268,37.027806],[139.7268,37.028361]]}},{"type":"Feature","properties":{"id":215086365,"highway":"unclassified"},"geometry":{"type":"LineString","coordinates":[[139.73609,37.056836],[139.736318,37.056853],[139.736369,37.056869],[139.736499,37.056943],[139.73731,37.057481],[139.737347,37.057544]]}},{"type":"Feature","properties":{"id":215086368,"highway":"unclassified"},"geometry":{"type":"LineString","coordinates":[[139.76856,37.062327],[139.768294,37.06222],[139.76771,37.062045],[139.767479,37.061859],[139.767057,37.061623],[139.766642,37.061184]]}},{"type":"Feature","properties":{"id":215086380,"highway":"unclassified"},"geometry":{"type":"LineString","coordinates":[[139.781132,37.075047],[139.781371,37.075729],[139.781687,37.076179],[139.782396,37.076838],[139.782599,37.076985],[139.782888,37.077041],[139.78308,37.077242]]}},{"type":"Feature","properties":{"id":215086391,"highway":"unclassified"},"geometry":{"type":"LineString","coordinates":[[139.780924,37.074505],[139.780888,37.074459],[139.780816,37.074388],[139.78064,37.074213],[139.780507,37.074038],[139.780443,37.073852],[139.78043,37.073757],[139.780422,37.07374]]}},{"type":"Feature","properties":{"id":215086397,"highway":"service"},"geometry":{"type":"LineString","coordinates":[[139.77265,37.064245],[139.772653,37.064188],[139.77282,37.063967],[139.77293,37.063925],[139.773079,37.063938],[139.773421,37.064188],[139.775074,37.065756],[139.77523,37.065815],[139.775582,37.065746]]}},{"type":"Feature","properties":{"id":306249699,"highway":"trunk"},"geometry":{"type":"LineString","coordinates":[[139.729056,37.013855],[139.729003,37.013826],[139.728922,37.013765],[139.728879,37.013733],[139.728839,37.013703],[139.728764,37.013636],[139.728755,37.013627],[139.728673,37.013536],[139.728616,37.013465],[139.728512,37.013342]]}},{"type":"Feature","properties":{"id":306338456,"highway":"trunk"},"geometry":{"type":"LineString","coordinates":[[139.727114,37.023271],[139.727354,37.022941],[139.72752,37.022723],[139.727708,37.0225],[139.727919,37.022285],[139.72821,37.021974],[139.728434,37.021677],[139.729226,37.020661],[139.729419,37.020448],[139.72956,37.020316],[139.729901,37.020069],[139.730057,37.019938],[139.73013,37.019857],[139.730224,37.019753],[139.730312,37.019642],[139.730388,37.019486],[139.730444,37.019335],[139.730479,37.019179],[139.730502,37.019015],[139.730517,37.018863],[139.730508,37.018719],[139.73049,37.018559],[139.729904,37.014757],[139.729898,37.014718],[139.729838,37.014355],[139.729795,37.014079]]}},{"type":"Feature","properties":{"id":308137448,"highway":"service"},"geometry":{"type":"LineString","coordinates":[[139.728262,37.015577],[139.728476,37.015597],[139.728694,37.015625],[139.728797,37.015623],[139.728883,37.01561],[139.729,37.015281],[139.728993,37.015058],[139.729024,37.014856],[139.728944,37.014349],[139.728927,37.014015],[139.728929,37.01397],[139.728936,37.013933],[139.728953,37.013897],[139.728965,37.013874],[139.729003,37.013826]]}},{"type":"Feature","properties":{"id":308137449,"highway":"tertiary"},"geometry":{"type":"LineString","coordinates":[[139.728512,37.013342],[139.728441,37.013369],[139.728245,37.013448],[139.728067,37.013522]]}},{"type":"Feature","properties":{"id":308137450,"highway":"service"},"geometry":{"type":"LineString","coordinates":[[139.727896,37.015608],[139.728262,37.015577]]}},{"type":"Feature","properties":{"id":308145662,"highway":"service"},"geometry":{"type":"LineString","coordinates":[[139.72716,37.0117],[139.726478,37.012045]]}},{"type":"Feature","properties":{"id":308146302,"highway":"unclassified"},"geometry":{"type":"LineString","coordinates":[[139.720595,37.000324],[139.720613,37.000314]]}},{"type":"Feature","properties":{"id":308146303,"highway":"unclassified"},"geometry":{"type":"LineString","coordinates":[[139.720151,37.000609],[139.720227,37.000548]]}},{"type":"Feature","properties":{"id":308146304,"highway":"unclassified"},"geometry":{"type":"LineString","coordinates":[[139.720227,37.000548],[139.720595,37.000324]]}},{"type":"Feature","properties":{"id":308146305,"highway":"unclassified"},"geometry":{"type":"LineString","coordinates":[[139.720246,36.999872],[139.720613,37.000314],[139.720831,37.000577],[139.720926,37.000645],[139.72108,37.000734]]}},{"type":"Feature","properties":{"id":386612012,"highway":"tertiary"},"geometry":{"type":"LineString","coordinates":[[139.727677,37.013681],[139.727734,37.013767],[139.727756,37.013801],[139.72777,37.013821],[139.727788,37.013836],[139.727808,37.013841],[139.727944,37.013787]]}},{"type":"Feature","properties":{"id":431337764,"highway":"tertiary"},"geometry":{"type":"LineString","coordinates":[[139.727944,37.013787],[139.728081,37.013727],[139.728101,37.013699],[139.728105,37.013657],[139.728095,37.013624],[139.72809,37.013609],[139.728067,37.013522]]}},{"type":"Feature","properties":{"id":431337765,"highway":"trunk"},"geometry":{"type":"LineString","coordinates":[[139.728512,37.013342],[139.728314,37.013101],[139.727197,37.011742],[139.72716,37.0117],[139.726934,37.011424],[139.726586,37.010998],[139.726465,37.010851],[139.726046,37.010366],[139.725806,37.010059],[139.725762,37.009997],[139.725331,37.009383],[139.72507,37.008959],[139.724942,37.008732],[139.724859,37.008566],[139.724803,37.00845],[139.724769,37.008346],[139.724739,37.008235],[139.724703,37.008041],[139.724601,37.007276],[139.72456,37.00701],[139.72451,37.006782],[139.72445,37.006608],[139.724379,37.006445],[139.7243,37.006306],[139.724165,37.006089],[139.724071,37.005889],[139.724004,37.005696],[139.723875,37.005143],[139.72381,37.0049],[139.723725,37.004651],[139.723673,37.004529],[139.723593,37.004376],[139.723431,37.004179],[139.723193,37.003897],[139.722952,37.003618],[139.722657,37.00329],[139.722227,37.002876],[139.721824,37.00249],[139.721341,37.002045],[139.721198,37.001907],[139.721045,37.001715],[139.720958,37.001559],[139.720827,37.001325],[139.720751,37.001205],[139.720673,37.001109],[139.720557,37.000996],[139.72034,37.000807],[139.720151,37.000609],[139.720071,37.000513],[139.720003,37.000417],[139.719543,36.999678],[139.719409,36.999524],[139.719242,36.999366],[139.71904,36.999176],[139.718877,36.999065],[139.718705,36.998975],[139.718367,36.998829],[139.715283,36.997551],[139.715004,36.997433],[139.714873,36.997366],[139.714767,36.997301],[139.714616,36.997178],[139.714265,36.996912],[139.714187,36.996844],[139.714085,36.996741],[139.713984,36.996637],[139.713837,36.996466],[139.713693,36.996255],[139.713573,36.99611],[139.713422,36.995965],[139.713222,36.995812],[139.712338,36.99515],[139.712191,36.995032],[139.712061,36.994911],[139.711928,36.994771],[139.710929,36.993547],[139.71069,36.993277],[139.710595,36.993157],[139.710503,36.993024],[139.710448,36.992904],[139.710412,36.992799],[139.710395,36.992699],[139.710385,36.992587],[139.710347,36.992422],[139.710241,36.992037],[139.710178,36.991861],[139.710116,36.991708],[139.70983,36.991091],[139.709735,36.990858],[139.709639,36.990561],[139.709573,36.990442],[139.709445,36.990271],[139.708876,36.98959],[139.708776,36.989477],[139.708671,36.98938],[139.708533,36.989306],[139.707019,36.988834],[139.706766,36.988747],[139.705934,36.988395],[139.705841,36.98836],[139.705692,36.988317],[139.705046,36.98816],[139.704059,36.988011],[139.70378,36.987952],[139.703422,36.987853],[139.700738,36.987019],[139.700531,36.986968],[139.700363,36.986935],[139.699852,36.986886],[139.699625,36.98686],[139.699532,36.986844],[139.699435,36.986822],[139.699366,36.9868],[139.699293,36.986771],[139.699101,36.986681]]}},{"type":"Feature","properties":{"id":645825108,"highway":"service"},"geometry":{"type":"LineString","coordinates":[[139.750479,37.058289],[139.750875,37.058228],[139.751192,37.058258],[139.75131,37.058209],[139.751316,37.058144],[139.75118,37.05804],[139.75091,37.057954]]}},{"type":"Feature","properties":{"id":870633507,"highway":"trunk"},"geometry":{"type":"LineString","coordinates":[[139.736921,37.0589],[139.736817,37.058819],[139.736712,37.058733]]}},{"type":"Feature","properties":{"id":870633508,"highway":"trunk"},"geometry":{"type":"LineString","coordinates":[[139.738024,37.059666],[139.737088,37.059012],[139.736921,37.0589]]}},{"type":"Feature","properties":{"id":870633509,"highway":"trunk"},"geometry":{"type":"LineString","coordinates":[[139.736712,37.058733],[139.736546,37.05858],[139.736427,37.058439],[139.736292,37.058262],[139.735852,37.057612],[139.73531,37.056818],[139.735092,37.056483],[139.73482,37.056098],[139.734517,37.05578],[139.734388,37.055633],[139.734262,37.055483],[139.733863,37.054749],[139.733758,37.054606],[139.733646,37.054482],[139.733221,37.054063],[139.732804,37.053637],[139.732643,37.05347],[139.732244,37.053008],[139.731923,37.052635],[139.731611,37.05227],[139.731476,37.052107],[139.730941,37.051484],[139.730416,37.050844],[139.730285,37.050675],[139.730205,37.050547],[139.730133,37.050399],[139.730075,37.050257],[139.730055,37.050176],[139.730046,37.050106],[139.730003,37.049437],[139.729954,37.048569],[139.729939,37.047747],[139.72987,37.04681],[139.72986,37.046707],[139.729842,37.046609],[139.729812,37.046518],[139.729777,37.046438],[139.729713,37.046307],[139.729611,37.046147],[139.729451,37.045919],[139.729268,37.045715],[139.729116,37.045558],[139.728965,37.045382],[139.728713,37.045087],[139.728092,37.044381],[139.727491,37.043679],[139.727385,37.043565],[139.727269,37.04343],[139.727185,37.043322],[139.727118,37.043215],[139.727024,37.043005],[139.726931,37.042762],[139.726755,37.042223]]}},{"type":"Feature","properties":{"id":870633510,"highway":"trunk"},"geometry":{"type":"LineString","coordinates":[[139.738135,37.059756],[139.738024,37.059666]]}},{"type":"Feature","properties":{"id":1184550025,"highway":"unclassified"},"geometry":{"type":"LineString","coordinates":[[139.722856,37.04994],[139.723029,37.049926],[139.72311,37.049898],[139.723166,37.049847],[139.723217,37.049774],[139.723533,37.049186],[139.7238,37.048666],[139.724325,37.04773]]}},{"type":"Feature","properties":{"id":1213179578,"highway":"trunk"},"geometry":{"type":"LineString","coordinates":[[139.743516,37.00555],[139.743395,37.005651],[139.742961,37.006005],[139.742774,37.006152],[139.742684,37.00622],[139.742591,37.006285],[139.742455,37.006369],[139.742339,37.00642],[139.742213,37.006465],[139.742075,37.006506],[139.741974,37.006529],[139.741862,37.006554],[139.741731,37.006569],[139.741579,37.006576],[139.741401,37.006569]]}},{"type":"Feature","properties":{"id":1213179579,"highway":"trunk"},"geometry":{"type":"LineString","coordinates":[[139.741401,37.006569],[139.740821,37.006517]]}},{"type":"Feature","properties":{"id":1213179581,"highway":"trunk"},"geometry":{"type":"LineString","coordinates":[[139.737154,37.008482],[139.737091,37.008567],[139.737029,37.008669],[139.736986,37.00876],[139.736957,37.008865]]}},{"type":"Feature","properties":{"id":1213179582,"highway":"trunk"},"geometry":{"type":"LineString","coordinates":[[139.740821,37.006517],[139.740753,37.006516],[139.740688,37.006521]]}},{"type":"Feature","properties":{"id":1213179583,"highway":"service"},"geometry":{"type":"LineString","coordinates":[[139.742961,37.006005],[139.742934,37.005985],[139.7429,37.005964],[139.742889,37.005935],[139.743258,37.005612],[139.743295,37.005607],[139.743334,37.005615],[139.743364,37.00563],[139.743395,37.005651]]}},{"type":"Feature","properties":{"id":1213179584,"highway":"trunk"},"geometry":{"type":"LineString","coordinates":[[139.743717,37.005382],[139.743516,37.00555]]}},{"type":"Feature","properties":{"id":1213179585,"highway":"trunk"},"geometry":{"type":"LineString","coordinates":[[139.743754,37.005348],[139.743717,37.005382]]}},{"type":"Feature","properties":{"id":1213179600,"highway":"tertiary"},"geometry":{"type":"LineString","coordinates":[[139.728067,37.013522],[139.727677,37.013681]]}},{"type":"Feature","properties":{"id":1213179602,"highway":"service"},"geometry":{"type":"LineString","coordinates":[[139.728245,37.013448],[139.72829,37.013524],[139.728317,37.013559],[139.728338,37.013558],[139.728482,37.013505]]}},{"type":"Feature","properties":{"id":1213179603,"highway":"tertiary"},"geometry":{"type":"LineString","coordinates":[[139.727522,37.013746],[139.727677,37.013681]]}},{"type":"Feature","properties":{"id":1213179604,"highway":"service"},"geometry":{"type":"LineString","coordinates":[[139.727522,37.013746],[139.727499,37.013756],[139.727439,37.013779],[139.727311,37.01359]]}},{"type":"Feature","properties":{"id":1213179605,"highway":"service"},"geometry":{"type":"LineString","coordinates":[[139.727734,37.013767],[139.728095,37.013624]]}},{"type":"Feature","properties":{"id":1213179615,"highway":"service"},"geometry":{"type":"LineString","coordinates":[[139.729539,37.013788],[139.729678,37.013808],[139.729703,37.01381],[139.72977,37.013815]]}},{"type":"Feature","properties":{"id":1213179632,"highway":"service"},"geometry":{"type":"LineString","coordinates":[[139.728879,37.013733],[139.728841,37.013786],[139.728792,37.013828],[139.728725,37.013845],[139.728659,37.01385]]}},{"type":"Feature","properties":{"id":1213179639,"highway":"service"},"geometry":{"type":"LineString","coordinates":[[139.728883,37.01561],[139.728862,37.015751],[139.728831,37.015874],[139.728827,37.015932],[139.728859,37.016101],[139.728859,37.016141],[139.728834,37.016191],[139.728819,37.016244],[139.728819,37.0163],[139.72882,37.016333],[139.728798,37.016346],[139.728726,37.016362]]}},{"type":"Feature","properties":{"id":1344695416,"highway":"service"},"geometry":{"type":"LineString","coordinates":[[139.726934,37.011424],[139.727054,37.011376],[139.726669,37.010949],[139.726586,37.010998]]}}]}