{"type":"FeatureCollection","features":[{"type":"Feature","properties":{"id":107523881,"highway":"secondary"},"geometry":{"type":"LineString","coordinates":[[139.790393,37.114188],[139.790424,37.114129],[139.79047,37.114067],[139.790646,37.114005],[139.790752,37.113983],[139.790949,37.113971],[139.791117,37.113994],[139.791364,37.114056],[139.791547,37.114146],[139.791674,37.114214],[139.791772,37.114276],[139.791969,37.114445],[139.79206,37.114552],[139.79218,37.114732],[139.792232,37.114794],[139.792285,37.114839],[139.792364,37.114842],[139.79244,37.114816],[139.792565,37.114754],[139.792637,37.114715],[139.792679,37.11467],[139.792672,37.114597],[139.79244,37.114146],[139.792032,37.113459],[139.791792,37.113115],[139.791715,37.112958],[139.791695,37.112884],[139.791701,37.112771],[139.791765,37.112653],[139.791827,37.112563],[139.792052,37.112237],[139.792672,37.111375],[139.792862,37.111081],[139.793215,37.110582],[139.793347,37.110394],[139.793642,37.110016],[139.794072,37.10955],[139.794935,37.108716],[139.795202,37.108463],[139.795392,37.108299],[139.795505,37.108282],[139.79587,37.108277],[139.795984,37.108237],[139.796145,37.108108],[139.796265,37.107973],[139.796399,37.107865],[139.796554,37.107792],[139.796912,37.107663],[139.797165,37.107539],[139.797398,37.107432],[139.798431,37.106818],[139.79879,37.106649],[139.799366,37.10639],[139.799409,37.106333],[139.799416,37.106226],[139.79931,37.105837],[139.799261,37.105622],[139.799275,37.105302],[139.799303,37.105082],[139.799331,37.104874],[139.799366,37.104762],[139.799521,37.104469],[139.799542,37.104317],[139.799507,37.104192],[139.799488,37.104164],[139.799451,37.104107],[139.799295,37.103945],[139.799212,37.103844],[139.799205,37.103804],[139.799219,37.103719],[139.799317,37.103606],[139.799394,37.103583],[139.799711,37.103544],[139.799992,37.103499],[139.800063,37.103471],[139.800175,37.103381],[139.800351,37.103212],[139.800449,37.103138],[139.801567,37.102813],[139.80201,37.102666],[139.802102,37.102604],[139.802552,37.10203],[139.802601,37.101934],[139.802608,37.101816],[139.802594,37.101771],[139.802601,37.101573],[139.802692,37.101348],[139.802692,37.10123],[139.80258,37.100813],[139.802531,37.100424],[139.802502,37.100323],[139.802439,37.100227],[139.802214,37.10012],[139.801849,37.099929],[139.801764,37.099901],[139.801413,37.099861],[139.801286,37.099827],[139.801181,37.099748],[139.800885,37.099602],[139.800709,37.099534],[139.800442,37.099461],[139.800295,37.099405],[139.800217,37.099343],[139.800175,37.099258],[139.800167,37.09914],[139.800147,37.09905],[139.799985,37.098819],[139.799859,37.098667],[139.79976,37.098577],[139.799675,37.098537],[139.79952,37.098503],[139.79938,37.098441],[139.799344,37.098417],[139.799254,37.098357],[139.799219,37.098301],[139.799219,37.098222],[139.79936,37.098036],[139.799395,37.097957],[139.799415,37.097873],[139.799492,37.097783],[139.79969,37.097642],[139.799717,37.097597],[139.799752,37.097399],[139.799845,37.097208],[139.7999,37.097123],[139.800182,37.096677],[139.800232,37.09657],[139.800232,37.096397],[139.800202,37.09626],[139.800105,37.095968],[139.800007,37.095772],[139.799942,37.095585],[139.799935,37.095512],[139.799929,37.095128],[139.79997,37.09483],[139.799977,37.093732],[139.800027,37.093484],[139.800111,37.09322],[139.800174,37.093073],[139.800231,37.092983],[139.800322,37.09282],[139.800463,37.092499],[139.80054,37.092279],[139.800596,37.091992],[139.800617,37.091744],[139.800638,37.091631],[139.800645,37.091518],[139.800617,37.091423],[139.80061,37.091316],[139.800624,37.091271],[139.800617,37.091259],[139.800674,37.091226],[139.80099,37.090984],[139.801103,37.090905],[139.801384,37.090764],[139.801999,37.090404],[139.802054,37.090386]]}}]}