{"type":"FeatureCollection","features":[{"type":"Feature","properties":{"id":191208221,"highway":"tertiary"},"geometry":{"type":"LineString","coordinates":[[139.800931,35.312445],[139.800444,35.312428],[139.799206,35.312449],[139.797404,35.312509],[139.795261,35.312522],[139.793853,35.312526],[139.79304,35.312545],[139.791814,35.312534],[139.789378,35.312545],[139.789289,35.312546],[139.786186,35.312551],[139.786116,35.312568],[139.786037,35.312605],[139.78597,35.312671],[139.785949,35.312769],[139.785973,35.312867],[139.786031,35.312924],[139.786128,35.312972],[139.786169,35.312981],[139.786757,35.312943],[139.787792,35.312876],[139.789123,35.312789],[139.789248,35.312715],[139.789378,35.312545]]}},{"type":"Feature","properties":{"id":369543326,"highway":"service"},"geometry":{"type":"LineString","coordinates":[[139.786769,35.313049],[139.786757,35.312943]]}},{"type":"Feature","properties":{"id":369543327,"highway":"service"},"geometry":{"type":"LineString","coordinates":[[139.787792,35.312876],[139.787733,35.312992],[139.786769,35.313049],[139.786082,35.313089],[139.786031,35.312924]]}},{"type":"Feature","properties":{"id":557606223,"highway":"service"},"geometry":{"type":"LineString","coordinates":[[139.795261,35.312522],[139.795525,35.313389],[139.795468,35.313465],[139.795346,35.313532],[139.79514,35.313563]]}},{"type":"Feature","properties":{"id":557606224,"highway":"service"},"geometry":{"type":"LineString","coordinates":[[139.795525,35.313389],[139.795728,35.313595],[139.795909,35.313677],[139.797167,35.313749],[139.797644,35.313768],[139.797769,35.313728],[139.798535,35.31376],[139.798639,35.313764]]}}]}