{"type":"FeatureCollection","features":[{"type":"Feature","properties":{"id":44884908,"highway":"tertiary"},"geometry":{"type":"LineString","coordinates":[[139.800172,35.595404],[139.802264,35.596555],[139.803072,35.596994]]}},{"type":"Feature","properties":{"id":96782530,"highway":"tertiary"},"geometry":{"type":"LineString","coordinates":[[139.799652,35.595123],[139.800172,35.595404]]}},{"type":"Feature","properties":{"id":96782533,"highway":"service"},"geometry":{"type":"LineString","coordinates":[[139.800473,35.599889],[139.801152,35.600258],[139.801912,35.600679]]}},{"type":"Feature","properties":{"id":96782536,"highway":"tertiary"},"geometry":{"type":"LineString","coordinates":[[139.801567,35.601101],[139.800333,35.600421],[139.800158,35.600271],[139.800473,35.599889],[139.800503,35.599852],[139.800848,35.599434],[139.800954,35.599299],[139.801012,35.599226]]}},{"type":"Feature","properties":{"id":96782541,"highway":"service"},"geometry":{"type":"LineString","coordinates":[[139.800503,35.599852],[139.800295,35.599738],[139.799358,35.599227],[139.799106,35.599088]]}},{"type":"Feature","properties":{"id":96782544,"highway":"tertiary"},"geometry":{"type":"LineString","coordinates":[[139.8002,35.59534],[139.7997,35.595062]]}},{"type":"Feature","properties":{"id":96782545,"highway":"service"},"geometry":{"type":"LineString","coordinates":[[139.800099,35.594321],[139.800101,35.594267],[139.800045,35.594191],[139.799482,35.593874],[139.796142,35.592097],[139.7959,35.591982],[139.795816,35.591955],[139.795749,35.591948],[139.795688,35.591957],[139.795513,35.592093],[139.795432,35.592228],[139.7954,35.592298],[139.795417,35.592354],[139.79547,35.592411],[139.795568,35.592473],[139.798722,35.594189],[139.79963,35.594678],[139.799732,35.594699],[139.799934,35.594508],[139.800026,35.5944],[139.800099,35.594321]]}},{"type":"Feature","properties":{"id":96782550,"highway":"service"},"geometry":{"type":"LineString","coordinates":[[139.799358,35.599227],[139.799604,35.59893],[139.799669,35.598852],[139.799812,35.598868],[139.800848,35.599434],[139.801209,35.599643],[139.802048,35.600094],[139.802099,35.60016],[139.802267,35.600244]]}},{"type":"Feature","properties":{"id":96782553,"highway":"service"},"geometry":{"type":"LineString","coordinates":[[139.800295,35.599738],[139.800527,35.599456],[139.800525,35.599433],[139.800506,35.599416],[139.799604,35.59893]]}},{"type":"Feature","properties":{"id":128508014,"highway":"service"},"geometry":{"type":"LineString","coordinates":[[139.806133,35.595693],[139.807813,35.596631]]}},{"type":"Feature","properties":{"id":128508031,"highway":"service"},"geometry":{"type":"LineString","coordinates":[[139.807813,35.596631],[139.80792,35.5967]]}},{"type":"Feature","properties":{"id":128508035,"highway":"service"},"geometry":{"type":"LineString","coordinates":[[139.80792,35.5967],[139.808059,35.596628],[139.808337,35.596139]]}},{"type":"Feature","properties":{"id":128508036,"highway":"service"},"geometry":{"type":"LineString","coordinates":[[139.80792,35.5967],[139.806968,35.597879]]}},{"type":"Feature","properties":{"id":128508038,"highway":"service"},"geometry":{"type":"LineString","coordinates":[[139.805941,35.595592],[139.804921,35.596833],[139.804516,35.597337]]}},{"type":"Feature","properties":{"id":128508044,"highway":"unclassified"},"geometry":{"type":"LineString","coordinates":[[139.810427,35.593577],[139.810592,35.593369],[139.812464,35.591007],[139.812816,35.590562],[139.812856,35.590511],[139.813043,35.590275]]}},{"type":"Feature","properties":{"id":128508060,"highway":"unclassified"},"geometry":{"type":"LineString","coordinates":[[139.813476,35.589715],[139.813287,35.58996],[139.813043,35.590275]]}},{"type":"Feature","properties":{"id":128508072,"highway":"unclassified"},"geometry":{"type":"LineString","coordinates":[[139.814045,35.59001],[139.81513,35.590609],[139.815425,35.590771],[139.815673,35.590908],[139.818969,35.592726]]}},{"type":"Feature","properties":{"id":128508074,"highway":"unclassified"},"geometry":{"type":"LineString","coordinates":[[139.826149,35.598049],[139.824935,35.599948],[139.824394,35.600794],[139.823246,35.60259],[139.823027,35.602932],[139.822906,35.603122]]}},{"type":"Feature","properties":{"id":128508078,"highway":"service"},"geometry":{"type":"LineString","coordinates":[[139.807651,35.586545],[139.808366,35.586935],[139.809503,35.587554],[139.810502,35.588099],[139.810812,35.588268],[139.811537,35.588664]]}},{"type":"Feature","properties":{"id":128508086,"highway":"unclassified"},"geometry":{"type":"LineString","coordinates":[[139.811537,35.588664],[139.813476,35.589715]]}},{"type":"Feature","properties":{"id":128508087,"highway":"unclassified"},"geometry":{"type":"LineString","coordinates":[[139.813476,35.589715],[139.813558,35.589758],[139.814045,35.59001]]}},{"type":"Feature","properties":{"id":128508091,"highway":"service"},"geometry":{"type":"LineString","coordinates":[[139.805941,35.595592],[139.806133,35.595693]]}},{"type":"Feature","properties":{"id":128508111,"highway":"service"},"geometry":{"type":"LineString","coordinates":[[139.804226,35.586521],[139.805828,35.585562],[139.807651,35.586545]]}},{"type":"Feature","properties":{"id":128508112,"highway":"unclassified"},"geometry":{"type":"LineString","coordinates":[[139.818969,35.592726],[139.820428,35.59352],[139.820731,35.593685],[139.823041,35.594942],[139.824433,35.595699],[139.825064,35.596043],[139.825246,35.596142],[139.826541,35.596847],[139.82661,35.596884],[139.826821,35.596999],[139.826401,35.597656],[139.826149,35.598049]]}},{"type":"Feature","properties":{"id":128508114,"highway":"service"},"geometry":{"type":"LineString","coordinates":[[139.811537,35.588664],[139.811174,35.589114],[139.809222,35.591532],[139.808624,35.592273]]}},{"type":"Feature","properties":{"id":128508119,"highway":"service"},"geometry":{"type":"LineString","coordinates":[[139.799749,35.589182],[139.801148,35.58834],[139.802008,35.587839],[139.802543,35.587516],[139.802875,35.58732],[139.803731,35.586814],[139.804226,35.586521]]}},{"type":"Feature","properties":{"id":128508121,"highway":"service"},"geometry":{"type":"LineString","coordinates":[[139.804516,35.597337],[139.803689,35.598274],[139.800394,35.596451],[139.798316,35.595302]]}},{"type":"Feature","properties":{"id":150870024,"highway":"tertiary"},"geometry":{"type":"LineString","coordinates":[[139.806444,35.598826],[139.809526,35.600522],[139.810356,35.600966],[139.810594,35.601096],[139.812414,35.602088]]}},{"type":"Feature","properties":{"id":150870025,"highway":"tertiary"},"geometry":{"type":"LineString","coordinates":[[139.804166,35.597462],[139.803454,35.597091]]}},{"type":"Feature","properties":{"id":150870026,"highway":"tertiary"},"geometry":{"type":"LineString","coordinates":[[139.803072,35.596994],[139.80409,35.597553]]}},{"type":"Feature","properties":{"id":150870028,"highway":"tertiary"},"geometry":{"type":"LineString","coordinates":[[139.80409,35.597553],[139.804145,35.597582]]}},{"type":"Feature","properties":{"id":150870030,"highway":"tertiary"},"geometry":{"type":"LineString","coordinates":[[139.806516,35.598743],[139.804283,35.597525],[139.804166,35.597462]]}},{"type":"Feature","properties":{"id":150870031,"highway":"tertiary"},"geometry":{"type":"LineString","coordinates":[[139.803454,35.597091],[139.802314,35.59647],[139.8002,35.59534]]}},{"type":"Feature","properties":{"id":150870032,"highway":"tertiary"},"geometry":{"type":"LineString","coordinates":[[139.812417,35.601928],[139.810829,35.601064],[139.810762,35.60103],[139.810408,35.600854],[139.809607,35.600411],[139.806516,35.598743]]}},{"type":"Feature","properties":{"id":150870037,"highway":"tertiary"},"geometry":{"type":"LineString","coordinates":[[139.805102,35.591017],[139.804305,35.59151],[139.804037,35.591679],[139.803303,35.592178],[139.802977,35.592398],[139.802582,35.592664],[139.802335,35.592835],[139.802232,35.592908],[139.801736,35.593258],[139.801554,35.593395],[139.801446,35.593477],[139.801288,35.593599],[139.800994,35.593862],[139.800855,35.594013],[139.800596,35.594301],[139.800577,35.594322],[139.800302,35.594629],[139.800112,35.594859],[139.800066,35.594923],[139.799958,35.595071]]}},{"type":"Feature","properties":{"id":150870038,"highway":"tertiary_link"},"geometry":{"type":"LineString","coordinates":[[139.803454,35.597091],[139.802834,35.596694],[139.802569,35.596533],[139.802506,35.596481],[139.802086,35.596254],[139.802075,35.596248],[139.801893,35.59615],[139.801831,35.596116],[139.801108,35.595702],[139.800319,35.595273],[139.800249,35.595233],[139.800115,35.595159]]}},{"type":"Feature","properties":{"id":171273553,"highway":"service"},"geometry":{"type":"LineString","coordinates":[[139.79483,35.545634],[139.795879,35.544164],[139.797092,35.542451],[139.797955,35.541233],[139.798385,35.540626],[139.800137,35.538163]]}},{"type":"Feature","properties":{"id":174022666,"highway":"tertiary"},"geometry":{"type":"LineString","coordinates":[[139.800115,35.595159],[139.800238,35.595013],[139.800376,35.594849],[139.800537,35.594653],[139.800682,35.594491],[139.800847,35.594321],[139.80095,35.594234],[139.801123,35.594086],[139.801251,35.593984],[139.801952,35.593505],[139.802604,35.593074],[139.803252,35.592654],[139.803974,35.592167],[139.804342,35.591925],[139.804557,35.59178],[139.804924,35.591566],[139.805239,35.591349],[139.805412,35.591267]]}},{"type":"Feature","properties":{"id":322815285,"highway":"service"},"geometry":{"type":"LineString","coordinates":[[139.800372,35.535601],[139.802321,35.536505]]}},{"type":"Feature","properties":{"id":322815287,"highway":"service"},"geometry":{"type":"LineString","coordinates":[[139.802321,35.536505],[139.802908,35.53678],[139.803076,35.536843],[139.803335,35.53685],[139.803508,35.536791],[139.803664,35.536669],[139.803762,35.536526]]}},{"type":"Feature","properties":{"id":322815289,"highway":"service"},"geometry":{"type":"LineString","coordinates":[[139.79911,35.536247],[139.799216,35.536098],[139.799478,35.53574],[139.799519,35.535686],[139.799597,35.535606],[139.799651,35.53557],[139.799718,35.535534],[139.799806,35.535504],[139.799886,35.535486],[139.799973,35.53548],[139.800066,35.535485],[139.800137,35.535499],[139.800212,35.535524],[139.800293,35.535562],[139.800372,35.535601]]}},{"type":"Feature","properties":{"id":322878933,"highway":"service"},"geometry":{"type":"LineString","coordinates":[[139.800124,35.536031],[139.800695,35.535234],[139.800703,35.535182],[139.800695,35.535112],[139.80061,35.535029],[139.796323,35.532993]]}},{"type":"Feature","properties":{"id":500203549,"highway":"service"},"geometry":{"type":"LineString","coordinates":[[139.804417,35.530151],[139.804351,35.530245]]}},{"type":"Feature","properties":{"id":500203550,"highway":"service"},"geometry":{"type":"LineString","coordinates":[[139.806418,35.531206],[139.806466,35.53114],[139.806665,35.530855],[139.806753,35.530732],[139.806803,35.530699],[139.80686,35.530681],[139.807,35.530673],[139.807054,35.530674],[139.807118,35.530702],[139.807258,35.530826],[139.808241,35.531696],[139.810958,35.534118],[139.813196,35.53611],[139.815428,35.538098],[139.817203,35.539673],[139.819896,35.542071],[139.819948,35.542097],[139.820764,35.542123],[139.820814,35.542111],[139.821184,35.541835],[139.823052,35.5435],[139.823121,35.54352],[139.823173,35.543517],[139.823224,35.543502],[139.824236,35.542744],[139.825526,35.541775],[139.825566,35.541739],[139.825584,35.541699],[139.825585,35.541681],[139.825587,35.541656],[139.825574,35.541607],[139.823262,35.539548],[139.821043,35.537603],[139.81996,35.53662],[139.81879,35.535577],[139.81656,35.533589],[139.814325,35.531597],[139.812079,35.529607],[139.810627,35.528339],[139.809808,35.527611],[139.807569,35.525621],[139.805326,35.523627],[139.805117,35.523441],[139.802549,35.521158],[139.802478,35.521121],[139.802405,35.521119],[139.802339,35.52115],[139.800055,35.522872],[139.800009,35.522926],[139.799993,35.522982],[139.800044,35.523023],[139.801896,35.524658],[139.800744,35.525522],[139.800732,35.526331],[139.803447,35.528747],[139.804422,35.52962],[139.804481,35.529681],[139.804512,35.529744],[139.804532,35.529827],[139.804534,35.529899],[139.80452,35.529969],[139.804493,35.530043],[139.804417,35.530151]]}},{"type":"Feature","properties":{"id":500203551,"highway":"service"},"geometry":{"type":"LineString","coordinates":[[139.800968,35.535004],[139.800164,35.53612]]}},{"type":"Feature","properties":{"id":500203552,"highway":"service"},"geometry":{"type":"LineString","coordinates":[[139.804351,35.530245],[139.80279,35.53244],[139.800968,35.535004]]}},{"type":"Feature","properties":{"id":500203555,"highway":"service"},"geometry":{"type":"LineString","coordinates":[[139.802975,35.536057],[139.80485,35.533414],[139.806418,35.531206]]}},{"type":"Feature","properties":{"id":500203558,"highway":"service"},"geometry":{"type":"LineString","coordinates":[[139.80279,35.53244],[139.80485,35.533414]]}},{"type":"Feature","properties":{"id":500616530,"highway":"service"},"geometry":{"type":"LineString","coordinates":[[139.81879,35.535577],[139.817535,35.536524],[139.816833,35.537054],[139.81591,35.53774],[139.815428,35.538098]]}},{"type":"Feature","properties":{"id":500616531,"highway":"service"},"geometry":{"type":"LineString","coordinates":[[139.81656,35.533589],[139.815293,35.53453],[139.814582,35.535058],[139.813671,35.535749],[139.813196,35.53611]]}},{"type":"Feature","properties":{"id":500616533,"highway":"service"},"geometry":{"type":"LineString","coordinates":[[139.818139,35.538963],[139.820841,35.541379],[139.821268,35.541761]]}},{"type":"Feature","properties":{"id":500616535,"highway":"service"},"geometry":{"type":"LineString","coordinates":[[139.824236,35.542744],[139.823998,35.542533],[139.823773,35.542333],[139.823555,35.542139],[139.823331,35.54194],[139.822404,35.541117],[139.82211,35.541116],[139.821436,35.541625],[139.821268,35.541761],[139.821184,35.541835]]}},{"type":"Feature","properties":{"id":500616537,"highway":"service"},"geometry":{"type":"LineString","coordinates":[[139.823262,35.539548],[139.822018,35.540509]]}},{"type":"Feature","properties":{"id":500616539,"highway":"service"},"geometry":{"type":"LineString","coordinates":[[139.81996,35.53662],[139.818707,35.537565]]}},{"type":"Feature","properties":{"id":500616541,"highway":"service"},"geometry":{"type":"LineString","coordinates":[[139.821043,35.537603],[139.819785,35.538521]]}},{"type":"Feature","properties":{"id":500616543,"highway":"service"},"geometry":{"type":"LineString","coordinates":[[139.817203,35.539673],[139.817676,35.539314],[139.818139,35.538963],[139.818594,35.538617],[139.819308,35.538098]]}},{"type":"Feature","properties":{"id":500616545,"highway":"service"},"geometry":{"type":"LineString","coordinates":[[139.81236,35.533068],[139.814582,35.535058],[139.816833,35.537054],[139.81768,35.537807],[139.818594,35.538617]]}},{"type":"Feature","properties":{"id":500616548,"highway":"service"},"geometry":{"type":"LineString","coordinates":[[139.810958,35.534118],[139.811436,35.53376],[139.81236,35.533068],[139.813046,35.532543],[139.814325,35.531597]]}},{"type":"Feature","properties":{"id":500616602,"highway":"service"},"geometry":{"type":"LineString","coordinates":[[139.798746,35.543692],[139.799012,35.543827],[139.7995,35.544055],[139.799549,35.544077],[139.80058,35.544559],[139.800592,35.544564],[139.8014,35.544953]]}},{"type":"Feature","properties":{"id":500616605,"highway":"service"},"geometry":{"type":"LineString","coordinates":[[139.807569,35.525621],[139.80634,35.526564],[139.805622,35.527114],[139.804725,35.527788],[139.803912,35.528398],[139.803447,35.528747]]}},{"type":"Feature","properties":{"id":500616607,"highway":"service"},"geometry":{"type":"LineString","coordinates":[[139.805326,35.523627],[139.804077,35.524553]]}},{"type":"Feature","properties":{"id":500616610,"highway":"service"},"geometry":{"type":"LineString","coordinates":[[139.801896,35.524658],[139.80245,35.524256],[139.803168,35.52373]]}},{"type":"Feature","properties":{"id":500616612,"highway":"service"},"geometry":{"type":"LineString","coordinates":[[139.809635,35.530651],[139.807867,35.529103],[139.806924,35.52825],[139.805622,35.527114],[139.80371,35.525391],[139.80361,35.525301],[139.802875,35.524639],[139.80245,35.524256]]}},{"type":"Feature","properties":{"id":500616614,"highway":"service"},"geometry":{"type":"LineString","coordinates":[[139.808241,35.531696],[139.808716,35.53134],[139.809635,35.530651],[139.810288,35.530161],[139.810337,35.530125]]}},{"type":"Feature","properties":{"id":500616616,"highway":"service"},"geometry":{"type":"LineString","coordinates":[[139.812079,35.529607],[139.810833,35.530562]]}},{"type":"Feature","properties":{"id":500616617,"highway":"service"},"geometry":{"type":"LineString","coordinates":[[139.809808,35.527611],[139.808583,35.528553],[139.807867,35.529103],[139.807162,35.529589],[139.806941,35.52976]]}},{"type":"Feature","properties":{"id":500616620,"highway":"service"},"geometry":{"type":"LineString","coordinates":[[139.802844,35.538006],[139.799672,35.536516]]}},{"type":"Feature","properties":{"id":500616621,"highway":"service"},"geometry":{"type":"LineString","coordinates":[[139.801084,35.540333],[139.801398,35.540482],[139.801869,35.540706],[139.8024,35.540958],[139.802493,35.541002],[139.802928,35.541199],[139.803395,35.541423]]}},{"type":"Feature","properties":{"id":500616623,"highway":"service"},"geometry":{"type":"LineString","coordinates":[[139.80417,35.538743],[139.803828,35.53923],[139.802855,35.540616],[139.802493,35.541002],[139.802436,35.541083],[139.802495,35.541767],[139.80249,35.541871],[139.8024,35.541987],[139.80223,35.542225],[139.801676,35.543004],[139.800592,35.544542],[139.80058,35.544559],[139.799467,35.546124],[139.799282,35.546384],[139.798559,35.547399],[139.797481,35.548924],[139.796434,35.550405],[139.795016,35.552403],[139.794129,35.553654],[139.793248,35.554897],[139.792015,35.556635],[139.791143,35.557864],[139.789717,35.559874],[139.788649,35.561379],[139.788467,35.561636],[139.787419,35.563113],[139.785501,35.565817],[139.784339,35.567455],[139.784302,35.567531],[139.784251,35.567688],[139.784296,35.567842],[139.784353,35.568037],[139.784495,35.568527],[139.78449,35.568565],[139.783373,35.570159]]}},{"type":"Feature","properties":{"id":500616626,"highway":"service"},"geometry":{"type":"LineString","coordinates":[[139.80304,35.538222],[139.80417,35.538743],[139.804527,35.538922],[139.805007,35.539142],[139.805279,35.539136],[139.805823,35.538356]]}},{"type":"Feature","properties":{"id":500616628,"highway":"service"},"geometry":{"type":"LineString","coordinates":[[139.784417,35.564407],[139.784797,35.563867],[139.785843,35.562379],[139.786895,35.560892],[139.788147,35.559121],[139.789387,35.557376],[139.790443,35.555889],[139.791168,35.554856],[139.792483,35.552984],[139.792535,35.55291],[139.793608,35.551398],[139.793806,35.551119],[139.794848,35.549647],[139.796091,35.547922],[139.796648,35.547149],[139.797003,35.546655],[139.797906,35.545385],[139.798461,35.544603],[139.799012,35.543827],[139.800117,35.542265],[139.800508,35.541713],[139.80066,35.541484],[139.800863,35.541176],[139.800948,35.541043],[139.801038,35.540965],[139.801398,35.540482],[139.802669,35.538681],[139.802828,35.538456],[139.80304,35.538222],[139.803193,35.538054],[139.804185,35.536722],[139.803762,35.536526],[139.803176,35.536242],[139.803082,35.536222],[139.802997,35.536198],[139.802962,35.536171],[139.802948,35.536133],[139.802964,35.536083]]}},{"type":"Feature","properties":{"id":721120023,"highway":"tertiary"},"geometry":{"type":"LineString","coordinates":[[139.806348,35.599441],[139.806546,35.599236],[139.806579,35.599201],[139.806687,35.599084]]}},{"type":"Feature","properties":{"id":779852403,"highway":"service"},"geometry":{"type":"LineString","coordinates":[[139.812107,35.601457],[139.812891,35.600307],[139.813074,35.600129],[139.813009,35.600039],[139.812753,35.600122],[139.81269,35.600141],[139.812363,35.600241],[139.812131,35.600281],[139.811948,35.600284],[139.81183,35.600244],[139.811667,35.600155],[139.809758,35.598947],[139.808663,35.598254],[139.808395,35.598115],[139.808179,35.598066],[139.808061,35.598096],[139.807895,35.598251],[139.80737,35.598717],[139.807232,35.598846]]}},{"type":"Feature","properties":{"id":779858647,"highway":"service"},"geometry":{"type":"LineString","coordinates":[[139.812464,35.591007],[139.812628,35.590953],[139.812762,35.590944],[139.812896,35.59094],[139.812977,35.590907],[139.813049,35.590833],[139.813092,35.59078],[139.813216,35.590752],[139.813344,35.59075],[139.813524,35.590778],[139.813688,35.590842],[139.813782,35.590916],[139.813886,35.591051],[139.813961,35.59126],[139.814144,35.592183],[139.814205,35.592321],[139.814211,35.592333],[139.814321,35.592416],[139.814525,35.592528],[139.815792,35.593184],[139.815892,35.593236],[139.815954,35.593311],[139.815933,35.593365],[139.81578,35.593502],[139.814664,35.594626],[139.81463,35.594663],[139.814178,35.595154],[139.81413,35.595206],[139.814086,35.595259],[139.813355,35.596126],[139.813339,35.596227],[139.813377,35.596318],[139.814605,35.596994],[139.814674,35.597034],[139.814715,35.597057],[139.814905,35.597158],[139.816582,35.598052],[139.816833,35.598185],[139.817258,35.598412],[139.81737,35.598436],[139.817483,35.598416],[139.817569,35.598377],[139.817633,35.598301],[139.81783,35.598064],[139.818102,35.597738],[139.818358,35.59743],[139.818363,35.597424],[139.819347,35.5961],[139.819358,35.596085],[139.819792,35.595463],[139.81985,35.595439],[139.819937,35.595435],[139.820204,35.595566],[139.820396,35.595659],[139.820487,35.595675],[139.820594,35.595651],[139.820667,35.595585],[139.820754,35.595473],[139.820785,35.595433],[139.820817,35.595315],[139.820806,35.595182],[139.820675,35.59501],[139.819905,35.594318],[139.819784,35.594237],[139.819589,35.594118],[139.81943,35.594065],[139.819205,35.594035],[139.817293,35.592918],[139.81709,35.592805],[139.817065,35.592791],[139.815305,35.591679],[139.815243,35.591609],[139.81516,35.591474],[139.815042,35.591278],[139.814954,35.591142],[139.814809,35.591057],[139.814165,35.590798],[139.813857,35.59066],[139.813599,35.590617],[139.813398,35.590669],[139.813216,35.590752]]}},{"type":"Feature","properties":{"id":779858648,"highway":"service"},"geometry":{"type":"LineString","coordinates":[[139.814205,35.592321],[139.814111,35.592478],[139.814062,35.592536],[139.813864,35.59277],[139.81307,35.593723],[139.812388,35.594541],[139.811893,35.595135],[139.81189,35.595185],[139.811973,35.595239],[139.812126,35.59527],[139.812239,35.595285],[139.812326,35.595327],[139.812373,35.59535],[139.812478,35.595353],[139.812609,35.595261],[139.812754,35.595167],[139.812899,35.595148],[139.813036,35.595154],[139.813108,35.595176],[139.81317,35.595097],[139.813274,35.595004],[139.81336,35.594956],[139.813446,35.594954],[139.813585,35.595001],[139.81373,35.595082],[139.813894,35.595161],[139.814086,35.595259]]}},{"type":"Feature","properties":{"id":779858649,"highway":"service"},"geometry":{"type":"LineString","coordinates":[[139.813108,35.595176],[139.813052,35.59525],[139.813025,35.595322],[139.813057,35.59542],[139.813135,35.595499],[139.813234,35.595575],[139.813328,35.595619],[139.813489,35.595638],[139.813578,35.595616],[139.813642,35.595545],[139.813661,35.595477],[139.813628,35.595414]]}},{"type":"Feature","properties":{"id":779858650,"highway":"service"},"geometry":{"type":"LineString","coordinates":[[139.812326,35.595327],[139.812287,35.595416],[139.812311,35.595516],[139.81243,35.595632],[139.812572,35.595723],[139.813044,35.595983],[139.813146,35.596085],[139.813194,35.596207],[139.813246,35.596239],[139.813377,35.596318]]}},{"type":"Feature","properties":{"id":779858651,"highway":"service"},"geometry":{"type":"LineString","coordinates":[[139.813194,35.596207],[139.811914,35.595446],[139.81122,35.595032],[139.81114,35.594901],[139.811139,35.594899],[139.811166,35.594718],[139.811206,35.594506],[139.811252,35.594142],[139.811284,35.593887],[139.811278,35.593846],[139.81126,35.593732],[139.811217,35.593662],[139.811163,35.593619],[139.811043,35.593553],[139.810965,35.593518],[139.810938,35.593466],[139.810935,35.593424],[139.811431,35.592813],[139.811937,35.592184],[139.812977,35.590907]]}},{"type":"Feature","properties":{"id":779858652,"highway":"service"},"geometry":{"type":"LineString","coordinates":[[139.810935,35.593424],[139.810856,35.593516],[139.810724,35.593667],[139.810643,35.59368],[139.810576,35.593654],[139.810493,35.593612],[139.810427,35.593577]]}},{"type":"Feature","properties":{"id":779858653,"highway":"service"},"geometry":{"type":"LineString","coordinates":[[139.810856,35.593516],[139.810592,35.593369]]}},{"type":"Feature","properties":{"id":779858654,"highway":"service"},"geometry":{"type":"LineString","coordinates":[[139.810724,35.593667],[139.810724,35.593721],[139.810753,35.593776],[139.810978,35.593887]]}},{"type":"Feature","properties":{"id":779858655,"highway":"service"},"geometry":{"type":"LineString","coordinates":[[139.810978,35.593887],[139.811145,35.593983],[139.811225,35.594059],[139.811252,35.594142]]}},{"type":"Feature","properties":{"id":779858656,"highway":"service"},"geometry":{"type":"LineString","coordinates":[[139.81114,35.594901],[139.811145,35.595139],[139.811172,35.595813],[139.811115,35.595935],[139.811,35.596094],[139.810871,35.596264],[139.810718,35.596548],[139.810466,35.596788],[139.810311,35.597017],[139.809919,35.597599],[139.809543,35.598037],[139.809423,35.598245],[139.80942,35.598358],[139.809476,35.59845],[139.809586,35.598578],[139.809742,35.598842],[139.809758,35.598947]]}},{"type":"Feature","properties":{"id":779858657,"highway":"service"},"geometry":{"type":"LineString","coordinates":[[139.809742,35.598842],[139.809844,35.598799],[139.810139,35.598731],[139.810386,35.598735],[139.810563,35.598788],[139.811032,35.599053],[139.81248,35.599872],[139.812593,35.599985],[139.812641,35.600053],[139.81269,35.600141]]}},{"type":"Feature","properties":{"id":779858658,"highway":"service"},"geometry":{"type":"LineString","coordinates":[[139.813009,35.600039],[139.813025,35.599907],[139.813022,35.599743],[139.813014,35.599555],[139.813036,35.599435],[139.813081,35.599328],[139.81387,35.598236],[139.81402,35.598033],[139.814141,35.597837],[139.814307,35.597612],[139.814674,35.597034]]}},{"type":"Feature","properties":{"id":779858659,"highway":"service"},"geometry":{"type":"LineString","coordinates":[[139.814307,35.597612],[139.812793,35.596776],[139.812705,35.596728],[139.811925,35.596297],[139.811711,35.596203],[139.811558,35.59616],[139.811442,35.596153],[139.811311,35.596192],[139.811064,35.596345],[139.810718,35.596548]]}},{"type":"Feature","properties":{"id":779858660,"highway":"service"},"geometry":{"type":"LineString","coordinates":[[139.811172,35.595813],[139.811295,35.596044],[139.811386,35.596101],[139.811558,35.59616]]}},{"type":"Feature","properties":{"id":779858661,"highway":"service"},"geometry":{"type":"LineString","coordinates":[[139.811925,35.596297],[139.811901,35.596116],[139.811904,35.595841],[139.811904,35.595627],[139.811914,35.595446]]}},{"type":"Feature","properties":{"id":779858662,"highway":"service"},"geometry":{"type":"LineString","coordinates":[[139.812793,35.596776],[139.813246,35.596239]]}},{"type":"Feature","properties":{"id":779858663,"highway":"service"},"geometry":{"type":"LineString","coordinates":[[139.814307,35.597612],[139.814704,35.597829],[139.814821,35.597953],[139.814913,35.598085],[139.815203,35.598261],[139.815225,35.598272],[139.816541,35.598948],[139.816838,35.59911],[139.81693,35.599087],[139.81699,35.599019],[139.817012,35.598995],[139.817483,35.598416]]}},{"type":"Feature","properties":{"id":779858664,"highway":"service"},"geometry":{"type":"LineString","coordinates":[[139.817483,35.598416],[139.817599,35.598551],[139.817642,35.598744],[139.817744,35.598871],[139.818169,35.599151],[139.818632,35.599457],[139.81916,35.599806],[139.819029,35.599795],[139.818778,35.599783],[139.818516,35.599774],[139.818325,35.599728],[139.817581,35.59934],[139.817309,35.599196],[139.817065,35.599136],[139.816838,35.59911]]}},{"type":"Feature","properties":{"id":779858665,"highway":"service"},"geometry":{"type":"LineString","coordinates":[[139.81916,35.599806],[139.819468,35.59995],[139.819659,35.600039],[139.819804,35.600125],[139.820144,35.600327],[139.820296,35.600505],[139.820621,35.600972],[139.820675,35.601049],[139.8207,35.60117],[139.820511,35.601599],[139.82033,35.601931],[139.819954,35.601803],[139.819872,35.601794],[139.81979,35.601815],[139.81973,35.601887],[139.819613,35.602064],[139.8195,35.602197],[139.819443,35.602285],[139.819478,35.602342],[139.819496,35.602461],[139.819595,35.60307],[139.819636,35.603212],[139.819641,35.603304],[139.819614,35.603381],[139.819561,35.603434],[139.819488,35.603471],[139.81938,35.603492],[139.818785,35.603481],[139.818705,35.603495],[139.818654,35.603538],[139.818615,35.603616],[139.818606,35.603826],[139.818564,35.603928],[139.818462,35.60395],[139.818364,35.603904],[139.816093,35.602668],[139.814085,35.601574],[139.813982,35.601518],[139.813717,35.601432],[139.813553,35.601363],[139.813483,35.601334],[139.813059,35.601128],[139.812963,35.601081],[139.81286,35.601009],[139.81285,35.600923],[139.812917,35.600805],[139.813083,35.600505],[139.813157,35.600364],[139.8132,35.600261],[139.813203,35.6002],[139.813074,35.600129]]}},{"type":"Feature","properties":{"id":779858671,"highway":"service"},"geometry":{"type":"LineString","coordinates":[[139.817384,35.601171],[139.817444,35.601127],[139.817971,35.6006],[139.818557,35.600041],[139.818587,35.599945],[139.818549,35.599856],[139.81842,35.599786],[139.818325,35.599728]]}},{"type":"Feature","properties":{"id":779858672,"highway":"service"},"geometry":{"type":"LineString","coordinates":[[139.818549,35.599856],[139.819585,35.600414],[139.820621,35.600972]]}},{"type":"Feature","properties":{"id":779858675,"highway":"service"},"geometry":{"type":"LineString","coordinates":[[139.822269,35.601202],[139.821926,35.600905],[139.82154,35.600652],[139.821204,35.600473],[139.820992,35.600315],[139.820524,35.599809],[139.820393,35.599668],[139.820135,35.599475],[139.819919,35.599331],[139.819834,35.599294],[139.819677,35.599226],[139.819512,35.599155],[139.818965,35.598912],[139.81845,35.598683],[139.817831,35.598557],[139.817599,35.598551]]}},{"type":"Feature","properties":{"id":779858676,"highway":"service"},"geometry":{"type":"LineString","coordinates":[[139.814674,35.597034],[139.814793,35.596928],[139.81496,35.596821],[139.815112,35.596647],[139.815311,35.596522],[139.81556,35.596483],[139.815818,35.59642],[139.816094,35.596294],[139.81617,35.596208],[139.816228,35.596143],[139.817252,35.595074],[139.817668,35.594639],[139.817865,35.594433],[139.817907,35.594389],[139.818033,35.594234],[139.818119,35.594128],[139.818192,35.594036],[139.818227,35.593992],[139.818235,35.593905],[139.818165,35.59377],[139.817191,35.592965],[139.817105,35.592874],[139.81709,35.592805]]}},{"type":"Feature","properties":{"id":779858677,"highway":"service"},"geometry":{"type":"LineString","coordinates":[[139.81709,35.592805],[139.817205,35.592671],[139.817312,35.592658],[139.817494,35.59269],[139.817771,35.592754],[139.818058,35.592876],[139.818202,35.592996],[139.818312,35.593179],[139.818511,35.593308],[139.818978,35.593561],[139.818984,35.593566],[139.819101,35.59367],[139.819425,35.594025],[139.819589,35.594118]]}},{"type":"Feature","properties":{"id":779858678,"highway":"service"},"geometry":{"type":"LineString","coordinates":[[139.818984,35.593566],[139.819189,35.593628],[139.819417,35.59367],[139.819619,35.593774],[139.821687,35.594841],[139.823846,35.59601],[139.823967,35.596134],[139.824044,35.596272],[139.824095,35.596433],[139.824119,35.596614],[139.824127,35.596653],[139.824149,35.596758],[139.824237,35.596865],[139.824481,35.597052],[139.824683,35.597098],[139.824704,35.597105],[139.824616,35.597358],[139.824034,35.598265],[139.823653,35.598887],[139.822341,35.600935],[139.822306,35.601037],[139.822304,35.601161],[139.822344,35.601255]]}},{"type":"Feature","properties":{"id":779858679,"highway":"service"},"geometry":{"type":"LineString","coordinates":[[139.824704,35.597105],[139.824709,35.596917],[139.82465,35.596429],[139.824554,35.595988],[139.824433,35.595699]]}},{"type":"Feature","properties":{"id":779858680,"highway":"service"},"geometry":{"type":"LineString","coordinates":[[139.824481,35.597052],[139.82396,35.596959],[139.823393,35.596857],[139.822388,35.596641],[139.822259,35.596606],[139.822158,35.596578],[139.821724,35.596369],[139.821473,35.596247],[139.821373,35.596199],[139.821323,35.596175],[139.820983,35.595989],[139.820583,35.595769],[139.820396,35.595659]]}},{"type":"Feature","properties":{"id":779858681,"highway":"service"},"geometry":{"type":"LineString","coordinates":[[139.823393,35.596857],[139.823413,35.596661],[139.823348,35.596407],[139.823273,35.596148],[139.823049,35.596031],[139.822437,35.595708],[139.822208,35.595522],[139.822017,35.595256],[139.821847,35.595096],[139.821741,35.59499],[139.821688,35.5949],[139.821687,35.594841],[139.821631,35.594736],[139.821568,35.59463],[139.821192,35.594293],[139.820973,35.594092],[139.8208,35.593902],[139.820754,35.59381],[139.820731,35.593685]]}},{"type":"Feature","properties":{"id":779858682,"highway":"service"},"geometry":{"type":"LineString","coordinates":[[139.823041,35.594942],[139.822594,35.594909],[139.822311,35.59488],[139.822003,35.594851],[139.821773,35.594834],[139.821687,35.594841],[139.821536,35.59484],[139.821369,35.594811],[139.821139,35.594771],[139.820913,35.594762],[139.820842,35.594768],[139.819589,35.594118]]}},{"type":"Feature","properties":{"id":779858683,"highway":"service"},"geometry":{"type":"LineString","coordinates":[[139.820842,35.594768],[139.822208,35.595522]]}},{"type":"Feature","properties":{"id":779858686,"highway":"service"},"geometry":{"type":"LineString","coordinates":[[139.815842,35.599421],[139.815966,35.599281],[139.816067,35.599169],[139.816196,35.599012],[139.81633,35.598953],[139.81647,35.598935],[139.816541,35.598948]]}},{"type":"Feature","properties":{"id":779858687,"highway":"service"},"geometry":{"type":"LineString","coordinates":[[139.81699,35.599019],[139.816164,35.598589],[139.814704,35.597829]]}},{"type":"Feature","properties":{"id":779858688,"highway":"service"},"geometry":{"type":"LineString","coordinates":[[139.816164,35.598589],[139.816582,35.598052]]}},{"type":"Feature","properties":{"id":779858689,"highway":"service"},"geometry":{"type":"LineString","coordinates":[[139.814821,35.597953],[139.813074,35.600129]]}},{"type":"Feature","properties":{"id":779858690,"highway":"service"},"geometry":{"type":"LineString","coordinates":[[139.819677,35.599226],[139.819991,35.598645],[139.820166,35.598321],[139.820997,35.596974],[139.821473,35.596247]]}},{"type":"Feature","properties":{"id":779858691,"highway":"service"},"geometry":{"type":"LineString","coordinates":[[139.81845,35.598683],[139.818581,35.598492],[139.818848,35.598103],[139.819069,35.59778],[139.820059,35.596463],[139.820583,35.595769]]}},{"type":"Feature","properties":{"id":779858692,"highway":"service"},"geometry":{"type":"LineString","coordinates":[[139.820524,35.599809],[139.820497,35.599722],[139.82054,35.599652],[139.820657,35.599624],[139.820746,35.599602],[139.820814,35.599532],[139.820894,35.599404],[139.82099,35.599211],[139.821272,35.598818],[139.821289,35.598795],[139.821782,35.598044],[139.821939,35.59774],[139.821973,35.597605],[139.821964,35.597535],[139.821954,35.597452],[139.821973,35.59731],[139.822259,35.596606]]}},{"type":"Feature","properties":{"id":779858693,"highway":"service"},"geometry":{"type":"LineString","coordinates":[[139.821964,35.597535],[139.821899,35.597417],[139.821745,35.597337],[139.820997,35.596974]]}},{"type":"Feature","properties":{"id":779858694,"highway":"service"},"geometry":{"type":"LineString","coordinates":[[139.820997,35.596974],[139.820059,35.596463],[139.819347,35.5961],[139.818824,35.595816],[139.817447,35.595045],[139.817363,35.595042],[139.817323,35.595055],[139.817252,35.595074]]}},{"type":"Feature","properties":{"id":779858695,"highway":"service"},"geometry":{"type":"LineString","coordinates":[[139.819792,35.595463],[139.819784,35.595376],[139.819763,35.595362],[139.81968,35.595308],[139.81942,35.595172],[139.819065,35.594986],[139.818009,35.594434],[139.817942,35.594424],[139.817865,35.594433]]}},{"type":"Feature","properties":{"id":779858696,"highway":"service"},"geometry":{"type":"LineString","coordinates":[[139.819763,35.595362],[139.819846,35.595397],[139.819937,35.595435]]}},{"type":"Feature","properties":{"id":779858697,"highway":"service"},"geometry":{"type":"LineString","coordinates":[[139.81942,35.595172],[139.818824,35.595816],[139.817739,35.597082],[139.816833,35.598185]]}},{"type":"Feature","properties":{"id":779858698,"highway":"service"},"geometry":{"type":"LineString","coordinates":[[139.81617,35.596208],[139.817739,35.597082],[139.818358,35.59743],[139.819069,35.59778],[139.820166,35.598321],[139.821272,35.598818]]}},{"type":"Feature","properties":{"id":779858699,"highway":"service"},"geometry":{"type":"LineString","coordinates":[[139.821272,35.598818],[139.821806,35.599033],[139.821976,35.599077],[139.822079,35.599085],[139.822206,35.599071],[139.822719,35.59895],[139.823186,35.598864],[139.823388,35.598849],[139.823555,35.598852],[139.823653,35.598887],[139.823781,35.598961]]}},{"type":"Feature","properties":{"id":779858700,"highway":"service"},"geometry":{"type":"LineString","coordinates":[[139.821289,35.598795],[139.82141,35.598789],[139.821633,35.598849],[139.821856,35.598924],[139.822047,35.598947],[139.822149,35.598915],[139.822231,35.598855],[139.822376,35.598697],[139.822888,35.597771],[139.823393,35.596857]]}},{"type":"Feature","properties":{"id":779858701,"highway":"service"},"geometry":{"type":"LineString","coordinates":[[139.822888,35.597771],[139.823211,35.597871]]}},{"type":"Feature","properties":{"id":779858702,"highway":"service"},"geometry":{"type":"LineString","coordinates":[[139.823363,35.597635],[139.823211,35.597871],[139.822769,35.598607],[139.822663,35.598671],[139.822525,35.59874],[139.822355,35.598829],[139.822149,35.598915]]}},{"type":"Feature","properties":{"id":779858703,"highway":"service"},"geometry":{"type":"LineString","coordinates":[[139.81709,35.592805],[139.815799,35.593843],[139.81575,35.593877],[139.815545,35.594018],[139.815354,35.594116],[139.814745,35.594781],[139.814547,35.594982],[139.814402,35.595092],[139.814285,35.595164],[139.814086,35.595259]]}},{"type":"Feature","properties":{"id":779858704,"highway":"service"},"geometry":{"type":"LineString","coordinates":[[139.81575,35.593877],[139.816069,35.5938],[139.816252,35.593708],[139.816433,35.593587],[139.816897,35.593316],[139.817003,35.593279],[139.817042,35.593279],[139.817144,35.593279],[139.817282,35.593313],[139.817725,35.593617],[139.818096,35.593872],[139.818174,35.593972],[139.818192,35.594036]]}},{"type":"Feature","properties":{"id":779858705,"highway":"service"},"geometry":{"type":"LineString","coordinates":[[139.818033,35.594234],[139.818061,35.594142],[139.818004,35.594027],[139.817884,35.593946],[139.817724,35.593875],[139.817619,35.593828],[139.817396,35.593729],[139.817134,35.593612],[139.817091,35.593564],[139.817116,35.5935],[139.817155,35.593388],[139.817151,35.593328],[139.817127,35.593308],[139.817042,35.593279]]}},{"type":"Feature","properties":{"id":779858706,"highway":"service"},"geometry":{"type":"LineString","coordinates":[[139.817725,35.593617],[139.817728,35.593693],[139.817711,35.593788],[139.817724,35.593875],[139.817771,35.593967],[139.817728,35.59405],[139.81747,35.594329],[139.817477,35.594398],[139.81758,35.594464],[139.817668,35.594531],[139.817672,35.594574],[139.817668,35.594639]]}},{"type":"Feature","properties":{"id":779858707,"highway":"service"},"geometry":{"type":"LineString","coordinates":[[139.817396,35.593729],[139.817222,35.593909]]}},{"type":"Feature","properties":{"id":779858708,"highway":"service"},"geometry":{"type":"LineString","coordinates":[[139.817091,35.593564],[139.816905,35.593724]]}},{"type":"Feature","properties":{"id":779858709,"highway":"service"},"geometry":{"type":"LineString","coordinates":[[139.817619,35.593828],[139.817289,35.594182],[139.817195,35.594228],[139.816983,35.594254],[139.816818,35.594256],[139.816723,35.594243],[139.816648,35.594193],[139.816559,35.594088],[139.816377,35.593861],[139.81635,35.593759],[139.816382,35.593682],[139.816433,35.593587]]}},{"type":"Feature","properties":{"id":779860736,"highway":"service"},"geometry":{"type":"LineString","coordinates":[[139.824935,35.599948],[139.824025,35.599486],[139.823873,35.599401],[139.823812,35.599327],[139.823765,35.599207],[139.823761,35.599105],[139.823782,35.599027],[139.823796,35.598991],[139.823781,35.598961]]}},{"type":"Feature","properties":{"id":779860739,"highway":"service"},"geometry":{"type":"LineString","coordinates":[[139.822965,35.600249],[139.823781,35.598961]]}},{"type":"Feature","properties":{"id":779860740,"highway":"service"},"geometry":{"type":"LineString","coordinates":[[139.826401,35.597656],[139.826258,35.597504],[139.82538,35.596322],[139.825246,35.596142]]}},{"type":"Feature","properties":{"id":779860741,"highway":"service"},"geometry":{"type":"LineString","coordinates":[[139.825064,35.596043],[139.824963,35.596189],[139.824928,35.596296],[139.824874,35.596609],[139.824837,35.596969],[139.824804,35.597099],[139.824616,35.597358]]}},{"type":"Feature","properties":{"id":779860742,"highway":"service"},"geometry":{"type":"LineString","coordinates":[[139.824804,35.597099],[139.825101,35.596584],[139.825183,35.596443],[139.825351,35.596339],[139.82538,35.596322]]}},{"type":"Feature","properties":{"id":779860743,"highway":"service"},"geometry":{"type":"LineString","coordinates":[[139.82396,35.596959],[139.824127,35.596653]]}},{"type":"Feature","properties":{"id":779860744,"highway":"service"},"geometry":{"type":"LineString","coordinates":[[139.810718,35.596548],[139.812322,35.597401],[139.812486,35.597472],[139.81264,35.597583],[139.81387,35.598236]]}},{"type":"Feature","properties":{"id":779860745,"highway":"service"},"geometry":{"type":"LineString","coordinates":[[139.811925,35.596297],[139.812001,35.59638],[139.812027,35.59646],[139.812043,35.59657],[139.81215,35.596665],[139.812311,35.596733],[139.812438,35.596765],[139.812533,35.596752],[139.812645,35.596733],[139.812705,35.596728]]}},{"type":"Feature","properties":{"id":779860749,"highway":"service"},"geometry":{"type":"LineString","coordinates":[[139.815966,35.599281],[139.814916,35.598713],[139.814895,35.598672],[139.814911,35.598615],[139.815225,35.598272]]}},{"type":"Feature","properties":{"id":779860750,"highway":"service"},"geometry":{"type":"LineString","coordinates":[[139.814895,35.598672],[139.814726,35.598731],[139.814597,35.598787],[139.814506,35.598881],[139.814097,35.599367],[139.813932,35.599564],[139.813832,35.599651],[139.813685,35.599745],[139.813342,35.600037],[139.813203,35.6002]]}},{"type":"Feature","properties":{"id":779860751,"highway":"service"},"geometry":{"type":"LineString","coordinates":[[139.814097,35.599367],[139.814232,35.599458],[139.814234,35.599567],[139.814135,35.599753],[139.813995,35.599846],[139.813852,35.599878],[139.81374,35.599933],[139.813669,35.599974],[139.81365,35.600026],[139.813669,35.600073],[139.813719,35.600101],[139.813764,35.600101],[139.813823,35.60008],[139.813892,35.60004],[139.814051,35.599881],[139.814135,35.599753]]}},{"type":"Feature","properties":{"id":779860752,"highway":"service"},"geometry":{"type":"LineString","coordinates":[[139.814232,35.599458],[139.814332,35.599538],[139.814413,35.599634],[139.814461,35.599726],[139.814461,35.599729],[139.814453,35.599957],[139.814413,35.600068],[139.814335,35.600175]]}},{"type":"Feature","properties":{"id":779860753,"highway":"service"},"geometry":{"type":"LineString","coordinates":[[139.814461,35.599729],[139.814514,35.599803],[139.814586,35.599876],[139.814697,35.599936],[139.814788,35.600012],[139.814817,35.600086],[139.814812,35.60019],[139.814785,35.600254],[139.814723,35.600322],[139.814598,35.600409],[139.814504,35.600456],[139.81441,35.600472],[139.814316,35.600479]]}},{"type":"Feature","properties":{"id":779860754,"highway":"service"},"geometry":{"type":"LineString","coordinates":[[139.814232,35.599458],[139.814258,35.599435],[139.814323,35.599419],[139.814418,35.599434],[139.814574,35.59955],[139.814791,35.599668],[139.814903,35.599678],[139.815002,35.599642],[139.815048,35.599569],[139.81503,35.599499],[139.814932,35.599443],[139.814586,35.599417],[139.814418,35.599434]]}},{"type":"Feature","properties":{"id":779860755,"highway":"service"},"geometry":{"type":"LineString","coordinates":[[139.814791,35.599668],[139.81509,35.599845]]}},{"type":"Feature","properties":{"id":779860756,"highway":"service"},"geometry":{"type":"LineString","coordinates":[[139.819468,35.59995],[139.819605,35.599703],[139.819834,35.599294]]}},{"type":"Feature","properties":{"id":779860757,"highway":"service"},"geometry":{"type":"LineString","coordinates":[[139.818632,35.599457],[139.818772,35.599229],[139.818965,35.598912]]}},{"type":"Feature","properties":{"id":779860758,"highway":"service"},"geometry":{"type":"LineString","coordinates":[[139.818169,35.599151],[139.818294,35.598943],[139.81845,35.598683]]}},{"type":"Feature","properties":{"id":779860759,"highway":"service"},"geometry":{"type":"LineString","coordinates":[[139.817599,35.598551],[139.818294,35.598943],[139.818772,35.599229],[139.819605,35.599703]]}},{"type":"Feature","properties":{"id":779860760,"highway":"service"},"geometry":{"type":"LineString","coordinates":[[139.818581,35.598492],[139.81783,35.598064]]}},{"type":"Feature","properties":{"id":779860761,"highway":"service"},"geometry":{"type":"LineString","coordinates":[[139.818102,35.597738],[139.818848,35.598103],[139.819991,35.598645]]}},{"type":"Feature","properties":{"id":779860762,"highway":"service"},"geometry":{"type":"LineString","coordinates":[[139.822259,35.596606],[139.822309,35.596486],[139.822349,35.596412],[139.822314,35.596346],[139.822185,35.596276],[139.821927,35.596131],[139.821572,35.595932],[139.82119,35.595717],[139.820754,35.595473]]}},{"type":"Feature","properties":{"id":779860763,"highway":"service"},"geometry":{"type":"LineString","coordinates":[[139.820983,35.595989],[139.82119,35.595717]]}},{"type":"Feature","properties":{"id":779860764,"highway":"service"},"geometry":{"type":"LineString","coordinates":[[139.821373,35.596199],[139.821572,35.595932]]}},{"type":"Feature","properties":{"id":779860765,"highway":"service"},"geometry":{"type":"LineString","coordinates":[[139.821724,35.596369],[139.821927,35.596131]]}},{"type":"Feature","properties":{"id":779860766,"highway":"service"},"geometry":{"type":"LineString","coordinates":[[139.820754,35.595473],[139.820401,35.595297],[139.820058,35.595127],[139.819641,35.594919],[139.819265,35.594733],[139.818297,35.594252],[139.818125,35.594217],[139.818033,35.594234]]}},{"type":"Feature","properties":{"id":779860767,"highway":"service"},"geometry":{"type":"LineString","coordinates":[[139.819065,35.594986],[139.819265,35.594733]]}},{"type":"Feature","properties":{"id":779860768,"highway":"service"},"geometry":{"type":"LineString","coordinates":[[139.81942,35.595172],[139.819641,35.594919]]}},{"type":"Feature","properties":{"id":779860769,"highway":"service"},"geometry":{"type":"LineString","coordinates":[[139.819846,35.595397],[139.820058,35.595127]]}},{"type":"Feature","properties":{"id":779860770,"highway":"service"},"geometry":{"type":"LineString","coordinates":[[139.820204,35.595566],[139.820401,35.595297]]}},{"type":"Feature","properties":{"id":779860901,"highway":"service"},"geometry":{"type":"LineString","coordinates":[[139.811032,35.599053],[139.812322,35.597401]]}},{"type":"Feature","properties":{"id":779861983,"highway":"service"},"geometry":{"type":"LineString","coordinates":[[139.81463,35.594663],[139.814431,35.594543],[139.813605,35.594046],[139.813457,35.593957],[139.813318,35.593873],[139.813187,35.593794],[139.81307,35.593723]]}},{"type":"Feature","properties":{"id":779861984,"highway":"service"},"geometry":{"type":"LineString","coordinates":[[139.814062,35.592536],[139.814176,35.592595],[139.814293,35.592655],[139.814338,35.592678],[139.815463,35.593254],[139.815503,35.593297],[139.8155,35.593377],[139.815423,35.593497],[139.814431,35.594543],[139.813953,35.595048],[139.812795,35.594529],[139.812662,35.594489],[139.812621,35.594489],[139.812514,35.594489],[139.812388,35.594541]]}},{"type":"Feature","properties":{"id":779861985,"highway":"service"},"geometry":{"type":"LineString","coordinates":[[139.813953,35.595048],[139.814178,35.595154]]}},{"type":"Feature","properties":{"id":779861986,"highway":"service"},"geometry":{"type":"LineString","coordinates":[[139.813318,35.593873],[139.814293,35.592655]]}},{"type":"Feature","properties":{"id":779861987,"highway":"service"},"geometry":{"type":"LineString","coordinates":[[139.813457,35.593957],[139.814172,35.593134],[139.814295,35.592981],[139.814378,35.592873],[139.8144,35.592808],[139.814378,35.592751],[139.814338,35.592678]]}},{"type":"Feature","properties":{"id":779861988,"highway":"service"},"geometry":{"type":"LineString","coordinates":[[139.813187,35.593794],[139.814176,35.592595]]}},{"type":"Feature","properties":{"id":779874534,"highway":"service"},"geometry":{"type":"LineString","coordinates":[[139.813558,35.589758],[139.816627,35.585964],[139.81907,35.587287],[139.823218,35.589534],[139.829525,35.59295],[139.826941,35.596964],[139.826821,35.596999]]}},{"type":"Feature","properties":{"id":779874535,"highway":"service"},"geometry":{"type":"LineString","coordinates":[[139.81907,35.587287],[139.818899,35.587497],[139.817911,35.588709],[139.817382,35.588425],[139.815575,35.590591],[139.815425,35.590771]]}},{"type":"Feature","properties":{"id":779874536,"highway":"service"},"geometry":{"type":"LineString","coordinates":[[139.815575,35.590591],[139.820131,35.593033],[139.820204,35.593057],[139.820338,35.59305],[139.820407,35.59299],[139.820505,35.592865],[139.822059,35.590957],[139.823055,35.589734],[139.823218,35.589534],[139.823307,35.589429]]}},{"type":"Feature","properties":{"id":779874537,"highway":"service"},"geometry":{"type":"LineString","coordinates":[[139.822059,35.590957],[139.817911,35.588709]]}},{"type":"Feature","properties":{"id":779874538,"highway":"service"},"geometry":{"type":"LineString","coordinates":[[139.823055,35.589734],[139.818899,35.587497],[139.816746,35.586295]]}},{"type":"Feature","properties":{"id":779874539,"highway":"service"},"geometry":{"type":"LineString","coordinates":[[139.820428,35.59352],[139.820532,35.593401],[139.820642,35.593351],[139.820754,35.593358],[139.820959,35.593438],[139.821075,35.593445],[139.821169,35.59342],[139.82128,35.593354],[139.821303,35.593334],[139.821351,35.593291],[139.821725,35.592793],[139.82176,35.592686],[139.821806,35.592604],[139.821842,35.592542],[139.822174,35.592203],[139.822309,35.592119],[139.822436,35.592102],[139.822564,35.592125],[139.822663,35.592182],[139.822769,35.592275],[139.822829,35.592334],[139.822847,35.592352],[139.823099,35.592481],[139.823419,35.592645],[139.82406,35.592973],[139.825214,35.593564],[139.825972,35.593904],[139.826067,35.593947],[139.826195,35.593995],[139.826248,35.594016],[139.826396,35.594019],[139.826619,35.594125],[139.827359,35.594439],[139.827409,35.594488],[139.827441,35.594568],[139.827434,35.594626],[139.826514,35.596141],[139.826508,35.596232],[139.826523,35.596394],[139.826573,35.596578],[139.826591,35.596642],[139.826594,35.596755],[139.826541,35.596847]]}},{"type":"Feature","properties":{"id":779874540,"highway":"service"},"geometry":{"type":"LineString","coordinates":[[139.826573,35.596578],[139.826338,35.596349],[139.825772,35.595797],[139.825654,35.59568],[139.825608,35.59561],[139.825592,35.59554],[139.825599,35.59546],[139.825606,35.595447],[139.825636,35.595395],[139.825922,35.594939],[139.825923,35.59493],[139.825925,35.594876],[139.825879,35.594796],[139.825805,35.594746],[139.825731,35.594713],[139.824782,35.594221],[139.823544,35.593579],[139.822921,35.593255],[139.822317,35.592919],[139.821972,35.592739],[139.821883,35.592726],[139.821803,35.592749],[139.821725,35.592793]]}},{"type":"Feature","properties":{"id":779874541,"highway":"service"},"geometry":{"type":"LineString","coordinates":[[139.821303,35.593334],[139.82139,35.593398],[139.821535,35.593431],[139.821763,35.593466],[139.821963,35.593546],[139.822453,35.593815],[139.823059,35.594148],[139.82359,35.59444],[139.823633,35.594463],[139.823772,35.594578],[139.823889,35.594736],[139.824083,35.594949],[139.825395,35.595678],[139.82554,35.595781],[139.825651,35.595878],[139.825812,35.596048],[139.825903,35.596106],[139.826338,35.596349]]}},{"type":"Feature","properties":{"id":779874542,"highway":"service"},"geometry":{"type":"LineString","coordinates":[[139.825654,35.59568],[139.825421,35.595473],[139.825304,35.59541],[139.825481,35.595457],[139.825563,35.595457],[139.825606,35.595447]]}},{"type":"Feature","properties":{"id":779874543,"highway":"service"},"geometry":{"type":"LineString","coordinates":[[139.825304,35.59541],[139.824352,35.594884],[139.824294,35.594832],[139.824248,35.594791],[139.824101,35.59467],[139.823988,35.594574],[139.823891,35.59451],[139.82359,35.59444]]}},{"type":"Feature","properties":{"id":779874544,"highway":"service"},"geometry":{"type":"LineString","coordinates":[[139.824294,35.594832],[139.824782,35.594221],[139.825214,35.593564],[139.825576,35.593057],[139.82641,35.593497],[139.826616,35.593227],[139.826638,35.593162],[139.826584,35.593063],[139.826485,35.592946],[139.826455,35.592874],[139.826487,35.592778],[139.826544,35.592662],[139.826638,35.592555],[139.826632,35.592494],[139.826675,35.592396],[139.826807,35.592206],[139.826914,35.592062],[139.825303,35.591183],[139.824275,35.590622],[139.823456,35.590176],[139.823355,35.590132],[139.823255,35.59013],[139.823199,35.590152],[139.823124,35.590189],[139.823078,35.59025],[139.822871,35.59052],[139.822827,35.590577],[139.822486,35.591022],[139.822472,35.591092],[139.822496,35.591157],[139.822571,35.591216],[139.822601,35.591277],[139.822555,35.591395],[139.822477,35.591489],[139.822384,35.591572],[139.822298,35.591624],[139.822207,35.591667],[139.822113,35.591713],[139.822022,35.591753],[139.821965,35.591805],[139.820642,35.593351]]}},{"type":"Feature","properties":{"id":779874545,"highway":"service"},"geometry":{"type":"LineString","coordinates":[[139.821806,35.592604],[139.821764,35.592477],[139.821777,35.592403],[139.822185,35.591962],[139.82233,35.591822],[139.822475,35.591733],[139.822601,35.591637],[139.822722,35.59151],[139.822869,35.591292],[139.822952,35.591175],[139.823033,35.591087],[139.823159,35.591076],[139.823207,35.591055],[139.823202,35.591],[139.823059,35.590858],[139.822875,35.590629],[139.822827,35.590577]]}},{"type":"Feature","properties":{"id":779874546,"highway":"service"},"geometry":{"type":"LineString","coordinates":[[139.822871,35.59052],[139.823933,35.591094],[139.824911,35.591622],[139.826638,35.592555],[139.827551,35.593061],[139.828043,35.593334],[139.828091,35.593371],[139.828102,35.593417],[139.828113,35.593484],[139.828097,35.59355],[139.828062,35.593628],[139.827591,35.59438],[139.827545,35.594449],[139.827434,35.594626]]}},{"type":"Feature","properties":{"id":779874547,"highway":"service"},"geometry":{"type":"LineString","coordinates":[[139.827545,35.594449],[139.827501,35.594359],[139.827424,35.594254],[139.827287,35.594171],[139.827128,35.594099],[139.827043,35.594049],[139.827016,35.593988],[139.827037,35.593888],[139.827551,35.593061]]}},{"type":"Feature","properties":{"id":779874548,"highway":"service"},"geometry":{"type":"LineString","coordinates":[[139.828062,35.593628],[139.828097,35.59358],[139.828317,35.593277],[139.828362,35.593164],[139.828354,35.593057],[139.828319,35.592941],[139.828258,35.592819],[139.828172,35.592754],[139.827987,35.592651],[139.826914,35.592062]]}},{"type":"Feature","properties":{"id":779874549,"highway":"service"},"geometry":{"type":"LineString","coordinates":[[139.828172,35.592754],[139.828645,35.592976],[139.828896,35.593094],[139.82895,35.593138],[139.828944,35.593186],[139.828928,35.59324],[139.828596,35.593674],[139.828515,35.593696],[139.828381,35.593672],[139.828239,35.593639],[139.828097,35.59358]]}},{"type":"Feature","properties":{"id":779874550,"highway":"service"},"geometry":{"type":"LineString","coordinates":[[139.828317,35.593277],[139.828499,35.593026],[139.828561,35.592991],[139.828645,35.592976]]}},{"type":"Feature","properties":{"id":779874551,"highway":"service"},"geometry":{"type":"LineString","coordinates":[[139.826638,35.593162],[139.826724,35.593244],[139.826851,35.593296],[139.826954,35.593371],[139.826986,35.593483],[139.826961,35.593607],[139.826619,35.594125],[139.825703,35.595565],[139.825693,35.595636],[139.825695,35.595676],[139.825711,35.595709],[139.825772,35.595797]]}},{"type":"Feature","properties":{"id":779875331,"highway":"service"},"geometry":{"type":"LineString","coordinates":[[139.82661,35.596884],[139.826725,35.596727],[139.826772,35.596605],[139.826809,35.596496],[139.827006,35.59618],[139.827593,35.595264],[139.827719,35.595026],[139.827792,35.59486],[139.827864,35.594645],[139.82784,35.594568],[139.82776,35.594483],[139.827679,35.594424],[139.827591,35.59438]]}},{"type":"Feature","properties":{"id":779875332,"highway":"service"},"geometry":{"type":"LineString","coordinates":[[139.826396,35.594019],[139.826279,35.593964],[139.826239,35.593896],[139.826241,35.593774],[139.826276,35.593691],[139.826351,35.59358],[139.82641,35.593497]]}},{"type":"Feature","properties":{"id":779875333,"highway":"service"},"geometry":{"type":"LineString","coordinates":[[139.825972,35.593904],[139.826051,35.593905],[139.826118,35.593877],[139.826214,35.593814],[139.826241,35.593774]]}},{"type":"Feature","properties":{"id":779875334,"highway":"service"},"geometry":{"type":"LineString","coordinates":[[139.825576,35.593057],[139.824473,35.592458],[139.823856,35.592123],[139.823516,35.591939],[139.823233,35.591785],[139.823054,35.591688],[139.822897,35.591668],[139.822814,35.591683],[139.822659,35.591798],[139.822478,35.591958],[139.82237,35.592059],[139.822174,35.592203]]}},{"type":"Feature","properties":{"id":779875335,"highway":"service"},"geometry":{"type":"LineString","coordinates":[[139.823202,35.591],[139.823302,35.591092],[139.823525,35.591297],[139.823544,35.591352],[139.823516,35.59143],[139.823454,35.591445],[139.823396,35.591425],[139.823294,35.591372],[139.823177,35.591337],[139.823075,35.591355],[139.822977,35.59146],[139.822875,35.591588],[139.822814,35.591683]]}},{"type":"Feature","properties":{"id":779875336,"highway":"service"},"geometry":{"type":"LineString","coordinates":[[139.823454,35.591445],[139.82375,35.591628],[139.823544,35.591352]]}},{"type":"Feature","properties":{"id":779875337,"highway":"service"},"geometry":{"type":"LineString","coordinates":[[139.82375,35.591628],[139.826616,35.593227]]}},{"type":"Feature","properties":{"id":779875338,"highway":"service"},"geometry":{"type":"LineString","coordinates":[[139.826485,35.592946],[139.824668,35.591908],[139.824621,35.591871],[139.824567,35.591828],[139.82448,35.59173],[139.824363,35.59165],[139.823302,35.591092]]}},{"type":"Feature","properties":{"id":779875339,"highway":"service"},"geometry":{"type":"LineString","coordinates":[[139.824621,35.591871],[139.824911,35.591622],[139.825303,35.591183]]}},{"type":"Feature","properties":{"id":779875340,"highway":"service"},"geometry":{"type":"LineString","coordinates":[[139.823933,35.591094],[139.824275,35.590622]]}},{"type":"Feature","properties":{"id":779875341,"highway":"service"},"geometry":{"type":"LineString","coordinates":[[139.823059,35.594148],[139.823544,35.593579],[139.82406,35.592973],[139.824473,35.592458]]}},{"type":"Feature","properties":{"id":779875342,"highway":"service"},"geometry":{"type":"LineString","coordinates":[[139.822453,35.593815],[139.822921,35.593255],[139.823419,35.592645],[139.823856,35.592123]]}},{"type":"Feature","properties":{"id":779875343,"highway":"service"},"geometry":{"type":"LineString","coordinates":[[139.821963,35.593546],[139.821925,35.593447],[139.822014,35.593283],[139.822317,35.592919],[139.822623,35.592555],[139.822743,35.592469],[139.822792,35.592414],[139.822792,35.592354],[139.822769,35.592275]]}},{"type":"Feature","properties":{"id":779875344,"highway":"service"},"geometry":{"type":"LineString","coordinates":[[139.823099,35.592481],[139.823516,35.591939]]}},{"type":"Feature","properties":{"id":779875345,"highway":"service"},"geometry":{"type":"LineString","coordinates":[[139.822829,35.592334],[139.823233,35.591785]]}},{"type":"Feature","properties":{"id":779875346,"highway":"service"},"geometry":{"type":"LineString","coordinates":[[139.825923,35.59493],[139.826254,35.594392],[139.826347,35.594224],[139.826325,35.59415],[139.826269,35.594077],[139.826195,35.593995]]}},{"type":"Feature","properties":{"id":779892390,"highway":"service"},"geometry":{"type":"LineString","coordinates":[[139.815503,35.593297],[139.813605,35.594046],[139.812705,35.594401],[139.812621,35.594489]]}},{"type":"Feature","properties":{"id":780053067,"highway":"service"},"geometry":{"type":"LineString","coordinates":[[139.817129,35.585378],[139.817165,35.58542],[139.817173,35.585473],[139.817152,35.585536],[139.816958,35.585748],[139.816935,35.585808],[139.816929,35.585877],[139.816949,35.585946],[139.816998,35.586005],[139.819137,35.587166],[139.821773,35.588597],[139.823307,35.589429],[139.824377,35.59001],[139.82696,35.591412],[139.829588,35.592838],[139.83209,35.58896],[139.829918,35.587787],[139.824689,35.584962],[139.822018,35.583519],[139.819637,35.582232],[139.818096,35.584135],[139.81711,35.585361]]}},{"type":"Feature","properties":{"id":780053068,"highway":"service"},"geometry":{"type":"LineString","coordinates":[[139.818096,35.584135],[139.819948,35.585138]]}},{"type":"Feature","properties":{"id":780053069,"highway":"service"},"geometry":{"type":"LineString","coordinates":[[139.819137,35.587166],[139.820533,35.585469],[139.820654,35.5853]]}},{"type":"Feature","properties":{"id":780053070,"highway":"service"},"geometry":{"type":"LineString","coordinates":[[139.820533,35.585469],[139.819948,35.585138]]}},{"type":"Feature","properties":{"id":780053071,"highway":"service"},"geometry":{"type":"LineString","coordinates":[[139.82151,35.584177],[139.822018,35.583519]]}},{"type":"Feature","properties":{"id":780053072,"highway":"service"},"geometry":{"type":"LineString","coordinates":[[139.821773,35.588597],[139.823149,35.586882],[139.824522,35.585169],[139.824689,35.584962]]}},{"type":"Feature","properties":{"id":780053073,"highway":"service"},"geometry":{"type":"LineString","coordinates":[[139.822832,35.58671],[139.823149,35.586882]]}},{"type":"Feature","properties":{"id":780053074,"highway":"service"},"geometry":{"type":"LineString","coordinates":[[139.823149,35.586882],[139.825728,35.58829]]}},{"type":"Feature","properties":{"id":780053075,"highway":"service"},"geometry":{"type":"LineString","coordinates":[[139.824215,35.585001],[139.824522,35.585169]]}},{"type":"Feature","properties":{"id":780053076,"highway":"service"},"geometry":{"type":"LineString","coordinates":[[139.824522,35.585169],[139.827132,35.586569],[139.828109,35.587094]]}},{"type":"Feature","properties":{"id":780053077,"highway":"service"},"geometry":{"type":"LineString","coordinates":[[139.827132,35.586569],[139.826335,35.58755]]}},{"type":"Feature","properties":{"id":780053078,"highway":"service"},"geometry":{"type":"LineString","coordinates":[[139.825728,35.58829],[139.826335,35.58755]]}},{"type":"Feature","properties":{"id":780053079,"highway":"service"},"geometry":{"type":"LineString","coordinates":[[139.825728,35.58829],[139.824377,35.59001]]}},{"type":"Feature","properties":{"id":780053080,"highway":"service"},"geometry":{"type":"LineString","coordinates":[[139.825728,35.58829],[139.828371,35.589714]]}},{"type":"Feature","properties":{"id":780053081,"highway":"service"},"geometry":{"type":"LineString","coordinates":[[139.828371,35.589714],[139.82696,35.591412]]}},{"type":"Feature","properties":{"id":780053082,"highway":"service"},"geometry":{"type":"LineString","coordinates":[[139.828371,35.589714],[139.828919,35.589025]]}},{"type":"Feature","properties":{"id":780053083,"highway":"service"},"geometry":{"type":"LineString","coordinates":[[139.828919,35.589025],[139.829918,35.587787]]}},{"type":"Feature","properties":{"id":780054455,"highway":"service"},"geometry":{"type":"LineString","coordinates":[[139.808032,35.592311],[139.80823,35.592069],[139.808713,35.591481],[139.808934,35.591213],[139.809272,35.590789],[139.80936,35.590681],[139.81082,35.588917],[139.811174,35.589114]]}},{"type":"Feature","properties":{"id":780054457,"highway":"unclassified"},"geometry":{"type":"LineString","coordinates":[[139.807804,35.592574],[139.808032,35.592311],[139.808421,35.592524],[139.808665,35.592654],[139.809522,35.593109]]}},{"type":"Feature","properties":{"id":780054458,"highway":"unclassified"},"geometry":{"type":"LineString","coordinates":[[139.811745,35.591275],[139.812147,35.590796],[139.812263,35.590697],[139.812389,35.590644],[139.812497,35.590598],[139.812609,35.590583],[139.812816,35.590562],[139.814439,35.590511],[139.814673,35.590519],[139.814846,35.59053],[139.81513,35.590609]]}},{"type":"Feature","properties":{"id":780054459,"highway":"unclassified"},"geometry":{"type":"LineString","coordinates":[[139.812856,35.590511],[139.812641,35.590517],[139.812115,35.590596],[139.811857,35.590642],[139.811715,35.590672],[139.811627,35.590735],[139.81127,35.591156],[139.811157,35.591272],[139.810948,35.591466],[139.80972,35.59301],[139.80965,35.593082],[139.809586,35.593106],[139.809522,35.593109]]}},{"type":"Feature","properties":{"id":780174185,"highway":"service"},"geometry":{"type":"LineString","coordinates":[[139.80095,35.594234],[139.801093,35.594329],[139.801163,35.594378],[139.801531,35.594622],[139.802316,35.593976],[139.802918,35.593553],[139.803406,35.593219],[139.803637,35.593067]]}},{"type":"Feature","properties":{"id":780174186,"highway":"service"},"geometry":{"type":"LineString","coordinates":[[139.804404,35.592586],[139.803848,35.592938]]}},{"type":"Feature","properties":{"id":780174187,"highway":"service"},"geometry":{"type":"LineString","coordinates":[[139.803637,35.593067],[139.803329,35.592736],[139.803315,35.592722],[139.803252,35.592654]]}},{"type":"Feature","properties":{"id":780174188,"highway":"service"},"geometry":{"type":"LineString","coordinates":[[139.803848,35.592938],[139.803637,35.593067]]}},{"type":"Feature","properties":{"id":780174189,"highway":"service"},"geometry":{"type":"LineString","coordinates":[[139.801531,35.594622],[139.801917,35.594842],[139.802446,35.594383],[139.802978,35.593996],[139.804003,35.593306],[139.804047,35.593252],[139.804062,35.593199],[139.804037,35.593151],[139.803848,35.592938]]}},{"type":"Feature","properties":{"id":780174190,"highway":"service"},"geometry":{"type":"LineString","coordinates":[[139.801917,35.594842],[139.802007,35.594902],[139.80208,35.594951],[139.802157,35.594951],[139.802252,35.594921],[139.802309,35.594888],[139.803013,35.594389],[139.803696,35.5939],[139.804429,35.593378],[139.80506,35.592928],[139.805192,35.592842],[139.804407,35.591995],[139.804342,35.591925]]}},{"type":"Feature","properties":{"id":780174191,"highway":"service"},"geometry":{"type":"LineString","coordinates":[[139.805192,35.592842],[139.805962,35.592278],[139.80635,35.592486],[139.806627,35.592635],[139.807059,35.592867],[139.806236,35.593871],[139.805837,35.59366],[139.805417,35.593438],[139.805876,35.592867],[139.80635,35.592486]]}},{"type":"Feature","properties":{"id":780174192,"highway":"service"},"geometry":{"type":"LineString","coordinates":[[139.805837,35.59366],[139.806627,35.592635]]}},{"type":"Feature","properties":{"id":780174193,"highway":"service"},"geometry":{"type":"LineString","coordinates":[[139.802007,35.594902],[139.801771,35.595162]]}},{"type":"Feature","properties":{"id":780174194,"highway":"service"},"geometry":{"type":"LineString","coordinates":[[139.801531,35.594622],[139.80129,35.594874]]}},{"type":"Feature","properties":{"id":780493676,"highway":"service"},"geometry":{"type":"LineString","coordinates":[[139.800375,35.593728],[139.800451,35.593921],[139.80025,35.594145],[139.796434,35.592134],[139.796359,35.592099],[139.796294,35.592087],[139.796142,35.592097]]}},{"type":"Feature","properties":{"id":780493685,"highway":"service"},"geometry":{"type":"LineString","coordinates":[[139.79849,35.589937],[139.798731,35.590215],[139.798874,35.59038],[139.798914,35.590426],[139.799223,35.590783],[139.799269,35.590836],[139.799557,35.591169],[139.799609,35.591229],[139.799756,35.591399],[139.800033,35.591703],[139.800344,35.592072],[139.800681,35.592456]]}},{"type":"Feature","properties":{"id":780934455,"highway":"service"},"geometry":{"type":"LineString","coordinates":[[139.798568,35.589891],[139.8008,35.59238]]}},{"type":"Feature","properties":{"id":780934456,"highway":"service"},"geometry":{"type":"LineString","coordinates":[[139.798728,35.589794],[139.800944,35.592305],[139.80116,35.592195],[139.802023,35.592503],[139.802264,35.59276],[139.802335,35.592835]]}},{"type":"Feature","properties":{"id":780934457,"highway":"service"},"geometry":{"type":"LineString","coordinates":[[139.80116,35.592195],[139.800781,35.591756],[139.800544,35.591662],[139.798802,35.589747]]}},{"type":"Feature","properties":{"id":780934458,"highway":"service"},"geometry":{"type":"LineString","coordinates":[[139.802008,35.587839],[139.80433,35.590452]]}},{"type":"Feature","properties":{"id":780934459,"highway":"service"},"geometry":{"type":"LineString","coordinates":[[139.800033,35.591703],[139.798257,35.592793]]}},{"type":"Feature","properties":{"id":780934460,"highway":"service"},"geometry":{"type":"LineString","coordinates":[[139.800344,35.592072],[139.798862,35.592909]]}},{"type":"Feature","properties":{"id":780936283,"highway":"service"},"geometry":{"type":"LineString","coordinates":[[139.801831,35.596116],[139.801876,35.596062],[139.80191,35.596022],[139.801971,35.595947],[139.802065,35.595809],[139.801881,35.595711],[139.800669,35.595089],[139.800894,35.594801],[139.802087,35.595446],[139.802292,35.595571],[139.802282,35.595646],[139.802258,35.595692],[139.802177,35.595814],[139.801971,35.596063],[139.80194,35.596097],[139.801893,35.59615]]}},{"type":"Feature","properties":{"id":780936284,"highway":"service"},"geometry":{"type":"LineString","coordinates":[[139.802087,35.595446],[139.801881,35.595711]]}},{"type":"Feature","properties":{"id":780936288,"highway":"service"},"geometry":{"type":"LineString","coordinates":[[139.802075,35.596248],[139.802111,35.596198],[139.802347,35.595874],[139.802482,35.595698]]}},{"type":"Feature","properties":{"id":780936289,"highway":"service"},"geometry":{"type":"LineString","coordinates":[[139.802347,35.595874],[139.804533,35.597061]]}},{"type":"Feature","properties":{"id":780936290,"highway":"service"},"geometry":{"type":"LineString","coordinates":[[139.804516,35.597337],[139.802995,35.596534],[139.802786,35.596416],[139.802684,35.596383]]}},{"type":"Feature","properties":{"id":780936292,"highway":"service"},"geometry":{"type":"LineString","coordinates":[[139.802377,35.595429],[139.802609,35.595555],[139.803273,35.59591],[139.803998,35.596298],[139.80546,35.594521]]}},{"type":"Feature","properties":{"id":780936293,"highway":"service"},"geometry":{"type":"LineString","coordinates":[[139.802292,35.595571],[139.802377,35.595429],[139.802459,35.595319],[139.804657,35.593736],[139.804774,35.593652],[139.805,35.593778],[139.805974,35.59432]]}},{"type":"Feature","properties":{"id":780936294,"highway":"service"},"geometry":{"type":"LineString","coordinates":[[139.803273,35.59591],[139.805,35.593778]]}},{"type":"Feature","properties":{"id":780936505,"highway":"service"},"geometry":{"type":"LineString","coordinates":[[139.804921,35.596833],[139.804744,35.596726],[139.804634,35.596644],[139.804588,35.596581],[139.804635,35.59648],[139.804738,35.596336],[139.807435,35.592943],[139.807503,35.592894]]}},{"type":"Feature","properties":{"id":780936506,"highway":"service"},"geometry":{"type":"LineString","coordinates":[[139.807503,35.592894],[139.807948,35.59311]]}},{"type":"Feature","properties":{"id":780937416,"highway":"service"},"geometry":{"type":"LineString","coordinates":[[139.809272,35.590789],[139.809182,35.590741],[139.809021,35.590646],[139.808887,35.590577],[139.807864,35.590011],[139.807771,35.589923],[139.807418,35.589885]]}},{"type":"Feature","properties":{"id":780937417,"highway":"service"},"geometry":{"type":"LineString","coordinates":[[139.802543,35.587516],[139.802991,35.587977],[139.802977,35.587617],[139.802951,35.587361]]}},{"type":"Feature","properties":{"id":780937418,"highway":"service"},"geometry":{"type":"LineString","coordinates":[[139.806757,35.58745],[139.808498,35.588371],[139.809203,35.587915],[139.80921,35.587911],[139.809252,35.587798],[139.809503,35.587554]]}},{"type":"Feature","properties":{"id":780937419,"highway":"service"},"geometry":{"type":"LineString","coordinates":[[139.809203,35.587915],[139.810351,35.588554],[139.810869,35.588843],[139.81082,35.588917]]}},{"type":"Feature","properties":{"id":780937420,"highway":"service"},"geometry":{"type":"LineString","coordinates":[[139.810351,35.588554],[139.810502,35.588099]]}},{"type":"Feature","properties":{"id":780937421,"highway":"service"},"geometry":{"type":"LineString","coordinates":[[139.810351,35.588554],[139.809153,35.589278],[139.809726,35.589977],[139.809047,35.5904],[139.809022,35.590478],[139.809075,35.590536],[139.809192,35.59059],[139.80936,35.590681]]}},{"type":"Feature","properties":{"id":780937422,"highway":"service"},"geometry":{"type":"LineString","coordinates":[[139.809153,35.589278],[139.809079,35.589177],[139.807771,35.589923]]}},{"type":"Feature","properties":{"id":780937424,"highway":"service"},"geometry":{"type":"LineString","coordinates":[[139.808887,35.590577],[139.807238,35.591528],[139.806869,35.59174]]}},{"type":"Feature","properties":{"id":780937425,"highway":"service"},"geometry":{"type":"LineString","coordinates":[[139.807238,35.591528],[139.80823,35.592069]]}},{"type":"Feature","properties":{"id":780937426,"highway":"service"},"geometry":{"type":"LineString","coordinates":[[139.80823,35.592069],[139.808624,35.592273]]}},{"type":"Feature","properties":{"id":780937427,"highway":"service"},"geometry":{"type":"LineString","coordinates":[[139.808713,35.591481],[139.808812,35.591403],[139.808886,35.591373],[139.808969,35.591382],[139.809032,35.591416],[139.809164,35.591492],[139.809222,35.591532]]}},{"type":"Feature","properties":{"id":780937428,"highway":"service"},"geometry":{"type":"LineString","coordinates":[[139.808969,35.591382],[139.808928,35.591309],[139.808934,35.591213]]}},{"type":"Feature","properties":{"id":780937429,"highway":"service"},"geometry":{"type":"LineString","coordinates":[[139.813287,35.58996],[139.811549,35.589092],[139.811073,35.589681],[139.810566,35.590306],[139.809595,35.591506],[139.808845,35.592431],[139.808665,35.592654]]}},{"type":"Feature","properties":{"id":780937430,"highway":"service"},"geometry":{"type":"LineString","coordinates":[[139.808845,35.592431],[139.809638,35.592869],[139.810384,35.591946],[139.811363,35.590736],[139.81186,35.59012],[139.811073,35.589681]]}},{"type":"Feature","properties":{"id":780937431,"highway":"service"},"geometry":{"type":"LineString","coordinates":[[139.811363,35.590736],[139.810566,35.590306]]}},{"type":"Feature","properties":{"id":780937432,"highway":"service"},"geometry":{"type":"LineString","coordinates":[[139.810384,35.591946],[139.809595,35.591506]]}},{"type":"Feature","properties":{"id":780937547,"highway":"service"},"geometry":{"type":"LineString","coordinates":[[139.804564,35.588227],[139.80423,35.588524],[139.803768,35.588286]]}},{"type":"Feature","properties":{"id":780938656,"highway":"service"},"geometry":{"type":"LineString","coordinates":[[139.809182,35.595114],[139.809181,35.594975],[139.809109,35.594801],[139.809089,35.594753],[139.808896,35.5946],[139.808399,35.594328],[139.807734,35.593964],[139.807702,35.593919],[139.807692,35.593904],[139.807699,35.593846]]}},{"type":"Feature","properties":{"id":780938657,"highway":"service"},"geometry":{"type":"LineString","coordinates":[[139.808399,35.594328],[139.808969,35.593659]]}},{"type":"Feature","properties":{"id":780938658,"highway":"service"},"geometry":{"type":"LineString","coordinates":[[139.809744,35.594062],[139.809109,35.594801],[139.808838,35.595141]]}},{"type":"Feature","properties":{"id":780938659,"highway":"service"},"geometry":{"type":"LineString","coordinates":[[139.809022,35.595397],[139.808663,35.595189],[139.808563,35.595177],[139.808444,35.595185],[139.808341,35.595229],[139.808255,35.595307],[139.808203,35.59539],[139.808185,35.595466],[139.808211,35.595515],[139.808325,35.595591],[139.808486,35.595688],[139.808521,35.595708],[139.808673,35.595793]]}},{"type":"Feature","properties":{"id":780938661,"highway":"service"},"geometry":{"type":"LineString","coordinates":[[139.808521,35.595708],[139.808015,35.596301],[139.807973,35.596315],[139.807924,35.596304],[139.807172,35.595874],[139.806982,35.595777],[139.806442,35.595496],[139.806404,35.595455],[139.806411,35.595407],[139.807702,35.593919]]}},{"type":"Feature","properties":{"id":780938662,"highway":"service"},"geometry":{"type":"LineString","coordinates":[[139.807172,35.595874],[139.808399,35.594328]]}},{"type":"Feature","properties":{"id":783200071,"highway":"service"},"geometry":{"type":"LineString","coordinates":[[139.815792,35.593184],[139.816098,35.592829],[139.816227,35.59281],[139.816331,35.592846],[139.816367,35.592905],[139.816323,35.592974],[139.815933,35.593365]]}},{"type":"Feature","properties":{"id":783200072,"highway":"service"},"geometry":{"type":"LineString","coordinates":[[139.817205,35.592671],[139.817103,35.592438],[139.816913,35.592297],[139.816609,35.592096],[139.815935,35.591254],[139.815793,35.591122],[139.815685,35.590973],[139.815673,35.590908]]}},{"type":"Feature","properties":{"id":801041874,"highway":"tertiary_link"},"geometry":{"type":"LineString","coordinates":[[139.80646,35.598972],[139.806586,35.599032]]}},{"type":"Feature","properties":{"id":801041875,"highway":"tertiary_link"},"geometry":{"type":"LineString","coordinates":[[139.810829,35.601064],[139.810692,35.600953],[139.810451,35.600816],[139.809911,35.600485],[139.809737,35.600389],[139.808699,35.599817]]}},{"type":"Feature","properties":{"id":801041877,"highway":"tertiary_link"},"geometry":{"type":"LineString","coordinates":[[139.808699,35.599817],[139.808157,35.599497],[139.807039,35.598893]]}},{"type":"Feature","properties":{"id":801041878,"highway":"tertiary"},"geometry":{"type":"LineString","coordinates":[[139.808416,35.59717],[139.807809,35.597764],[139.807457,35.598122],[139.807168,35.598434]]}},{"type":"Feature","properties":{"id":801041879,"highway":"tertiary"},"geometry":{"type":"LineString","coordinates":[[139.806571,35.591903],[139.806366,35.591773],[139.806109,35.591631],[139.805866,35.591516],[139.805789,35.59147],[139.805713,35.591422],[139.805621,35.591343],[139.805584,35.591305],[139.805492,35.591212]]}},{"type":"Feature","properties":{"id":802146715,"highway":"service"},"geometry":{"type":"LineString","coordinates":[[139.811431,35.592813],[139.811811,35.593009],[139.811848,35.593081],[139.81184,35.593167],[139.811278,35.593846]]}},{"type":"Feature","properties":{"id":802146716,"highway":"service"},"geometry":{"type":"LineString","coordinates":[[139.811811,35.593009],[139.811881,35.593018],[139.811977,35.592996],[139.812336,35.592551],[139.812377,35.592466],[139.812323,35.592392],[139.811937,35.592184]]}},{"type":"Feature","properties":{"id":802146717,"highway":"service"},"geometry":{"type":"LineString","coordinates":[[139.812323,35.592392],[139.81242,35.592388],[139.812527,35.592342],[139.813195,35.591518],[139.813222,35.591409],[139.813175,35.590961],[139.813139,35.590894],[139.813049,35.590833]]}},{"type":"Feature","properties":{"id":815706141,"highway":"tertiary_link"},"geometry":{"type":"LineString","coordinates":[[139.806814,35.598792],[139.806693,35.598721]]}},{"type":"Feature","properties":{"id":815706142,"highway":"tertiary_link"},"geometry":{"type":"LineString","coordinates":[[139.806914,35.598837],[139.806814,35.598792]]}},{"type":"Feature","properties":{"id":815706143,"highway":"tertiary_link"},"geometry":{"type":"LineString","coordinates":[[139.806813,35.59914],[139.806931,35.599194],[139.808488,35.600045]]}},{"type":"Feature","properties":{"id":815706144,"highway":"tertiary_link"},"geometry":{"type":"LineString","coordinates":[[139.806586,35.599032],[139.806687,35.599084]]}},{"type":"Feature","properties":{"id":815706145,"highway":"tertiary"},"geometry":{"type":"LineString","coordinates":[[139.806586,35.599032],[139.806478,35.599144],[139.806389,35.599238],[139.806246,35.599378]]}},{"type":"Feature","properties":{"id":815706146,"highway":"tertiary"},"geometry":{"type":"LineString","coordinates":[[139.806687,35.599084],[139.806914,35.598837]]}},{"type":"Feature","properties":{"id":815706147,"highway":"tertiary"},"geometry":{"type":"LineString","coordinates":[[139.806246,35.599378],[139.805623,35.600042]]}},{"type":"Feature","properties":{"id":815706174,"highway":"tertiary"},"geometry":{"type":"LineString","coordinates":[[139.807168,35.598434],[139.8069,35.598699],[139.806814,35.598792]]}},{"type":"Feature","properties":{"id":815706175,"highway":"tertiary"},"geometry":{"type":"LineString","coordinates":[[139.806914,35.598837],[139.807254,35.598487]]}},{"type":"Feature","properties":{"id":815706178,"highway":"tertiary"},"geometry":{"type":"LineString","coordinates":[[139.806814,35.598792],[139.806586,35.599032]]}},{"type":"Feature","properties":{"id":815706180,"highway":"tertiary_link"},"geometry":{"type":"LineString","coordinates":[[139.805307,35.598345],[139.80646,35.598972]]}},{"type":"Feature","properties":{"id":815706181,"highway":"tertiary_link"},"geometry":{"type":"LineString","coordinates":[[139.806693,35.598721],[139.8051,35.597859]]}},{"type":"Feature","properties":{"id":817856966,"highway":"tertiary_link"},"geometry":{"type":"LineString","coordinates":[[139.804557,35.59178],[139.804588,35.591688],[139.804588,35.591629],[139.804564,35.591579],[139.804507,35.591536]]}},{"type":"Feature","properties":{"id":817856967,"highway":"tertiary_link"},"geometry":{"type":"LineString","coordinates":[[139.804507,35.591536],[139.804449,35.591519],[139.804305,35.59151]]}},{"type":"Feature","properties":{"id":817897360,"highway":"tertiary"},"geometry":{"type":"LineString","coordinates":[[139.807076,35.589845],[139.806647,35.590099],[139.805285,35.590908],[139.805102,35.591017]]}},{"type":"Feature","properties":{"id":817897361,"highway":"tertiary"},"geometry":{"type":"LineString","coordinates":[[139.805412,35.591267],[139.805492,35.591212],[139.805605,35.591138],[139.805622,35.591127],[139.807314,35.590147],[139.807414,35.590046],[139.807441,35.589945],[139.807418,35.589885],[139.807346,35.589821],[139.807234,35.589804],[139.807154,35.589811],[139.807076,35.589845]]}},{"type":"Feature","properties":{"id":817897364,"highway":"tertiary"},"geometry":{"type":"LineString","coordinates":[[139.807254,35.598487],[139.807894,35.597798],[139.808416,35.59717]]}},{"type":"Feature","properties":{"id":817897367,"highway":"tertiary"},"geometry":{"type":"LineString","coordinates":[[139.808416,35.59717],[139.8093,35.596073],[139.8098,35.595465],[139.809963,35.59524],[139.810045,35.595089],[139.810112,35.594921],[139.810149,35.594767],[139.810166,35.594605],[139.81015,35.594435],[139.810114,35.594263],[139.810026,35.594054]]}},{"type":"Feature","properties":{"id":817912274,"highway":"tertiary"},"geometry":{"type":"LineString","coordinates":[[139.805725,35.600086],[139.806348,35.599441]]}},{"type":"Feature","properties":{"id":817912276,"highway":"tertiary_link"},"geometry":{"type":"LineString","coordinates":[[139.804994,35.598168],[139.805307,35.598345]]}},{"type":"Feature","properties":{"id":817912277,"highway":"tertiary_link"},"geometry":{"type":"LineString","coordinates":[[139.804145,35.597582],[139.804423,35.597797],[139.804994,35.598168]]}},{"type":"Feature","properties":{"id":817912284,"highway":"tertiary"},"geometry":{"type":"LineString","coordinates":[[139.804145,35.597582],[139.806444,35.598826]]}},{"type":"Feature","properties":{"id":817912289,"highway":"tertiary_link"},"geometry":{"type":"LineString","coordinates":[[139.800115,35.595159],[139.799958,35.595071]]}},{"type":"Feature","properties":{"id":817912291,"highway":"tertiary"},"geometry":{"type":"LineString","coordinates":[[139.799938,35.595378],[139.800115,35.595159]]}},{"type":"Feature","properties":{"id":817912292,"highway":"tertiary_link"},"geometry":{"type":"LineString","coordinates":[[139.799938,35.595378],[139.800069,35.595449],[139.802316,35.596669],[139.802808,35.596933],[139.803072,35.596994]]}},{"type":"Feature","properties":{"id":821270971,"highway":"tertiary"},"geometry":{"type":"LineString","coordinates":[[139.805492,35.591212],[139.805438,35.591179],[139.805327,35.59109],[139.805246,35.591049],[139.805172,35.591026],[139.805102,35.591017]]}},{"type":"Feature","properties":{"id":821285461,"highway":"service"},"geometry":{"type":"LineString","coordinates":[[139.806466,35.589214],[139.804564,35.588227],[139.802951,35.587361],[139.802875,35.58732]]}},{"type":"Feature","properties":{"id":866326337,"highway":"service"},"geometry":{"type":"LineString","coordinates":[[139.799297,35.593349],[139.799415,35.593426],[139.799699,35.593679],[139.799865,35.593767],[139.799963,35.593781],[139.800266,35.593756],[139.800375,35.593728],[139.800733,35.593635],[139.800923,35.593572],[139.80102,35.593476],[139.801087,35.593398],[139.801124,35.593373],[139.801149,35.593356],[139.801241,35.593317],[139.801343,35.593389],[139.801366,35.593408],[139.801446,35.593477]]}},{"type":"Feature","properties":{"id":866326339,"highway":"service"},"geometry":{"type":"LineString","coordinates":[[139.801554,35.593395],[139.801462,35.593331],[139.801397,35.593287],[139.801244,35.593182],[139.801029,35.593207],[139.800871,35.593277],[139.800688,35.593354],[139.800238,35.593488],[139.800064,35.593505],[139.799896,35.593499],[139.799744,35.593457],[139.799398,35.593222]]}},{"type":"Feature","properties":{"id":877869010,"highway":"service"},"geometry":{"type":"LineString","coordinates":[[139.802964,35.536083],[139.802975,35.536057]]}},{"type":"Feature","properties":{"id":884247583,"highway":"service"},"geometry":{"type":"LineString","coordinates":[[139.800164,35.53612],[139.799877,35.536481],[139.799845,35.536513],[139.799806,35.536536],[139.799754,35.536537],[139.799672,35.536516],[139.79911,35.536247],[139.797124,35.535305],[139.793399,35.533533],[139.79248,35.533096],[139.792399,35.533086],[139.792302,35.53309],[139.792216,35.533107],[139.790433,35.533644],[139.789319,35.533969],[139.787959,35.53438],[139.787858,35.534418],[139.787787,35.534466],[139.787424,35.534894],[139.78737,35.534963]]}},{"type":"Feature","properties":{"id":895770364,"highway":"tertiary"},"geometry":{"type":"LineString","coordinates":[[139.810026,35.594054],[139.809887,35.593837],[139.80968,35.593632],[139.809453,35.593467],[139.808548,35.592978],[139.807804,35.592574],[139.807333,35.592315],[139.806821,35.592037]]}},{"type":"Feature","properties":{"id":1015168456,"highway":"tertiary"},"geometry":{"type":"LineString","coordinates":[[139.799437,35.598484],[139.799548,35.598544],[139.800954,35.599299],[139.802391,35.600088],[139.802551,35.600175],[139.804364,35.601138],[139.804402,35.601159],[139.804544,35.601207]]}},{"type":"Feature","properties":{"id":1015181081,"highway":"tertiary"},"geometry":{"type":"LineString","coordinates":[[139.80317,35.600402],[139.802612,35.600096],[139.802454,35.600009],[139.801012,35.599226],[139.799612,35.598469]]}},{"type":"Feature","properties":{"id":1076612436,"highway":"service"},"geometry":{"type":"LineString","coordinates":[[139.804417,35.530151],[139.804968,35.530407],[139.805279,35.530575],[139.805915,35.530874],[139.806466,35.53114]]}},{"type":"Feature","properties":{"id":1076614668,"highway":"service"},"geometry":{"type":"LineString","coordinates":[[139.804185,35.536722],[139.805254,35.537227],[139.805875,35.537521],[139.805938,35.537585],[139.80606,35.537751],[139.806176,35.537857],[139.806314,35.537918],[139.806451,35.537964],[139.806534,35.537977],[139.806696,35.537976],[139.80682,35.537986],[139.806967,35.538022],[139.807851,35.538449],[139.808676,35.538844],[139.808745,35.538909],[139.808764,35.538972],[139.808729,35.539046],[139.807262,35.541143],[139.806127,35.542701],[139.804578,35.544885],[139.803832,35.545961],[139.803582,35.546166],[139.80175,35.547707],[139.800981,35.548356],[139.800842,35.54854],[139.799916,35.54985],[139.798761,35.551479],[139.79786,35.552751],[139.797309,35.553538],[139.796447,35.554763],[139.795811,35.555646],[139.795498,35.556088],[139.794968,35.556835],[139.794313,35.557725],[139.793215,35.559298],[139.792013,35.560974],[139.791284,35.562013],[139.789727,35.564203],[139.788807,35.565508],[139.78743,35.567445],[139.785615,35.57001],[139.785407,35.570301],[139.785353,35.570348],[139.785261,35.570361],[139.783373,35.570159],[139.781613,35.569964],[139.780897,35.569885],[139.779853,35.569788],[139.779722,35.569747],[139.779591,35.569685],[139.779207,35.569482],[139.779103,35.569457]]}},{"type":"Feature","properties":{"id":1303041628,"highway":"service"},"geometry":{"type":"LineString","coordinates":[[139.806168,35.538056],[139.806283,35.538027],[139.80636,35.538059],[139.806315,35.538124]]}},{"type":"Feature","properties":{"id":1303041629,"highway":"service"},"geometry":{"type":"LineString","coordinates":[[139.806453,35.538188],[139.806315,35.538124],[139.806168,35.538056],[139.806032,35.537992],[139.80578,35.538336]]}},{"type":"Feature","properties":{"id":1303041630,"highway":"service"},"geometry":{"type":"LineString","coordinates":[[139.805254,35.537227],[139.805082,35.537475],[139.805041,35.53754],[139.805023,35.537588],[139.805009,35.537643],[139.805005,35.537686],[139.805007,35.537736],[139.805015,35.537786],[139.805027,35.537838],[139.805045,35.537877],[139.805075,35.537931],[139.805101,35.537965],[139.805137,35.538006],[139.805173,35.538035],[139.805211,35.538063],[139.805251,35.538086],[139.80578,35.538336],[139.805823,35.538356],[139.806916,35.538873],[139.807004,35.538904],[139.807078,35.53892],[139.80715,35.538928],[139.807227,35.538929],[139.807298,35.538921],[139.807386,35.538902],[139.807462,35.538873],[139.807525,35.53884],[139.807597,35.538785],[139.80764,35.53874],[139.807851,35.538449]]}},{"type":"Feature","properties":{"id":1303041631,"highway":"service"},"geometry":{"type":"LineString","coordinates":[[139.823555,35.542139],[139.823728,35.542014]]}},{"type":"Feature","properties":{"id":1303041632,"highway":"service"},"geometry":{"type":"LineString","coordinates":[[139.823773,35.542333],[139.82395,35.54221]]}},{"type":"Feature","properties":{"id":1303041633,"highway":"service"},"geometry":{"type":"LineString","coordinates":[[139.823998,35.542533],[139.824175,35.542412]]}},{"type":"Feature","properties":{"id":1303041634,"highway":"service"},"geometry":{"type":"LineString","coordinates":[[139.823331,35.54194],[139.823504,35.541813]]}},{"type":"Feature","properties":{"id":1303041635,"highway":"service"},"geometry":{"type":"LineString","coordinates":[[139.822937,35.543719],[139.823104,35.543599],[139.823173,35.543517]]}},{"type":"Feature","properties":{"id":1303041637,"highway":"service"},"geometry":{"type":"LineString","coordinates":[[139.80716,35.531082],[139.819828,35.542355],[139.822937,35.543719],[139.823047,35.543767],[139.825946,35.54159],[139.825868,35.541521],[139.810944,35.52824]]}},{"type":"Feature","properties":{"id":1303041638,"highway":"service"},"geometry":{"type":"LineString","coordinates":[[139.825585,35.541681],[139.825705,35.541649],[139.825868,35.541521]]}},{"type":"Feature","properties":{"id":1346302980,"highway":"tertiary_link"},"geometry":{"type":"LineString","coordinates":[[139.806687,35.599084],[139.806813,35.59914]]}},{"type":"Feature","properties":{"id":1346302981,"highway":"tertiary_link"},"geometry":{"type":"LineString","coordinates":[[139.807039,35.598893],[139.806914,35.598837]]}},{"type":"Feature","properties":{"id":1346302983,"highway":"service"},"geometry":{"type":"LineString","coordinates":[[139.802684,35.596383],[139.80262,35.596467],[139.802569,35.596533]]}},{"type":"Feature","properties":{"id":1346302984,"highway":"service"},"geometry":{"type":"LineString","coordinates":[[139.802482,35.595698],[139.802292,35.595571]]}},{"type":"Feature","properties":{"id":1346302985,"highway":"service"},"geometry":{"type":"LineString","coordinates":[[139.802482,35.595698],[139.802609,35.595555]]}},{"type":"Feature","properties":{"id":1346302993,"highway":"tertiary_link"},"geometry":{"type":"LineString","coordinates":[[139.8051,35.597859],[139.804898,35.597775],[139.804611,35.597648],[139.804283,35.597525]]}},{"type":"Feature","properties":{"id":1346303010,"highway":"tertiary_link"},"geometry":{"type":"LineString","coordinates":[[139.806647,35.590099],[139.806454,35.590273],[139.80628,35.590406],[139.805922,35.590846],[139.805867,35.590882],[139.80555,35.591073],[139.805489,35.591109],[139.805438,35.591179],[139.805431,35.591205],[139.805412,35.591267]]}},{"type":"Feature","properties":{"id":1346303011,"highway":"tertiary"},"geometry":{"type":"LineString","coordinates":[[139.806821,35.592037],[139.806571,35.591903]]}},{"type":"Feature","properties":{"id":1346303012,"highway":"service"},"geometry":{"type":"LineString","coordinates":[[139.808337,35.596139],[139.808673,35.595793],[139.809022,35.595397],[139.809182,35.595114],[139.809635,35.594593]]}},{"type":"Feature","properties":{"id":1346303015,"highway":"tertiary"},"geometry":{"type":"LineString","coordinates":[[139.805412,35.591267],[139.805503,35.591357],[139.805812,35.591558],[139.805982,35.591651],[139.806348,35.591805],[139.806571,35.591903]]}},{"type":"Feature","properties":{"id":1346303022,"highway":"service"},"geometry":{"type":"LineString","coordinates":[[139.807948,35.59311],[139.807583,35.593562],[139.805941,35.595592]]}},{"type":"Feature","properties":{"id":1427300282,"highway":"service"},"geometry":{"type":"LineString","coordinates":[[139.815842,35.599421],[139.815752,35.599518],[139.815398,35.599958],[139.815321,35.600084]]}},{"type":"Feature","properties":{"id":1427300283,"highway":"service"},"geometry":{"type":"LineString","coordinates":[[139.819613,35.602064],[139.819057,35.601204],[139.817971,35.6006],[139.816665,35.599904],[139.815842,35.599421]]}},{"type":"Feature","properties":{"id":1447379776,"highway":"service"},"geometry":{"type":"LineString","coordinates":[[139.81711,35.585361],[139.817129,35.585378]]}},{"type":"Feature","properties":{"id":1447379777,"highway":"service"},"geometry":{"type":"LineString","coordinates":[[139.810812,35.588268],[139.810897,35.588176],[139.81097,35.588166],[139.813265,35.589381],[139.813375,35.589413],[139.813474,35.589407],[139.813548,35.589378],[139.813672,35.589297],[139.813768,35.589199],[139.816887,35.585385],[139.816973,35.58534],[139.81705,35.585342],[139.81711,35.585361]]}},{"type":"Feature","properties":{"id":1471626014,"highway":"unclassified"},"geometry":{"type":"LineString","coordinates":[[139.81164,35.591406],[139.811745,35.591275]]}},{"type":"Feature","properties":{"id":1471626015,"highway":"unclassified"},"geometry":{"type":"LineString","coordinates":[[139.809522,35.593109],[139.809672,35.593188],[139.809784,35.5932],[139.809924,35.593181],[139.810078,35.593139],[139.81026,35.593067],[139.810386,35.592949],[139.81164,35.591406]]}}]}