{"type":"FeatureCollection","features":[{"type":"Feature","properties":{"id":107523179,"highway":"secondary"},"geometry":{"type":"LineString","coordinates":[[139.809191,37.091713],[139.809145,37.091723],[139.809091,37.091755],[139.809028,37.0918],[139.808943,37.091908],[139.808711,37.092319],[139.808514,37.092544],[139.808458,37.092691],[139.808381,37.092876],[139.808311,37.09313],[139.808261,37.093209],[139.808135,37.09331],[139.808036,37.093372],[139.807776,37.093479],[139.807607,37.093547],[139.807312,37.093772],[139.807101,37.093992],[139.80701,37.094149],[139.806926,37.094239],[139.80663,37.094448],[139.806377,37.094645],[139.80599,37.094888],[139.805624,37.095118],[139.805294,37.095315],[139.80521,37.095366],[139.804992,37.095524],[139.804788,37.095635],[139.804654,37.09568],[139.804542,37.095647],[139.804317,37.095517],[139.803972,37.095382],[139.803825,37.095096],[139.803768,37.09496],[139.803768,37.09491],[139.803958,37.094166],[139.803965,37.094031],[139.803839,37.093766],[139.803839,37.093671],[139.803853,37.093614],[139.803846,37.093518],[139.803783,37.093439],[139.80324,37.093107],[139.803199,37.093062],[139.803178,37.092978],[139.803164,37.092707],[139.80312,37.092628],[139.802995,37.09251],[139.80296,37.092442],[139.80296,37.092313],[139.802995,37.092251],[139.803164,37.092155],[139.803564,37.091992],[139.803628,37.091947],[139.80369,37.091863],[139.80369,37.091682],[139.803649,37.091564],[139.803614,37.091519],[139.803507,37.091474],[139.80298,37.091338],[139.802867,37.091316],[139.80265,37.091288],[139.802557,37.091248],[139.802534,37.09119],[139.80253,37.091113],[139.802559,37.091068],[139.802854,37.090775],[139.802967,37.090646],[139.803079,37.090443],[139.803127,37.090336],[139.803162,37.090123],[139.803177,37.09001],[139.80317,37.089947],[139.803085,37.089891],[139.80303,37.089879],[139.802945,37.089885],[139.802657,37.090088],[139.802502,37.090212],[139.80241,37.090257],[139.802365,37.090276]]}},{"type":"Feature","properties":{"id":107523530,"highway":"secondary"},"geometry":{"type":"LineString","coordinates":[[139.809924,37.093262],[139.809913,37.093429],[139.809948,37.093536],[139.809906,37.093755],[139.809871,37.093924],[139.809842,37.094037],[139.809772,37.094183],[139.809772,37.094284],[139.8098,37.094318],[139.809835,37.094341],[139.809906,37.094437],[139.809906,37.094544],[139.809857,37.094634],[139.809744,37.09478],[139.809695,37.094882],[139.809674,37.094955],[139.809681,37.095158],[139.809709,37.095271],[139.809702,37.095749],[139.80966,37.095845],[139.809582,37.095929],[139.809385,37.096059],[139.808935,37.096341],[139.808886,37.096391],[139.80883,37.096459],[139.808837,37.096587],[139.808907,37.096835],[139.808963,37.096987],[139.809041,37.097157],[139.809076,37.097205],[139.809121,37.097235],[139.809172,37.09725],[139.809228,37.097251],[139.80928,37.09724],[139.809333,37.097202],[139.809371,37.097162],[139.809512,37.097004],[139.809561,37.096965],[139.809849,37.096841],[139.81032,37.09674],[139.81089,37.096543],[139.811123,37.096543],[139.811256,37.096583],[139.811516,37.096701],[139.811861,37.096897],[139.812143,37.097033],[139.812269,37.097033],[139.812354,37.096971],[139.812424,37.096841],[139.812529,37.096487],[139.812663,37.096217],[139.812726,37.096138],[139.812881,37.096031],[139.813064,37.095958],[139.813246,37.095918],[139.813479,37.095918],[139.813556,37.095918],[139.813872,37.095935],[139.81402,37.095935],[139.814463,37.095873],[139.814695,37.095856],[139.815068,37.095823],[139.815243,37.095823],[139.815342,37.095856],[139.815426,37.095918],[139.815447,37.095963],[139.815447,37.09611],[139.815391,37.096493],[139.815335,37.096718],[139.815314,37.096926],[139.815321,37.097218],[139.815349,37.09749],[139.815377,37.097585],[139.815497,37.09777],[139.815574,37.097923],[139.815602,37.098137],[139.815623,37.09821],[139.815714,37.098278],[139.815855,37.098335],[139.815932,37.098345],[139.816073,37.09834],[139.816221,37.098317],[139.816347,37.098307],[139.816572,37.098278],[139.816889,37.098272],[139.817142,37.098307],[139.817304,37.098345],[139.817458,37.098397],[139.817571,37.098458],[139.817648,37.098532],[139.817711,37.098622],[139.817768,37.098785],[139.817768,37.099348],[139.817817,37.099477],[139.817908,37.099698],[139.817922,37.099754],[139.817922,37.099957],[139.817894,37.100092],[139.817894,37.100278],[139.817943,37.100363],[139.818154,37.100509],[139.818253,37.100566],[139.818506,37.100785],[139.818829,37.101191],[139.818969,37.101365],[139.819044,37.101423],[139.819105,37.101469]]}},{"type":"Feature","properties":{"id":107523881,"highway":"secondary"},"geometry":{"type":"LineString","coordinates":[[139.790393,37.114188],[139.790424,37.114129],[139.79047,37.114067],[139.790646,37.114005],[139.790752,37.113983],[139.790949,37.113971],[139.791117,37.113994],[139.791364,37.114056],[139.791547,37.114146],[139.791674,37.114214],[139.791772,37.114276],[139.791969,37.114445],[139.79206,37.114552],[139.79218,37.114732],[139.792232,37.114794],[139.792285,37.114839],[139.792364,37.114842],[139.79244,37.114816],[139.792565,37.114754],[139.792637,37.114715],[139.792679,37.11467],[139.792672,37.114597],[139.79244,37.114146],[139.792032,37.113459],[139.791792,37.113115],[139.791715,37.112958],[139.791695,37.112884],[139.791701,37.112771],[139.791765,37.112653],[139.791827,37.112563],[139.792052,37.112237],[139.792672,37.111375],[139.792862,37.111081],[139.793215,37.110582],[139.793347,37.110394],[139.793642,37.110016],[139.794072,37.10955],[139.794935,37.108716],[139.795202,37.108463],[139.795392,37.108299],[139.795505,37.108282],[139.79587,37.108277],[139.795984,37.108237],[139.796145,37.108108],[139.796265,37.107973],[139.796399,37.107865],[139.796554,37.107792],[139.796912,37.107663],[139.797165,37.107539],[139.797398,37.107432],[139.798431,37.106818],[139.79879,37.106649],[139.799366,37.10639],[139.799409,37.106333],[139.799416,37.106226],[139.79931,37.105837],[139.799261,37.105622],[139.799275,37.105302],[139.799303,37.105082],[139.799331,37.104874],[139.799366,37.104762],[139.799521,37.104469],[139.799542,37.104317],[139.799507,37.104192],[139.799488,37.104164],[139.799451,37.104107],[139.799295,37.103945],[139.799212,37.103844],[139.799205,37.103804],[139.799219,37.103719],[139.799317,37.103606],[139.799394,37.103583],[139.799711,37.103544],[139.799992,37.103499],[139.800063,37.103471],[139.800175,37.103381],[139.800351,37.103212],[139.800449,37.103138],[139.801567,37.102813],[139.80201,37.102666],[139.802102,37.102604],[139.802552,37.10203],[139.802601,37.101934],[139.802608,37.101816],[139.802594,37.101771],[139.802601,37.101573],[139.802692,37.101348],[139.802692,37.10123],[139.80258,37.100813],[139.802531,37.100424],[139.802502,37.100323],[139.802439,37.100227],[139.802214,37.10012],[139.801849,37.099929],[139.801764,37.099901],[139.801413,37.099861],[139.801286,37.099827],[139.801181,37.099748],[139.800885,37.099602],[139.800709,37.099534],[139.800442,37.099461],[139.800295,37.099405],[139.800217,37.099343],[139.800175,37.099258],[139.800167,37.09914],[139.800147,37.09905],[139.799985,37.098819],[139.799859,37.098667],[139.79976,37.098577],[139.799675,37.098537],[139.79952,37.098503],[139.79938,37.098441],[139.799344,37.098417],[139.799254,37.098357],[139.799219,37.098301],[139.799219,37.098222],[139.79936,37.098036],[139.799395,37.097957],[139.799415,37.097873],[139.799492,37.097783],[139.79969,37.097642],[139.799717,37.097597],[139.799752,37.097399],[139.799845,37.097208],[139.7999,37.097123],[139.800182,37.096677],[139.800232,37.09657],[139.800232,37.096397],[139.800202,37.09626],[139.800105,37.095968],[139.800007,37.095772],[139.799942,37.095585],[139.799935,37.095512],[139.799929,37.095128],[139.79997,37.09483],[139.799977,37.093732],[139.800027,37.093484],[139.800111,37.09322],[139.800174,37.093073],[139.800231,37.092983],[139.800322,37.09282],[139.800463,37.092499],[139.80054,37.092279],[139.800596,37.091992],[139.800617,37.091744],[139.800638,37.091631],[139.800645,37.091518],[139.800617,37.091423],[139.80061,37.091316],[139.800624,37.091271],[139.800617,37.091259],[139.800674,37.091226],[139.80099,37.090984],[139.801103,37.090905],[139.801384,37.090764],[139.801999,37.090404],[139.802054,37.090386]]}},{"type":"Feature","properties":{"id":107524843,"highway":"secondary"},"geometry":{"type":"LineString","coordinates":[[139.809191,37.091713],[139.809233,37.091715],[139.809302,37.091721],[139.809388,37.091738],[139.809428,37.091759]]}},{"type":"Feature","properties":{"id":107526670,"highway":"secondary"},"geometry":{"type":"LineString","coordinates":[[139.802054,37.090386],[139.802365,37.090276]]}},{"type":"Feature","properties":{"id":107528877,"highway":"secondary"},"geometry":{"type":"LineString","coordinates":[[139.809936,37.092987],[139.809952,37.092919],[139.809948,37.092848],[139.809948,37.092837],[139.809885,37.092758],[139.809674,37.092612],[139.809632,37.09255],[139.809604,37.092482],[139.809604,37.092262],[139.809604,37.092059],[139.809576,37.091924],[139.809492,37.091812],[139.809428,37.091759]]}},{"type":"Feature","properties":{"id":134775898,"highway":"residential"},"geometry":{"type":"LineString","coordinates":[[139.899399,37.086406],[139.899381,37.086519],[139.899363,37.086673],[139.899381,37.086848],[139.899393,37.086962],[139.899393,37.087108],[139.899384,37.087223],[139.899365,37.08732],[139.899359,37.087474],[139.899363,37.087695],[139.899354,37.08779],[139.899328,37.087867],[139.899274,37.087971],[139.899198,37.088076],[139.899102,37.088186]]}},{"type":"Feature","properties":{"id":134779369,"highway":"unclassified"},"geometry":{"type":"LineString","coordinates":[[139.899633,37.083888],[139.899836,37.083687]]}},{"type":"Feature","properties":{"id":134779562,"highway":"unclassified"},"geometry":{"type":"LineString","coordinates":[[139.856457,36.999845],[139.856604,37.00049]]}},{"type":"Feature","properties":{"id":134781663,"highway":"unclassified"},"geometry":{"type":"LineString","coordinates":[[139.899836,37.083687],[139.900054,37.083548],[139.900115,37.083482]]}},{"type":"Feature","properties":{"id":134787113,"highway":"residential"},"geometry":{"type":"LineString","coordinates":[[139.900071,37.085416],[139.899887,37.085641],[139.899714,37.085868],[139.899464,37.086225],[139.899399,37.086406]]}},{"type":"Feature","properties":{"id":134789167,"highway":"unclassified"},"geometry":{"type":"LineString","coordinates":[[139.87434,37.103893],[139.874638,37.103732],[139.874852,37.103623],[139.875003,37.103569],[139.875147,37.103539],[139.875299,37.103523],[139.875481,37.103512],[139.875733,37.103523],[139.875896,37.103521],[139.876001,37.103499],[139.876113,37.103462],[139.876228,37.103367],[139.876313,37.103266],[139.876382,37.103149],[139.876442,37.103007],[139.876531,37.10282],[139.876628,37.102626],[139.876714,37.102476],[139.876822,37.102306],[139.876926,37.102182],[139.877057,37.102062],[139.877182,37.101965],[139.877297,37.101908],[139.877439,37.10186],[139.877565,37.101832],[139.877728,37.101814],[139.87792,37.101797],[139.878118,37.101769],[139.87834,37.101714],[139.878503,37.10167],[139.878712,37.101595],[139.879019,37.101496],[139.879157,37.101448],[139.879366,37.101376],[139.879534,37.101318],[139.879797,37.101213],[139.879976,37.101133],[139.880129,37.101044],[139.880246,37.100967],[139.880397,37.100832],[139.880516,37.100688],[139.880658,37.100542],[139.880843,37.10037],[139.881112,37.100185],[139.881406,37.099991],[139.881676,37.099814],[139.881856,37.09969],[139.882071,37.099549],[139.882269,37.099463],[139.882445,37.099345],[139.882587,37.099241],[139.882695,37.099148],[139.882758,37.099078],[139.88282,37.09899],[139.882875,37.098869],[139.882902,37.098751],[139.882896,37.098666],[139.882875,37.098592],[139.882815,37.098522],[139.882711,37.098416],[139.882562,37.098325],[139.882423,37.098229],[139.882385,37.098183],[139.882382,37.098146],[139.882407,37.09812],[139.882498,37.098088],[139.882656,37.098055],[139.882846,37.098011],[139.882969,37.097974],[139.883052,37.097933],[139.883137,37.097883],[139.883289,37.097774],[139.883397,37.097702],[139.883513,37.097643],[139.883695,37.097589],[139.883935,37.09753],[139.884148,37.097486],[139.884309,37.097462],[139.884533,37.097441],[139.88473,37.097428],[139.885014,37.097401],[139.885213,37.09738],[139.885365,37.097362],[139.885502,37.097323],[139.885651,37.097249],[139.885754,37.097171],[139.885839,37.097086],[139.885937,37.097016],[139.886017,37.096975],[139.886097,37.09694],[139.886205,37.096903],[139.886372,37.096864],[139.8865,37.096833],[139.886552,37.096813],[139.886582,37.096785],[139.886595,37.096755],[139.886595,37.096702],[139.886569,37.096628],[139.886517,37.09653],[139.886504,37.096501],[139.886466,37.09642],[139.886438,37.0963],[139.886417,37.096173],[139.886402,37.095938],[139.886383,37.095643],[139.886366,37.095466],[139.886334,37.095191],[139.8863,37.094909],[139.886288,37.094639],[139.886258,37.094321],[139.886243,37.094079],[139.886251,37.093896],[139.886266,37.093816],[139.886306,37.093721],[139.886381,37.093634],[139.886491,37.093579],[139.88658,37.093553],[139.88672,37.093536],[139.886851,37.093518],[139.88698,37.093484],[139.887094,37.093438],[139.887214,37.093373],[139.887372,37.093267],[139.887538,37.093175],[139.887651,37.093123],[139.88775,37.093092],[139.887879,37.093069],[139.888011,37.093064],[139.88819,37.09308],[139.888392,37.093108],[139.888521,37.09312],[139.88861,37.093115],[139.888697,37.093089],[139.8888,37.093038],[139.888935,37.092962],[139.889064,37.09286],[139.889199,37.092771],[139.889366,37.092679],[139.889522,37.092584],[139.88961,37.092512],[139.88967,37.092436],[139.8897,37.092351],[139.889707,37.092264],[139.889699,37.09219],[139.889668,37.092098],[139.889567,37.091959],[139.889501,37.091898],[139.88943,37.091857],[139.889357,37.091831],[139.889251,37.091815],[139.88915,37.091813],[139.889004,37.091826],[139.888822,37.091857],[139.8887,37.09187],[139.888606,37.091868],[139.888524,37.091846],[139.888451,37.091807],[139.888403,37.091757],[139.888377,37.091706],[139.888377,37.091676],[139.888409,37.091628],[139.888495,37.09158],[139.888637,37.091541],[139.888843,37.091498],[139.88904,37.091423],[139.889217,37.091339],[139.889295,37.091289],[139.889332,37.091243],[139.88941,37.091054],[139.88948,37.090897],[139.889547,37.090798],[139.889555,37.090788],[139.889588,37.090744],[139.889648,37.090707],[139.889738,37.090672],[139.889904,37.09064],[139.89028,37.090605],[139.890704,37.090559],[139.891,37.090518],[139.891248,37.090494],[139.891358,37.090477],[139.891508,37.090446],[139.8916,37.0904],[139.891671,37.09035],[139.891737,37.090261],[139.891806,37.090143],[139.891857,37.090083],[139.89194,37.090043],[139.892078,37.089989],[139.892315,37.089928],[139.892473,37.089884],[139.892598,37.089828],[139.892741,37.089732],[139.892888,37.089605],[139.893112,37.0894],[139.893278,37.089274],[139.893396,37.089193],[139.893519,37.08913],[139.893671,37.089071],[139.893834,37.08903],[139.893967,37.08901],[139.894111,37.088999],[139.894304,37.088991],[139.894497,37.088982],[139.894712,37.088959],[139.894913,37.088931],[139.895124,37.088881],[139.895439,37.088789],[139.895752,37.088686],[139.896107,37.088555],[139.896346,37.088454],[139.89668,37.088323],[139.897064,37.088151],[139.897344,37.088018],[139.897551,37.087903],[139.897728,37.087787],[139.89783,37.087702],[139.89792,37.087618],[139.897984,37.087532],[139.898023,37.087441],[139.898047,37.087315],[139.898053,37.087156],[139.898062,37.086971],[139.898078,37.08671],[139.898104,37.08656],[139.898158,37.086405],[139.898356,37.086154],[139.898825,37.085673],[139.899022,37.08542],[139.899295,37.084835],[139.89942,37.084548],[139.899491,37.084385],[139.899618,37.083933],[139.899633,37.083888]]}},{"type":"Feature","properties":{"id":134789459,"highway":"unclassified"},"geometry":{"type":"LineString","coordinates":[[139.899484,36.99958],[139.899441,36.999908],[139.899404,37.000192],[139.899364,37.000299],[139.899095,37.000507],[139.899063,37.000652],[139.899052,37.000914],[139.899034,37.001056],[139.899058,37.001223],[139.899134,37.001356],[139.899317,37.001441],[139.899422,37.001456],[139.899499,37.001485],[139.899593,37.001479],[139.89973,37.001427],[139.900038,37.001244],[139.900303,37.001042],[139.900466,37.000819],[139.900591,37.000713],[139.900708,37.000662],[139.900799,37.000654],[139.900888,37.000707],[139.900916,37.000769],[139.900916,37.000943],[139.900853,37.00118],[139.90088,37.001399],[139.901033,37.001682],[139.901021,37.001888],[139.901032,37.002237],[139.90123,37.002471],[139.901421,37.002724],[139.901452,37.003019],[139.901478,37.00313],[139.901519,37.003172],[139.901646,37.003242],[139.901764,37.003247],[139.901866,37.003226],[139.901956,37.003147],[139.902009,37.003082]]}},{"type":"Feature","properties":{"id":134790383,"highway":"service"},"geometry":{"type":"LineString","coordinates":[[139.808589,37.038344],[139.808984,37.037925]]}},{"type":"Feature","properties":{"id":134790413,"highway":"secondary"},"geometry":{"type":"LineString","coordinates":[[139.812019,37.00308],[139.811974,37.003019],[139.811826,37.002826],[139.81156,37.002618],[139.811546,37.002573],[139.811567,37.002544],[139.811618,37.002522],[139.811804,37.002519],[139.811953,37.002562],[139.812339,37.002792],[139.812493,37.002871],[139.812668,37.002928],[139.812837,37.002967],[139.81304,37.002967],[139.813096,37.002945],[139.813146,37.002905],[139.813216,37.002809],[139.813293,37.002669],[139.813335,37.0025],[139.813328,37.002449],[139.813286,37.002381],[139.812788,37.00197],[139.812507,37.001807],[139.812155,37.001633],[139.812121,37.001604],[139.812121,37.00157],[139.81214,37.001539],[139.812361,37.001463],[139.812437,37.001424],[139.812468,37.001381],[139.812493,37.001334],[139.812495,37.001277],[139.812535,37.001249],[139.812612,37.001255],[139.812998,37.001379],[139.813475,37.00148],[139.813658,37.001508],[139.813987,37.001576],[139.814191,37.001604],[139.814395,37.001613],[139.814605,37.001604],[139.814815,37.001581],[139.815054,37.001564],[139.815215,37.001531],[139.81526,37.0015],[139.815298,37.001469],[139.815305,37.001412],[139.815298,37.001339],[139.815257,37.001221],[139.815236,37.001046],[139.815145,37.0009],[139.815159,37.000838],[139.815264,37.000669],[139.815459,37.000335],[139.815565,37.000083],[139.815638,36.999894]]}},{"type":"Feature","properties":{"id":134790473,"highway":"secondary"},"geometry":{"type":"LineString","coordinates":[[139.81469,37.006184],[139.814785,37.006266],[139.814865,37.006298],[139.81494,37.006298],[139.81509,37.006257],[139.815295,37.006178],[139.815371,37.006122],[139.815408,37.006077],[139.8154,37.005992],[139.815239,37.005897],[139.814775,37.00566],[139.814676,37.005621],[139.814451,37.005581],[139.81422,37.005547],[139.814163,37.005517],[139.814114,37.005474],[139.814065,37.005401],[139.814016,37.005288],[139.813981,37.005181],[139.813903,37.005097],[139.81368,37.004978],[139.813595,37.004899],[139.813538,37.004787],[139.81349,37.004736],[139.813279,37.004656],[139.813223,37.004623],[139.812963,37.00437],[139.8129,37.00433],[139.812823,37.004302],[139.812646,37.004298],[139.812479,37.004308],[139.812345,37.004359],[139.812177,37.00446],[139.812092,37.004526],[139.812047,37.004543],[139.811997,37.004539],[139.811953,37.004514],[139.81184,37.004426],[139.811756,37.004393],[139.811179,37.004381],[139.810934,37.004347],[139.810878,37.004311],[139.810856,37.004272],[139.810857,37.004229],[139.810904,37.004184],[139.81099,37.004133],[139.811109,37.004071],[139.81151,37.00393],[139.811671,37.003852],[139.812023,37.003615],[139.812107,37.003514],[139.812142,37.003429],[139.812135,37.003294],[139.812121,37.003251],[139.812019,37.00308]]}},{"type":"Feature","properties":{"id":134792129,"highway":"secondary"},"geometry":{"type":"LineString","coordinates":[[139.902305,37.088048],[139.902113,37.087955],[139.901923,37.087893],[139.902093,37.087667],[139.902159,37.087533],[139.902175,37.087398],[139.90213,37.087305],[139.902,37.087157],[139.901694,37.086968],[139.901402,37.086798],[139.901135,37.086633],[139.901001,37.086547],[139.900938,37.086438],[139.900883,37.086146],[139.90096,37.08591],[139.901059,37.085713],[139.901173,37.085427],[139.901427,37.085041],[139.901508,37.084802],[139.901498,37.084567],[139.901406,37.084254],[139.901337,37.083899],[139.901302,37.083803],[139.901295,37.083352],[139.901186,37.082728],[139.901119,37.082656],[139.900925,37.082632],[139.900764,37.082688],[139.900752,37.082748],[139.900772,37.082825],[139.90088,37.082969],[139.900944,37.083133],[139.901,37.083476],[139.901,37.083696],[139.900993,37.083887],[139.900923,37.084305],[139.900796,37.084666],[139.900634,37.085049],[139.900487,37.085336],[139.90041,37.085471],[139.900333,37.085549],[139.900203,37.085569],[139.900111,37.085532],[139.900071,37.085416],[139.90008,37.085274],[139.900136,37.085066],[139.900241,37.084846],[139.900304,37.084502],[139.900335,37.084331],[139.900354,37.08408],[139.900405,37.08374],[139.900351,37.083632],[139.900255,37.083561],[139.900115,37.083482],[139.900044,37.083364],[139.899897,37.082766],[139.899869,37.082614],[139.899869,37.082412],[139.899918,37.082293],[139.900066,37.082051],[139.900136,37.081899],[139.900164,37.081816],[139.900157,37.081562],[139.90015,37.081483],[139.900094,37.081207],[139.900094,37.080982],[139.900129,37.080869],[139.900241,37.080723],[139.900718,37.080318]]}}]}