{"type":"FeatureCollection","features":[{"type":"Feature","properties":{"id":107523530,"highway":"secondary"},"geometry":{"type":"LineString","coordinates":[[139.809924,37.093262],[139.809913,37.093429],[139.809948,37.093536],[139.809906,37.093755],[139.809871,37.093924],[139.809842,37.094037],[139.809772,37.094183],[139.809772,37.094284],[139.8098,37.094318],[139.809835,37.094341],[139.809906,37.094437],[139.809906,37.094544],[139.809857,37.094634],[139.809744,37.09478],[139.809695,37.094882],[139.809674,37.094955],[139.809681,37.095158],[139.809709,37.095271],[139.809702,37.095749],[139.80966,37.095845],[139.809582,37.095929],[139.809385,37.096059],[139.808935,37.096341],[139.808886,37.096391],[139.80883,37.096459],[139.808837,37.096587],[139.808907,37.096835],[139.808963,37.096987],[139.809041,37.097157],[139.809076,37.097205],[139.809121,37.097235],[139.809172,37.09725],[139.809228,37.097251],[139.80928,37.09724],[139.809333,37.097202],[139.809371,37.097162],[139.809512,37.097004],[139.809561,37.096965],[139.809849,37.096841],[139.81032,37.09674],[139.81089,37.096543],[139.811123,37.096543],[139.811256,37.096583],[139.811516,37.096701],[139.811861,37.096897],[139.812143,37.097033],[139.812269,37.097033],[139.812354,37.096971],[139.812424,37.096841],[139.812529,37.096487],[139.812663,37.096217],[139.812726,37.096138],[139.812881,37.096031],[139.813064,37.095958],[139.813246,37.095918],[139.813479,37.095918],[139.813556,37.095918],[139.813872,37.095935],[139.81402,37.095935],[139.814463,37.095873],[139.814695,37.095856],[139.815068,37.095823],[139.815243,37.095823],[139.815342,37.095856],[139.815426,37.095918],[139.815447,37.095963],[139.815447,37.09611],[139.815391,37.096493],[139.815335,37.096718],[139.815314,37.096926],[139.815321,37.097218],[139.815349,37.09749],[139.815377,37.097585],[139.815497,37.09777],[139.815574,37.097923],[139.815602,37.098137],[139.815623,37.09821],[139.815714,37.098278],[139.815855,37.098335],[139.815932,37.098345],[139.816073,37.09834],[139.816221,37.098317],[139.816347,37.098307],[139.816572,37.098278],[139.816889,37.098272],[139.817142,37.098307],[139.817304,37.098345],[139.817458,37.098397],[139.817571,37.098458],[139.817648,37.098532],[139.817711,37.098622],[139.817768,37.098785],[139.817768,37.099348],[139.817817,37.099477],[139.817908,37.099698],[139.817922,37.099754],[139.817922,37.099957],[139.817894,37.100092],[139.817894,37.100278],[139.817943,37.100363],[139.818154,37.100509],[139.818253,37.100566],[139.818506,37.100785],[139.818829,37.101191],[139.818969,37.101365],[139.819044,37.101423],[139.819105,37.101469]]}},{"type":"Feature","properties":{"id":107523881,"highway":"secondary"},"geometry":{"type":"LineString","coordinates":[[139.790393,37.114188],[139.790424,37.114129],[139.79047,37.114067],[139.790646,37.114005],[139.790752,37.113983],[139.790949,37.113971],[139.791117,37.113994],[139.791364,37.114056],[139.791547,37.114146],[139.791674,37.114214],[139.791772,37.114276],[139.791969,37.114445],[139.79206,37.114552],[139.79218,37.114732],[139.792232,37.114794],[139.792285,37.114839],[139.792364,37.114842],[139.79244,37.114816],[139.792565,37.114754],[139.792637,37.114715],[139.792679,37.11467],[139.792672,37.114597],[139.79244,37.114146],[139.792032,37.113459],[139.791792,37.113115],[139.791715,37.112958],[139.791695,37.112884],[139.791701,37.112771],[139.791765,37.112653],[139.791827,37.112563],[139.792052,37.112237],[139.792672,37.111375],[139.792862,37.111081],[139.793215,37.110582],[139.793347,37.110394],[139.793642,37.110016],[139.794072,37.10955],[139.794935,37.108716],[139.795202,37.108463],[139.795392,37.108299],[139.795505,37.108282],[139.79587,37.108277],[139.795984,37.108237],[139.796145,37.108108],[139.796265,37.107973],[139.796399,37.107865],[139.796554,37.107792],[139.796912,37.107663],[139.797165,37.107539],[139.797398,37.107432],[139.798431,37.106818],[139.79879,37.106649],[139.799366,37.10639],[139.799409,37.106333],[139.799416,37.106226],[139.79931,37.105837],[139.799261,37.105622],[139.799275,37.105302],[139.799303,37.105082],[139.799331,37.104874],[139.799366,37.104762],[139.799521,37.104469],[139.799542,37.104317],[139.799507,37.104192],[139.799488,37.104164],[139.799451,37.104107],[139.799295,37.103945],[139.799212,37.103844],[139.799205,37.103804],[139.799219,37.103719],[139.799317,37.103606],[139.799394,37.103583],[139.799711,37.103544],[139.799992,37.103499],[139.800063,37.103471],[139.800175,37.103381],[139.800351,37.103212],[139.800449,37.103138],[139.801567,37.102813],[139.80201,37.102666],[139.802102,37.102604],[139.802552,37.10203],[139.802601,37.101934],[139.802608,37.101816],[139.802594,37.101771],[139.802601,37.101573],[139.802692,37.101348],[139.802692,37.10123],[139.80258,37.100813],[139.802531,37.100424],[139.802502,37.100323],[139.802439,37.100227],[139.802214,37.10012],[139.801849,37.099929],[139.801764,37.099901],[139.801413,37.099861],[139.801286,37.099827],[139.801181,37.099748],[139.800885,37.099602],[139.800709,37.099534],[139.800442,37.099461],[139.800295,37.099405],[139.800217,37.099343],[139.800175,37.099258],[139.800167,37.09914],[139.800147,37.09905],[139.799985,37.098819],[139.799859,37.098667],[139.79976,37.098577],[139.799675,37.098537],[139.79952,37.098503],[139.79938,37.098441],[139.799344,37.098417],[139.799254,37.098357],[139.799219,37.098301],[139.799219,37.098222],[139.79936,37.098036],[139.799395,37.097957],[139.799415,37.097873],[139.799492,37.097783],[139.79969,37.097642],[139.799717,37.097597],[139.799752,37.097399],[139.799845,37.097208],[139.7999,37.097123],[139.800182,37.096677],[139.800232,37.09657],[139.800232,37.096397],[139.800202,37.09626],[139.800105,37.095968],[139.800007,37.095772],[139.799942,37.095585],[139.799935,37.095512],[139.799929,37.095128],[139.79997,37.09483],[139.799977,37.093732],[139.800027,37.093484],[139.800111,37.09322],[139.800174,37.093073],[139.800231,37.092983],[139.800322,37.09282],[139.800463,37.092499],[139.80054,37.092279],[139.800596,37.091992],[139.800617,37.091744],[139.800638,37.091631],[139.800645,37.091518],[139.800617,37.091423],[139.80061,37.091316],[139.800624,37.091271],[139.800617,37.091259],[139.800674,37.091226],[139.80099,37.090984],[139.801103,37.090905],[139.801384,37.090764],[139.801999,37.090404],[139.802054,37.090386]]}},{"type":"Feature","properties":{"id":134789167,"highway":"unclassified"},"geometry":{"type":"LineString","coordinates":[[139.87434,37.103893],[139.874638,37.103732],[139.874852,37.103623],[139.875003,37.103569],[139.875147,37.103539],[139.875299,37.103523],[139.875481,37.103512],[139.875733,37.103523],[139.875896,37.103521],[139.876001,37.103499],[139.876113,37.103462],[139.876228,37.103367],[139.876313,37.103266],[139.876382,37.103149],[139.876442,37.103007],[139.876531,37.10282],[139.876628,37.102626],[139.876714,37.102476],[139.876822,37.102306],[139.876926,37.102182],[139.877057,37.102062],[139.877182,37.101965],[139.877297,37.101908],[139.877439,37.10186],[139.877565,37.101832],[139.877728,37.101814],[139.87792,37.101797],[139.878118,37.101769],[139.87834,37.101714],[139.878503,37.10167],[139.878712,37.101595],[139.879019,37.101496],[139.879157,37.101448],[139.879366,37.101376],[139.879534,37.101318],[139.879797,37.101213],[139.879976,37.101133],[139.880129,37.101044],[139.880246,37.100967],[139.880397,37.100832],[139.880516,37.100688],[139.880658,37.100542],[139.880843,37.10037],[139.881112,37.100185],[139.881406,37.099991],[139.881676,37.099814],[139.881856,37.09969],[139.882071,37.099549],[139.882269,37.099463],[139.882445,37.099345],[139.882587,37.099241],[139.882695,37.099148],[139.882758,37.099078],[139.88282,37.09899],[139.882875,37.098869],[139.882902,37.098751],[139.882896,37.098666],[139.882875,37.098592],[139.882815,37.098522],[139.882711,37.098416],[139.882562,37.098325],[139.882423,37.098229],[139.882385,37.098183],[139.882382,37.098146],[139.882407,37.09812],[139.882498,37.098088],[139.882656,37.098055],[139.882846,37.098011],[139.882969,37.097974],[139.883052,37.097933],[139.883137,37.097883],[139.883289,37.097774],[139.883397,37.097702],[139.883513,37.097643],[139.883695,37.097589],[139.883935,37.09753],[139.884148,37.097486],[139.884309,37.097462],[139.884533,37.097441],[139.88473,37.097428],[139.885014,37.097401],[139.885213,37.09738],[139.885365,37.097362],[139.885502,37.097323],[139.885651,37.097249],[139.885754,37.097171],[139.885839,37.097086],[139.885937,37.097016],[139.886017,37.096975],[139.886097,37.09694],[139.886205,37.096903],[139.886372,37.096864],[139.8865,37.096833],[139.886552,37.096813],[139.886582,37.096785],[139.886595,37.096755],[139.886595,37.096702],[139.886569,37.096628],[139.886517,37.09653],[139.886504,37.096501],[139.886466,37.09642],[139.886438,37.0963],[139.886417,37.096173],[139.886402,37.095938],[139.886383,37.095643],[139.886366,37.095466],[139.886334,37.095191],[139.8863,37.094909],[139.886288,37.094639],[139.886258,37.094321],[139.886243,37.094079],[139.886251,37.093896],[139.886266,37.093816],[139.886306,37.093721],[139.886381,37.093634],[139.886491,37.093579],[139.88658,37.093553],[139.88672,37.093536],[139.886851,37.093518],[139.88698,37.093484],[139.887094,37.093438],[139.887214,37.093373],[139.887372,37.093267],[139.887538,37.093175],[139.887651,37.093123],[139.88775,37.093092],[139.887879,37.093069],[139.888011,37.093064],[139.88819,37.09308],[139.888392,37.093108],[139.888521,37.09312],[139.88861,37.093115],[139.888697,37.093089],[139.8888,37.093038],[139.888935,37.092962],[139.889064,37.09286],[139.889199,37.092771],[139.889366,37.092679],[139.889522,37.092584],[139.88961,37.092512],[139.88967,37.092436],[139.8897,37.092351],[139.889707,37.092264],[139.889699,37.09219],[139.889668,37.092098],[139.889567,37.091959],[139.889501,37.091898],[139.88943,37.091857],[139.889357,37.091831],[139.889251,37.091815],[139.88915,37.091813],[139.889004,37.091826],[139.888822,37.091857],[139.8887,37.09187],[139.888606,37.091868],[139.888524,37.091846],[139.888451,37.091807],[139.888403,37.091757],[139.888377,37.091706],[139.888377,37.091676],[139.888409,37.091628],[139.888495,37.09158],[139.888637,37.091541],[139.888843,37.091498],[139.88904,37.091423],[139.889217,37.091339],[139.889295,37.091289],[139.889332,37.091243],[139.88941,37.091054],[139.88948,37.090897],[139.889547,37.090798],[139.889555,37.090788],[139.889588,37.090744],[139.889648,37.090707],[139.889738,37.090672],[139.889904,37.09064],[139.89028,37.090605],[139.890704,37.090559],[139.891,37.090518],[139.891248,37.090494],[139.891358,37.090477],[139.891508,37.090446],[139.8916,37.0904],[139.891671,37.09035],[139.891737,37.090261],[139.891806,37.090143],[139.891857,37.090083],[139.89194,37.090043],[139.892078,37.089989],[139.892315,37.089928],[139.892473,37.089884],[139.892598,37.089828],[139.892741,37.089732],[139.892888,37.089605],[139.893112,37.0894],[139.893278,37.089274],[139.893396,37.089193],[139.893519,37.08913],[139.893671,37.089071],[139.893834,37.08903],[139.893967,37.08901],[139.894111,37.088999],[139.894304,37.088991],[139.894497,37.088982],[139.894712,37.088959],[139.894913,37.088931],[139.895124,37.088881],[139.895439,37.088789],[139.895752,37.088686],[139.896107,37.088555],[139.896346,37.088454],[139.89668,37.088323],[139.897064,37.088151],[139.897344,37.088018],[139.897551,37.087903],[139.897728,37.087787],[139.89783,37.087702],[139.89792,37.087618],[139.897984,37.087532],[139.898023,37.087441],[139.898047,37.087315],[139.898053,37.087156],[139.898062,37.086971],[139.898078,37.08671],[139.898104,37.08656],[139.898158,37.086405],[139.898356,37.086154],[139.898825,37.085673],[139.899022,37.08542],[139.899295,37.084835],[139.89942,37.084548],[139.899491,37.084385],[139.899618,37.083933],[139.899633,37.083888]]}},{"type":"Feature","properties":{"id":134792146,"highway":"secondary"},"geometry":{"type":"LineString","coordinates":[[139.859502,37.125524],[139.859828,37.125678]]}},{"type":"Feature","properties":{"id":134792156,"highway":"secondary"},"geometry":{"type":"LineString","coordinates":[[139.85389,37.125633],[139.854154,37.125547]]}},{"type":"Feature","properties":{"id":134792175,"highway":"secondary"},"geometry":{"type":"LineString","coordinates":[[139.866601,37.123254],[139.866691,37.123053]]}},{"type":"Feature","properties":{"id":134792181,"highway":"secondary"},"geometry":{"type":"LineString","coordinates":[[139.846554,37.127739],[139.84681,37.127642]]}},{"type":"Feature","properties":{"id":134792188,"highway":"secondary"},"geometry":{"type":"LineString","coordinates":[[139.887743,37.117664],[139.887425,37.117909]]}},{"type":"Feature","properties":{"id":134792190,"highway":"secondary"},"geometry":{"type":"LineString","coordinates":[[139.819105,37.101469],[139.819138,37.101495],[139.819342,37.101608],[139.81949,37.101669],[139.819897,37.101822],[139.820355,37.101917],[139.820495,37.101963],[139.820593,37.102008],[139.820748,37.102131],[139.820888,37.102357],[139.820932,37.102503],[139.821002,37.102785],[139.821072,37.102903],[139.821107,37.102937],[139.821205,37.102993],[139.821373,37.103061],[139.821423,37.103106],[139.821452,37.103163],[139.821507,37.103224],[139.821577,37.103241],[139.821592,37.103253],[139.821747,37.103258],[139.82188,37.103275],[139.821978,37.103314],[139.82207,37.103371],[139.822274,37.103393],[139.8224,37.103427],[139.822555,37.103635],[139.822661,37.103855],[139.822668,37.103968],[139.822352,37.104368],[139.822345,37.104452],[139.822317,37.104503],[139.822055,37.10473],[139.822043,37.104751],[139.822049,37.104798],[139.82207,37.104841],[139.822162,37.104942],[139.822282,37.104999],[139.822464,37.105027],[139.822753,37.105038],[139.822802,37.105055],[139.822858,37.105106],[139.822931,37.10522],[139.822959,37.105247],[139.822981,37.10526],[139.823004,37.105267],[139.823032,37.105269],[139.823063,37.10526],[139.823287,37.10519],[139.823435,37.105168],[139.823653,37.105168],[139.823772,37.10519],[139.823899,37.105241],[139.824039,37.10533],[139.824194,37.105471],[139.824229,37.105533],[139.82425,37.105623],[139.82425,37.105927],[139.824278,37.106057],[139.824321,37.106293],[139.824356,37.106383],[139.824384,37.106406],[139.824686,37.106592],[139.824925,37.106779],[139.825031,37.106846],[139.825134,37.106891],[139.825277,37.106952],[139.8256,37.107066],[139.825825,37.107156],[139.826085,37.107291],[139.826177,37.107364],[139.826287,37.107431],[139.826354,37.107442],[139.826398,37.107439],[139.82643,37.107421],[139.82647,37.107386],[139.826466,37.107352],[139.826437,37.107311],[139.826324,37.107179],[139.82624,37.107111],[139.825727,37.106874],[139.825284,37.106694],[139.825171,37.106626],[139.824841,37.106259],[139.824809,37.106214],[139.824807,37.106171],[139.824835,37.106132],[139.82489,37.106109],[139.824963,37.106109],[139.825031,37.106164],[139.825157,37.106316],[139.825375,37.106502],[139.825579,37.106614],[139.826085,37.106834],[139.826584,37.107037],[139.82669,37.1071],[139.82676,37.107162],[139.82688,37.107241],[139.827028,37.107331],[139.827133,37.10737],[139.827189,37.10741],[139.827309,37.107551],[139.827421,37.107629],[139.827886,37.107792],[139.828279,37.107804],[139.828553,37.107854],[139.828651,37.107887],[139.8287,37.107939],[139.828749,37.108119],[139.828749,37.108367],[139.828658,37.108609],[139.8287,37.108795],[139.828777,37.108942],[139.828855,37.109128],[139.828883,37.109263],[139.828862,37.109381],[139.828798,37.109522],[139.828791,37.109595],[139.828876,37.109651],[139.829154,37.109763],[139.829185,37.109775],[139.829389,37.109877],[139.829565,37.109989],[139.829649,37.110079],[139.829684,37.110147],[139.829713,37.110248],[139.829713,37.110508],[139.829607,37.11102],[139.829565,37.111127],[139.829502,37.111327],[139.829459,37.111499],[139.829459,37.111736],[139.829537,37.112051],[139.82967,37.112462],[139.82991,37.112935],[139.829952,37.113042],[139.829967,37.113143],[139.829974,37.113335],[139.829995,37.113492],[139.830017,37.113583],[139.830034,37.113843],[139.830027,37.113873],[139.830006,37.113907],[139.829981,37.113937],[139.829896,37.113977],[139.829756,37.11401],[139.829066,37.114117],[139.828961,37.11419],[139.828929,37.114262],[139.828929,37.114352],[139.828939,37.114398],[139.829002,37.114433],[139.829101,37.114467],[139.829432,37.114534],[139.830037,37.114568],[139.830332,37.114573],[139.830557,37.11459],[139.830852,37.114624],[139.831014,37.114665],[139.831127,37.114726],[139.831394,37.114945],[139.831682,37.115155],[139.831767,37.115245],[139.831809,37.115324],[139.831858,37.115448],[139.831872,37.115774],[139.831866,37.116097],[139.831858,37.116591],[139.83183,37.116659],[139.831774,37.116726],[139.831542,37.116867],[139.831482,37.116918],[139.831471,37.116935],[139.83146,37.116956],[139.831462,37.116988],[139.831485,37.117022],[139.831647,37.117177],[139.831717,37.117267],[139.831794,37.117425],[139.831851,37.117645],[139.831928,37.117887],[139.832097,37.118248],[139.832336,37.118648],[139.832463,37.118794],[139.832828,37.119132],[139.832898,37.119222],[139.832913,37.119323],[139.832856,37.119447],[139.83273,37.119639],[139.832638,37.119757],[139.832575,37.119813],[139.832322,37.119903],[139.832078,37.119976],[139.83206,37.120015],[139.83207,37.120061],[139.832093,37.120093],[139.832277,37.12014],[139.832403,37.12016],[139.832533,37.120191],[139.832709,37.120275],[139.832849,37.120365],[139.832961,37.120467],[139.833173,37.120703],[139.83339,37.121019],[139.833468,37.121182],[139.833665,37.121615],[139.83389,37.12206],[139.834001,37.122229],[139.834065,37.122285],[139.834135,37.12233],[139.834395,37.122443],[139.83448,37.122494],[139.834669,37.122664],[139.834803,37.122865],[139.834817,37.122974],[139.834788,37.123114],[139.834803,37.123204],[139.834831,37.123255],[139.834895,37.123322],[139.835253,37.1237],[139.835359,37.12384],[139.835549,37.124122],[139.835689,37.124392],[139.835767,37.124629],[139.835816,37.12472],[139.836034,37.125],[139.836175,37.12509],[139.836224,37.125142],[139.836231,37.125232],[139.836182,37.125311],[139.836062,37.125424],[139.836027,37.125548],[139.836062,37.125616],[139.836168,37.125616],[139.836294,37.125593],[139.836624,37.12548],[139.836688,37.125475],[139.83673,37.125458],[139.836997,37.125458],[139.837074,37.125469],[139.837468,37.125503],[139.837672,37.125531],[139.837933,37.125565],[139.838474,37.1257],[139.838783,37.125779],[139.839163,37.125835],[139.839268,37.125863],[139.839669,37.125897],[139.839873,37.125925],[139.840408,37.125976],[139.84104,37.125987],[139.841357,37.12601],[139.841476,37.126038],[139.841589,37.1261],[139.841989,37.126432],[139.842011,37.126438],[139.842368,37.126669],[139.842776,37.126855],[139.842903,37.126939],[139.842952,37.126962],[139.843289,37.127135],[139.843345,37.127165],[139.843542,37.127244],[139.843979,37.127362],[139.844247,37.127452],[139.844422,37.127491],[139.84457,37.127497],[139.844675,37.127486],[139.84497,37.12739],[139.845174,37.12739],[139.845307,37.127424],[139.845525,37.127463],[139.8458,37.127486],[139.845885,37.127508],[139.846045,37.127604],[139.846243,37.127711],[139.846342,37.127739],[139.846399,37.127747],[139.846444,37.127744],[139.846554,37.127739]]}},{"type":"Feature","properties":{"id":134792223,"highway":"secondary"},"geometry":{"type":"LineString","coordinates":[[139.866601,37.123254],[139.86658,37.123266],[139.866561,37.123276],[139.866529,37.12329],[139.866431,37.123329],[139.866304,37.123363],[139.865981,37.123476],[139.865538,37.123662],[139.865003,37.123904],[139.864877,37.123938],[139.864286,37.124039],[139.863977,37.124101],[139.863787,37.124174],[139.863541,37.12427],[139.863126,37.124467],[139.862809,37.124692],[139.862676,37.124861],[139.862423,37.12534],[139.86231,37.125503],[139.862177,37.125616],[139.862092,37.125672],[139.86198,37.125701],[139.86172,37.12574],[139.861417,37.12574],[139.861136,37.125684],[139.860813,37.125684],[139.860461,37.12574],[139.860018,37.125734],[139.85987,37.125701],[139.859828,37.125678]]}},{"type":"Feature","properties":{"id":134792224,"highway":"secondary"},"geometry":{"type":"LineString","coordinates":[[139.854154,37.125547],[139.854215,37.125526],[139.854298,37.125508],[139.854386,37.125508],[139.854576,37.125519],[139.854758,37.125553],[139.854905,37.125609],[139.854983,37.125637],[139.855193,37.125705],[139.855327,37.125727],[139.855791,37.125739],[139.855953,37.125761],[139.856325,37.125851],[139.856501,37.125891],[139.856775,37.125936],[139.857029,37.12593],[139.857134,37.125897],[139.857268,37.125806],[139.857394,37.125683],[139.857599,37.125436],[139.857698,37.125357],[139.857803,37.125334],[139.857979,37.125323],[139.858281,37.125351],[139.858457,37.125379],[139.858731,37.125424],[139.858984,37.125464],[139.859266,37.125486],[139.85942,37.125509],[139.859502,37.125524]]}},{"type":"Feature","properties":{"id":134792260,"highway":"secondary"},"geometry":{"type":"LineString","coordinates":[[139.876071,37.120367],[139.875923,37.120502],[139.875824,37.120575],[139.875754,37.120603],[139.875536,37.120609],[139.875388,37.120592],[139.875114,37.120592],[139.875002,37.120603],[139.874868,37.120648],[139.874805,37.120682],[139.874714,37.120766],[139.874608,37.12093],[139.87446,37.12111],[139.874376,37.121172],[139.874285,37.1212],[139.874088,37.121206],[139.873884,37.121161],[139.873729,37.121138],[139.873497,37.121133],[139.873384,37.121155],[139.87304,37.12133],[139.872864,37.121398],[139.872752,37.121426],[139.872604,37.121426],[139.872449,37.121392],[139.872196,37.121307],[139.871887,37.121217],[139.871704,37.121183],[139.871282,37.120958],[139.871155,37.120924],[139.871109,37.120913],[139.871078,37.120907],[139.87072,37.120862],[139.870375,37.120874],[139.87015,37.12093],[139.869938,37.121048],[139.86982,37.121138],[139.869544,37.121448],[139.869432,37.121583],[139.869412,37.121623],[139.86932,37.121724],[139.869145,37.121865],[139.868848,37.122016],[139.868595,37.122106],[139.868322,37.122168],[139.868096,37.122241],[139.867955,37.122303],[139.86773,37.122445],[139.867512,37.12254],[139.867428,37.122607],[139.867245,37.122821],[139.867189,37.122855],[139.867077,37.1229],[139.866916,37.122928],[139.866768,37.12298],[139.866736,37.123005],[139.866691,37.123053]]}},{"type":"Feature","properties":{"id":134792265,"highway":"secondary"},"geometry":{"type":"LineString","coordinates":[[139.902512,37.114206],[139.902384,37.114097],[139.902274,37.114044],[139.902189,37.114009],[139.902078,37.113997],[139.901924,37.113986],[139.901734,37.114019],[139.901318,37.114121],[139.90124,37.114138],[139.901124,37.114175],[139.90098,37.114216],[139.900854,37.114262],[139.900608,37.114374],[139.900179,37.11456],[139.899989,37.114667],[139.899858,37.114777],[139.899751,37.114887],[139.899596,37.115084],[139.899421,37.115376],[139.899378,37.115505],[139.899357,37.115607],[139.899344,37.11587],[139.899336,37.115978],[139.899299,37.116113],[139.899252,37.116222],[139.899196,37.1163],[139.899069,37.11639],[139.898619,37.116637],[139.898408,37.116712],[139.898274,37.116733],[139.89812,37.116728],[139.897951,37.1167],[139.897607,37.11657],[139.897501,37.116523],[139.897374,37.116452],[139.897156,37.116345],[139.896763,37.11612],[139.896517,37.116018],[139.896383,37.11599],[139.896102,37.11599],[139.895673,37.116023],[139.895102,37.116097],[139.894752,37.116158],[139.894624,37.116187],[139.894405,37.11625],[139.894287,37.116288],[139.893781,37.116453],[139.893581,37.116518],[139.893471,37.116554],[139.893185,37.116635],[139.893021,37.116667],[139.892817,37.116695],[139.892627,37.116696],[139.892502,37.116684],[139.892298,37.116638],[139.892123,37.116593],[139.891961,37.116554],[139.891739,37.116529],[139.891497,37.11652],[139.890674,37.116537],[139.889964,37.116588],[139.889676,37.116616],[139.889416,37.116678],[139.889176,37.116768],[139.888958,37.116892],[139.888499,37.117222],[139.888326,37.117337],[139.888031,37.1175],[139.887939,37.117539],[139.887743,37.117664]]}},{"type":"Feature","properties":{"id":134792330,"highway":"secondary"},"geometry":{"type":"LineString","coordinates":[[139.85389,37.125633],[139.853641,37.125699],[139.853423,37.125772],[139.853303,37.125851],[139.853204,37.125975],[139.853191,37.125999],[139.853162,37.126275],[139.853113,37.126432],[139.853043,37.12655],[139.852944,37.126664],[139.85279,37.126787],[139.852607,37.126877],[139.852009,37.127114],[139.851861,37.127192],[139.851693,37.127255],[139.851581,37.127287],[139.851536,37.127297],[139.85148,37.127307],[139.851415,37.12731],[139.851306,37.127305],[139.851215,37.1273],[139.851158,37.127289],[139.850983,37.127255],[139.850673,37.127255],[139.850582,37.127265],[139.850434,37.1273],[139.850337,37.127339],[139.850279,37.127379],[139.85023,37.127445],[139.850223,37.127463],[139.850225,37.12752],[139.850215,37.127557],[139.8502,37.127574],[139.850181,37.127575],[139.850132,37.12757],[139.850054,37.127535],[139.849879,37.12749],[139.849639,37.127429],[139.849541,37.127418],[139.849295,37.127418],[139.849126,37.127469],[139.849021,37.127536],[139.848746,37.127706],[139.848402,37.127852],[139.84817,37.127914],[139.848022,37.127942],[139.847664,37.127953],[139.847354,37.127874],[139.846989,37.1277],[139.846931,37.127667],[139.846883,37.127647],[139.846844,37.127636],[139.846824,37.127637],[139.84681,37.127642]]}},{"type":"Feature","properties":{"id":425357810,"highway":"secondary"},"geometry":{"type":"LineString","coordinates":[[139.887425,37.117909],[139.887295,37.118022],[139.887122,37.118153],[139.886736,37.118441],[139.886565,37.118545],[139.886384,37.118593],[139.886165,37.118598],[139.886012,37.11857],[139.885892,37.118519],[139.885738,37.118429],[139.885323,37.118114],[139.885063,37.117951],[139.884881,37.11786],[139.884684,37.11781],[139.884515,37.117776],[139.884323,37.117755],[139.884184,37.117753],[139.883903,37.117781],[139.883749,37.117821],[139.883418,37.117928],[139.883125,37.118052],[139.882982,37.118125],[139.882574,37.118368],[139.882321,37.118542],[139.882124,37.118642],[139.881878,37.118727],[139.881731,37.118755],[139.881421,37.118777],[139.881049,37.118817],[139.880739,37.118856],[139.879972,37.118969],[139.879685,37.119042],[139.879502,37.119115],[139.879319,37.119211],[139.879129,37.119347],[139.879002,37.119482],[139.878917,37.119639],[139.878865,37.119754],[139.878812,37.119927],[139.87877,37.120147],[139.878714,37.120361],[139.878636,37.120541],[139.878574,37.120637],[139.878481,37.120727],[139.878467,37.120734],[139.878404,37.120767],[139.878305,37.120789],[139.878144,37.120801],[139.878045,37.120789],[139.877905,37.120739],[139.877799,37.12066],[139.877539,37.120479],[139.87737,37.120412],[139.877173,37.120356],[139.876935,37.120333],[139.876443,37.120322]]}},{"type":"Feature","properties":{"id":425357811,"highway":"secondary"},"geometry":{"type":"LineString","coordinates":[[139.876443,37.120322],[139.876281,37.120333],[139.876071,37.120367]]}}]}