{"type":"FeatureCollection","features":[{"type":"Feature","properties":{"id":68237560,"highway":"unclassified"},"geometry":{"type":"LineString","coordinates":[[139.901672,35.420088],[139.901685,35.42019],[139.90174,35.420356],[139.901926,35.42102],[139.901403,35.421028],[139.900916,35.421035],[139.900745,35.421062],[139.900619,35.421164],[139.900179,35.421479],[139.900085,35.421515],[139.89962,35.421529],[139.89958,35.421545],[139.899513,35.421548]]}},{"type":"Feature","properties":{"id":136825267,"highway":"unclassified"},"geometry":{"type":"LineString","coordinates":[[139.899743,35.422656],[139.899819,35.422641]]}},{"type":"Feature","properties":{"id":136827307,"highway":"unclassified"},"geometry":{"type":"LineString","coordinates":[[139.899513,35.421548],[139.8993,35.421575]]}},{"type":"Feature","properties":{"id":136827471,"highway":"unclassified"},"geometry":{"type":"LineString","coordinates":[[139.899462,35.422695],[139.899743,35.422656]]}},{"type":"Feature","properties":{"id":136836528,"highway":"service"},"geometry":{"type":"LineString","coordinates":[[139.900558,35.422141],[139.900366,35.422168],[139.900244,35.422202],[139.900171,35.422316],[139.900176,35.422475],[139.900058,35.422493],[139.89995,35.422515],[139.899819,35.422641]]}},{"type":"Feature","properties":{"id":203059415,"highway":"service"},"geometry":{"type":"LineString","coordinates":[[139.874764,35.46461],[139.874824,35.464513],[139.874863,35.464478],[139.875158,35.464282],[139.875296,35.464191],[139.875328,35.464171],[139.875363,35.464154]]}},{"type":"Feature","properties":{"id":310778584,"highway":"service"},"geometry":{"type":"LineString","coordinates":[[139.8993,35.421575],[139.899071,35.421554],[139.898972,35.421552],[139.898992,35.422395]]}},{"type":"Feature","properties":{"id":310778585,"highway":"service"},"geometry":{"type":"LineString","coordinates":[[139.898972,35.421552],[139.898214,35.421544],[139.898082,35.42143],[139.898067,35.421256],[139.898136,35.421151],[139.898963,35.421115],[139.898972,35.421552]]}},{"type":"Feature","properties":{"id":310778595,"highway":"service"},"geometry":{"type":"LineString","coordinates":[[139.899462,35.422695],[139.899317,35.422669],[139.899172,35.422598],[139.898992,35.422395],[139.898475,35.422374],[139.898006,35.422376],[139.897815,35.422377],[139.897798,35.422663],[139.897999,35.422654],[139.898006,35.422376]]}},{"type":"Feature","properties":{"id":370959026,"highway":"service"},"geometry":{"type":"LineString","coordinates":[[139.899669,35.421959],[139.899837,35.421876],[139.899936,35.421835],[139.900062,35.421755],[139.900108,35.421714]]}},{"type":"Feature","properties":{"id":669746689,"highway":"tertiary"},"geometry":{"type":"LineString","coordinates":[[139.919538,35.437948],[139.919056,35.437747],[139.918615,35.437559],[139.918373,35.437484],[139.918223,35.437439],[139.918131,35.437421],[139.91744,35.437266],[139.917088,35.437173],[139.916662,35.437052],[139.915972,35.436871],[139.915217,35.436683],[139.914683,35.43654],[139.914349,35.436423],[139.914027,35.436265],[139.913561,35.435983],[139.912671,35.435451],[139.912344,35.435255],[139.912261,35.435202],[139.911396,35.434648],[139.911146,35.434477],[139.910634,35.434125],[139.910143,35.43373],[139.909911,35.433546],[139.909356,35.433112],[139.909072,35.43294],[139.908787,35.432769],[139.908451,35.432591],[139.908075,35.43239],[139.9076,35.43214],[139.90673,35.431683],[139.906208,35.431429],[139.905633,35.431151],[139.90495,35.430843],[139.904692,35.430703],[139.904516,35.430603],[139.904242,35.430396],[139.904144,35.4303],[139.903985,35.43012],[139.903859,35.429959],[139.903701,35.429786],[139.903597,35.429637],[139.90353,35.429529],[139.903448,35.429326],[139.90341,35.429167],[139.903374,35.428963],[139.903237,35.427943],[139.903154,35.427281],[139.903105,35.427],[139.903069,35.426868],[139.902993,35.426747],[139.902884,35.42663],[139.902667,35.426431],[139.902415,35.426201],[139.902254,35.426038],[139.902163,35.425903],[139.902112,35.425765],[139.902099,35.425655],[139.902049,35.425372],[139.902019,35.425278],[139.901946,35.42516],[139.901833,35.425028],[139.901721,35.424932],[139.901558,35.424782],[139.901275,35.424557],[139.900881,35.424208],[139.900547,35.423873],[139.900261,35.423563],[139.900079,35.423318],[139.900001,35.423165],[139.899936,35.423014],[139.899897,35.422924],[139.899819,35.422641],[139.899707,35.422141],[139.899669,35.421959],[139.89958,35.421545]]}},{"type":"Feature","properties":{"id":761796511,"highway":"service"},"geometry":{"type":"LineString","coordinates":[[139.87576,35.463862],[139.875847,35.463753],[139.875997,35.463656],[139.876007,35.463642],[139.876007,35.463621],[139.875994,35.463604],[139.875974,35.463585],[139.875877,35.463486]]}},{"type":"Feature","properties":{"id":761796512,"highway":"service"},"geometry":{"type":"LineString","coordinates":[[139.873826,35.464514],[139.874681,35.463932],[139.87474,35.463936],[139.874942,35.464119],[139.87493,35.464168],[139.874068,35.464745]]}},{"type":"Feature","properties":{"id":761796513,"highway":"service"},"geometry":{"type":"LineString","coordinates":[[139.874068,35.464745],[139.874022,35.464747],[139.873821,35.464551],[139.873826,35.464514]]}},{"type":"Feature","properties":{"id":761796516,"highway":"service"},"geometry":{"type":"LineString","coordinates":[[139.875091,35.463494],[139.874858,35.463649],[139.874834,35.463684],[139.874831,35.463726],[139.874849,35.463764],[139.874969,35.463879]]}},{"type":"Feature","properties":{"id":761796517,"highway":"service"},"geometry":{"type":"LineString","coordinates":[[139.874265,35.464857],[139.874322,35.464851],[139.874362,35.464838],[139.874692,35.464597],[139.874716,35.464568],[139.874757,35.464501],[139.874792,35.464465],[139.875121,35.464252],[139.875245,35.464169],[139.875273,35.464158],[139.875303,35.46415]]}},{"type":"Feature","properties":{"id":761796518,"highway":"service"},"geometry":{"type":"LineString","coordinates":[[139.875621,35.463151],[139.875592,35.46319],[139.87559,35.463223],[139.875599,35.463261],[139.875606,35.463299],[139.875602,35.463343],[139.875587,35.463379]]}},{"type":"Feature","properties":{"id":761796520,"highway":"service"},"geometry":{"type":"LineString","coordinates":[[139.87382,35.464566],[139.874671,35.46399],[139.874732,35.463995],[139.874927,35.464184],[139.874918,35.464235],[139.874065,35.464808]]}},{"type":"Feature","properties":{"id":761796521,"highway":"service"},"geometry":{"type":"LineString","coordinates":[[139.874065,35.464808],[139.874023,35.464807],[139.873815,35.464605],[139.87382,35.464566]]}},{"type":"Feature","properties":{"id":761796522,"highway":"service"},"geometry":{"type":"LineString","coordinates":[[139.87444,35.46389],[139.87435,35.463948],[139.873788,35.464317],[139.873763,35.464349],[139.873756,35.464384],[139.87376,35.464423],[139.873783,35.464456],[139.873943,35.464602]]}},{"type":"Feature","properties":{"id":761796523,"highway":"service"},"geometry":{"type":"LineString","coordinates":[[139.875167,35.464068],[139.875169,35.464096],[139.87516,35.464118],[139.875142,35.464137],[139.874953,35.464264],[139.874209,35.46477],[139.874193,35.464791],[139.874189,35.464818],[139.874195,35.464841]]}},{"type":"Feature","properties":{"id":761796524,"highway":"service"},"geometry":{"type":"LineString","coordinates":[[139.874008,35.464666],[139.874051,35.464672],[139.874095,35.464666],[139.874723,35.464247],[139.874743,35.464217],[139.874737,35.464183],[139.874658,35.464111],[139.874652,35.464106],[139.87449,35.463961],[139.874443,35.463943],[139.874399,35.463941],[139.87435,35.463948]]}},{"type":"Feature","properties":{"id":761800113,"highway":"service"},"geometry":{"type":"LineString","coordinates":[[139.874652,35.464106],[139.874605,35.464101],[139.874562,35.464114],[139.874417,35.464213]]}},{"type":"Feature","properties":{"id":768984036,"highway":"service"},"geometry":{"type":"LineString","coordinates":[[139.875122,35.464025],[139.87516,35.46403],[139.875191,35.464028],[139.87521,35.464022],[139.875224,35.464017],[139.875858,35.463591],[139.875882,35.463562],[139.875887,35.463529],[139.875877,35.463486]]}},{"type":"Feature","properties":{"id":768985694,"highway":"service"},"geometry":{"type":"LineString","coordinates":[[139.875877,35.463486],[139.875752,35.463367],[139.875699,35.463351],[139.875642,35.463354],[139.875587,35.463379],[139.875506,35.463436],[139.874981,35.463792],[139.874967,35.46382],[139.874964,35.463847]]}},{"type":"Feature","properties":{"id":829195158,"highway":"service"},"geometry":{"type":"LineString","coordinates":[[139.874964,35.463847],[139.874969,35.463879],[139.874991,35.4639],[139.875122,35.464025],[139.875167,35.464068]]}},{"type":"Feature","properties":{"id":829195159,"highway":"service"},"geometry":{"type":"LineString","coordinates":[[139.875621,35.463151],[139.87527,35.463375],[139.875091,35.463494]]}},{"type":"Feature","properties":{"id":829195169,"highway":"service"},"geometry":{"type":"LineString","coordinates":[[139.873943,35.464602],[139.874008,35.464666],[139.87413,35.464788]]}},{"type":"Feature","properties":{"id":829195170,"highway":"service"},"geometry":{"type":"LineString","coordinates":[[139.874417,35.464213],[139.873943,35.464534],[139.873933,35.464567],[139.873943,35.464602]]}},{"type":"Feature","properties":{"id":829195193,"highway":"service"},"geometry":{"type":"LineString","coordinates":[[139.87444,35.46389],[139.874399,35.463941],[139.874393,35.463977],[139.874398,35.464029],[139.874417,35.464213]]}},{"type":"Feature","properties":{"id":829195194,"highway":"service"},"geometry":{"type":"LineString","coordinates":[[139.875091,35.463494],[139.875015,35.463654],[139.874962,35.463773],[139.874964,35.463847]]}},{"type":"Feature","properties":{"id":870450062,"highway":"service"},"geometry":{"type":"LineString","coordinates":[[139.876199,35.463309],[139.876818,35.462951],[139.877414,35.462573]]}},{"type":"Feature","properties":{"id":870450063,"highway":"service"},"geometry":{"type":"LineString","coordinates":[[139.877414,35.462573],[139.877508,35.462519],[139.877614,35.462453],[139.87774,35.462388],[139.87777,35.462373],[139.877809,35.462367],[139.877851,35.462364],[139.877973,35.46236]]}},{"type":"Feature","properties":{"id":870450064,"highway":"service"},"geometry":{"type":"LineString","coordinates":[[139.877414,35.462573],[139.877375,35.462533],[139.87734,35.462497]]}},{"type":"Feature","properties":{"id":971165220,"highway":"service"},"geometry":{"type":"LineString","coordinates":[[139.87413,35.464788],[139.87416,35.464818],[139.874176,35.46483],[139.874195,35.464841],[139.874217,35.464849],[139.874243,35.464853],[139.874265,35.464857]]}},{"type":"Feature","properties":{"id":971268514,"highway":"service"},"geometry":{"type":"LineString","coordinates":[[139.875167,35.464068],[139.875225,35.464119],[139.875255,35.464135],[139.875287,35.464146],[139.875303,35.46415],[139.875319,35.464152],[139.875363,35.464154]]}},{"type":"Feature","properties":{"id":1127992278,"highway":"service"},"geometry":{"type":"LineString","coordinates":[[139.873081,35.464779],[139.873586,35.464445],[139.87376,35.464423]]}}]}