{"type":"FeatureCollection","features":[{"type":"Feature","properties":{"id":26805328,"highway":"unclassified"},"geometry":{"type":"LineString","coordinates":[[139.976487,37.128218],[139.976367,37.128174],[139.976305,37.128139],[139.97627,37.128093],[139.976265,37.128041],[139.976277,37.127973],[139.976282,37.127905],[139.976283,37.127856],[139.976262,37.127818],[139.976203,37.127779],[139.976126,37.12775],[139.97605,37.127739],[139.975975,37.127743],[139.975887,37.127764],[139.975817,37.127832]]}},{"type":"Feature","properties":{"id":134775736,"highway":"unclassified"},"geometry":{"type":"LineString","coordinates":[[139.931613,37.106813],[139.931608,37.106558],[139.931581,37.106314],[139.93162,37.105692],[139.93168,37.104634],[139.931762,37.103033],[139.93179,37.102741],[139.931777,37.102664],[139.931735,37.102568],[139.931665,37.10245],[139.93155,37.102282]]}},{"type":"Feature","properties":{"id":134780612,"highway":"service"},"geometry":{"type":"LineString","coordinates":[[139.931227,37.102323],[139.930522,37.103076],[139.930131,37.103493],[139.929868,37.103799],[139.929576,37.104135]]}},{"type":"Feature","properties":{"id":134780791,"highway":"unclassified"},"geometry":{"type":"LineString","coordinates":[[139.93155,37.102282],[139.931513,37.102129],[139.931478,37.101995],[139.931437,37.101906],[139.931385,37.101858],[139.931279,37.101821],[139.931147,37.101837],[139.931005,37.101847],[139.93071,37.101971],[139.93052,37.102072],[139.930343,37.102185],[139.930005,37.102348],[139.92962,37.102511],[139.929444,37.102635],[139.929317,37.102787],[139.929261,37.102866],[139.929182,37.102925],[139.929085,37.10296],[139.929007,37.102963],[139.928968,37.102921],[139.928959,37.102855],[139.928966,37.102753],[139.929003,37.102671],[139.929099,37.102583],[139.929322,37.102442],[139.929434,37.102379]]}},{"type":"Feature","properties":{"id":134783993,"highway":"service"},"geometry":{"type":"LineString","coordinates":[[139.93155,37.102282],[139.931306,37.102306],[139.931227,37.102323]]}},{"type":"Feature","properties":{"id":134784585,"highway":"unclassified"},"geometry":{"type":"LineString","coordinates":[[139.905249,37.126533],[139.905407,37.126703]]}},{"type":"Feature","properties":{"id":134785843,"highway":"service"},"geometry":{"type":"LineString","coordinates":[[139.928466,37.108109],[139.928406,37.108125],[139.927988,37.108118],[139.926033,37.107891],[139.925599,37.107793],[139.925222,37.107613],[139.92492,37.107379],[139.924693,37.107082],[139.924558,37.106729],[139.92453,37.106373],[139.924621,37.106028],[139.924677,37.105873],[139.925018,37.105015],[139.92523,37.104667],[139.925532,37.104376],[139.925866,37.104174],[139.925998,37.104123],[139.926331,37.104018],[139.92682,37.103966],[139.928802,37.103947],[139.929127,37.103977],[139.929468,37.104071],[139.929576,37.104135]]}},{"type":"Feature","properties":{"id":134787256,"highway":"unclassified"},"geometry":{"type":"LineString","coordinates":[[139.929434,37.102379],[139.929548,37.10231],[139.929731,37.102192],[139.930019,37.10204],[139.93023,37.101882],[139.930447,37.101657],[139.930553,37.101477],[139.930609,37.101337],[139.930658,37.101089],[139.930652,37.100773],[139.93061,37.100632],[139.930469,37.10043],[139.93028,37.100261],[139.930132,37.100143],[139.930062,37.100047],[139.930058,37.09991],[139.930067,37.099775],[139.930099,37.099617],[139.930148,37.099464],[139.930244,37.099282],[139.930343,37.099145],[139.930519,37.098954],[139.930591,37.098915],[139.930671,37.098905],[139.930807,37.098915],[139.931243,37.09901],[139.931349,37.099022],[139.931539,37.09903],[139.93162,37.099032],[139.931716,37.099004],[139.931938,37.09892],[139.932079,37.098898],[139.932376,37.0989],[139.9325,37.098915],[139.932641,37.098915],[139.932746,37.09889],[139.932777,37.098864]]}},{"type":"Feature","properties":{"id":134788636,"highway":"unclassified"},"geometry":{"type":"LineString","coordinates":[[139.903933,37.114994],[139.903724,37.114904],[139.903224,37.114622],[139.903013,37.114549],[139.902894,37.114543],[139.902832,37.114541],[139.902794,37.114543],[139.902756,37.114552]]}},{"type":"Feature","properties":{"id":134789170,"highway":"residential"},"geometry":{"type":"LineString","coordinates":[[139.904624,37.101896],[139.904737,37.101915],[139.904977,37.101956],[139.90519,37.102017],[139.905366,37.102065],[139.905514,37.102113],[139.905699,37.102199],[139.905857,37.102263],[139.906015,37.102318],[139.906268,37.102411],[139.906643,37.102561],[139.906817,37.102623],[139.906919,37.102639],[139.90705,37.102641],[139.907134,37.10263],[139.907223,37.102606],[139.907393,37.102558],[139.90801,37.102404],[139.908069,37.102389],[139.908094,37.102359],[139.908103,37.102319],[139.908094,37.102291],[139.908064,37.102265],[139.908007,37.10225],[139.907959,37.102256],[139.907845,37.102282],[139.907553,37.102363],[139.907239,37.102443],[139.907169,37.102449],[139.907086,37.102443],[139.907009,37.102421],[139.906926,37.102386],[139.906865,37.102337],[139.906757,37.102209],[139.906549,37.101948],[139.906348,37.101713],[139.906271,37.101612],[139.906193,37.101492],[139.906147,37.101406],[139.906115,37.101331],[139.906099,37.101247],[139.906095,37.101166],[139.906106,37.101063],[139.906127,37.100989],[139.906152,37.100932],[139.906229,37.100791],[139.906253,37.100739],[139.906268,37.100674],[139.906268,37.100598],[139.90625,37.100466],[139.906248,37.100301],[139.90625,37.100166],[139.906271,37.100042],[139.906312,37.099851],[139.906394,37.099612],[139.906465,37.099441],[139.906513,37.099369],[139.906581,37.099293],[139.906691,37.099221],[139.906833,37.099159],[139.907077,37.099078],[139.907294,37.098976],[139.907361,37.098928],[139.907395,37.098885],[139.907404,37.098841],[139.907393,37.098793],[139.907374,37.098752],[139.907333,37.098702],[139.907246,37.098633],[139.907153,37.098574],[139.907073,37.098492],[139.907034,37.098433],[139.907016,37.098386],[139.907016,37.098314],[139.907021,37.098241]]}},{"type":"Feature","properties":{"id":134789182,"highway":"service"},"geometry":{"type":"LineString","coordinates":[[139.931227,37.102323],[139.931145,37.102321],[139.93106,37.10234],[139.930977,37.102359],[139.930057,37.102772],[139.929949,37.102823],[139.929855,37.102885],[139.929772,37.102963],[139.929592,37.103185],[139.92951,37.103287],[139.929446,37.103356],[139.929363,37.103424],[139.929275,37.103468],[139.929165,37.103507],[139.929058,37.103527],[139.928944,37.103529],[139.928615,37.103533],[139.926856,37.103547],[139.92669,37.103549],[139.926514,37.103559],[139.926344,37.103573],[139.926226,37.103594],[139.926097,37.103629],[139.925966,37.103673],[139.925839,37.103733],[139.92573,37.103791],[139.925615,37.103871],[139.924989,37.104318],[139.92485,37.104365],[139.924779,37.104444],[139.924725,37.104513],[139.924633,37.104625],[139.924546,37.104748],[139.924501,37.104822],[139.924449,37.104912],[139.92442,37.10497],[139.924398,37.105028],[139.924369,37.105098],[139.924342,37.10521],[139.924311,37.105374],[139.924297,37.105445],[139.924266,37.105678],[139.924249,37.105761],[139.924212,37.106002],[139.924199,37.106067],[139.924193,37.106148],[139.924193,37.106213],[139.924188,37.10628],[139.924181,37.106439]]}},{"type":"Feature","properties":{"id":134790356,"highway":"residential"},"geometry":{"type":"LineString","coordinates":[[139.907021,37.098241],[139.907025,37.098196],[139.907066,37.098054],[139.907107,37.097943],[139.907169,37.097828],[139.907246,37.097725],[139.907326,37.097636],[139.907429,37.097556],[139.907468,37.097506],[139.907486,37.097465],[139.907489,37.097398],[139.907468,37.097319],[139.907434,37.097263],[139.907372,37.097206],[139.907285,37.09715],[139.907189,37.097108],[139.907057,37.097065],[139.906931,37.097028],[139.906883,37.097],[139.906824,37.096944],[139.906803,37.096896],[139.906801,37.096844],[139.90681,37.096813],[139.906835,37.096776],[139.906872,37.096763],[139.906915,37.096763],[139.907016,37.096792],[139.907288,37.096916],[139.907598,37.097067],[139.907763,37.097161],[139.90787,37.097239],[139.907918,37.097298],[139.907941,37.097345],[139.907939,37.097378],[139.907914,37.09743],[139.907868,37.097495],[139.907799,37.097578],[139.907635,37.09774],[139.907536,37.097845],[139.907491,37.097916],[139.907466,37.097977],[139.90745,37.098112],[139.907441,37.098221],[139.907448,37.098283],[139.907475,37.098334],[139.907534,37.098403],[139.90761,37.098468],[139.907703,37.098531],[139.907856,37.098622],[139.907943,37.098672],[139.908119,37.098731],[139.908195,37.098768],[139.908234,37.098804],[139.908238,37.098826],[139.908234,37.098867],[139.908199,37.098939],[139.908167,37.099032],[139.908144,37.099106],[139.908135,37.099188],[139.908126,37.099365],[139.90811,37.099438],[139.908094,37.099484],[139.908062,37.099519],[139.907941,37.099603],[139.907749,37.099707],[139.90747,37.099849],[139.907406,37.099911],[139.907381,37.099955],[139.907386,37.099996],[139.907404,37.100029],[139.907434,37.100053],[139.907475,37.100074],[139.907532,37.100081],[139.907607,37.100079],[139.907676,37.100066],[139.907811,37.10002],[139.907959,37.099963],[139.908051,37.099898],[139.908165,37.099803],[139.908266,37.099694],[139.9084,37.09953],[139.908448,37.099453],[139.908478,37.099364],[139.908489,37.099284],[139.908499,37.099206],[139.908512,37.099123],[139.908521,37.099085],[139.908554,37.099043],[139.908597,37.098971],[139.908613,37.09892],[139.908604,37.098874],[139.908581,37.098798],[139.908517,37.0987],[139.908398,37.098555],[139.908218,37.098355],[139.908167,37.098271],[139.908147,37.098205],[139.908142,37.098142],[139.908144,37.098116]]}},{"type":"Feature","properties":{"id":134792149,"highway":"secondary"},"geometry":{"type":"LineString","coordinates":[[139.902733,37.114465],[139.902512,37.114206]]}},{"type":"Feature","properties":{"id":134792161,"highway":"secondary"},"geometry":{"type":"LineString","coordinates":[[139.904213,37.102464],[139.904179,37.102507],[139.904117,37.102559],[139.904033,37.102617],[139.903879,37.102702],[139.903794,37.102792],[139.903696,37.102934],[139.903668,37.103012],[139.903661,37.103154],[139.903682,37.103282],[139.903682,37.103412],[139.903663,37.103494],[139.903625,37.103779],[139.903632,37.103852],[139.903654,37.103914],[139.903696,37.103975],[139.903928,37.104139],[139.903963,37.104184],[139.90404,37.104359],[139.904131,37.104494],[139.904216,37.104565],[139.904278,37.104599],[139.904413,37.104629],[139.904617,37.104787],[139.904715,37.104827],[139.904877,37.104855],[139.904975,37.104889],[139.905046,37.104928],[139.905088,37.104973],[139.905172,37.105119],[139.905327,37.105373],[139.905657,37.1057],[139.905833,37.10583],[139.905868,37.105858],[139.905885,37.105903],[139.905889,37.106156],[139.905897,37.106216],[139.905945,37.106325],[139.906016,37.10646],[139.906121,37.106618],[139.906234,37.106821],[139.906325,37.10704],[139.906515,37.10739],[139.906641,37.107863],[139.906663,37.108004],[139.906726,37.10828],[139.906768,37.108421],[139.906874,37.108697],[139.906979,37.109034],[139.907028,37.109316],[139.907056,37.109541],[139.907091,37.109919],[139.907141,37.110054],[139.907258,37.110308],[139.907287,37.110369],[139.907322,37.110451],[139.907343,37.110522],[139.90735,37.110633],[139.907315,37.110737],[139.907245,37.110864],[139.907153,37.111013],[139.907105,37.111067],[139.906817,37.111247],[139.906754,37.111298],[139.906585,37.111472],[139.906297,37.111924],[139.906142,37.11224],[139.906103,37.112351],[139.906086,37.112437],[139.906072,37.112561],[139.90617,37.112899],[139.90619,37.112966],[139.906199,37.112994],[139.9062,37.113026],[139.906178,37.113073],[139.906053,37.113334],[139.905629,37.113901],[139.905566,37.114013],[139.905531,37.114104],[139.905516,37.114189],[139.905495,37.114481],[139.905486,37.114571],[139.90546,37.114662],[139.905437,37.114765],[139.905404,37.114831],[139.90532,37.114927],[139.905235,37.114994],[139.905088,37.115101],[139.904975,37.115157],[139.904755,37.115205],[139.904419,37.115222],[139.904227,37.115171],[139.904111,37.115193],[139.904026,37.11527],[139.903836,37.11531],[139.903598,37.115312],[139.90305,37.115205],[139.902677,37.114858],[139.902652,37.114833],[139.902655,37.114796],[139.902669,37.114753],[139.902731,37.114664],[139.902752,37.114615],[139.902756,37.114552],[139.902733,37.114465]]}},{"type":"Feature","properties":{"id":134792166,"highway":"secondary"},"geometry":{"type":"LineString","coordinates":[[139.90459,37.101972],[139.904213,37.102464]]}},{"type":"Feature","properties":{"id":134792212,"highway":"secondary"},"geometry":{"type":"LineString","coordinates":[[139.904624,37.101896],[139.904609,37.101931],[139.90459,37.101972]]}},{"type":"Feature","properties":{"id":134792265,"highway":"secondary"},"geometry":{"type":"LineString","coordinates":[[139.902512,37.114206],[139.902384,37.114097],[139.902274,37.114044],[139.902189,37.114009],[139.902078,37.113997],[139.901924,37.113986],[139.901734,37.114019],[139.901318,37.114121],[139.90124,37.114138],[139.901124,37.114175],[139.90098,37.114216],[139.900854,37.114262],[139.900608,37.114374],[139.900179,37.11456],[139.899989,37.114667],[139.899858,37.114777],[139.899751,37.114887],[139.899596,37.115084],[139.899421,37.115376],[139.899378,37.115505],[139.899357,37.115607],[139.899344,37.11587],[139.899336,37.115978],[139.899299,37.116113],[139.899252,37.116222],[139.899196,37.1163],[139.899069,37.11639],[139.898619,37.116637],[139.898408,37.116712],[139.898274,37.116733],[139.89812,37.116728],[139.897951,37.1167],[139.897607,37.11657],[139.897501,37.116523],[139.897374,37.116452],[139.897156,37.116345],[139.896763,37.11612],[139.896517,37.116018],[139.896383,37.11599],[139.896102,37.11599],[139.895673,37.116023],[139.895102,37.116097],[139.894752,37.116158],[139.894624,37.116187],[139.894405,37.11625],[139.894287,37.116288],[139.893781,37.116453],[139.893581,37.116518],[139.893471,37.116554],[139.893185,37.116635],[139.893021,37.116667],[139.892817,37.116695],[139.892627,37.116696],[139.892502,37.116684],[139.892298,37.116638],[139.892123,37.116593],[139.891961,37.116554],[139.891739,37.116529],[139.891497,37.11652],[139.890674,37.116537],[139.889964,37.116588],[139.889676,37.116616],[139.889416,37.116678],[139.889176,37.116768],[139.888958,37.116892],[139.888499,37.117222],[139.888326,37.117337],[139.888031,37.1175],[139.887939,37.117539],[139.887743,37.117664]]}},{"type":"Feature","properties":{"id":134792314,"highway":"secondary"},"geometry":{"type":"LineString","coordinates":[[139.904245,37.101228],[139.904293,37.101293],[139.904523,37.101639],[139.904631,37.10184],[139.904624,37.101896]]}},{"type":"Feature","properties":{"id":134792333,"highway":"secondary"},"geometry":{"type":"LineString","coordinates":[[139.903942,37.100531],[139.903914,37.100692],[139.903921,37.100833],[139.903942,37.100884],[139.904033,37.100996],[139.904245,37.101228]]}},{"type":"Feature","properties":{"id":134792353,"highway":"secondary"},"geometry":{"type":"LineString","coordinates":[[139.904289,37.09921],[139.90423,37.099458],[139.904181,37.099616],[139.904083,37.09996],[139.904033,37.100202],[139.903956,37.10045],[139.903942,37.100531]]}},{"type":"Feature","properties":{"id":198532041,"highway":"unclassified"},"geometry":{"type":"LineString","coordinates":[[139.975593,37.129066],[139.975652,37.129139],[139.975692,37.12916],[139.975754,37.12918],[139.975825,37.129183],[139.975893,37.129161],[139.975966,37.129111],[139.976012,37.129064],[139.976061,37.129006],[139.976085,37.128942],[139.97612,37.12886],[139.976153,37.128686],[139.976191,37.128476],[139.976227,37.128347],[139.976263,37.128307],[139.97632,37.128274],[139.976415,37.128249],[139.976487,37.128218]]}},{"type":"Feature","properties":{"id":198532044,"highway":"unclassified"},"geometry":{"type":"LineString","coordinates":[[139.996422,37.100008],[139.996291,37.100039],[139.995978,37.100157],[139.99584,37.100181],[139.995732,37.100182],[139.995182,37.100189],[139.995057,37.100209],[139.994884,37.100289],[139.994747,37.100391],[139.994622,37.100557],[139.994476,37.100817]]}},{"type":"Feature","properties":{"id":198532123,"highway":"unclassified"},"geometry":{"type":"LineString","coordinates":[[139.994476,37.100817],[139.994385,37.100841],[139.993946,37.100841],[139.993739,37.100881],[139.993402,37.101011],[139.993211,37.101047],[139.993122,37.101058],[139.992652,37.10107],[139.992448,37.101175],[139.992275,37.101254],[139.992098,37.101351],[139.99203,37.101424]]}},{"type":"Feature","properties":{"id":198532424,"highway":"unclassified"},"geometry":{"type":"LineString","coordinates":[[139.998378,37.100856],[139.998283,37.100877],[139.998226,37.100898],[139.99816,37.100957],[139.998123,37.101036],[139.99808,37.101105],[139.998012,37.101132],[139.997933,37.101132],[139.997828,37.101111],[139.997788,37.101066],[139.997849,37.101004],[139.997894,37.10094],[139.997984,37.100637],[139.997985,37.100568],[139.997978,37.100512],[139.997944,37.100458],[139.997817,37.100346],[139.997788,37.100307],[139.997781,37.100239],[139.997897,37.099707]]}},{"type":"Feature","properties":{"id":198532476,"highway":"residential"},"geometry":{"type":"LineString","coordinates":[[139.994476,37.100817],[139.994421,37.100911],[139.994266,37.101068],[139.993927,37.101328],[139.993701,37.101485],[139.993558,37.101571],[139.993504,37.101603],[139.993264,37.101754],[139.993197,37.101823],[139.993156,37.101891]]}},{"type":"Feature","properties":{"id":198532565,"highway":"unclassified"},"geometry":{"type":"LineString","coordinates":[[139.991564,37.11873],[139.992338,37.119182],[139.992456,37.119236],[139.992575,37.119277],[139.993293,37.119555],[139.99337,37.119576],[139.993476,37.119568],[139.993564,37.11953],[139.993658,37.11952],[139.99394,37.119589],[139.994033,37.119583],[139.994112,37.119611],[139.994142,37.119667],[139.99413,37.119719],[139.994084,37.11976],[139.993978,37.119806],[139.993706,37.119886],[139.993451,37.11999],[139.993234,37.120126],[139.993144,37.120145],[139.993054,37.120134],[139.992928,37.120106],[139.992803,37.120089],[139.992713,37.120091],[139.992647,37.120135],[139.992565,37.120258],[139.992582,37.120318],[139.992633,37.120358],[139.992735,37.120374],[139.992836,37.120378],[139.992908,37.120406],[139.993068,37.120593],[139.993131,37.120629],[139.993249,37.120628],[139.99386,37.12051],[139.993944,37.120506],[139.994022,37.120534],[139.994301,37.120709],[139.99442,37.120764],[139.994531,37.120782],[139.994663,37.120773],[139.994798,37.120717],[139.995069,37.120571],[139.99517,37.12054],[139.995312,37.120521],[139.995846,37.120517],[139.995952,37.120542],[139.996041,37.120585],[139.99653,37.121004],[139.997123,37.121485],[139.997209,37.121538],[139.997305,37.121547],[139.997654,37.121537],[139.997967,37.121523],[139.998212,37.121505],[139.998821,37.121374]]}},{"type":"Feature","properties":{"id":198532568,"highway":"unclassified"},"geometry":{"type":"LineString","coordinates":[[139.990884,37.103905],[139.990683,37.104276],[139.990547,37.104512],[139.990422,37.104648],[139.990279,37.104789],[139.990162,37.104955],[139.99001,37.105374],[139.989935,37.105491],[139.989808,37.105583],[139.989701,37.105667],[139.989501,37.105898],[139.989427,37.106105],[139.989414,37.106181],[139.989399,37.106287],[139.989391,37.106357]]}},{"type":"Feature","properties":{"id":198532754,"highway":"unclassified"},"geometry":{"type":"LineString","coordinates":[[139.989499,37.10635],[139.989649,37.106334],[139.989782,37.106317],[139.990174,37.106208],[139.990392,37.106104],[139.990621,37.105999],[139.9907,37.105989],[139.990741,37.106018],[139.990744,37.10607],[139.990684,37.106119],[139.990486,37.106212],[139.990201,37.106468],[139.99009,37.106598],[139.990046,37.106697],[139.990019,37.106779],[139.990018,37.106819],[139.990057,37.10684],[139.990114,37.106855]]}},{"type":"Feature","properties":{"id":198532756,"highway":"residential"},"geometry":{"type":"LineString","coordinates":[[139.991476,37.104131],[139.991386,37.10444],[139.991266,37.104724],[139.991179,37.10496],[139.991061,37.105144],[139.99092,37.105364],[139.990801,37.105545],[139.990678,37.105704],[139.990585,37.105774],[139.990476,37.105843],[139.990334,37.10594],[139.990127,37.106076],[139.989923,37.106177],[139.989713,37.106235],[139.989535,37.106271],[139.989479,37.106297],[139.989391,37.106357]]}},{"type":"Feature","properties":{"id":198532814,"highway":"service"},"geometry":{"type":"LineString","coordinates":[[139.99424,37.118369],[139.994364,37.118524],[139.994549,37.118739],[139.994628,37.11881],[139.994733,37.118868],[139.994866,37.118899],[139.995386,37.119008],[139.995606,37.11904],[139.995864,37.119078],[139.99591,37.119042],[139.995933,37.118813],[139.995812,37.118777],[139.99549,37.118724],[139.995539,37.118414],[139.995536,37.118285],[139.995487,37.118086],[139.995772,37.118121],[139.996144,37.118143],[139.996433,37.118189],[139.996656,37.118188],[139.996695,37.118148],[139.996689,37.118083],[139.996646,37.117841],[139.996552,37.117426],[139.996488,37.117407],[139.996099,37.11752],[139.995629,37.117658],[139.995295,37.117767],[139.995195,37.117824],[139.994851,37.117909],[139.99451,37.118003],[139.994249,37.118301],[139.99424,37.118369]]}},{"type":"Feature","properties":{"id":198534604,"highway":"unclassified"},"geometry":{"type":"LineString","coordinates":[[139.98473,37.119478],[139.984791,37.119437],[139.984881,37.1194],[139.985077,37.119377],[139.985244,37.119374],[139.985455,37.119395],[139.985589,37.119454],[139.985679,37.119511],[139.985731,37.119564],[139.985834,37.119706],[139.985888,37.119785],[139.985941,37.119831],[139.986111,37.119902],[139.986247,37.119955],[139.986306,37.119986],[139.986333,37.120101],[139.986373,37.120268],[139.986408,37.120309],[139.986471,37.120317],[139.986551,37.120298],[139.98693,37.120181]]}},{"type":"Feature","properties":{"id":198534642,"highway":"residential"},"geometry":{"type":"LineString","coordinates":[[139.992548,37.102085],[139.992499,37.102143],[139.992427,37.102202],[139.992311,37.102303],[139.992204,37.102401],[139.992166,37.10244],[139.992157,37.102503],[139.992194,37.102601],[139.992226,37.102663],[139.99224,37.102732],[139.99224,37.102791],[139.992233,37.102821],[139.992214,37.10286],[139.99215,37.102946],[139.991998,37.103137],[139.991787,37.103452],[139.991723,37.103563],[139.991646,37.103692],[139.991594,37.103803],[139.991538,37.103917],[139.991501,37.104023],[139.991476,37.104131]]}},{"type":"Feature","properties":{"id":198535601,"highway":"residential"},"geometry":{"type":"LineString","coordinates":[[139.990884,37.103905],[139.991239,37.104043],[139.991476,37.104131]]}},{"type":"Feature","properties":{"id":198535610,"highway":"service"},"geometry":{"type":"LineString","coordinates":[[139.995487,37.118086],[139.995456,37.118035],[139.995346,37.117926],[139.995195,37.117824]]}},{"type":"Feature","properties":{"id":198535623,"highway":"residential"},"geometry":{"type":"LineString","coordinates":[[139.984425,37.121365],[139.98446,37.121424],[139.984666,37.121576],[139.984717,37.121626],[139.98474,37.121683],[139.984869,37.122022],[139.984901,37.122121],[139.984905,37.122183],[139.984889,37.122253],[139.984858,37.122309],[139.984816,37.122371],[139.984625,37.122571],[139.984544,37.122691]]}},{"type":"Feature","properties":{"id":198536812,"highway":"service"},"geometry":{"type":"LineString","coordinates":[[139.995915,37.128039],[139.995954,37.128048],[139.996025,37.128071],[139.996109,37.12813],[139.996176,37.128193],[139.996233,37.128264],[139.996276,37.128326],[139.996344,37.128438],[139.996457,37.128632],[139.996534,37.128839],[139.996661,37.129066],[139.996704,37.12916],[139.996851,37.129465],[139.996886,37.129524],[139.996927,37.129569],[139.996979,37.129615],[139.997038,37.129639],[139.9971,37.129664],[139.997156,37.129676],[139.997268,37.129672],[139.997757,37.129637],[139.99788,37.129618],[139.998273,37.129602],[139.998376,37.129614],[139.998535,37.129657],[139.998573,37.129663],[139.998609,37.129652],[139.99864,37.129634],[139.998655,37.129612],[139.998656,37.129563],[139.998635,37.129514],[139.998587,37.129464],[139.998497,37.129425],[139.998356,37.129333],[139.998154,37.129207],[139.998101,37.12916],[139.998031,37.129097],[139.997956,37.129001],[139.997939,37.128949],[139.997938,37.128896],[139.997949,37.128849],[139.997974,37.128808],[139.998218,37.128616],[139.998264,37.128564],[139.998339,37.128426],[139.998446,37.128259],[139.998515,37.128172],[139.998545,37.128122],[139.998564,37.128068],[139.998578,37.127989],[139.998569,37.12787],[139.99856,37.127791],[139.998508,37.127605],[139.998428,37.127482],[139.998259,37.127272],[139.998244,37.127247],[139.99824,37.127208],[139.99826,37.127173],[139.998304,37.127142],[139.998346,37.127133],[139.998455,37.127129],[139.998749,37.127201],[139.99894,37.127225],[139.999121,37.127224],[139.999243,37.127217],[139.999336,37.127199],[139.999644,37.127188],[139.999939,37.127164],[140.000211,37.127148],[140.000315,37.12715],[140.000396,37.127162],[140.000472,37.127194],[140.000507,37.127212],[140.000552,37.12725],[140.000721,37.127436],[140.000812,37.127553],[140.000863,37.127642],[140.000879,37.127683]]}},{"type":"Feature","properties":{"id":198537335,"highway":"unclassified"},"geometry":{"type":"LineString","coordinates":[[139.996422,37.100008],[139.997242,37.100155],[139.99736,37.100126],[139.997897,37.099707]]}},{"type":"Feature","properties":{"id":198537696,"highway":"residential"},"geometry":{"type":"LineString","coordinates":[[139.99203,37.101424],[139.992076,37.101559],[139.992106,37.101681],[139.992328,37.101877],[139.992448,37.101994],[139.992548,37.102085]]}},{"type":"Feature","properties":{"id":198538396,"highway":"unclassified"},"geometry":{"type":"LineString","coordinates":[[139.992668,37.118215],[139.992733,37.118276],[139.992849,37.118337],[139.993282,37.118441],[139.993439,37.118459],[139.993541,37.118455],[139.993559,37.118455],[139.993816,37.118422],[139.993949,37.118405],[139.994141,37.118381],[139.99424,37.118369]]}},{"type":"Feature","properties":{"id":198538488,"highway":"unclassified"},"geometry":{"type":"LineString","coordinates":[[139.99203,37.101424],[139.99163,37.102585],[139.99158,37.102747],[139.991494,37.102877],[139.99132,37.103066],[139.991167,37.103323],[139.991007,37.103654],[139.990969,37.103731],[139.990884,37.103905]]}},{"type":"Feature","properties":{"id":198538492,"highway":"service"},"geometry":{"type":"LineString","coordinates":[[139.994312,37.129162],[139.994315,37.129027],[139.994328,37.128945],[139.994366,37.128838],[139.994399,37.128775],[139.994522,37.128647],[139.994689,37.12853],[139.994803,37.12848],[139.994967,37.128428],[139.995137,37.128369],[139.995254,37.12831],[139.995366,37.12823],[139.995447,37.128153],[139.995527,37.128086],[139.99557,37.128067],[139.995659,37.128036],[139.995777,37.128034],[139.995852,37.128035],[139.995915,37.128039]]}},{"type":"Feature","properties":{"id":198538617,"highway":"unclassified"},"geometry":{"type":"LineString","coordinates":[[139.989499,37.10635],[139.989391,37.106357],[139.989237,37.106364],[139.989079,37.106361],[139.988878,37.106322],[139.988657,37.106275],[139.988428,37.106246],[139.988206,37.106224]]}},{"type":"Feature","properties":{"id":198538758,"highway":"primary"},"geometry":{"type":"LineString","coordinates":[[140.00016,37.107124],[140.000112,37.107226],[140.000027,37.107325],[139.999836,37.107461],[139.999715,37.107543],[139.99951,37.107642],[139.999233,37.107762],[139.999103,37.107811],[139.999031,37.107857],[139.999,37.107895],[139.998996,37.107937],[139.99901,37.107983],[139.999041,37.108018],[139.999086,37.108036],[139.999133,37.108028],[139.999198,37.107999],[139.999356,37.107909],[139.999424,37.107883],[139.999591,37.107837],[139.999953,37.107775],[140.000084,37.107743],[140.000252,37.107692],[140.000382,37.107617],[140.000832,37.10735],[140.00092,37.107287],[140.000967,37.107263],[140.001014,37.107248],[140.001066,37.107244],[140.001121,37.107259],[140.001172,37.107284],[140.001222,37.107335],[140.001282,37.107421],[140.00131,37.107483],[140.001321,37.107543],[140.001314,37.107607],[140.001282,37.107694],[140.001258,37.107748],[140.001145,37.107981],[140.001062,37.108118],[140.000939,37.108376],[140.00078,37.108864],[140.000696,37.109167],[140.000675,37.109284],[140.000666,37.109387],[140.000659,37.109556],[140.000662,37.109797],[140.00066,37.109948],[140.000677,37.110143],[140.000698,37.110262],[140.000719,37.110355],[140.000809,37.110674],[140.000818,37.110719],[140.000896,37.110869],[140.000979,37.11098],[140.001091,37.111086],[140.001246,37.111196],[140.001396,37.11127],[140.001525,37.111312],[140.001674,37.111329],[140.001848,37.111335],[140.002015,37.11134],[140.002196,37.11133],[140.002367,37.111306],[140.002597,37.111273],[140.002774,37.11127],[140.002797,37.111278],[140.002904,37.111317],[140.003027,37.11141],[140.00309,37.111495],[140.003164,37.111622],[140.003324,37.111926],[140.003415,37.112072],[140.003493,37.11219],[140.003531,37.112255],[140.003554,37.112322],[140.003557,37.112393],[140.003535,37.112525]]}},{"type":"Feature","properties":{"id":311686214,"highway":"residential"},"geometry":{"type":"LineString","coordinates":[[139.98446,37.121424],[139.984217,37.121625]]}},{"type":"Feature","properties":{"id":345675815,"highway":"service"},"geometry":{"type":"LineString","coordinates":[[140.000028,37.104454],[139.999978,37.104491],[139.99978,37.104605],[139.99967,37.104669],[139.999653,37.104698],[139.999643,37.104733],[139.99966,37.104772],[139.9997,37.104801],[139.999736,37.104808],[139.999792,37.104797],[139.999882,37.10474],[140.000058,37.104638],[140.00009,37.104615],[140.000127,37.104555],[140.000146,37.104519]]}},{"type":"Feature","properties":{"id":345675816,"highway":"service"},"geometry":{"type":"LineString","coordinates":[[140.000022,37.104264],[139.999886,37.104193],[139.999493,37.104021]]}},{"type":"Feature","properties":{"id":414892418,"highway":"primary"},"geometry":{"type":"LineString","coordinates":[[139.984198,37.121221],[139.984038,37.121361],[139.983843,37.121523],[139.983723,37.12161],[139.983638,37.121658],[139.983523,37.121688],[139.983384,37.121704],[139.983215,37.121709],[139.982963,37.121706],[139.982815,37.121722],[139.982734,37.121749],[139.982683,37.121778],[139.982655,37.12182],[139.982656,37.121874],[139.98268,37.121917],[139.982731,37.121936],[139.982785,37.121934],[139.982883,37.121921],[139.983015,37.121895],[139.983199,37.121875],[139.983311,37.121882],[139.983417,37.121908],[139.983486,37.121962],[139.983526,37.122019],[139.983538,37.122067],[139.983552,37.122174],[139.983541,37.122226],[139.983493,37.122402],[139.983462,37.122454],[139.98341,37.122479],[139.983371,37.122485],[139.98332,37.122481],[139.983272,37.122467],[139.983151,37.122407],[139.982925,37.122312],[139.982838,37.122279],[139.98277,37.122266],[139.982724,37.122258],[139.98261,37.122253],[139.982402,37.122257],[139.982277,37.122267],[139.982191,37.122302],[139.982139,37.12234],[139.982074,37.122412],[139.982005,37.122493],[139.981933,37.12258],[139.981895,37.122646],[139.981883,37.122706],[139.981912,37.122743],[139.981971,37.122764],[139.981991,37.122765],[139.982043,37.122768],[139.982128,37.122741],[139.982211,37.122685],[139.982316,37.122651],[139.98238,37.122651],[139.982426,37.122677],[139.982453,37.122701],[139.982482,37.122752],[139.982485,37.122816],[139.982471,37.122882],[139.982411,37.123024],[139.982362,37.123101],[139.982323,37.123137],[139.982272,37.123154],[139.982171,37.123176],[139.982015,37.123204],[139.981858,37.123252],[139.981754,37.123304],[139.981638,37.123379],[139.981627,37.123387],[139.981412,37.123536],[139.981332,37.123588],[139.981284,37.123624],[139.981058,37.123773],[139.981013,37.123835],[139.981004,37.123905],[139.981028,37.123982],[139.981073,37.124019],[139.981167,37.124046],[139.981236,37.124049],[139.981326,37.124023],[139.981417,37.123976],[139.981499,37.123967],[139.981571,37.123988],[139.98161,37.124048],[139.981623,37.124107],[139.981605,37.124193],[139.981509,37.124372],[139.981505,37.124438],[139.981526,37.124532],[139.981557,37.124599],[139.981609,37.124646],[139.981728,37.124736],[139.981798,37.124801],[139.981843,37.124901],[139.981841,37.124979],[139.981802,37.125037],[139.981742,37.12508],[139.981668,37.125103],[139.981571,37.125099],[139.981409,37.125053],[139.981004,37.12486],[139.980908,37.124836],[139.980839,37.124849],[139.980763,37.124903],[139.980746,37.12496],[139.980763,37.125022],[139.980809,37.125152],[139.980887,37.125331],[139.980889,37.125385],[139.980859,37.125444],[139.980792,37.125487],[139.980694,37.125511],[139.980606,37.125507],[139.980439,37.125472],[139.980189,37.125408],[139.979918,37.125332],[139.979837,37.125327]]}},{"type":"Feature","properties":{"id":414892448,"highway":"unclassified"},"geometry":{"type":"LineString","coordinates":[[139.991671,37.113869],[139.991634,37.11375],[139.991607,37.113484],[139.991575,37.113438],[139.991497,37.113409],[139.990973,37.113226]]}},{"type":"Feature","properties":{"id":414896623,"highway":"primary"},"geometry":{"type":"LineString","coordinates":[[139.97911,37.126005],[139.979113,37.126093],[139.979173,37.126403],[139.979196,37.126515],[139.979234,37.12657],[139.979307,37.126598],[139.979462,37.126631],[139.979564,37.126673],[139.979717,37.126764],[139.979864,37.126859],[139.980058,37.126977],[139.980148,37.127058],[139.980197,37.127135],[139.980203,37.127205],[139.980191,37.127279],[139.980161,37.127337],[139.980113,37.127389],[139.980042,37.127411],[139.979978,37.127412],[139.979918,37.127381],[139.979865,37.127318],[139.979802,37.127253],[139.979727,37.127218],[139.97929,37.127096],[139.97922,37.1271],[139.979157,37.127148],[139.97914,37.127204],[139.979157,37.127267],[139.97923,37.127316],[139.979412,37.127382],[139.979519,37.127442],[139.979566,37.127505],[139.979584,37.127598],[139.979567,37.127735],[139.979542,37.127851],[139.979499,37.128025],[139.979472,37.128094],[139.979422,37.128129],[139.979348,37.128141],[139.979271,37.128128],[139.979232,37.128109],[139.979213,37.128079],[139.979207,37.128036],[139.979207,37.127961],[139.979231,37.127838],[139.979227,37.127725],[139.979196,37.127656],[139.979146,37.127618],[139.979054,37.127588],[139.978953,37.127593],[139.978869,37.127615],[139.978563,37.127721],[139.978372,37.127788],[139.978149,37.127865],[139.977896,37.127963],[139.977731,37.128016],[139.977566,37.128073],[139.977431,37.12811],[139.977318,37.128138],[139.977167,37.128157],[139.976993,37.12818],[139.976779,37.128199],[139.976572,37.128221],[139.976487,37.128218]]}},{"type":"Feature","properties":{"id":414907189,"highway":"service"},"geometry":{"type":"LineString","coordinates":[[139.994364,37.118524],[139.994799,37.118541],[139.99496,37.118558],[139.99504,37.118596],[139.995106,37.118654],[139.99517,37.118714],[139.99524,37.11874],[139.995319,37.118738],[139.99549,37.118724]]}},{"type":"Feature","properties":{"id":414907192,"highway":"residential"},"geometry":{"type":"LineString","coordinates":[[139.994617,37.11761],[139.994812,37.11786],[139.994851,37.117909]]}},{"type":"Feature","properties":{"id":414907195,"highway":"residential"},"geometry":{"type":"LineString","coordinates":[[139.987149,37.119439],[139.987053,37.119533],[139.986929,37.119619],[139.986865,37.119661],[139.98678,37.119766],[139.986726,37.119807],[139.986677,37.119816],[139.986559,37.119781],[139.98649,37.119781],[139.986441,37.119794],[139.986425,37.119845],[139.986447,37.119882],[139.986501,37.11992],[139.986591,37.11997],[139.986651,37.120002],[139.986721,37.120027],[139.986806,37.120042],[139.986932,37.120055]]}},{"type":"Feature","properties":{"id":414907202,"highway":"unclassified"},"geometry":{"type":"LineString","coordinates":[[139.994968,37.106679],[139.995217,37.106755],[139.99533,37.106802],[139.995381,37.106834],[139.995417,37.106875],[139.995437,37.106939],[139.995476,37.107403],[139.995502,37.107712],[139.995566,37.108116]]}},{"type":"Feature","properties":{"id":414907210,"highway":"service"},"geometry":{"type":"LineString","coordinates":[[140.000206,37.106053],[140.000126,37.106114],[140.000056,37.106136],[139.999948,37.106149],[139.998692,37.106035],[139.998626,37.105987],[139.998611,37.105962],[139.998603,37.105922],[139.998614,37.105871]]}},{"type":"Feature","properties":{"id":414911176,"highway":"primary"},"geometry":{"type":"LineString","coordinates":[[140.003535,37.112525],[140.00346,37.112888],[140.003412,37.113138],[140.003375,37.113359],[140.003334,37.113546],[140.003299,37.113667],[140.003269,37.113743],[140.003182,37.113841],[140.003071,37.113905],[140.002944,37.113953],[140.002721,37.114029],[140.002538,37.114098],[140.002422,37.114141],[140.002316,37.114202],[140.002226,37.114298],[140.002182,37.114403],[140.00215,37.114516],[140.002143,37.114616],[140.002145,37.114747],[140.002144,37.114995],[140.0021,37.115163],[140.001969,37.115498],[140.001827,37.115835],[140.00175,37.11595],[140.001609,37.116088],[140.001365,37.116264],[140.001058,37.116482],[140.000811,37.116647],[140.000527,37.116788],[140.000169,37.116963],[139.999818,37.117125],[139.999664,37.117221],[139.999562,37.11731],[139.999489,37.117422],[139.999396,37.117611],[139.999332,37.117734],[139.999297,37.117768],[139.99923,37.117811],[139.999137,37.117834],[139.999067,37.117835],[139.998981,37.117826],[139.998893,37.117811],[139.998833,37.117776],[139.998797,37.11773],[139.998774,37.117656],[139.998768,37.117548],[139.998803,37.117433],[139.998942,37.117218],[139.999216,37.116769],[139.999343,37.116571],[139.999396,37.116458],[139.999397,37.116364],[139.999372,37.116273],[139.999289,37.116147],[139.998948,37.115716],[139.998836,37.115627],[139.998719,37.115562],[139.998593,37.115536],[139.998446,37.115526],[139.99823,37.115542],[139.998,37.115576],[139.997234,37.115684],[139.997012,37.115715],[139.996905,37.11574],[139.99683,37.115785],[139.996785,37.115834],[139.996757,37.115878],[139.996727,37.115949],[139.996718,37.116044],[139.996809,37.116532],[139.996807,37.116669],[139.996793,37.11675],[139.996761,37.11684],[139.996702,37.116938],[139.996617,37.117011],[139.996499,37.117095],[139.996425,37.117131],[139.996332,37.117162],[139.996128,37.117211],[139.994991,37.117494],[139.994617,37.11761],[139.99402,37.117798],[139.993509,37.117957],[139.993095,37.118082],[139.992668,37.118215],[139.992486,37.11828],[139.992286,37.118357],[139.992001,37.118485],[139.991905,37.118533],[139.991769,37.118601],[139.991564,37.11873],[139.9913,37.118928],[139.991128,37.119042],[139.990917,37.119168],[139.9908,37.11922],[139.990692,37.119266],[139.990615,37.119282],[139.990543,37.119285],[139.990474,37.119279],[139.990312,37.119244],[139.990225,37.119227],[139.990124,37.119214],[139.990021,37.119216],[139.989944,37.11923],[139.989902,37.119257],[139.989851,37.11929],[139.989787,37.119343],[139.989564,37.119538],[139.989485,37.119613],[139.989415,37.119653],[139.989341,37.119674],[139.989271,37.119675],[139.989013,37.119645],[139.988913,37.119643],[139.988818,37.119664],[139.98869,37.119728],[139.988445,37.119965],[139.988261,37.120151],[139.988229,37.120185],[139.988159,37.120254],[139.988082,37.120302],[139.988016,37.12033],[139.987958,37.12034],[139.987891,37.120343],[139.987823,37.120338],[139.987768,37.120317],[139.987724,37.120288],[139.987682,37.120257],[139.987635,37.120213],[139.987535,37.120086],[139.987416,37.11994],[139.987379,37.119911],[139.987323,37.119889],[139.987237,37.119876],[139.987147,37.119878],[139.987063,37.1199],[139.987007,37.119934],[139.986961,37.119991],[139.986932,37.120055],[139.986926,37.120111],[139.98693,37.120181],[139.986987,37.120358],[139.987004,37.120436],[139.987005,37.120518],[139.986988,37.120569],[139.986963,37.120615],[139.986919,37.12066],[139.986843,37.120688],[139.986772,37.120704],[139.986656,37.120722],[139.986515,37.120753],[139.986372,37.120807],[139.986243,37.120876],[139.986063,37.120973],[139.985955,37.121015],[139.985835,37.121033],[139.985609,37.121008],[139.985435,37.120961],[139.985288,37.120958],[139.985142,37.12099],[139.985004,37.121048],[139.984871,37.121125],[139.984485,37.121355],[139.984425,37.121365],[139.98436,37.121344],[139.984259,37.121268],[139.984198,37.121221]]}},{"type":"Feature","properties":{"id":414932088,"highway":"primary"},"geometry":{"type":"LineString","coordinates":[[140.003275,37.097166],[140.003416,37.097228],[140.003536,37.097299],[140.003608,37.097358],[140.003675,37.097441],[140.003723,37.097518],[140.003744,37.097588],[140.003756,37.097661],[140.00376,37.097803],[140.003673,37.098612],[140.00364,37.09875],[140.003575,37.098899],[140.003524,37.098998],[140.003442,37.099102],[140.003328,37.099212],[140.00281,37.099592],[140.002623,37.09973],[140.00253,37.099824],[140.002423,37.099935],[140.002343,37.100029],[139.999493,37.104021],[139.999375,37.104179],[139.9993,37.104318],[139.999256,37.104447],[139.999232,37.104597],[139.999233,37.104716],[139.999265,37.104865],[139.99932,37.105012],[139.99942,37.105139],[139.999532,37.105237],[139.99978,37.105399]]}},{"type":"Feature","properties":{"id":418881187,"highway":"primary"},"geometry":{"type":"LineString","coordinates":[[139.99978,37.105399],[139.999879,37.105484],[140.000029,37.105612],[140.000149,37.105693],[140.000243,37.105755],[140.000284,37.105801],[140.000301,37.105845],[140.000296,37.10593],[140.00026,37.106009],[140.000206,37.106053],[140.000135,37.106075],[140.000063,37.106089],[139.999978,37.106087],[139.998844,37.105972],[139.998757,37.105959],[139.998706,37.105939],[139.998653,37.105911],[139.998614,37.105871],[139.998582,37.105813],[139.998502,37.105535],[139.998486,37.105487],[139.998462,37.105446],[139.998419,37.105413],[139.998362,37.105402],[139.998305,37.10541],[139.998256,37.105444],[139.998227,37.105497],[139.998215,37.105539],[139.998211,37.105592],[139.998228,37.1059],[139.998213,37.105997],[139.998188,37.106086],[139.998155,37.106237],[139.998156,37.106407],[139.998164,37.106541],[139.998191,37.106639],[139.998258,37.10678],[139.998334,37.106896],[139.998423,37.107062],[139.998455,37.107158],[139.998455,37.107229],[139.998403,37.107278],[139.998342,37.107313],[139.99827,37.107327],[139.998199,37.107324],[139.998149,37.107307],[139.998093,37.107264],[139.997992,37.107126],[139.997899,37.106974],[139.997797,37.106838],[139.997704,37.106686],[139.997623,37.106538],[139.997583,37.106464],[139.997546,37.106369],[139.997528,37.106253],[139.997505,37.106109],[139.997477,37.105973],[139.997451,37.105836],[139.997414,37.105716],[139.997379,37.10564],[139.997354,37.105599],[139.99731,37.105558],[139.997254,37.105524],[139.99718,37.105502],[139.996881,37.105429],[139.996526,37.105345],[139.996206,37.105266],[139.995736,37.105158],[139.995632,37.105145],[139.995547,37.105151],[139.995499,37.105163],[139.995449,37.105195],[139.995409,37.105242],[139.995377,37.105296],[139.995315,37.105423],[139.99525,37.105584],[139.995207,37.105705],[139.995153,37.105892],[139.994995,37.106578],[139.994968,37.106679],[139.994912,37.106803],[139.99483,37.106914],[139.994715,37.10702],[139.994584,37.10713],[139.994398,37.107299],[139.994062,37.107648],[139.993666,37.108073],[139.993379,37.108375],[139.993276,37.108444],[139.993159,37.108488],[139.992873,37.108587],[139.99242,37.108742],[139.992143,37.108849],[139.992042,37.108915],[139.991973,37.108995],[139.991925,37.109125],[139.991917,37.109209],[139.991918,37.109322],[139.991931,37.109697],[139.991932,37.109991],[139.991929,37.110111],[139.991916,37.110202],[139.991894,37.110285],[139.991767,37.110617],[139.991686,37.110789],[139.991552,37.11101],[139.991377,37.11123],[139.991082,37.111567],[139.990905,37.111775],[139.990708,37.112003],[139.990573,37.11214],[139.990453,37.112228],[139.990275,37.112343],[139.990064,37.112475],[139.989831,37.112616],[139.989709,37.112706],[139.989665,37.112765],[139.989646,37.112841],[139.989662,37.112896],[139.989695,37.112937],[139.989735,37.112961],[139.989872,37.112985],[139.989976,37.11298],[139.990202,37.112961],[139.990425,37.112948],[139.990591,37.112937],[139.99071,37.112935],[139.990801,37.112939],[139.990853,37.112952],[139.990897,37.112984],[139.990925,37.11302],[139.990947,37.113078],[139.990973,37.113226],[139.991001,37.113445],[139.991011,37.113615],[139.991014,37.113785],[139.991004,37.113894],[139.990986,37.114045],[139.990947,37.114229],[139.990898,37.114466],[139.990855,37.114649],[139.990825,37.114785],[139.990801,37.114832],[139.990762,37.114877],[139.990697,37.114909],[139.990617,37.114917],[139.99054,37.114911],[139.990469,37.114875],[139.990425,37.114828],[139.990317,37.114696],[139.990138,37.114429],[139.990086,37.114366],[139.990006,37.114312],[139.989915,37.114288],[139.989823,37.114286],[139.989733,37.114292],[139.989648,37.114314],[139.989583,37.114356],[139.989541,37.114404],[139.989499,37.114473],[139.989457,37.114595],[139.989434,37.114704],[139.989418,37.114842],[139.989402,37.115007],[139.989357,37.115269],[139.989341,37.115334],[139.98931,37.115384],[139.989246,37.115445],[139.989143,37.115519],[139.989036,37.115602],[139.988977,37.115651],[139.988937,37.115724],[139.988923,37.11582],[139.988934,37.115892],[139.988968,37.115949],[139.98904,37.115997],[139.989125,37.116037],[139.98927,37.116087],[139.989426,37.116135],[139.989498,37.116205],[139.989516,37.116305],[139.989493,37.116398],[139.98942,37.1165],[139.989318,37.116632],[139.98914,37.116824],[139.989032,37.116915],[139.988921,37.116982],[139.988761,37.117056],[139.988582,37.117144],[139.988426,37.117273],[139.988283,37.117449],[139.988156,37.117622],[139.988098,37.117738],[139.988082,37.11784],[139.988086,37.117857],[139.988101,37.117937],[139.988131,37.118036],[139.988163,37.118141],[139.988172,37.118179],[139.988171,37.118229],[139.988138,37.11827],[139.9881,37.118296],[139.988054,37.118316],[139.987925,37.118348],[139.987733,37.118387],[139.987285,37.118484],[139.987211,37.1185],[139.98644,37.118674],[139.986287,37.118693],[139.986145,37.118694],[139.986014,37.118682],[139.98585,37.118656],[139.985705,37.118646],[139.985575,37.118657],[139.98541,37.118691],[139.984707,37.118864],[139.984543,37.118916],[139.984413,37.118981],[139.984343,37.119075],[139.984317,37.119172],[139.984313,37.119235],[139.984337,37.119307],[139.984386,37.119366],[139.984478,37.119427],[139.984567,37.11945],[139.98473,37.119478],[139.984969,37.119484],[139.985173,37.119491],[139.985323,37.1195],[139.985393,37.11951],[139.985479,37.119541],[139.985541,37.119583],[139.98557,37.119623],[139.9856,37.119684],[139.985604,37.119786],[139.985581,37.11987],[139.985538,37.119929],[139.98547,37.119971],[139.985386,37.120003],[139.985277,37.120027],[139.985147,37.120051],[139.985074,37.120071],[139.984998,37.1201],[139.984939,37.120136],[139.984898,37.120191],[139.984875,37.120252],[139.984829,37.120378],[139.984805,37.120472],[139.984786,37.120549],[139.984731,37.120677],[139.984686,37.120759],[139.98462,37.12084],[139.984534,37.120915],[139.984418,37.12102],[139.984198,37.121221]]}},{"type":"Feature","properties":{"id":452370578,"highway":"service"},"geometry":{"type":"LineString","coordinates":[[139.975593,37.129066],[139.975766,37.127912],[139.975817,37.127832]]}},{"type":"Feature","properties":{"id":478547480,"highway":"primary"},"geometry":{"type":"LineString","coordinates":[[139.99978,37.105399],[140.000405,37.105637],[140.000507,37.105683],[140.000559,37.105739],[140.000589,37.105799],[140.000584,37.105892],[140.000561,37.105992],[140.000504,37.106153],[140.000435,37.106285],[140.000333,37.106482],[140.000261,37.106635],[140.00022,37.106788],[140.000182,37.106963]]}},{"type":"Feature","properties":{"id":569037576,"highway":"service"},"geometry":{"type":"LineString","coordinates":[[139.929576,37.104135],[139.92978,37.10426],[139.930039,37.104496],[139.930198,37.104746],[139.930258,37.105011],[139.930249,37.105307],[139.930015,37.106369],[139.929941,37.106568],[139.929744,37.107032],[139.92957,37.107407],[139.929404,37.10764],[139.929134,37.107869],[139.92877,37.108042],[139.928466,37.108109]]}},{"type":"Feature","properties":{"id":624223405,"highway":"unclassified"},"geometry":{"type":"LineString","coordinates":[[139.97529,37.12834],[139.975363,37.128209],[139.975365,37.128203],[139.975402,37.128112],[139.97545,37.128008],[139.975516,37.127948],[139.975596,37.127884],[139.975676,37.127838],[139.975766,37.127798],[139.975887,37.127764]]}},{"type":"Feature","properties":{"id":626304397,"highway":"unclassified"},"geometry":{"type":"LineString","coordinates":[[139.995732,37.100182],[139.995634,37.10044],[139.995671,37.100492],[139.995751,37.10057],[139.995779,37.100652],[139.995704,37.100767],[139.995568,37.100845],[139.995517,37.100905],[139.99547,37.101013],[139.995433,37.101304]]}},{"type":"Feature","properties":{"id":626304402,"highway":"residential"},"geometry":{"type":"LineString","coordinates":[[139.991007,37.103654],[139.990754,37.103614],[139.990533,37.103738],[139.990241,37.104006],[139.989882,37.104213],[139.989777,37.104243],[139.989656,37.104226],[139.989535,37.104155],[139.989441,37.104045],[139.989386,37.103918],[139.989369,37.103689],[139.989402,37.10357],[139.989463,37.1035],[139.989529,37.103474],[139.989673,37.103469],[139.990086,37.1035],[139.990522,37.103553],[139.990754,37.103614]]}},{"type":"Feature","properties":{"id":626304405,"highway":"residential"},"geometry":{"type":"LineString","coordinates":[[139.993558,37.101571],[139.993465,37.101434],[139.99341,37.101374],[139.993284,37.101289],[139.993188,37.101211],[139.993135,37.101137],[139.993122,37.101058]]}},{"type":"Feature","properties":{"id":637364002,"highway":"service"},"geometry":{"type":"LineString","coordinates":[[139.984871,37.121125],[139.984835,37.121092],[139.984826,37.121084],[139.984805,37.121066],[139.984688,37.120972],[139.985053,37.120654]]}},{"type":"Feature","properties":{"id":637364003,"highway":"service"},"geometry":{"type":"LineString","coordinates":[[139.985053,37.120654],[139.985192,37.12075],[139.985285,37.120816]]}},{"type":"Feature","properties":{"id":637364004,"highway":"service"},"geometry":{"type":"LineString","coordinates":[[139.985192,37.12075],[139.984805,37.121066]]}},{"type":"Feature","properties":{"id":637364005,"highway":"service"},"geometry":{"type":"LineString","coordinates":[[139.984688,37.120972],[139.984654,37.120999],[139.98449,37.121136]]}},{"type":"Feature","properties":{"id":637379798,"highway":"service"},"geometry":{"type":"LineString","coordinates":[[139.987285,37.118484],[139.987205,37.118236],[139.987201,37.118179],[139.98723,37.118132],[139.987291,37.118098],[139.987734,37.117993]]}},{"type":"Feature","properties":{"id":637387699,"highway":"service"},"geometry":{"type":"LineString","coordinates":[[139.994141,37.118381],[139.99426,37.118567]]}},{"type":"Feature","properties":{"id":637387700,"highway":"service"},"geometry":{"type":"LineString","coordinates":[[139.993977,37.118597],[139.993949,37.118405]]}},{"type":"Feature","properties":{"id":637387701,"highway":"service"},"geometry":{"type":"LineString","coordinates":[[139.993566,37.118635],[139.993541,37.118455]]}},{"type":"Feature","properties":{"id":697291850,"highway":"service"},"geometry":{"type":"LineString","coordinates":[[139.984805,37.121066],[139.984761,37.121093],[139.984661,37.121152]]}},{"type":"Feature","properties":{"id":762875037,"highway":"service"},"geometry":{"type":"LineString","coordinates":[[139.985053,37.120654],[139.98485,37.120504],[139.984805,37.120472]]}},{"type":"Feature","properties":{"id":1387786515,"highway":"primary"},"geometry":{"type":"LineString","coordinates":[[139.979499,37.125856],[139.979414,37.125831],[139.979325,37.125821],[139.979255,37.12583],[139.979189,37.125875],[139.979135,37.125929],[139.97911,37.126005]]}},{"type":"Feature","properties":{"id":1387786516,"highway":"primary"},"geometry":{"type":"LineString","coordinates":[[139.979837,37.125327],[139.979766,37.125341],[139.979695,37.125378],[139.979641,37.125439],[139.97961,37.12551],[139.979622,37.125571],[139.979655,37.125631],[139.97975,37.125712],[139.979778,37.12575],[139.979799,37.12579],[139.979789,37.125842],[139.979761,37.125879],[139.979711,37.125904],[139.979655,37.125908],[139.979562,37.125887],[139.979499,37.125856]]}}]}