{"type":"FeatureCollection","features":[{"type":"Feature","properties":{"id":23706444,"highway":"trunk"},"geometry":{"type":"LineString","coordinates":[[140.138309,37.105558],[140.138294,37.105724],[140.138302,37.105885],[140.138326,37.106028],[140.138368,37.106195],[140.138441,37.106372],[140.138523,37.106525],[140.138606,37.10665],[140.138703,37.106773],[140.138814,37.106896],[140.138934,37.107008],[140.139013,37.107071],[140.139064,37.107108],[140.139183,37.107192],[140.139437,37.107331],[140.139955,37.107603],[140.140462,37.107869],[140.140976,37.108131],[140.141122,37.108205],[140.141697,37.108499],[140.142298,37.108807],[140.142736,37.109026],[140.143157,37.109238],[140.143466,37.109403],[140.143835,37.109594],[140.143893,37.109612],[140.144291,37.109797],[140.144544,37.109924],[140.145189,37.110264],[140.145364,37.110358],[140.145662,37.110524],[140.146143,37.110843],[140.146564,37.111201],[140.146858,37.11153],[140.146917,37.111609],[140.14701,37.11171],[140.147234,37.111963],[140.147977,37.112895],[140.148005,37.112931],[140.148482,37.113566],[140.148882,37.114078],[140.148974,37.114184],[140.149285,37.114543],[140.149748,37.115063],[140.15016,37.115542],[140.150379,37.11586],[140.150747,37.116259],[140.150922,37.116419],[140.151093,37.11656],[140.151388,37.116768],[140.15174,37.117007],[140.152152,37.117219],[140.152649,37.117431],[140.15307,37.117602],[140.153158,37.117637],[140.153473,37.11776],[140.154031,37.117958],[140.154787,37.118225],[140.155867,37.118592],[140.156047,37.118656]]}},{"type":"Feature","properties":{"id":108251673,"highway":"trunk"},"geometry":{"type":"LineString","coordinates":[[140.138493,37.105015],[140.138439,37.10513],[140.138401,37.105226],[140.138357,37.105348],[140.138329,37.105457],[140.138309,37.105558]]}},{"type":"Feature","properties":{"id":108251819,"highway":"primary"},"geometry":{"type":"LineString","coordinates":[[140.146917,37.111609],[140.146807,37.111674],[140.145705,37.112332],[140.145202,37.112586],[140.143585,37.113479],[140.143173,37.113684],[140.142786,37.113821],[140.142328,37.113949],[140.141593,37.114182],[140.140666,37.114459],[140.140358,37.11453],[140.139666,37.114627],[140.139214,37.114713],[140.138917,37.114813],[140.138485,37.115036],[140.137804,37.115368],[140.136494,37.116041],[140.136138,37.116225],[140.135854,37.116287],[140.135583,37.116313],[140.135304,37.116291],[140.135004,37.116291],[140.134722,37.116334],[140.134209,37.116572],[140.133986,37.116623],[140.133831,37.116634],[140.133669,37.116631],[140.133515,37.116629],[140.133041,37.116578],[140.13296,37.116568],[140.132721,37.11652],[140.132384,37.116432],[140.131996,37.116223],[140.131626,37.116021],[140.131251,37.115883],[140.130954,37.115803],[140.130625,37.115737],[140.130324,37.115655],[140.130015,37.115579],[140.129777,37.115471],[140.129598,37.115297],[140.129294,37.115022],[140.129031,37.114758],[140.128961,37.114645],[140.128844,37.114449],[140.128813,37.114285],[140.128788,37.114094],[140.128755,37.11385],[140.128735,37.113751],[140.128676,37.113637],[140.128602,37.113526],[140.128535,37.113461],[140.128264,37.113288],[140.128206,37.113251],[140.127984,37.113133],[140.12761,37.112928],[140.127249,37.112726],[140.127084,37.112664],[140.126739,37.112564],[140.126462,37.112555],[140.126099,37.11256],[140.125272,37.112615],[140.12513,37.112602],[140.124998,37.112586],[140.124839,37.11251],[140.124367,37.112156],[140.124031,37.11191],[140.123908,37.111848],[140.123791,37.111801],[140.123672,37.111757],[140.123504,37.111721],[140.123249,37.111717],[140.123067,37.111736],[140.122699,37.111788],[140.121888,37.111921],[140.120854,37.112073],[140.120251,37.112247],[140.119289,37.112507],[140.118703,37.112626],[140.117434,37.112692],[140.117067,37.112711],[140.1163,37.112612],[140.116011,37.112612],[140.115436,37.112681],[140.115331,37.112688],[140.115215,37.112687],[140.115131,37.112682],[140.115054,37.112678],[140.114932,37.11266]]}},{"type":"Feature","properties":{"id":198531828,"highway":"unclassified"},"geometry":{"type":"LineString","coordinates":[[140.124886,37.102756],[140.124847,37.102699],[140.124714,37.102725],[140.124582,37.10275],[140.124484,37.102746],[140.124172,37.102661],[140.123834,37.102626],[140.123683,37.102619],[140.12359,37.102598],[140.123515,37.102561],[140.123133,37.102337],[140.123036,37.102244],[140.122858,37.102041],[140.122806,37.101981],[140.122709,37.101894],[140.122272,37.101582],[140.121897,37.101317],[140.121701,37.101165],[140.12128,37.100841],[140.121014,37.100686],[140.120796,37.100577],[140.120443,37.100396]]}},{"type":"Feature","properties":{"id":198531893,"highway":"unclassified"},"geometry":{"type":"LineString","coordinates":[[140.124886,37.102756],[140.124797,37.102828],[140.124556,37.103088],[140.123903,37.103809],[140.123825,37.103978],[140.1238,37.104181],[140.123791,37.104298],[140.123733,37.104403],[140.12361,37.10452],[140.122798,37.105205],[140.122622,37.105307],[140.122417,37.105373],[140.121703,37.105572],[140.121529,37.105661],[140.1204,37.106427],[140.120189,37.106527],[140.119956,37.106627],[140.119713,37.106704],[140.119125,37.106863],[140.118459,37.107044],[140.117888,37.107199]]}},{"type":"Feature","properties":{"id":198531980,"highway":"service"},"geometry":{"type":"LineString","coordinates":[[140.100814,37.101045],[140.101261,37.100946],[140.101412,37.100903],[140.101735,37.100785],[140.101939,37.100738],[140.102118,37.100732],[140.102185,37.100742],[140.102291,37.100758],[140.102445,37.10079],[140.102635,37.100848],[140.102943,37.100974],[140.103173,37.101106],[140.103401,37.101294]]}},{"type":"Feature","properties":{"id":198531981,"highway":"service"},"geometry":{"type":"LineString","coordinates":[[140.11182,37.112666],[140.111479,37.11311],[140.111379,37.1132],[140.111152,37.113375],[140.111073,37.11346],[140.110951,37.113617],[140.110843,37.11374],[140.110773,37.113784],[140.110711,37.113831],[140.110644,37.113913],[140.110508,37.114153],[140.110429,37.114421],[140.110434,37.114534]]}},{"type":"Feature","properties":{"id":198532686,"highway":"unclassified"},"geometry":{"type":"LineString","coordinates":[[140.103058,37.106656],[140.103009,37.106725],[140.10291,37.106822],[140.10214,37.107311],[140.101985,37.107396],[140.101831,37.107424],[140.101549,37.107408],[140.101007,37.107339],[140.100655,37.107327],[140.100346,37.107344],[140.100004,37.107364],[140.099729,37.10738],[140.099656,37.107385],[140.099417,37.1074]]}},{"type":"Feature","properties":{"id":198532693,"highway":"service"},"geometry":{"type":"LineString","coordinates":[[140.103651,37.1015],[140.103717,37.101571],[140.103728,37.101628],[140.103735,37.10168],[140.103733,37.101729],[140.103713,37.101776],[140.103666,37.101831],[140.103227,37.102212],[140.103173,37.102276],[140.103153,37.102344],[140.10316,37.102443]]}},{"type":"Feature","properties":{"id":198532720,"highway":"tertiary"},"geometry":{"type":"LineString","coordinates":[[140.101261,37.10242],[140.101016,37.10239],[140.100881,37.102384],[140.100762,37.102388],[140.100667,37.102393],[140.10027,37.102462],[140.100114,37.102513],[140.099998,37.102564],[140.099618,37.102795],[140.099525,37.102843],[140.09943,37.102875],[140.09933,37.102881],[140.099257,37.102872],[140.098864,37.102771]]}},{"type":"Feature","properties":{"id":198532721,"highway":"unclassified"},"geometry":{"type":"LineString","coordinates":[[140.117304,37.099229],[140.117243,37.099201],[140.117013,37.0991],[140.116951,37.099088],[140.11688,37.0991],[140.116064,37.099451],[140.115928,37.099546],[140.115826,37.099635],[140.115745,37.09975],[140.11564,37.100046],[140.115581,37.100185],[140.115545,37.100204],[140.115503,37.100208],[140.115474,37.10019],[140.115453,37.100145],[140.115448,37.100103],[140.115566,37.099698],[140.115773,37.099053],[140.115967,37.098444],[140.115984,37.098362],[140.115984,37.098275],[140.11596,37.097986],[140.11597,37.097921],[140.116002,37.097842],[140.116859,37.096675],[140.116917,37.096578],[140.117285,37.095783],[140.11731,37.095696]]}},{"type":"Feature","properties":{"id":198532821,"highway":"unclassified"},"geometry":{"type":"LineString","coordinates":[[140.112339,37.097798],[140.112338,37.097836],[140.112365,37.097884],[140.112883,37.098378],[140.11368,37.099072],[140.113779,37.099201],[140.113807,37.09937],[140.113783,37.09952],[140.11312,37.100271],[140.112986,37.100376],[140.112747,37.100432],[140.111493,37.100322]]}},{"type":"Feature","properties":{"id":198532823,"highway":"service"},"geometry":{"type":"LineString","coordinates":[[140.114308,37.108477],[140.114424,37.107913],[140.114418,37.107846],[140.1144,37.107776],[140.11429,37.107586],[140.114294,37.107519],[140.114352,37.107472],[140.114586,37.107321],[140.114904,37.107631],[140.114904,37.107698],[140.114834,37.107866],[140.114809,37.10794],[140.114813,37.108434]]}},{"type":"Feature","properties":{"id":198532826,"highway":"unclassified"},"geometry":{"type":"LineString","coordinates":[[140.120099,37.100804],[140.119944,37.100818],[140.119773,37.100839],[140.119647,37.100827],[140.119602,37.100765],[140.119584,37.100681],[140.119693,37.100242],[140.119725,37.100057],[140.119719,37.099993],[140.119666,37.099932],[140.119538,37.099913],[140.119079,37.099893],[140.118962,37.099872],[140.118743,37.09978],[140.118356,37.09963],[140.117304,37.099229]]}},{"type":"Feature","properties":{"id":198532887,"highway":"unclassified"},"geometry":{"type":"LineString","coordinates":[[140.122342,37.095056],[140.122273,37.095183],[140.12205,37.095646],[140.121989,37.095801],[140.121966,37.095945],[140.121955,37.096824],[140.121939,37.096963],[140.121885,37.097081],[140.121766,37.097268],[140.121561,37.097478],[140.121356,37.097664],[140.121347,37.097676],[140.12122,37.097861],[140.121129,37.098052],[140.121059,37.098254],[140.120932,37.098987],[140.120813,37.099825],[140.120791,37.099906],[140.120754,37.099979],[140.120443,37.100396]]}},{"type":"Feature","properties":{"id":198532908,"highway":"unclassified"},"geometry":{"type":"LineString","coordinates":[[140.101422,37.102439],[140.10143,37.102555],[140.10163,37.102743],[140.101788,37.102921],[140.101919,37.103043],[140.10208,37.103213],[140.102175,37.103382],[140.102372,37.103814],[140.102474,37.104106],[140.102713,37.104805],[140.102927,37.105473],[140.103113,37.106103],[140.103161,37.106271],[140.103152,37.106418],[140.103131,37.106534],[140.103058,37.106656]]}},{"type":"Feature","properties":{"id":198532933,"highway":"unclassified"},"geometry":{"type":"LineString","coordinates":[[140.139541,37.102841],[140.139614,37.102866],[140.139621,37.10295],[140.139626,37.103037],[140.139603,37.103158],[140.139516,37.103402],[140.139288,37.103869],[140.139014,37.104443],[140.138999,37.104511],[140.139021,37.104556],[140.139064,37.104574],[140.139139,37.104571],[140.139197,37.104539],[140.139421,37.104371],[140.139541,37.104293],[140.139651,37.104261],[140.139737,37.104259],[140.139816,37.104266],[140.140174,37.104333]]}},{"type":"Feature","properties":{"id":198532952,"highway":"service"},"geometry":{"type":"LineString","coordinates":[[140.10143,37.102555],[140.10143,37.102749],[140.101544,37.103141],[140.101592,37.10328],[140.101592,37.103358],[140.101571,37.103442],[140.101531,37.103506],[140.101457,37.103576],[140.101336,37.103673],[140.10121,37.103778],[140.101113,37.103869],[140.101032,37.103964],[140.100982,37.104069],[140.100953,37.104199],[140.100929,37.104389],[140.1009,37.104639],[140.100851,37.10487],[140.100735,37.105185],[140.100586,37.105438],[140.100327,37.105861],[140.100244,37.106057],[140.100154,37.106345],[140.100097,37.106562],[140.100062,37.10667],[140.10003,37.106758],[140.099963,37.106904],[140.099847,37.107036],[140.099507,37.107302],[140.099417,37.1074]]}},{"type":"Feature","properties":{"id":198533474,"highway":"service"},"geometry":{"type":"LineString","coordinates":[[140.114813,37.108434],[140.11491,37.108424]]}},{"type":"Feature","properties":{"id":198533485,"highway":"residential"},"geometry":{"type":"LineString","coordinates":[[140.109892,37.107351],[140.110451,37.107367],[140.111041,37.107384],[140.111593,37.107393],[140.11188,37.107398],[140.112171,37.107418],[140.112733,37.107627],[140.113253,37.10794],[140.113283,37.108593]]}},{"type":"Feature","properties":{"id":198533497,"highway":"service"},"geometry":{"type":"LineString","coordinates":[[140.114813,37.108434],[140.114308,37.108477],[140.11391,37.108514],[140.113283,37.108593]]}},{"type":"Feature","properties":{"id":198533512,"highway":"service"},"geometry":{"type":"LineString","coordinates":[[140.122398,37.100277],[140.12352,37.100465]]}},{"type":"Feature","properties":{"id":198533983,"highway":"service"},"geometry":{"type":"LineString","coordinates":[[140.118509,37.104469],[140.118352,37.104428],[140.118167,37.104367],[140.117936,37.104274],[140.117736,37.104169],[140.117678,37.104134],[140.117165,37.103767],[140.11662,37.103399]]}},{"type":"Feature","properties":{"id":198534015,"highway":"service"},"geometry":{"type":"LineString","coordinates":[[140.110426,37.106968],[140.112153,37.107002]]}},{"type":"Feature","properties":{"id":198534091,"highway":"unclassified"},"geometry":{"type":"LineString","coordinates":[[140.101261,37.10242],[140.101422,37.102439]]}},{"type":"Feature","properties":{"id":198534211,"highway":"service"},"geometry":{"type":"LineString","coordinates":[[140.117736,37.104169],[140.117927,37.102893]]}},{"type":"Feature","properties":{"id":198534346,"highway":"service"},"geometry":{"type":"LineString","coordinates":[[140.103401,37.101294],[140.103651,37.1015]]}},{"type":"Feature","properties":{"id":198534574,"highway":"service"},"geometry":{"type":"LineString","coordinates":[[140.097616,37.101218],[140.097755,37.101223],[140.09795,37.101271],[140.098094,37.101342],[140.098172,37.101415],[140.098228,37.1015],[140.098319,37.101672],[140.098483,37.102088],[140.098587,37.102226],[140.098728,37.102325],[140.09889,37.102389],[140.099033,37.102398],[140.099101,37.102394],[140.09925,37.102373],[140.099412,37.102314],[140.099578,37.102205],[140.099719,37.102107],[140.099959,37.102026],[140.10023,37.101959],[140.100494,37.101843],[140.100692,37.101692],[140.100821,37.10152],[140.100871,37.101302],[140.100814,37.101045]]}},{"type":"Feature","properties":{"id":198534733,"highway":"unclassified"},"geometry":{"type":"LineString","coordinates":[[140.101422,37.102439],[140.10164,37.102438],[140.102232,37.102398],[140.102426,37.102378],[140.102593,37.102348],[140.102749,37.102273],[140.102863,37.102199],[140.102977,37.102092],[140.103019,37.102055],[140.103322,37.101755],[140.10371,37.101159],[140.103817,37.101022],[140.10405,37.100838],[140.10456,37.100514],[140.104911,37.100293]]}},{"type":"Feature","properties":{"id":198534748,"highway":"service"},"geometry":{"type":"LineString","coordinates":[[140.099101,37.102394],[140.098804,37.101832],[140.098753,37.101702],[140.098746,37.101534],[140.098807,37.10131],[140.098928,37.101126],[140.099108,37.100981],[140.099282,37.100902],[140.099444,37.100854],[140.099604,37.10086],[140.09976,37.100892],[140.099951,37.10098],[140.100087,37.101075],[140.100256,37.101124],[140.100374,37.10113],[140.100814,37.101045]]}},{"type":"Feature","properties":{"id":198534825,"highway":"service"},"geometry":{"type":"LineString","coordinates":[[140.123947,37.100122],[140.122298,37.09985]]}},{"type":"Feature","properties":{"id":198535517,"highway":"unclassified"},"geometry":{"type":"LineString","coordinates":[[140.112989,37.11363],[140.112657,37.11343],[140.112508,37.113298],[140.112389,37.113172],[140.112191,37.112985],[140.11182,37.112666],[140.111734,37.112577],[140.111679,37.112453],[140.1117,37.112342],[140.111768,37.112237],[140.112143,37.111871],[140.112183,37.111795],[140.112202,37.111706],[140.112196,37.111568],[140.112149,37.111389],[140.112159,37.11124],[140.112188,37.111183],[140.112258,37.111147],[140.112335,37.111131],[140.112456,37.111163],[140.112707,37.111261],[140.112828,37.111278],[140.112953,37.111259],[140.113067,37.11122],[140.113152,37.111159],[140.113215,37.111083],[140.113305,37.110917],[140.11339,37.110798],[140.113459,37.110739],[140.113872,37.110466],[140.113928,37.110391],[140.113941,37.110315],[140.113938,37.11024],[140.113904,37.110069],[140.11386,37.10988],[140.113862,37.109772],[140.1139,37.10961],[140.11393,37.109472],[140.1141,37.109077],[140.11419,37.108972],[140.114284,37.108902],[140.114488,37.108804],[140.114604,37.108741],[140.114733,37.108646],[140.114823,37.10857],[140.114877,37.108495],[140.11491,37.108424],[140.11499,37.108163],[140.11503,37.108055],[140.115113,37.107961],[140.116068,37.107251],[140.116252,37.107117],[140.116422,37.106982],[140.116566,37.106904],[140.116697,37.10687],[140.116821,37.10687],[140.117012,37.106928],[140.117355,37.107109],[140.117611,37.10721],[140.117759,37.107226],[140.117888,37.107199]]}},{"type":"Feature","properties":{"id":198535734,"highway":"unclassified"},"geometry":{"type":"LineString","coordinates":[[140.120099,37.100804],[140.120443,37.100396]]}},{"type":"Feature","properties":{"id":198535741,"highway":"service"},"geometry":{"type":"LineString","coordinates":[[140.112219,37.108647],[140.112171,37.107418],[140.112153,37.107002],[140.112119,37.106566],[140.112087,37.10643],[140.111986,37.106148],[140.11209,37.105995],[140.112253,37.105854]]}},{"type":"Feature","properties":{"id":198535744,"highway":"unclassified"},"geometry":{"type":"LineString","coordinates":[[140.109246,37.100075],[140.108242,37.099965]]}},{"type":"Feature","properties":{"id":198535766,"highway":"service"},"geometry":{"type":"LineString","coordinates":[[140.113283,37.108593],[140.112754,37.108604],[140.112219,37.108647],[140.111658,37.108723],[140.111551,37.108757],[140.111453,37.108763],[140.111375,37.108728],[140.111315,37.108657],[140.111067,37.108337],[140.110983,37.108243],[140.110821,37.108089],[140.11059,37.10791],[140.11056,37.10785],[140.110533,37.107563],[140.11046,37.107427],[140.110451,37.107367],[140.110426,37.106968],[140.110374,37.10672],[140.110314,37.106529],[140.110267,37.106459],[140.1099,37.105934],[140.109497,37.106024]]}},{"type":"Feature","properties":{"id":198535785,"highway":"service"},"geometry":{"type":"LineString","coordinates":[[140.111658,37.108723],[140.111593,37.107393]]}},{"type":"Feature","properties":{"id":198535794,"highway":"service"},"geometry":{"type":"LineString","coordinates":[[140.112508,37.113298],[140.11274,37.113155],[140.112913,37.113039],[140.113566,37.112486]]}},{"type":"Feature","properties":{"id":198535932,"highway":"service"},"geometry":{"type":"LineString","coordinates":[[140.111041,37.107384],[140.111067,37.108337]]}},{"type":"Feature","properties":{"id":198536237,"highway":"service"},"geometry":{"type":"LineString","coordinates":[[140.122272,37.101582],[140.122478,37.101368],[140.122642,37.101162],[140.122681,37.101082],[140.122674,37.100983],[140.122622,37.100783],[140.122467,37.100489],[140.122398,37.100277],[140.122313,37.099971],[140.122298,37.09985],[140.122292,37.099723],[140.122345,37.099613],[140.12251,37.099464],[140.122772,37.099252],[140.123281,37.098873],[140.124128,37.099019],[140.12497,37.099159]]}},{"type":"Feature","properties":{"id":198536239,"highway":"unclassified"},"geometry":{"type":"LineString","coordinates":[[140.139848,37.099938],[140.139531,37.10018],[140.139456,37.100226],[140.139369,37.10027],[140.139284,37.100304],[140.138998,37.100397],[140.138896,37.100431]]}},{"type":"Feature","properties":{"id":198536690,"highway":"service"},"geometry":{"type":"LineString","coordinates":[[140.11391,37.108514],[140.113898,37.107936],[140.113253,37.10794]]}},{"type":"Feature","properties":{"id":198536697,"highway":"service"},"geometry":{"type":"LineString","coordinates":[[140.112119,37.106566],[140.110314,37.106529]]}},{"type":"Feature","properties":{"id":198536734,"highway":"service"},"geometry":{"type":"LineString","coordinates":[[140.114586,37.107321],[140.114338,37.107098],[140.114205,37.10674],[140.114143,37.106674],[140.114081,37.106614],[140.113915,37.106564],[140.113526,37.106503],[140.113421,37.106509]]}},{"type":"Feature","properties":{"id":198536775,"highway":"service"},"geometry":{"type":"LineString","coordinates":[[140.110983,37.108243],[140.1106,37.108198],[140.110464,37.108169],[140.110313,37.10813],[140.110218,37.108082],[140.110126,37.108023],[140.110053,37.10796],[140.109964,37.107868],[140.10992,37.107795],[140.109941,37.107584],[140.109892,37.107351],[140.10975,37.106626],[140.109694,37.106421],[140.109555,37.10617],[140.109497,37.106024]]}},{"type":"Feature","properties":{"id":198536966,"highway":"service"},"geometry":{"type":"LineString","coordinates":[[140.122806,37.101981],[140.122889,37.10176],[140.123127,37.100787],[140.12352,37.100465],[140.123947,37.100122],[140.124343,37.099816],[140.124711,37.099501],[140.124836,37.099364],[140.12497,37.099159],[140.125138,37.098868],[140.125213,37.098716],[140.125259,37.098577],[140.125278,37.098467]]}},{"type":"Feature","properties":{"id":198537274,"highway":"service"},"geometry":{"type":"LineString","coordinates":[[140.118167,37.104367],[140.118246,37.103764],[140.118327,37.103226],[140.118347,37.103014]]}},{"type":"Feature","properties":{"id":198537319,"highway":"unclassified"},"geometry":{"type":"LineString","coordinates":[[140.111493,37.100322],[140.109246,37.100075]]}},{"type":"Feature","properties":{"id":198537327,"highway":"service"},"geometry":{"type":"LineString","coordinates":[[140.112733,37.107627],[140.112754,37.108604]]}},{"type":"Feature","properties":{"id":198537530,"highway":"unclassified"},"geometry":{"type":"LineString","coordinates":[[140.107342,37.100444],[140.107473,37.100381],[140.107567,37.100327],[140.107815,37.100167],[140.107996,37.100066],[140.108242,37.099965]]}},{"type":"Feature","properties":{"id":198537533,"highway":"tertiary"},"geometry":{"type":"LineString","coordinates":[[140.12764,37.100477],[140.128482,37.10091],[140.129761,37.101339],[140.129931,37.101377],[140.130079,37.101393],[140.130202,37.101397],[140.130341,37.101379],[140.130494,37.101335],[140.130631,37.101291],[140.130764,37.101211],[140.130953,37.101006],[140.131784,37.09999],[140.132491,37.09902],[140.132513,37.098989],[140.13296,37.098222],[140.133246,37.09794],[140.13479,37.096511],[140.134794,37.096508],[140.134859,37.096448]]}},{"type":"Feature","properties":{"id":198537763,"highway":"service"},"geometry":{"type":"LineString","coordinates":[[140.117165,37.103767],[140.117594,37.102805]]}},{"type":"Feature","properties":{"id":198537775,"highway":"service"},"geometry":{"type":"LineString","coordinates":[[140.113421,37.106509],[140.112854,37.106814],[140.112775,37.106871],[140.112726,37.106937],[140.112703,37.107014],[140.112733,37.107627]]}},{"type":"Feature","properties":{"id":198537806,"highway":"service"},"geometry":{"type":"LineString","coordinates":[[140.112854,37.106814],[140.112703,37.106369],[140.113034,37.106222],[140.113163,37.106346],[140.113421,37.106509]]}},{"type":"Feature","properties":{"id":198538095,"highway":"service"},"geometry":{"type":"LineString","coordinates":[[140.119447,37.103543],[140.119706,37.10295],[140.119744,37.102851],[140.119754,37.102736],[140.119813,37.101944]]}},{"type":"Feature","properties":{"id":198538193,"highway":"service"},"geometry":{"type":"LineString","coordinates":[[140.111986,37.106148],[140.110615,37.106116],[140.110528,37.106263],[140.110462,37.106343],[140.110406,37.106392],[140.110267,37.106459]]}},{"type":"Feature","properties":{"id":198538223,"highway":"unclassified"},"geometry":{"type":"LineString","coordinates":[[140.124886,37.102756],[140.125195,37.102644],[140.125798,37.102452],[140.125938,37.102391],[140.126126,37.102295],[140.126234,37.102224],[140.126343,37.102108],[140.127285,37.101018],[140.127539,37.100603],[140.12764,37.100477],[140.127766,37.100343],[140.128155,37.100011],[140.128218,37.099935],[140.128271,37.099862],[140.128387,37.0994],[140.128704,37.098162],[140.128735,37.097953],[140.128737,37.097816],[140.128688,37.097654],[140.128558,37.097437],[140.128494,37.097325],[140.128478,37.097206],[140.12849,37.097088],[140.128517,37.096935],[140.128582,37.096808],[140.128838,37.096518],[140.13018,37.095135],[140.130277,37.095078],[140.130373,37.095042],[140.131926,37.094661],[140.132132,37.094599],[140.132255,37.094537],[140.132445,37.094412]]}},{"type":"Feature","properties":{"id":198538466,"highway":"service"},"geometry":{"type":"LineString","coordinates":[[140.119813,37.101944],[140.11916,37.101657],[140.118549,37.102573],[140.118551,37.10267],[140.118434,37.102841],[140.118347,37.103014],[140.117927,37.102893],[140.117594,37.102805],[140.117232,37.102698],[140.11687,37.103171],[140.11662,37.103399]]}},{"type":"Feature","properties":{"id":198538690,"highway":"primary"},"geometry":{"type":"LineString","coordinates":[[140.114932,37.11266],[140.114413,37.112564]]}},{"type":"Feature","properties":{"id":227267945,"highway":"residential"},"geometry":{"type":"LineString","coordinates":[[140.130421,37.106887],[140.130464,37.10676],[140.13059,37.1065],[140.13059,37.106439],[140.130555,37.106405],[140.130393,37.10641],[140.130133,37.106505],[140.129824,37.10659],[140.129606,37.106687],[140.12942,37.106807]]}},{"type":"Feature","properties":{"id":227267985,"highway":"residential"},"geometry":{"type":"LineString","coordinates":[[140.132173,37.112724],[140.131967,37.112916],[140.131927,37.113032],[140.13183,37.113719],[140.131838,37.114002],[140.131897,37.114445],[140.131959,37.114621],[140.132024,37.115009],[140.132096,37.115317],[140.132247,37.115654],[140.132531,37.115958],[140.132809,37.116208],[140.133163,37.116359],[140.133458,37.116488],[140.133669,37.116631]]}},{"type":"Feature","properties":{"id":227268043,"highway":"residential"},"geometry":{"type":"LineString","coordinates":[[140.132286,37.10732],[140.131667,37.107555],[140.131631,37.107571],[140.131627,37.107621],[140.131705,37.108072]]}},{"type":"Feature","properties":{"id":227268089,"highway":"unclassified"},"geometry":{"type":"LineString","coordinates":[[140.147631,37.100636],[140.147565,37.100715],[140.147389,37.10093],[140.147249,37.101053],[140.146939,37.101272],[140.146651,37.101436],[140.146419,37.101554],[140.146313,37.101622],[140.145638,37.101954],[140.145174,37.10222],[140.1449,37.102423],[140.144467,37.102742]]}},{"type":"Feature","properties":{"id":227268152,"highway":"unclassified"},"geometry":{"type":"LineString","coordinates":[[140.129105,37.108838],[140.128921,37.108895],[140.128977,37.109067],[140.128917,37.109325],[140.128672,37.109452],[140.12853,37.109591],[140.128368,37.109862],[140.128196,37.110101],[140.128033,37.110343],[140.127714,37.110612]]}},{"type":"Feature","properties":{"id":227268270,"highway":"tertiary"},"geometry":{"type":"LineString","coordinates":[[140.132075,37.108319],[140.132299,37.108347],[140.132406,37.108426],[140.132397,37.108573],[140.132299,37.108781],[140.132279,37.108906],[140.132356,37.108991],[140.132468,37.109047],[140.132617,37.10916],[140.132648,37.10934],[140.13271,37.109667]]}},{"type":"Feature","properties":{"id":227268308,"highway":"residential"},"geometry":{"type":"LineString","coordinates":[[140.123067,37.111736],[140.123103,37.111649],[140.123166,37.111536],[140.123284,37.111354],[140.123366,37.111287],[140.123435,37.111263],[140.123516,37.111259],[140.123598,37.111269],[140.123653,37.111285],[140.123698,37.111309],[140.123774,37.111373],[140.123833,37.111454],[140.123871,37.111546],[140.123899,37.111626],[140.123908,37.111689],[140.123908,37.111848]]}},{"type":"Feature","properties":{"id":227268372,"highway":"residential"},"geometry":{"type":"LineString","coordinates":[[140.116352,37.114244],[140.116027,37.114207],[140.115704,37.114162],[140.115534,37.114128],[140.115463,37.114122],[140.115393,37.114128],[140.115317,37.114169],[140.11526,37.114224],[140.114901,37.114562],[140.114459,37.11499],[140.114424,37.115035],[140.114382,37.115142],[140.114389,37.115181],[140.114466,37.115283],[140.114564,37.115379],[140.114637,37.115436],[140.114688,37.115467]]}},{"type":"Feature","properties":{"id":227268525,"highway":"unclassified"},"geometry":{"type":"LineString","coordinates":[[140.12554,37.111704],[140.125745,37.111379],[140.126001,37.110968],[140.126271,37.110539],[140.126524,37.110134],[140.126772,37.109739],[140.127014,37.109354],[140.12727,37.108944]]}},{"type":"Feature","properties":{"id":227268533,"highway":"residential"},"geometry":{"type":"LineString","coordinates":[[140.130448,37.108162],[140.130892,37.108597]]}},{"type":"Feature","properties":{"id":227268566,"highway":"residential"},"geometry":{"type":"LineString","coordinates":[[140.130778,37.107732],[140.130253,37.107369]]}},{"type":"Feature","properties":{"id":227268587,"highway":"residential"},"geometry":{"type":"LineString","coordinates":[[140.118137,37.114094],[140.118258,37.115018],[140.11838,37.115942]]}},{"type":"Feature","properties":{"id":227268616,"highway":"unclassified"},"geometry":{"type":"LineString","coordinates":[[140.125265,37.112144],[140.12545,37.111849]]}},{"type":"Feature","properties":{"id":227268628,"highway":"residential"},"geometry":{"type":"LineString","coordinates":[[140.13231,37.109962],[140.132094,37.109559],[140.13188,37.109193],[140.131695,37.108897],[140.131571,37.108602]]}},{"type":"Feature","properties":{"id":227268660,"highway":"residential"},"geometry":{"type":"LineString","coordinates":[[140.131092,37.107434],[140.130967,37.107085]]}},{"type":"Feature","properties":{"id":227268689,"highway":"residential"},"geometry":{"type":"LineString","coordinates":[[140.132094,37.109559],[140.130849,37.110459]]}},{"type":"Feature","properties":{"id":227268758,"highway":"residential"},"geometry":{"type":"LineString","coordinates":[[140.131288,37.108346],[140.131358,37.108445]]}},{"type":"Feature","properties":{"id":227268764,"highway":"residential"},"geometry":{"type":"LineString","coordinates":[[140.125299,37.110182],[140.126271,37.110539],[140.126656,37.11068]]}},{"type":"Feature","properties":{"id":227268790,"highway":"tertiary"},"geometry":{"type":"LineString","coordinates":[[140.131571,37.108602],[140.132075,37.108319]]}},{"type":"Feature","properties":{"id":227268870,"highway":"unclassified"},"geometry":{"type":"LineString","coordinates":[[140.121018,37.119244],[140.12127,37.118857],[140.121461,37.118717],[140.121745,37.118429],[140.12182,37.118456],[140.121885,37.118399],[140.12211,37.118207],[140.122439,37.11791],[140.123044,37.117341]]}},{"type":"Feature","properties":{"id":227268913,"highway":"residential"},"geometry":{"type":"LineString","coordinates":[[140.127714,37.110612],[140.127457,37.110515]]}},{"type":"Feature","properties":{"id":227269098,"highway":"residential"},"geometry":{"type":"LineString","coordinates":[[140.129953,37.108255],[140.130547,37.108811]]}},{"type":"Feature","properties":{"id":227269105,"highway":"residential"},"geometry":{"type":"LineString","coordinates":[[140.125886,37.109893],[140.126524,37.110134],[140.127038,37.110328]]}},{"type":"Feature","properties":{"id":227269119,"highway":"residential"},"geometry":{"type":"LineString","coordinates":[[140.131358,37.108445],[140.130892,37.108597]]}},{"type":"Feature","properties":{"id":227269152,"highway":"unclassified"},"geometry":{"type":"LineString","coordinates":[[140.124998,37.112586],[140.125265,37.112144]]}},{"type":"Feature","properties":{"id":227269197,"highway":"residential"},"geometry":{"type":"LineString","coordinates":[[140.130253,37.107369],[140.130967,37.107085]]}},{"type":"Feature","properties":{"id":227269199,"highway":"residential"},"geometry":{"type":"LineString","coordinates":[[140.127484,37.110012],[140.126772,37.109739],[140.126089,37.109476]]}},{"type":"Feature","properties":{"id":227269208,"highway":"unclassified"},"geometry":{"type":"LineString","coordinates":[[140.129105,37.108838],[140.129165,37.109137],[140.129061,37.109372],[140.128915,37.109533],[140.128873,37.109623],[140.128879,37.109686],[140.128915,37.109753],[140.128968,37.109766],[140.12902,37.109759],[140.129119,37.109691],[140.1294,37.109402],[140.129576,37.109237],[140.12969,37.109201],[140.13024,37.109351]]}},{"type":"Feature","properties":{"id":227269214,"highway":"tertiary"},"geometry":{"type":"LineString","coordinates":[[140.139437,37.107331],[140.139269,37.107518],[140.138988,37.107634],[140.138314,37.107841],[140.137979,37.108036],[140.137694,37.108324],[140.137356,37.108796],[140.137071,37.109068],[140.13688,37.109284],[140.136751,37.109508],[140.136687,37.110371],[140.136641,37.110623],[140.136574,37.110713],[140.136454,37.110794],[140.136306,37.110871],[140.135883,37.110815],[140.135595,37.110873]]}},{"type":"Feature","properties":{"id":227269218,"highway":"unclassified"},"geometry":{"type":"LineString","coordinates":[[140.125272,37.112615],[140.123923,37.113341],[140.123255,37.113715],[140.122782,37.114161],[140.122628,37.114359],[140.122375,37.114638],[140.122288,37.114838],[140.12221,37.114998],[140.122095,37.115463],[140.122085,37.115536],[140.122082,37.115606],[140.122073,37.11571],[140.122106,37.11603],[140.122112,37.116266],[140.12207,37.116452],[140.122028,37.116565]]}},{"type":"Feature","properties":{"id":227269253,"highway":"residential"},"geometry":{"type":"LineString","coordinates":[[140.125405,37.111723],[140.124529,37.111345],[140.124388,37.111283],[140.124353,37.111199],[140.124304,37.110996],[140.124284,37.110828],[140.124296,37.110791],[140.124508,37.1105],[140.124761,37.110219],[140.124944,37.110055],[140.125267,37.11001],[140.125463,37.109937],[140.125519,37.109903],[140.125604,37.109796],[140.125632,37.109734],[140.125653,37.109582],[140.12566,37.109334],[140.125723,37.10925],[140.126054,37.108906],[140.126356,37.108624],[140.12637,37.108608],[140.12727,37.108944]]}},{"type":"Feature","properties":{"id":227269276,"highway":"residential"},"geometry":{"type":"LineString","coordinates":[[140.14695,37.105468],[140.146728,37.105391],[140.146363,37.105296],[140.146292,37.105268],[140.146222,37.105273],[140.145962,37.105459],[140.145624,37.105695],[140.145511,37.105741],[140.145202,37.105831],[140.145111,37.10587],[140.144893,37.106039],[140.144794,37.106062],[140.144597,37.106079],[140.144513,37.106135],[140.144478,37.106269],[140.144374,37.106332],[140.14426,37.106331],[140.144145,37.106373],[140.144118,37.106425]]}},{"type":"Feature","properties":{"id":227269281,"highway":"tertiary"},"geometry":{"type":"LineString","coordinates":[[140.132646,37.110344],[140.132633,37.110435],[140.132603,37.110531],[140.132663,37.110647],[140.132727,37.110698],[140.132853,37.110692],[140.133182,37.110568],[140.133536,37.110252],[140.133696,37.110053],[140.133992,37.109706],[140.13427,37.109426],[140.134346,37.109378],[140.13445,37.109384],[140.134597,37.10944],[140.134717,37.109571],[140.134899,37.109836],[140.134978,37.109985],[140.13504,37.110349],[140.135111,37.110668],[140.135156,37.110813],[140.135264,37.110884],[140.135461,37.11089],[140.135595,37.110873]]}},{"type":"Feature","properties":{"id":227269413,"highway":"residential"},"geometry":{"type":"LineString","coordinates":[[140.140632,37.104418],[140.14035,37.104721],[140.139878,37.105053]]}},{"type":"Feature","properties":{"id":227269428,"highway":"unclassified"},"geometry":{"type":"LineString","coordinates":[[140.122028,37.116565],[140.121821,37.116753],[140.121258,37.117069],[140.12058,37.117345],[140.120307,37.11745],[140.119994,37.117552],[140.119219,37.117643],[140.11874,37.117835],[140.117152,37.118406],[140.116522,37.118769],[140.116371,37.118865]]}},{"type":"Feature","properties":{"id":227269507,"highway":"residential"},"geometry":{"type":"LineString","coordinates":[[140.131987,37.107865],[140.131705,37.108072]]}},{"type":"Feature","properties":{"id":227269668,"highway":"residential"},"geometry":{"type":"LineString","coordinates":[[140.126315,37.109092],[140.127014,37.109354],[140.127646,37.10959]]}},{"type":"Feature","properties":{"id":227269690,"highway":"residential"},"geometry":{"type":"LineString","coordinates":[[140.124353,37.111796],[140.125265,37.112144],[140.125612,37.112276]]}},{"type":"Feature","properties":{"id":227269747,"highway":"residential"},"geometry":{"type":"LineString","coordinates":[[140.126261,37.111572],[140.125745,37.111379],[140.125127,37.111147]]}},{"type":"Feature","properties":{"id":227269776,"highway":"residential"},"geometry":{"type":"LineString","coordinates":[[140.130692,37.107883],[140.131288,37.108346]]}},{"type":"Feature","properties":{"id":227269795,"highway":"unclassified"},"geometry":{"type":"LineString","coordinates":[[140.12545,37.111849],[140.125493,37.111851],[140.125531,37.111838]]}},{"type":"Feature","properties":{"id":227269820,"highway":"residential"},"geometry":{"type":"LineString","coordinates":[[140.131092,37.107434],[140.131288,37.108346]]}},{"type":"Feature","properties":{"id":227269844,"highway":"residential"},"geometry":{"type":"LineString","coordinates":[[140.122977,37.118235],[140.123634,37.117556]]}},{"type":"Feature","properties":{"id":227269856,"highway":"unclassified"},"geometry":{"type":"LineString","coordinates":[[140.140174,37.104333],[140.140596,37.10441]]}},{"type":"Feature","properties":{"id":227269889,"highway":"unclassified"},"geometry":{"type":"LineString","coordinates":[[140.129105,37.108838],[140.129129,37.108624],[140.129241,37.108487],[140.129381,37.108349],[140.129452,37.108327],[140.129549,37.108306],[140.129725,37.108273],[140.129953,37.108255],[140.130243,37.108263],[140.130448,37.108162],[140.130692,37.107883],[140.130778,37.107732],[140.131067,37.107455],[140.131092,37.107434]]}},{"type":"Feature","properties":{"id":227269958,"highway":"residential"},"geometry":{"type":"LineString","coordinates":[[140.129135,37.110046],[140.1295,37.109483],[140.12969,37.109201]]}},{"type":"Feature","properties":{"id":227270052,"highway":"residential"},"geometry":{"type":"LineString","coordinates":[[140.130892,37.108597],[140.130547,37.108811]]}},{"type":"Feature","properties":{"id":227270061,"highway":"residential"},"geometry":{"type":"LineString","coordinates":[[140.127213,37.111437],[140.127119,37.11141],[140.126722,37.111267]]}},{"type":"Feature","properties":{"id":227270284,"highway":"residential"},"geometry":{"type":"LineString","coordinates":[[140.131214,37.110762],[140.13231,37.109962],[140.13271,37.109667]]}},{"type":"Feature","properties":{"id":227270311,"highway":"residential"},"geometry":{"type":"LineString","coordinates":[[140.122977,37.118235],[140.122439,37.11791]]}},{"type":"Feature","properties":{"id":227270456,"highway":"unclassified"},"geometry":{"type":"LineString","coordinates":[[140.140596,37.10441],[140.140632,37.104418],[140.140977,37.104483],[140.141044,37.104514]]}},{"type":"Feature","properties":{"id":227270457,"highway":"unclassified"},"geometry":{"type":"LineString","coordinates":[[140.127213,37.111437],[140.127016,37.111893],[140.126774,37.112298],[140.126739,37.112564]]}},{"type":"Feature","properties":{"id":227270467,"highway":"residential"},"geometry":{"type":"LineString","coordinates":[[140.124788,37.110518],[140.126001,37.110968],[140.126516,37.111159]]}},{"type":"Feature","properties":{"id":227270495,"highway":"service"},"geometry":{"type":"LineString","coordinates":[[140.113762,37.113566],[140.114593,37.112923],[140.114792,37.11282],[140.11492,37.112772],[140.115131,37.112682]]}},{"type":"Feature","properties":{"id":227270622,"highway":"unclassified"},"geometry":{"type":"LineString","coordinates":[[140.097949,37.127698],[140.098828,37.127214],[140.099116,37.127068],[140.099278,37.127012],[140.099459,37.126966],[140.099658,37.126933],[140.1001,37.126893],[140.100413,37.126883],[140.100846,37.126888],[140.101113,37.12691],[140.101667,37.126978],[140.101807,37.127009],[140.101928,37.127045],[140.10197,37.127069],[140.101985,37.127085],[140.102002,37.127104],[140.10201,37.127134],[140.102005,37.127164],[140.101973,37.127234],[140.10191,37.127349],[140.101661,37.127666],[140.101435,37.128036],[140.10143,37.128072],[140.101445,37.128097],[140.101513,37.128137],[140.10159,37.128172],[140.101675,37.128194],[140.10181,37.1282],[140.101913,37.128183],[140.102005,37.12815],[140.102139,37.128076],[140.102365,37.127916],[140.102445,37.127869],[140.10256,37.12784],[140.103545,37.127682],[140.104699,37.127671],[140.105233,37.127609],[140.105958,37.127491],[140.106125,37.127484],[140.106563,37.127502],[140.10658,37.127502]]}},{"type":"Feature","properties":{"id":227270681,"highway":"unclassified"},"geometry":{"type":"LineString","coordinates":[[140.120854,37.112073],[140.121171,37.112932],[140.121186,37.113081],[140.121116,37.113222],[140.120995,37.113329],[140.120819,37.113419],[140.120788,37.113582],[140.120809,37.113844],[140.120745,37.113958],[140.120559,37.114142],[140.120268,37.114244],[140.120008,37.114303],[140.119799,37.114286],[140.119567,37.114236]]}},{"type":"Feature","properties":{"id":227270787,"highway":"residential"},"geometry":{"type":"LineString","coordinates":[[140.130547,37.108811],[140.130242,37.109041],[140.129452,37.108327]]}},{"type":"Feature","properties":{"id":227270792,"highway":"unclassified"},"geometry":{"type":"LineString","coordinates":[[140.131571,37.108602],[140.131047,37.108764],[140.13074,37.108946],[140.13024,37.109351],[140.129725,37.109819],[140.129367,37.110397]]}},{"type":"Feature","properties":{"id":227270810,"highway":"unclassified"},"geometry":{"type":"LineString","coordinates":[[140.125405,37.111723],[140.125428,37.111704],[140.125448,37.111694],[140.125492,37.111692],[140.12554,37.111704]]}},{"type":"Feature","properties":{"id":227270824,"highway":"unclassified"},"geometry":{"type":"LineString","coordinates":[[140.122028,37.116565],[140.122422,37.116932],[140.123044,37.117341],[140.123263,37.117424],[140.123634,37.117556],[140.123809,37.117616],[140.12395,37.117764],[140.124053,37.118001],[140.123516,37.118568],[140.123042,37.119181],[140.122779,37.119542],[140.121997,37.120267],[140.121713,37.120488],[140.121558,37.120653],[140.121429,37.120772],[140.121168,37.121147],[140.120796,37.121516],[140.120746,37.121758],[140.12069,37.122273],[140.120675,37.122604]]}},{"type":"Feature","properties":{"id":227270833,"highway":"residential"},"geometry":{"type":"LineString","coordinates":[[140.125531,37.111838],[140.126251,37.111835],[140.126486,37.111691],[140.126607,37.111464],[140.126722,37.111267]]}},{"type":"Feature","properties":{"id":227270843,"highway":"residential"},"geometry":{"type":"LineString","coordinates":[[140.131705,37.108072],[140.13183,37.10814],[140.131717,37.10825],[140.131641,37.108317],[140.131358,37.108445]]}},{"type":"Feature","properties":{"id":227270864,"highway":"unclassified"},"geometry":{"type":"LineString","coordinates":[[140.127714,37.110612],[140.127716,37.110766],[140.127599,37.110919],[140.127302,37.111272],[140.127213,37.111437]]}},{"type":"Feature","properties":{"id":227270866,"highway":"tertiary"},"geometry":{"type":"LineString","coordinates":[[140.13271,37.109667],[140.132741,37.109921],[140.132662,37.110266],[140.132646,37.110344]]}},{"type":"Feature","properties":{"id":227270868,"highway":"unclassified"},"geometry":{"type":"LineString","coordinates":[[140.121885,37.118399],[140.122306,37.118914],[140.122779,37.119542]]}},{"type":"Feature","properties":{"id":227270909,"highway":"unclassified"},"geometry":{"type":"LineString","coordinates":[[140.141044,37.104514],[140.141168,37.104858],[140.141219,37.104971],[140.14129,37.105102],[140.141415,37.105278],[140.141457,37.105359],[140.141567,37.105614],[140.141962,37.106866],[140.141985,37.106908],[140.142122,37.107024],[140.142668,37.107409],[140.142945,37.107681],[140.143333,37.108006],[140.143516,37.108144],[140.143604,37.108268],[140.143614,37.108333],[140.143631,37.108496],[140.143655,37.108872],[140.143669,37.108952],[140.143795,37.109145],[140.144529,37.109667]]}},{"type":"Feature","properties":{"id":227270935,"highway":"residential"},"geometry":{"type":"LineString","coordinates":[[140.127457,37.110515],[140.127818,37.10999],[140.12804,37.109634],[140.128203,37.109334],[140.12727,37.108944]]}},{"type":"Feature","properties":{"id":227270991,"highway":"residential"},"geometry":{"type":"LineString","coordinates":[[140.132646,37.110344],[140.13242,37.11048],[140.132274,37.110579],[140.132103,37.110647],[140.131822,37.110656]]}},{"type":"Feature","properties":{"id":227271093,"highway":"unclassified"},"geometry":{"type":"LineString","coordinates":[[140.125531,37.111838],[140.12556,37.111807],[140.125572,37.111775],[140.125572,37.111742],[140.12556,37.111725],[140.12554,37.111704]]}},{"type":"Feature","properties":{"id":227271095,"highway":"unclassified"},"geometry":{"type":"LineString","coordinates":[[140.144467,37.102742],[140.144085,37.103123],[140.143875,37.103292],[140.143505,37.10351],[140.143188,37.103655]]}},{"type":"Feature","properties":{"id":227271112,"highway":"residential"},"geometry":{"type":"LineString","coordinates":[[140.131695,37.108897],[140.131365,37.10909],[140.130804,37.109342],[140.130485,37.109661]]}},{"type":"Feature","properties":{"id":227271126,"highway":"residential"},"geometry":{"type":"LineString","coordinates":[[140.126722,37.111267],[140.126878,37.111062],[140.127279,37.110777],[140.127457,37.110515]]}},{"type":"Feature","properties":{"id":227271131,"highway":"unclassified"},"geometry":{"type":"LineString","coordinates":[[140.12545,37.111849],[140.125423,37.111836],[140.125401,37.111818],[140.12539,37.111786],[140.12539,37.111754],[140.125405,37.111723]]}},{"type":"Feature","properties":{"id":227271144,"highway":"residential"},"geometry":{"type":"LineString","coordinates":[[140.118137,37.114094],[140.117742,37.114139],[140.117455,37.114168],[140.116934,37.114224],[140.116499,37.114252],[140.116352,37.114244]]}},{"type":"Feature","properties":{"id":227271146,"highway":"residential"},"geometry":{"type":"LineString","coordinates":[[140.131214,37.110762],[140.130849,37.110459],[140.130493,37.110168],[140.13188,37.109193]]}},{"type":"Feature","properties":{"id":227271165,"highway":"residential"},"geometry":{"type":"LineString","coordinates":[[140.131822,37.110656],[140.131695,37.110782],[140.131592,37.110959],[140.131553,37.111054],[140.131214,37.110762]]}},{"type":"Feature","properties":{"id":227271231,"highway":"residential"},"geometry":{"type":"LineString","coordinates":[[140.141985,37.106908],[140.141735,37.107059],[140.141571,37.107144],[140.141123,37.107358],[140.140839,37.107732],[140.141011,37.108019],[140.140976,37.108131]]}},{"type":"Feature","properties":{"id":227271337,"highway":"unclassified"},"geometry":{"type":"LineString","coordinates":[[140.141044,37.104514],[140.141317,37.104412],[140.141687,37.104321],[140.141748,37.104288],[140.142294,37.104031],[140.142838,37.103795],[140.143188,37.103655]]}},{"type":"Feature","properties":{"id":227271365,"highway":"unclassified"},"geometry":{"type":"LineString","coordinates":[[140.149589,37.098835],[140.149337,37.099099],[140.149154,37.099375],[140.148999,37.099544],[140.148212,37.10009],[140.147797,37.10044],[140.147631,37.100636]]}},{"type":"Feature","properties":{"id":227271478,"highway":"residential"},"geometry":{"type":"LineString","coordinates":[[140.130967,37.107085],[140.130923,37.106972],[140.130821,37.106783],[140.130762,37.106751],[140.130662,37.106774],[140.130552,37.106819],[140.130421,37.106887]]}},{"type":"Feature","properties":{"id":227271487,"highway":"residential"},"geometry":{"type":"LineString","coordinates":[[140.130253,37.107369],[140.130129,37.107284],[140.130069,37.107234],[140.130043,37.107205],[140.130028,37.107132],[140.130045,37.107075],[140.130323,37.106947],[140.130421,37.106887]]}},{"type":"Feature","properties":{"id":227271592,"highway":"unclassified"},"geometry":{"type":"LineString","coordinates":[[140.132286,37.10732],[140.132366,37.107476],[140.132375,37.107594],[140.132329,37.107844],[140.132176,37.108031],[140.132061,37.108176],[140.132075,37.108319]]}},{"type":"Feature","properties":{"id":227271607,"highway":"unclassified"},"geometry":{"type":"LineString","coordinates":[[140.131092,37.107434],[140.131401,37.10723],[140.131636,37.107139],[140.131815,37.107122],[140.131933,37.10712],[140.132095,37.107149],[140.132185,37.107214],[140.132286,37.10732]]}},{"type":"Feature","properties":{"id":227271609,"highway":"unclassified"},"geometry":{"type":"LineString","coordinates":[[140.116371,37.118865],[140.116292,37.118768],[140.116515,37.11812],[140.116581,37.117905],[140.116859,37.117608],[140.11705,37.117333]]}},{"type":"Feature","properties":{"id":227271629,"highway":"unclassified"},"geometry":{"type":"LineString","coordinates":[[140.133471,37.104722],[140.133592,37.104905],[140.133794,37.105019],[140.134034,37.105241],[140.13424,37.105551],[140.134461,37.105729],[140.134676,37.105804],[140.134793,37.105843],[140.135149,37.105927],[140.135454,37.106029],[140.135748,37.106173],[140.136056,37.106248],[140.136507,37.106502],[140.136753,37.106673],[140.137123,37.106685],[140.137481,37.106618],[140.137838,37.106838],[140.138212,37.107071],[140.138402,37.107142],[140.138639,37.107187],[140.13883,37.107177],[140.139029,37.107137],[140.139064,37.107108]]}},{"type":"Feature","properties":{"id":227271630,"highway":"unclassified"},"geometry":{"type":"LineString","coordinates":[[140.135595,37.110873],[140.13551,37.111002],[140.135346,37.111351],[140.135136,37.111548],[140.13495,37.111678],[140.134712,37.11178],[140.134392,37.111775],[140.134057,37.111966],[140.133823,37.111982],[140.133389,37.111956],[140.132985,37.111959],[140.132771,37.112084],[140.132545,37.11242],[140.13239,37.11265],[140.132173,37.112724],[140.132059,37.112692],[140.131924,37.112696],[140.131746,37.11268],[140.131604,37.11268],[140.131486,37.11273],[140.131398,37.112844],[140.130899,37.113708],[140.130619,37.114194],[140.13022,37.114772],[140.12991,37.115215],[140.129777,37.115471],[140.129615,37.115626],[140.129211,37.116026],[140.128886,37.116335],[140.12872,37.116487],[140.12851,37.117073],[140.128325,37.117489],[140.128111,37.117794],[140.127714,37.118472],[140.127345,37.118928],[140.127018,37.119401],[140.126833,37.119623],[140.126843,37.119849],[140.1269,37.120252],[140.127321,37.121351]]}},{"type":"Feature","properties":{"id":321418389,"highway":"primary"},"geometry":{"type":"LineString","coordinates":[[140.084405,37.10971],[140.084859,37.109808],[140.085301,37.109987],[140.08562,37.110207],[140.085683,37.110281],[140.085844,37.110467],[140.086065,37.110817],[140.086568,37.111575],[140.086739,37.11175],[140.087011,37.111978],[140.087533,37.112314],[140.088024,37.112649],[140.088215,37.11278],[140.088361,37.112904],[140.088461,37.113016],[140.088601,37.113182],[140.0887,37.113328],[140.088795,37.113524],[140.088882,37.113771],[140.088931,37.11397],[140.089009,37.114514],[140.089083,37.114761],[140.089142,37.114932],[140.089229,37.115087],[140.08935,37.115242],[140.089826,37.115758],[140.090174,37.116115],[140.090637,37.116721],[140.09082,37.116967],[140.090924,37.117118],[140.091019,37.117231],[140.09117,37.117329],[140.091314,37.117375],[140.091457,37.117392],[140.091685,37.117392],[140.092105,37.117402],[140.092513,37.117435],[140.09271,37.11747],[140.092903,37.117553],[140.0933,37.11779],[140.093423,37.117825],[140.093526,37.117838],[140.094013,37.117805],[140.094134,37.117775],[140.094248,37.11771],[140.094906,37.117249],[140.094984,37.11716],[140.09502,37.117066],[140.095016,37.116944],[140.094941,37.116655],[140.094937,37.116575],[140.094968,37.116475],[140.095088,37.116284],[140.095161,37.116193],[140.095259,37.116123],[140.09536,37.116071],[140.095485,37.116035],[140.095598,37.116019],[140.095725,37.116017],[140.095814,37.11604],[140.096063,37.116113],[140.096415,37.116218],[140.096568,37.116233],[140.0972,37.116267],[140.097876,37.116323],[140.098028,37.11634],[140.098137,37.116361],[140.098247,37.116404],[140.099166,37.11678],[140.099499,37.116923],[140.099626,37.116945],[140.099756,37.116933],[140.099879,37.116907],[140.100584,37.116579],[140.100711,37.116524],[140.100849,37.1165],[140.101277,37.116446],[140.101426,37.116438],[140.101655,37.11645],[140.102015,37.116493],[140.102209,37.116544],[140.102528,37.116625],[140.102679,37.116634],[140.102796,37.116603],[140.103046,37.116491],[140.103188,37.116465],[140.103903,37.116404],[140.104392,37.11641],[140.105134,37.116483],[140.10598,37.116575],[140.106124,37.116586],[140.106274,37.116597],[140.106953,37.11666],[140.107246,37.116667],[140.107512,37.116661],[140.107736,37.116596],[140.108262,37.116314],[140.109012,37.115808],[140.109188,37.11564],[140.109351,37.115427],[140.109627,37.115004],[140.109746,37.114872],[140.109941,37.114733],[140.110434,37.114534],[140.111401,37.114196],[140.112331,37.113929],[140.112529,37.113853],[140.112989,37.11363],[140.113311,37.11343],[140.113432,37.113307],[140.113682,37.112914],[140.113771,37.112793],[140.113861,37.11271],[140.113962,37.112645],[140.114086,37.112588],[140.114199,37.112565],[140.114299,37.112558],[140.114362,37.112561],[140.114413,37.112564]]}},{"type":"Feature","properties":{"id":416505189,"highway":"trunk"},"geometry":{"type":"LineString","coordinates":[[140.106366,37.053467],[140.106391,37.053598],[140.106535,37.054364],[140.106599,37.054715],[140.106693,37.055312],[140.106812,37.056074],[140.106878,37.05689],[140.106927,37.057412],[140.107002,37.057659],[140.107129,37.057887],[140.10737,37.058193],[140.107646,37.058506],[140.107885,37.058775],[140.108167,37.05905],[140.109802,37.060707],[140.109978,37.060872],[140.110233,37.061118],[140.110464,37.061292],[140.11076,37.061437],[140.111148,37.061594],[140.111509,37.061727],[140.111757,37.061838],[140.11198,37.06197],[140.11222,37.062151],[140.112418,37.062313],[140.112918,37.062865],[140.113001,37.062956],[140.11336,37.063344],[140.113867,37.063924],[140.114088,37.064138],[140.114332,37.064329],[140.114589,37.064515],[140.114854,37.064675],[140.115528,37.064984],[140.11581,37.065172],[140.11603,37.065381],[140.116072,37.065452],[140.116353,37.065898],[140.116362,37.065916],[140.116739,37.066641],[140.116758,37.066679],[140.117052,37.067251],[140.117192,37.06752],[140.117282,37.067668],[140.117407,37.067824],[140.117538,37.067955],[140.117751,37.068105],[140.118296,37.068418],[140.118681,37.06865],[140.118972,37.068855],[140.119244,37.069088],[140.119337,37.069167],[140.119781,37.06959],[140.120704,37.07058],[140.120839,37.070725],[140.121004,37.070901],[140.121224,37.07107],[140.121445,37.07116],[140.121636,37.071237],[140.121926,37.071286],[140.122252,37.071304],[140.122333,37.071304],[140.12272,37.071284],[140.123073,37.071289],[140.123311,37.071314],[140.123574,37.071366],[140.123814,37.071466],[140.124491,37.071897],[140.125084,37.072331],[140.125775,37.072845],[140.126033,37.073085],[140.12615,37.073205],[140.126294,37.073385],[140.126381,37.073537],[140.126539,37.073804],[140.126851,37.074321],[140.126969,37.074488],[140.127561,37.075319],[140.127821,37.075717],[140.128118,37.076154],[140.128496,37.076783],[140.128696,37.077104],[140.128765,37.077245],[140.128829,37.077392],[140.128877,37.07757],[140.1289,37.077714],[140.128926,37.078036],[140.128957,37.07831],[140.129003,37.078501],[140.129025,37.078567],[140.129097,37.078775],[140.129312,37.079296],[140.129501,37.079777],[140.129653,37.080141],[140.129861,37.080652],[140.13005,37.08111],[140.130116,37.081275],[140.130273,37.081665],[140.130505,37.082254],[140.130668,37.082648],[140.130779,37.082918],[140.130891,37.083205],[140.130925,37.083267],[140.13102,37.083425],[140.131217,37.083794],[140.131369,37.084202],[140.131427,37.084402],[140.131455,37.084584],[140.131459,37.084618],[140.1315,37.084963],[140.131535,37.085198],[140.131563,37.085528],[140.131569,37.085602],[140.131595,37.085958],[140.131598,37.086012],[140.131615,37.086162],[140.131621,37.086225],[140.131629,37.086478],[140.131638,37.086903],[140.131646,37.087417],[140.131664,37.088156],[140.131655,37.088613],[140.131676,37.088892],[140.131687,37.089044],[140.131691,37.08911],[140.131728,37.089317],[140.13177,37.089465],[140.131851,37.089646],[140.131937,37.089827],[140.132057,37.090064],[140.13225,37.090429],[140.132397,37.09068],[140.132589,37.090997],[140.132795,37.091357],[140.132837,37.091508],[140.132957,37.092015],[140.133054,37.092478],[140.13324,37.093345],[140.133292,37.093592],[140.133387,37.094004],[140.133518,37.094584],[140.133629,37.094879],[140.133673,37.094997],[140.133801,37.095194],[140.134098,37.095551],[140.13431,37.095821],[140.134713,37.096292],[140.134859,37.096448],[140.13507,37.096631],[140.135256,37.096768],[140.135458,37.096915],[140.135775,37.097101],[140.13622,37.097367],[140.136694,37.097659],[140.136987,37.097845],[140.137147,37.097973],[140.137433,37.098292],[140.137803,37.098769],[140.138116,37.099187],[140.138366,37.09952],[140.138743,37.100121],[140.138896,37.100431],[140.139193,37.101084],[140.139441,37.101652],[140.139564,37.102128],[140.139576,37.102466],[140.139562,37.102673],[140.139541,37.102841],[140.139483,37.103062],[140.13941,37.103294],[140.13926,37.103608],[140.139017,37.10405],[140.138818,37.104406],[140.138611,37.104789],[140.138499,37.105004],[140.138493,37.105015]]}},{"type":"Feature","properties":{"id":633154214,"highway":"service"},"geometry":{"type":"LineString","coordinates":[[140.100814,37.101045],[140.100691,37.100599],[140.100563,37.100599],[140.100417,37.10059],[140.100324,37.100558],[140.100251,37.100518],[140.100236,37.100451],[140.100277,37.100395],[140.100364,37.100374],[140.100965,37.100281],[140.101032,37.100299],[140.10107,37.100334],[140.101081,37.100392],[140.101055,37.100446],[140.100959,37.100502],[140.100857,37.100551],[140.100787,37.100572],[140.100691,37.100599]]}},{"type":"Feature","properties":{"id":646193444,"highway":"unclassified"},"geometry":{"type":"LineString","coordinates":[[140.105054,37.100216],[140.10511,37.100195],[140.105199,37.100196],[140.1053,37.10021],[140.105771,37.100306],[140.10699,37.100481],[140.107195,37.100479],[140.107342,37.100444]]}},{"type":"Feature","properties":{"id":646193445,"highway":"unclassified"},"geometry":{"type":"LineString","coordinates":[[140.104911,37.100293],[140.105054,37.100216]]}},{"type":"Feature","properties":{"id":936645224,"highway":"service"},"geometry":{"type":"LineString","coordinates":[[140.114081,37.106614],[140.114585,37.106329],[140.114617,37.106293],[140.114621,37.106252],[140.114441,37.106045],[140.114413,37.106016],[140.114349,37.105994],[140.114305,37.105972],[140.114289,37.105927],[140.114332,37.105732]]}},{"type":"Feature","properties":{"id":936998041,"highway":"service"},"geometry":{"type":"LineString","coordinates":[[140.1114,37.113632],[140.111593,37.113446],[140.111814,37.113275],[140.111917,37.1132],[140.112191,37.112985]]}},{"type":"Feature","properties":{"id":936998042,"highway":"service"},"geometry":{"type":"LineString","coordinates":[[140.11188,37.113569],[140.112389,37.113172]]}},{"type":"Feature","properties":{"id":937010614,"highway":"unclassified"},"geometry":{"type":"LineString","coordinates":[[140.119813,37.101944],[140.119844,37.101378],[140.119881,37.101154],[140.119965,37.100987],[140.119974,37.100975],[140.120099,37.100804]]}},{"type":"Feature","properties":{"id":937010615,"highway":"service"},"geometry":{"type":"LineString","coordinates":[[140.118347,37.103014],[140.118592,37.103098]]}},{"type":"Feature","properties":{"id":937305177,"highway":"service"},"geometry":{"type":"LineString","coordinates":[[140.115644,37.101375],[140.116027,37.10085],[140.116071,37.100816],[140.116123,37.100799],[140.116199,37.100792],[140.116442,37.100831],[140.116521,37.100817],[140.116595,37.100787],[140.116626,37.100744],[140.116872,37.10022],[140.117055,37.099764],[140.117188,37.099371],[140.117243,37.099201]]}},{"type":"Feature","properties":{"id":941716008,"highway":"residential"},"geometry":{"type":"LineString","coordinates":[[140.130079,37.101393],[140.130099,37.101555],[140.130397,37.101767],[140.130799,37.101746],[140.130761,37.101643],[140.130712,37.101511],[140.130631,37.101291]]}},{"type":"Feature","properties":{"id":941716009,"highway":"service"},"geometry":{"type":"LineString","coordinates":[[140.130799,37.101746],[140.131044,37.101774],[140.131175,37.101795],[140.131266,37.101849],[140.13135,37.101993],[140.131361,37.10201],[140.131393,37.102025],[140.131518,37.102058],[140.131636,37.10205],[140.131744,37.102002],[140.131755,37.10199],[140.131787,37.101955],[140.131811,37.101889],[140.131803,37.101624]]}},{"type":"Feature","properties":{"id":941716010,"highway":"service"},"geometry":{"type":"LineString","coordinates":[[140.131237,37.102206],[140.131361,37.10201]]}},{"type":"Feature","properties":{"id":941716011,"highway":"service"},"geometry":{"type":"LineString","coordinates":[[140.130761,37.101643],[140.13114,37.101731],[140.131219,37.101736],[140.131258,37.101728],[140.131598,37.101623],[140.131641,37.101616],[140.131719,37.101619],[140.131803,37.101624],[140.131953,37.101632],[140.132147,37.101638],[140.1324,37.101639],[140.132452,37.101645]]}},{"type":"Feature","properties":{"id":942008170,"highway":"service"},"geometry":{"type":"LineString","coordinates":[[140.130999,37.101561],[140.130712,37.101511]]}},{"type":"Feature","properties":{"id":942008207,"highway":"service"},"geometry":{"type":"LineString","coordinates":[[140.131815,37.102041],[140.131755,37.10199]]}},{"type":"Feature","properties":{"id":942052023,"highway":"service"},"geometry":{"type":"LineString","coordinates":[[140.132452,37.101645],[140.132576,37.101669],[140.132767,37.101707],[140.132945,37.101723],[140.133093,37.101722],[140.133185,37.101692],[140.133273,37.101649],[140.133353,37.101581],[140.13346,37.101502]]}},{"type":"Feature","properties":{"id":943719421,"highway":"service"},"geometry":{"type":"LineString","coordinates":[[140.118459,37.107044],[140.118412,37.106929],[140.118373,37.106704],[140.118328,37.106482],[140.118288,37.106326],[140.118259,37.10625],[140.118198,37.10621],[140.118095,37.10618]]}},{"type":"Feature","properties":{"id":943719422,"highway":"service"},"geometry":{"type":"LineString","coordinates":[[140.117888,37.107199],[140.117844,37.107065],[140.1178,37.106543],[140.117827,37.106496],[140.118007,37.106347],[140.118071,37.10629],[140.118095,37.10618],[140.118097,37.10606],[140.118078,37.105757]]}},{"type":"Feature","properties":{"id":943752355,"highway":"service"},"geometry":{"type":"LineString","coordinates":[[140.119974,37.100975],[140.119748,37.100979],[140.119459,37.10101],[140.11903,37.101069],[140.118857,37.101103],[140.118764,37.101134],[140.118648,37.101193],[140.118557,37.101245],[140.1185,37.101275],[140.118455,37.101288],[140.118354,37.101283],[140.118218,37.101287],[140.118144,37.101299],[140.11807,37.101325],[140.117982,37.101386],[140.117936,37.101437],[140.117542,37.102009],[140.117517,37.102066],[140.117503,37.102135],[140.117496,37.102406],[140.11748,37.102448],[140.117445,37.102472],[140.117389,37.102495],[140.117304,37.102501],[140.116927,37.102491]]}},{"type":"Feature","properties":{"id":1304484939,"highway":"residential"},"geometry":{"type":"LineString","coordinates":[[140.11949,37.114287],[140.11932,37.114468],[140.119278,37.11453],[140.119138,37.114846],[140.119117,37.114893],[140.119076,37.114948],[140.119002,37.114989],[140.118884,37.11502],[140.118822,37.11503],[140.118751,37.115015],[140.11871,37.114989],[140.118674,37.114919],[140.118652,37.114818],[140.118611,37.114531],[140.118685,37.114189],[140.118638,37.114128],[140.118587,37.114083],[140.118565,37.114066],[140.118495,37.114057],[140.118299,37.114066],[140.118137,37.114094]]}},{"type":"Feature","properties":{"id":1304484940,"highway":"residential"},"geometry":{"type":"LineString","coordinates":[[140.119567,37.114236],[140.11949,37.114287]]}}]}