{"type":"FeatureCollection","features":[{"type":"Feature","properties":{"id":39523741,"highway":"secondary"},"geometry":{"type":"LineString","coordinates":[[140.097953,35.077706],[140.098014,35.077668],[140.098291,35.077519],[140.098477,35.077433],[140.09866,35.077351],[140.0988,35.077318],[140.099116,35.077277],[140.099236,35.077239],[140.099309,35.07719],[140.099453,35.077005],[140.09955,35.076935],[140.099648,35.076898],[140.099843,35.076881],[140.100228,35.076865],[140.100329,35.076864],[140.100406,35.076895],[140.100468,35.076936],[140.100569,35.077002],[140.100656,35.077081],[140.10073,35.07717],[140.100778,35.077207],[140.100837,35.077244],[140.100928,35.077256],[140.100947,35.077259],[140.101084,35.077277],[140.101136,35.077281],[140.101349,35.077293],[140.101471,35.077302],[140.101584,35.077329],[140.101642,35.077367],[140.101679,35.077408],[140.101686,35.077463],[140.101687,35.077521],[140.101688,35.077572],[140.101725,35.077624],[140.101784,35.077667],[140.101799,35.077672],[140.101878,35.077694],[140.101965,35.077717]]}},{"type":"Feature","properties":{"id":39523742,"highway":"unclassified"},"geometry":{"type":"LineString","coordinates":[[140.102334,35.07792],[140.102575,35.078352],[140.102578,35.0784],[140.102552,35.078461],[140.102474,35.078521],[140.102239,35.078558],[140.101969,35.078588]]}},{"type":"Feature","properties":{"id":39523744,"highway":"residential"},"geometry":{"type":"LineString","coordinates":[[140.101965,35.077717],[140.101974,35.077802],[140.101925,35.077913],[140.101871,35.078034],[140.101904,35.078148],[140.101935,35.078235],[140.101974,35.078346],[140.101967,35.078502],[140.101969,35.078588],[140.101742,35.07865],[140.10143,35.078761],[140.101044,35.078907],[140.1004,35.079083],[140.100046,35.079161],[140.099725,35.079306],[140.099425,35.079525],[140.099211,35.079794],[140.09904,35.080021],[140.099003,35.080129],[140.098973,35.080247],[140.098926,35.080528]]}},{"type":"Feature","properties":{"id":125593956,"highway":"secondary"},"geometry":{"type":"LineString","coordinates":[[140.101715,35.091947],[140.101832,35.091944],[140.101948,35.091952],[140.102239,35.091997],[140.102528,35.092045],[140.102578,35.092057],[140.102626,35.09207],[140.10266,35.092082],[140.102694,35.092102],[140.102733,35.092139],[140.102765,35.09218],[140.102786,35.092205],[140.103165,35.092638],[140.103257,35.092709],[140.103346,35.09278],[140.103463,35.0929],[140.103538,35.092977],[140.103702,35.093201],[140.103721,35.093227],[140.103794,35.093367],[140.103848,35.093455],[140.103938,35.093592],[140.103988,35.093645],[140.104092,35.093723],[140.104167,35.093764],[140.104225,35.093797],[140.104289,35.093832],[140.104381,35.093871],[140.104526,35.093938],[140.104647,35.093993],[140.104676,35.094007],[140.104705,35.094022],[140.104776,35.094088],[140.104795,35.094124],[140.104808,35.094164],[140.104817,35.094298],[140.104818,35.094404],[140.104809,35.094616],[140.104795,35.094667],[140.104777,35.094717],[140.104762,35.094751],[140.10475,35.09478],[140.104615,35.095019],[140.104596,35.095089],[140.104582,35.095315],[140.104578,35.095391],[140.104569,35.095468],[140.104559,35.095522],[140.104524,35.095591],[140.104479,35.095638],[140.104429,35.095685],[140.104386,35.095715],[140.104334,35.095744],[140.104252,35.095763],[140.104084,35.095765],[140.103954,35.09578],[140.103795,35.095827],[140.103678,35.095876],[140.103574,35.095925],[140.103515,35.095971],[140.10347,35.096032],[140.103403,35.096148],[140.103351,35.096209],[140.103338,35.096221],[140.103128,35.096414],[140.103025,35.096537],[140.102961,35.096612],[140.102903,35.096657],[140.102804,35.096677],[140.102677,35.096689],[140.102519,35.096721],[140.102403,35.096743],[140.102194,35.096818],[140.101983,35.096927],[140.101805,35.097061],[140.101784,35.097077],[140.101627,35.097197],[140.101552,35.097256],[140.101521,35.097283],[140.101502,35.09731],[140.101497,35.09736],[140.101497,35.097387],[140.101499,35.097412],[140.101503,35.097436],[140.10152,35.0975],[140.10154,35.097562],[140.101556,35.097597]]}},{"type":"Feature","properties":{"id":125594029,"highway":"residential"},"geometry":{"type":"LineString","coordinates":[[140.100198,35.09741],[140.099752,35.097398],[140.099547,35.097431],[140.09948,35.097441],[140.09908,35.09757],[140.098875,35.097644],[140.098701,35.097738],[140.098657,35.097756],[140.098604,35.097762],[140.098591,35.097762],[140.098544,35.097761],[140.098473,35.097741],[140.09839,35.097698],[140.098335,35.097651],[140.098306,35.097585],[140.098275,35.097273],[140.098233,35.097115],[140.098263,35.097021],[140.099173,35.09685]]}},{"type":"Feature","properties":{"id":125595099,"highway":"unclassified"},"geometry":{"type":"LineString","coordinates":[[140.105368,35.096856],[140.105228,35.097223],[140.105131,35.097394]]}},{"type":"Feature","properties":{"id":125596337,"highway":"unclassified"},"geometry":{"type":"LineString","coordinates":[[140.102752,35.097516],[140.102751,35.097514],[140.102751,35.097514],[140.102748,35.097509],[140.10277,35.097479],[140.102805,35.097447],[140.102934,35.097344],[140.103291,35.097113],[140.103345,35.097084]]}},{"type":"Feature","properties":{"id":125597278,"highway":"service"},"geometry":{"type":"LineString","coordinates":[[140.099878,35.079084],[140.100065,35.078968],[140.100191,35.078935],[140.100335,35.078909],[140.100463,35.078879],[140.100611,35.078779],[140.100715,35.078768],[140.100901,35.078857],[140.101003,35.078855],[140.101175,35.078775],[140.101303,35.078683]]}},{"type":"Feature","properties":{"id":125598030,"highway":"unclassified"},"geometry":{"type":"LineString","coordinates":[[140.104936,35.096409],[140.104845,35.096462],[140.104578,35.096587],[140.104397,35.096647],[140.104394,35.096649],[140.104209,35.096705],[140.10369,35.0969],[140.103527,35.096979],[140.103345,35.097084]]}},{"type":"Feature","properties":{"id":125598314,"highway":"unclassified"},"geometry":{"type":"LineString","coordinates":[[140.100258,35.096392],[140.100293,35.09641],[140.100322,35.096424]]}},{"type":"Feature","properties":{"id":170351727,"highway":"unclassified"},"geometry":{"type":"LineString","coordinates":[[140.103283,35.098915],[140.103793,35.098862],[140.103845,35.098856],[140.103934,35.098847],[140.104198,35.098812],[140.105146,35.098668],[140.105197,35.098651],[140.10524,35.098621],[140.105265,35.098584],[140.105444,35.098034],[140.105605,35.097539]]}},{"type":"Feature","properties":{"id":170351729,"highway":"unclassified"},"geometry":{"type":"LineString","coordinates":[[140.105238,35.097529],[140.105605,35.097539],[140.105987,35.097566],[140.106027,35.097569],[140.106279,35.097574],[140.106461,35.097589],[140.106622,35.097626],[140.106657,35.097651],[140.106686,35.097678],[140.106682,35.097725],[140.106527,35.098206],[140.1065,35.098243],[140.106451,35.098255],[140.106411,35.098256],[140.105444,35.098034]]}},{"type":"Feature","properties":{"id":170351732,"highway":"unclassified"},"geometry":{"type":"LineString","coordinates":[[140.105368,35.096856],[140.105413,35.096715],[140.105646,35.095964],[140.105655,35.095891],[140.105725,35.095334],[140.105743,35.095184],[140.10577,35.095022],[140.105805,35.094801],[140.105867,35.094707],[140.105908,35.094655],[140.10594,35.094616],[140.105955,35.094603],[140.106034,35.094536],[140.106088,35.094494],[140.106244,35.094423],[140.106914,35.094106],[140.106977,35.094049],[140.107002,35.093991],[140.106997,35.09393],[140.10693,35.093837],[140.106886,35.093796],[140.106846,35.093761]]}},{"type":"Feature","properties":{"id":185568392,"highway":"unclassified"},"geometry":{"type":"LineString","coordinates":[[140.103024,35.098086],[140.103121,35.098243],[140.103133,35.098265],[140.103195,35.098372],[140.10322,35.098489],[140.103295,35.098842],[140.103283,35.098915]]}},{"type":"Feature","properties":{"id":185568394,"highway":"unclassified"},"geometry":{"type":"LineString","coordinates":[[140.102752,35.097516],[140.10284,35.097691],[140.103015,35.098068]]}},{"type":"Feature","properties":{"id":185568395,"highway":"secondary"},"geometry":{"type":"LineString","coordinates":[[140.101808,35.098168],[140.101556,35.097597]]}},{"type":"Feature","properties":{"id":185568406,"highway":"unclassified"},"geometry":{"type":"LineString","coordinates":[[140.105413,35.096715],[140.105256,35.096661],[140.105163,35.096601],[140.10506,35.096514],[140.104942,35.096415],[140.104936,35.096409],[140.10487,35.096342],[140.104252,35.095763]]}},{"type":"Feature","properties":{"id":185568407,"highway":"unclassified"},"geometry":{"type":"LineString","coordinates":[[140.10154,35.097562],[140.102032,35.097559],[140.102384,35.09754],[140.102684,35.0975],[140.102726,35.097501],[140.102748,35.097509]]}},{"type":"Feature","properties":{"id":185568413,"highway":"secondary"},"geometry":{"type":"LineString","coordinates":[[140.101808,35.098168],[140.101875,35.098286],[140.101959,35.098426],[140.101977,35.098451],[140.102025,35.098518],[140.1022,35.098718],[140.102225,35.098746],[140.102421,35.098976],[140.102459,35.09903],[140.102492,35.099088]]}},{"type":"Feature","properties":{"id":185568421,"highway":"secondary"},"geometry":{"type":"LineString","coordinates":[[140.103859,35.104425],[140.10367,35.10334],[140.103606,35.103068],[140.103364,35.102039],[140.103218,35.101461],[140.103187,35.101352],[140.103069,35.100796],[140.103026,35.100627],[140.102843,35.100023],[140.102718,35.099735],[140.102632,35.099506],[140.102628,35.099496],[140.102498,35.099126],[140.102492,35.099088]]}},{"type":"Feature","properties":{"id":227978620,"highway":"residential"},"geometry":{"type":"LineString","coordinates":[[140.103793,35.098862],[140.103829,35.099203],[140.10388,35.099559],[140.103923,35.099831],[140.103524,35.099892]]}},{"type":"Feature","properties":{"id":227978623,"highway":"service"},"geometry":{"type":"LineString","coordinates":[[140.101438,35.09901],[140.101942,35.098869],[140.102061,35.098816],[140.1022,35.098718]]}},{"type":"Feature","properties":{"id":227978633,"highway":"service"},"geometry":{"type":"LineString","coordinates":[[140.102061,35.098816],[140.10209,35.099075],[140.102103,35.099235],[140.102109,35.099406],[140.102192,35.099577],[140.10215,35.099725],[140.102152,35.099817],[140.102156,35.099983],[140.102204,35.100166]]}},{"type":"Feature","properties":{"id":228039063,"highway":"service"},"geometry":{"type":"LineString","coordinates":[[140.10313,35.09932],[140.10339,35.099259]]}},{"type":"Feature","properties":{"id":228039065,"highway":"residential"},"geometry":{"type":"LineString","coordinates":[[140.100182,35.100091],[140.10019,35.099708]]}},{"type":"Feature","properties":{"id":228039066,"highway":"residential"},"geometry":{"type":"LineString","coordinates":[[140.102628,35.099496],[140.103031,35.099348],[140.10313,35.09932]]}},{"type":"Feature","properties":{"id":228039067,"highway":"service"},"geometry":{"type":"LineString","coordinates":[[140.101438,35.09901],[140.101505,35.098888],[140.101621,35.098677],[140.101687,35.098642],[140.102025,35.098518]]}},{"type":"Feature","properties":{"id":228043997,"highway":"service"},"geometry":{"type":"LineString","coordinates":[[140.10475,35.09478],[140.104962,35.094791],[140.105191,35.094754],[140.105252,35.094864],[140.105396,35.094822],[140.105441,35.094779],[140.105548,35.094687],[140.105577,35.094664],[140.105706,35.094548],[140.105834,35.094426],[140.105968,35.094336]]}},{"type":"Feature","properties":{"id":228043998,"highway":"service"},"geometry":{"type":"LineString","coordinates":[[140.103786,35.093939],[140.103858,35.094087],[140.103902,35.094178],[140.103946,35.094234],[140.104076,35.094395],[140.104011,35.094609],[140.104145,35.0947],[140.104412,35.094692],[140.104563,35.094693],[140.104777,35.094717]]}},{"type":"Feature","properties":{"id":228044000,"highway":"service"},"geometry":{"type":"LineString","coordinates":[[140.103795,35.095827],[140.103852,35.095917],[140.103912,35.095966],[140.103939,35.095987],[140.104115,35.0961],[140.104133,35.096111],[140.104161,35.096127],[140.104223,35.096204],[140.10425,35.096276],[140.104266,35.096346],[140.104316,35.096409],[140.104352,35.096484],[140.104397,35.096647]]}},{"type":"Feature","properties":{"id":228044002,"highway":"unclassified"},"geometry":{"type":"LineString","coordinates":[[140.104817,35.094298],[140.10511,35.094248],[140.105159,35.094234],[140.105344,35.09418],[140.105361,35.094172],[140.105535,35.094082],[140.105671,35.09399],[140.105796,35.093889],[140.105887,35.093828],[140.105946,35.093782],[140.10601,35.09376],[140.106339,35.093745],[140.106846,35.093761]]}},{"type":"Feature","properties":{"id":228044004,"highway":"residential"},"geometry":{"type":"LineString","coordinates":[[140.102677,35.096689],[140.102362,35.096297],[140.102306,35.096247],[140.102158,35.096204],[140.101965,35.096165],[140.101802,35.096182],[140.101657,35.096198],[140.101151,35.096341],[140.100796,35.096446],[140.100604,35.096465],[140.100322,35.096424]]}},{"type":"Feature","properties":{"id":228044010,"highway":"service"},"geometry":{"type":"LineString","coordinates":[[140.103403,35.096148],[140.103494,35.096205],[140.103514,35.096218],[140.103678,35.096371],[140.104133,35.096111]]}},{"type":"Feature","properties":{"id":228044011,"highway":"service"},"geometry":{"type":"LineString","coordinates":[[140.104647,35.093993],[140.104851,35.09386],[140.105241,35.09352]]}},{"type":"Feature","properties":{"id":228044013,"highway":"residential"},"geometry":{"type":"LineString","coordinates":[[140.100824,35.096735],[140.100899,35.096669],[140.101025,35.09659]]}},{"type":"Feature","properties":{"id":228044015,"highway":"service"},"geometry":{"type":"LineString","coordinates":[[140.10601,35.09376],[140.10632,35.093986],[140.106349,35.09401],[140.106527,35.094116],[140.1066,35.094046],[140.106674,35.093969],[140.106763,35.093894]]}},{"type":"Feature","properties":{"id":228044017,"highway":"service"},"geometry":{"type":"LineString","coordinates":[[140.10276,35.094598],[140.103028,35.094498],[140.103201,35.094336],[140.103349,35.094257],[140.103858,35.094087]]}},{"type":"Feature","properties":{"id":228044018,"highway":"service"},"geometry":{"type":"LineString","coordinates":[[140.101805,35.097061],[140.101923,35.097131],[140.102254,35.09697],[140.102565,35.096833],[140.102519,35.096721]]}},{"type":"Feature","properties":{"id":228044020,"highway":"service"},"geometry":{"type":"LineString","coordinates":[[140.104832,35.095458],[140.104934,35.095433],[140.105267,35.09535],[140.105117,35.095076],[140.104962,35.094791]]}},{"type":"Feature","properties":{"id":228044022,"highway":"residential"},"geometry":{"type":"LineString","coordinates":[[140.102903,35.096657],[140.102968,35.096702],[140.103081,35.096762],[140.103179,35.096846],[140.103345,35.097084]]}},{"type":"Feature","properties":{"id":228044023,"highway":"service"},"geometry":{"type":"LineString","coordinates":[[140.104381,35.093871],[140.104511,35.093762],[140.104759,35.093606],[140.104886,35.093541],[140.105102,35.093358]]}},{"type":"Feature","properties":{"id":228044024,"highway":"service"},"geometry":{"type":"LineString","coordinates":[[140.104145,35.0947],[140.104041,35.094776],[140.103999,35.094959],[140.103983,35.095003],[140.103943,35.095183],[140.103888,35.095197],[140.103734,35.095177]]}},{"type":"Feature","properties":{"id":228044026,"highway":"residential"},"geometry":{"type":"LineString","coordinates":[[140.103152,35.094253],[140.103185,35.094238],[140.103225,35.094201],[140.103238,35.094148],[140.103246,35.094111],[140.103299,35.094087],[140.103445,35.094041],[140.103652,35.093996],[140.103786,35.093939],[140.103803,35.093932],[140.104018,35.093847],[140.104133,35.093814],[140.104225,35.093797]]}},{"type":"Feature","properties":{"id":264847965,"highway":"residential"},"geometry":{"type":"LineString","coordinates":[[140.106846,35.093761],[140.106802,35.093721],[140.106725,35.09365],[140.106684,35.093633],[140.106369,35.093592],[140.106128,35.093531],[140.105984,35.0935],[140.10591,35.093475],[140.10576,35.093417],[140.105618,35.093331],[140.105488,35.093233],[140.104944,35.092875],[140.104793,35.092784],[140.104504,35.092637],[140.104383,35.09255],[140.103932,35.092035],[140.103794,35.091893],[140.103624,35.091575],[140.103512,35.091304],[140.103547,35.091216],[140.103641,35.091162],[140.104166,35.091089],[140.104604,35.091038],[140.105957,35.090849],[140.106854,35.090778],[140.107428,35.091012],[140.108503,35.09144],[140.108663,35.091772],[140.108911,35.092659],[140.109015,35.092981],[140.109061,35.093127],[140.109234,35.093436],[140.109901,35.093835],[140.110123,35.093955]]}},{"type":"Feature","properties":{"id":371232016,"highway":"residential"},"geometry":{"type":"LineString","coordinates":[[140.099206,35.086582],[140.099449,35.086578],[140.099802,35.086571],[140.09993,35.086558],[140.100096,35.086536],[140.100218,35.086539],[140.100317,35.08665],[140.1005,35.086744],[140.100576,35.086807],[140.100792,35.087093],[140.100867,35.087205],[140.100837,35.087329],[140.100791,35.087478],[140.100972,35.08764],[140.100945,35.087731],[140.100861,35.087776],[140.100769,35.087789],[140.100653,35.087796],[140.10052,35.087857],[140.100329,35.087821],[140.100178,35.087816],[140.100079,35.087875],[140.099969,35.087946],[140.099838,35.088045],[140.099799,35.088064],[140.099726,35.0881]]}},{"type":"Feature","properties":{"id":393244008,"highway":"secondary_link"},"geometry":{"type":"LineString","coordinates":[[140.102492,35.099088],[140.102854,35.09898],[140.103151,35.098897],[140.103185,35.098893],[140.10322,35.098897],[140.103251,35.098902],[140.103283,35.098915],[140.103311,35.098944],[140.10333,35.098994],[140.10339,35.099259],[140.103399,35.099297],[140.103431,35.099425],[140.103473,35.099635],[140.103524,35.099892],[140.103532,35.099925],[140.103569,35.100085],[140.10371,35.100709],[140.103759,35.100927],[140.103762,35.100941],[140.103844,35.101377],[140.103929,35.101806],[140.103954,35.101931],[140.104043,35.102388],[140.104135,35.102857],[140.104205,35.103252],[140.104316,35.103763],[140.104318,35.103812],[140.104313,35.103862],[140.104285,35.103908]]}},{"type":"Feature","properties":{"id":405038552,"highway":"service"},"geometry":{"type":"LineString","coordinates":[[140.101967,35.078502],[140.101853,35.078497],[140.101682,35.078511],[140.101483,35.078551],[140.101303,35.078683]]}},{"type":"Feature","properties":{"id":450924177,"highway":"residential"},"geometry":{"type":"LineString","coordinates":[[140.100618,35.097347],[140.100585,35.097555]]}},{"type":"Feature","properties":{"id":450924188,"highway":"tertiary"},"geometry":{"type":"LineString","coordinates":[[140.09862,35.099057],[140.098647,35.099012],[140.0987,35.098953],[140.099066,35.09857],[140.099179,35.098449],[140.100013,35.097557],[140.100064,35.097505],[140.100124,35.09746],[140.100198,35.09741],[140.100275,35.097383],[140.1004,35.097348],[140.100455,35.097344],[140.100508,35.097345],[140.100618,35.097347],[140.100818,35.097362],[140.100915,35.097363],[140.101033,35.09736],[140.101086,35.097356],[140.101141,35.097346],[140.101263,35.097311],[140.101414,35.09728],[140.10144,35.097279],[140.101455,35.097283],[140.101468,35.097289],[140.101502,35.09731]]}},{"type":"Feature","properties":{"id":450925004,"highway":"residential"},"geometry":{"type":"LineString","coordinates":[[140.103046,35.099506],[140.103135,35.099481],[140.103431,35.099425]]}},{"type":"Feature","properties":{"id":450925011,"highway":"unclassified"},"geometry":{"type":"LineString","coordinates":[[140.103934,35.098847],[140.103985,35.098784],[140.104008,35.098734],[140.104036,35.098077],[140.104054,35.098],[140.104101,35.097894],[140.104182,35.097803],[140.10428,35.09774],[140.104379,35.097698],[140.104461,35.097675],[140.104865,35.097585],[140.104974,35.097535],[140.105041,35.097484],[140.105131,35.097394]]}},{"type":"Feature","properties":{"id":450925396,"highway":"residential"},"geometry":{"type":"LineString","coordinates":[[140.102226,35.100167],[140.102204,35.100166],[140.101865,35.100032],[140.101675,35.099835],[140.101626,35.099847],[140.101311,35.100015],[140.101282,35.100057],[140.101281,35.100123],[140.10131,35.100161],[140.101469,35.100258],[140.101573,35.100315],[140.101743,35.100432],[140.101789,35.100463],[140.101839,35.100496],[140.101959,35.100576]]}},{"type":"Feature","properties":{"id":450925397,"highway":"service"},"geometry":{"type":"LineString","coordinates":[[140.101626,35.099847],[140.101545,35.099723],[140.101458,35.099713],[140.101497,35.099354],[140.101449,35.099119],[140.101393,35.099035],[140.101438,35.09901]]}},{"type":"Feature","properties":{"id":607619172,"highway":"service"},"geometry":{"type":"LineString","coordinates":[[140.104559,35.095522],[140.10407,35.095388],[140.103879,35.095386],[140.103811,35.095376],[140.103774,35.09531],[140.103867,35.095232],[140.103888,35.095197]]}},{"type":"Feature","properties":{"id":733431675,"highway":"residential"},"geometry":{"type":"LineString","coordinates":[[140.102532,35.098373],[140.102683,35.098607],[140.102693,35.098623],[140.102854,35.09898]]}},{"type":"Feature","properties":{"id":733431682,"highway":"residential"},"geometry":{"type":"LineString","coordinates":[[140.105555,35.096808],[140.105668,35.096114],[140.105646,35.095964]]}},{"type":"Feature","properties":{"id":763031633,"highway":"residential"},"geometry":{"type":"LineString","coordinates":[[140.099784,35.096268],[140.099864,35.096209],[140.099915,35.096197],[140.100087,35.096188]]}},{"type":"Feature","properties":{"id":763031640,"highway":"residential"},"geometry":{"type":"LineString","coordinates":[[140.103445,35.094041],[140.103368,35.093937],[140.103301,35.093936],[140.103261,35.093922],[140.10321,35.093912],[140.103143,35.093938],[140.103076,35.09396],[140.102967,35.094002],[140.102923,35.094024],[140.102904,35.094043],[140.102892,35.094079],[140.10288,35.094106],[140.102841,35.094129],[140.102759,35.09415],[140.102723,35.09416],[140.102594,35.094187],[140.102381,35.094268],[140.10235,35.094277],[140.102314,35.094288],[140.10226,35.094309],[140.102217,35.094314],[140.102176,35.094302],[140.102157,35.094279]]}},{"type":"Feature","properties":{"id":763031641,"highway":"residential"},"geometry":{"type":"LineString","coordinates":[[140.104011,35.094609],[140.103862,35.094609],[140.103789,35.094636],[140.103446,35.094715],[140.103382,35.094756],[140.103153,35.094851]]}},{"type":"Feature","properties":{"id":763102776,"highway":"residential"},"geometry":{"type":"LineString","coordinates":[[140.103702,35.093201],[140.103777,35.093162],[140.103913,35.093111],[140.104024,35.093083],[140.104095,35.093081],[140.104121,35.093091],[140.104133,35.09311],[140.104153,35.093193],[140.104163,35.093199],[140.104188,35.0932],[140.104217,35.093218],[140.104311,35.093355]]}},{"type":"Feature","properties":{"id":763121769,"highway":"service"},"geometry":{"type":"LineString","coordinates":[[140.105783,35.094102],[140.105818,35.09414],[140.105899,35.094235],[140.105968,35.094336]]}},{"type":"Feature","properties":{"id":763121771,"highway":"residential"},"geometry":{"type":"LineString","coordinates":[[140.105706,35.094548],[140.105698,35.094543],[140.105361,35.094172]]}},{"type":"Feature","properties":{"id":763135576,"highway":"service"},"geometry":{"type":"LineString","coordinates":[[140.106802,35.093721],[140.10714,35.093405]]}},{"type":"Feature","properties":{"id":763259709,"highway":"unclassified"},"geometry":{"type":"LineString","coordinates":[[140.10506,35.096514],[140.105425,35.096102],[140.105518,35.095948],[140.105655,35.095891]]}},{"type":"Feature","properties":{"id":763298863,"highway":"service"},"geometry":{"type":"LineString","coordinates":[[140.104352,35.094226],[140.104676,35.094007]]}},{"type":"Feature","properties":{"id":763298875,"highway":"residential"},"geometry":{"type":"LineString","coordinates":[[140.104934,35.095433],[140.104855,35.095265]]}},{"type":"Feature","properties":{"id":763298883,"highway":"unclassified"},"geometry":{"type":"LineString","coordinates":[[140.100824,35.096735],[140.100925,35.096869],[140.101104,35.097045],[140.101263,35.097311]]}},{"type":"Feature","properties":{"id":763298885,"highway":"service"},"geometry":{"type":"LineString","coordinates":[[140.100293,35.09641],[140.10028,35.096294],[140.100338,35.096199]]}},{"type":"Feature","properties":{"id":763304795,"highway":"residential"},"geometry":{"type":"LineString","coordinates":[[140.103121,35.098243],[140.103396,35.098159],[140.103701,35.098091],[140.103787,35.098111],[140.103763,35.098596],[140.103793,35.098862]]}},{"type":"Feature","properties":{"id":763304796,"highway":"residential"},"geometry":{"type":"LineString","coordinates":[[140.102225,35.098746],[140.102683,35.098607],[140.10322,35.098489]]}},{"type":"Feature","properties":{"id":763304836,"highway":"residential"},"geometry":{"type":"LineString","coordinates":[[140.099824,35.100084],[140.099964,35.099732],[140.10019,35.099708]]}},{"type":"Feature","properties":{"id":763304837,"highway":"service"},"geometry":{"type":"LineString","coordinates":[[140.10019,35.099708],[140.100191,35.099638],[140.100159,35.099514],[140.100266,35.098918]]}},{"type":"Feature","properties":{"id":1042118987,"highway":"unclassified"},"geometry":{"type":"LineString","coordinates":[[140.101965,35.077717],[140.101976,35.077697],[140.10201,35.077679],[140.102056,35.077666],[140.10211,35.077666],[140.102165,35.077679],[140.10221,35.077703],[140.102235,35.077734]]}},{"type":"Feature","properties":{"id":1042118988,"highway":"unclassified"},"geometry":{"type":"LineString","coordinates":[[140.102235,35.077734],[140.102334,35.07792]]}},{"type":"Feature","properties":{"id":1042118990,"highway":"service"},"geometry":{"type":"LineString","coordinates":[[140.101967,35.077654],[140.101959,35.077617]]}},{"type":"Feature","properties":{"id":1042118991,"highway":"service"},"geometry":{"type":"LineString","coordinates":[[140.101976,35.077697],[140.101967,35.077654]]}},{"type":"Feature","properties":{"id":1042118993,"highway":"service"},"geometry":{"type":"LineString","coordinates":[[140.101687,35.077521],[140.101709,35.077554],[140.101747,35.077588],[140.101788,35.077608],[140.101828,35.07762],[140.101858,35.077616]]}},{"type":"Feature","properties":{"id":1042118994,"highway":"service"},"geometry":{"type":"LineString","coordinates":[[140.101858,35.077616],[140.102032,35.077583]]}},{"type":"Feature","properties":{"id":1044276745,"highway":"secondary"},"geometry":{"type":"LineString","coordinates":[[140.098948,35.088406],[140.098981,35.088783],[140.098967,35.088817],[140.098921,35.08898],[140.098836,35.089257],[140.098831,35.089306],[140.098834,35.089355],[140.098843,35.089401],[140.09886,35.08946],[140.099003,35.089882],[140.099069,35.090071],[140.099131,35.090242],[140.099151,35.090282],[140.099176,35.090323],[140.099229,35.090391],[140.099277,35.090437],[140.099329,35.090486],[140.099358,35.090509],[140.099453,35.090585],[140.099719,35.090786],[140.09978,35.090837],[140.099851,35.090899],[140.099965,35.091008],[140.1002,35.091243],[140.100425,35.091486],[140.100481,35.091564],[140.100532,35.091649],[140.100559,35.091743],[140.100571,35.0918],[140.100587,35.091857],[140.100608,35.091896],[140.100626,35.091925],[140.10067,35.091981],[140.100705,35.092001],[140.100748,35.092021],[140.10081,35.092043],[140.100855,35.092049],[140.101007,35.092041],[140.101544,35.091958],[140.101715,35.091947]]}},{"type":"Feature","properties":{"id":1046069669,"highway":"service"},"geometry":{"type":"LineString","coordinates":[[140.102765,35.09218],[140.10267,35.092206],[140.102591,35.092237],[140.102564,35.092262],[140.102542,35.092314],[140.102527,35.092348],[140.102502,35.09237],[140.102465,35.092391],[140.102428,35.092399],[140.102354,35.092391],[140.102292,35.092373],[140.102249,35.092362]]}},{"type":"Feature","properties":{"id":1046069670,"highway":"service"},"geometry":{"type":"LineString","coordinates":[[140.102765,35.09218],[140.102864,35.092153],[140.102986,35.092106],[140.10306,35.092065],[140.103192,35.091979]]}},{"type":"Feature","properties":{"id":1046069673,"highway":"service"},"geometry":{"type":"LineString","coordinates":[[140.103257,35.092709],[140.103308,35.092663],[140.103365,35.092634],[140.103465,35.092612],[140.103595,35.092585],[140.103659,35.092568],[140.103747,35.092546],[140.103792,35.092525]]}},{"type":"Feature","properties":{"id":1047274530,"highway":"unclassified"},"geometry":{"type":"LineString","coordinates":[[140.102843,35.100023],[140.103181,35.099957],[140.103524,35.099892]]}},{"type":"Feature","properties":{"id":1259283479,"highway":"unclassified"},"geometry":{"type":"LineString","coordinates":[[140.103015,35.098068],[140.103024,35.098086]]}},{"type":"Feature","properties":{"id":1461684535,"highway":"residential"},"geometry":{"type":"LineString","coordinates":[[140.103659,35.092568],[140.103377,35.092188]]}}]}