{"type":"FeatureCollection","features":[{"type":"Feature","properties":{"id":158605906,"highway":"trunk"},"geometry":{"type":"LineString","coordinates":[[138.397041,36.490324],[138.39693,36.490347],[138.396868,36.490362],[138.3968,36.490383],[138.396749,36.49041],[138.396703,36.490438],[138.396657,36.490476],[138.396618,36.490513],[138.396414,36.490741],[138.396326,36.490832],[138.396275,36.490868],[138.396228,36.490899],[138.396182,36.490919],[138.396127,36.490937],[138.396043,36.490951],[138.395954,36.490955],[138.395886,36.490948],[138.395798,36.490926],[138.3957,36.49089],[138.395589,36.490838],[138.395266,36.490651],[138.395131,36.490567],[138.395019,36.490523],[138.394897,36.490493],[138.394778,36.49049],[138.394323,36.4906],[138.394196,36.490615],[138.394108,36.490608],[138.394029,36.49059],[138.393925,36.490545],[138.393793,36.490454],[138.393419,36.490098],[138.393225,36.489955],[138.393097,36.489887],[138.392847,36.489752],[138.392711,36.489715],[138.392572,36.489705],[138.392447,36.489722],[138.392324,36.489776],[138.392228,36.489854],[138.392163,36.489944],[138.392129,36.49003],[138.392178,36.490476],[138.392221,36.490746],[138.392251,36.490814],[138.392281,36.490856],[138.392328,36.490895],[138.39242,36.490943],[138.392637,36.491025],[138.392686,36.491053],[138.392743,36.491089],[138.392812,36.491152],[138.392863,36.491258],[138.392886,36.491595],[138.392911,36.491683],[138.392954,36.491776],[138.393033,36.491857],[138.393107,36.491917],[138.393223,36.491982],[138.393441,36.492068],[138.393733,36.492137],[138.393982,36.492191],[138.394168,36.492215],[138.394427,36.492216],[138.394588,36.492216],[138.39472,36.492243],[138.394826,36.492301],[138.394859,36.492388],[138.394845,36.492469],[138.394806,36.492537],[138.394741,36.492581],[138.394342,36.492696],[138.394051,36.492761],[138.393844,36.492855],[138.393672,36.492983],[138.393556,36.493071],[138.393368,36.49324],[138.39328,36.493294],[138.393162,36.493353],[138.392974,36.493405],[138.392806,36.493429],[138.392657,36.493427],[138.392489,36.49341],[138.392041,36.493333],[138.391802,36.493316],[138.391308,36.493308],[138.391117,36.493297],[138.390951,36.493271],[138.390532,36.493098],[138.390362,36.493052],[138.390214,36.493023],[138.39005,36.493006],[138.389792,36.493006],[138.389557,36.493005],[138.389305,36.493001],[138.388939,36.493015],[138.388828,36.493037],[138.388726,36.493067],[138.388647,36.493135],[138.388603,36.493208],[138.388588,36.493272],[138.388579,36.493328],[138.388592,36.493389],[138.388771,36.493697],[138.38885,36.493846],[138.388878,36.493984],[138.388906,36.494201],[138.388944,36.494349],[138.388978,36.494455],[138.389035,36.494531],[138.389121,36.494704],[138.389157,36.494877],[138.389171,36.494996],[138.389167,36.495536],[138.389196,36.495685],[138.389266,36.495853],[138.3893,36.495967],[138.389309,36.496089],[138.389306,36.496197],[138.389278,36.496268],[138.389228,36.496328],[138.389179,36.496357]]}},{"type":"Feature","properties":{"id":184685634,"highway":"tertiary"},"geometry":{"type":"LineString","coordinates":[[138.405504,36.485416],[138.40348,36.486114],[138.40145,36.486891],[138.400892,36.487065],[138.400335,36.487293],[138.400062,36.487491],[138.399987,36.48754],[138.39946,36.487878],[138.398782,36.488325],[138.398425,36.488568],[138.398349,36.488611],[138.397206,36.489362],[138.397053,36.489479],[138.396944,36.489581],[138.396882,36.489661],[138.396855,36.489737],[138.39686,36.489827],[138.396881,36.489929],[138.396963,36.490149],[138.397024,36.490273],[138.397041,36.490324]]}},{"type":"Feature","properties":{"id":186403974,"highway":"trunk"},"geometry":{"type":"LineString","coordinates":[[138.434448,36.486718],[138.433941,36.48664],[138.433749,36.486621],[138.433446,36.486544],[138.433168,36.486442],[138.432831,36.486363],[138.432117,36.486267],[138.431585,36.486148],[138.430277,36.485916],[138.430135,36.485874],[138.428245,36.485445],[138.428019,36.485442],[138.427713,36.485495],[138.427027,36.48568],[138.423283,36.487108],[138.422946,36.487192],[138.422117,36.487298],[138.421849,36.487346],[138.421436,36.487488],[138.420538,36.487827],[138.419517,36.488184],[138.419116,36.488336],[138.418717,36.488439],[138.418312,36.488489],[138.417705,36.488524],[138.417238,36.488562],[138.416487,36.488735],[138.416105,36.488796],[138.415436,36.488847],[138.414805,36.488874],[138.413899,36.488828],[138.413129,36.488722],[138.412704,36.488726],[138.412246,36.48884],[138.41156,36.488904],[138.411304,36.488953],[138.410574,36.489219],[138.410123,36.489391],[138.409757,36.489468],[138.408938,36.489493],[138.408434,36.489525],[138.407904,36.489639],[138.407453,36.489704],[138.406935,36.489708],[138.406538,36.489626],[138.406022,36.489469],[138.405805,36.489442],[138.405573,36.489434],[138.405064,36.489486],[138.404562,36.48962],[138.404191,36.489863],[138.403929,36.490015],[138.403758,36.490067],[138.403577,36.490065],[138.403304,36.489981],[138.402977,36.489885],[138.402833,36.48988],[138.402666,36.48988],[138.402415,36.489926],[138.401711,36.490134],[138.401521,36.490175],[138.401326,36.490168],[138.401173,36.490143],[138.401031,36.490072],[138.400743,36.489802],[138.400604,36.489679],[138.40043,36.48959],[138.400255,36.489541],[138.400056,36.489514],[138.399853,36.489502],[138.39962,36.489522],[138.399243,36.489629],[138.398995,36.489712],[138.398527,36.489938],[138.398101,36.490094],[138.397687,36.49023],[138.39736,36.490277],[138.397041,36.490324]]}}]}