{"type":"FeatureCollection","features":[{"type":"Feature","properties":{"id":198540023,"highway":"unclassified"},"geometry":{"type":"LineString","coordinates":[[140.212256,37.006715],[140.212376,37.006404],[140.212465,37.006114],[140.212542,37.005934],[140.2126,37.005803],[140.212781,37.005583],[140.213004,37.005435],[140.213125,37.005353],[140.213235,37.005213],[140.213363,37.004991],[140.213399,37.004837],[140.213414,37.004655],[140.21344,37.004467],[140.213498,37.00437],[140.213863,37.004094],[140.214168,37.003877],[140.214745,37.003402],[140.215005,37.003137],[140.215434,37.002747],[140.215839,37.002364],[140.215986,37.002213],[140.216094,37.002041],[140.216168,37.001856],[140.216222,37.001763],[140.216269,37.001709],[140.216347,37.001668],[140.216465,37.001648],[140.216885,37.001601],[140.216972,37.001573],[140.217051,37.001529],[140.2172,37.001365],[140.217748,37.000639],[140.217952,37.000442],[140.218153,37.000186],[140.218211,37.000135],[140.218292,37.00009]]}},{"type":"Feature","properties":{"id":227245648,"highway":"residential"},"geometry":{"type":"LineString","coordinates":[[140.21805,37.030118],[140.218084,37.030118],[140.218111,37.030102],[140.218183,37.029956],[140.218335,37.029596],[140.218379,37.029488],[140.218387,37.029371],[140.218407,37.029052],[140.218419,37.028928],[140.218431,37.028832],[140.218433,37.028756]]}},{"type":"Feature","properties":{"id":227245690,"highway":"residential"},"geometry":{"type":"LineString","coordinates":[[140.220031,37.027686],[140.219936,37.027644],[140.219778,37.027629],[140.219644,37.027696],[140.219567,37.027764],[140.21949,37.02786],[140.219321,37.028176],[140.219167,37.028525],[140.219145,37.028542],[140.219086,37.028564],[140.218835,37.028583],[140.218585,37.028632],[140.218433,37.028756]]}},{"type":"Feature","properties":{"id":227245735,"highway":"residential"},"geometry":{"type":"LineString","coordinates":[[140.21758,37.024054],[140.217572,37.024135],[140.21757,37.024265],[140.217579,37.024328],[140.21774,37.024548],[140.217888,37.024745],[140.218015,37.024936],[140.218099,37.025145],[140.21819,37.025448],[140.218317,37.025657],[140.218457,37.02586],[140.218514,37.025995]]}},{"type":"Feature","properties":{"id":227245749,"highway":"residential"},"geometry":{"type":"LineString","coordinates":[[140.20059,37.046396],[140.20067,37.046298],[140.200782,37.046165],[140.20082,37.046097],[140.200825,37.046059],[140.200822,37.046021],[140.200755,37.045898],[140.200643,37.045729],[140.200573,37.045543],[140.200573,37.045329],[140.200657,37.044715],[140.200672,37.044605]]}},{"type":"Feature","properties":{"id":227248044,"highway":"residential"},"geometry":{"type":"LineString","coordinates":[[140.218514,37.025995],[140.218528,37.026057],[140.218521,37.026293],[140.218506,37.026355],[140.218415,37.026435],[140.218275,37.026496],[140.218071,37.026558],[140.218029,37.026586],[140.218029,37.026687],[140.218036,37.027269],[140.218057,37.027348],[140.218224,37.027518],[140.218405,37.027699],[140.218492,37.02795],[140.218475,37.028006],[140.218379,37.028186],[140.218337,37.028312],[140.218311,37.028396],[140.218361,37.028453],[140.21843,37.0286],[140.218433,37.028756]]}},{"type":"Feature","properties":{"id":227248105,"highway":"residential"},"geometry":{"type":"LineString","coordinates":[[140.202985,37.053734],[140.202567,37.053554],[140.202322,37.053379],[140.202097,37.053176],[140.201914,37.053007],[140.201802,37.052923],[140.201675,37.052878],[140.20152,37.052878],[140.201464,37.052895],[140.201162,37.053086],[140.201116,37.053101],[140.201064,37.053098],[140.200951,37.053047],[140.200789,37.052945],[140.200737,37.052926],[140.200656,37.05294],[140.200529,37.05299],[140.200305,37.053137],[140.200152,37.053286]]}},{"type":"Feature","properties":{"id":227248730,"highway":"unclassified"},"geometry":{"type":"LineString","coordinates":[[140.200144,37.046403],[140.199951,37.04641]]}},{"type":"Feature","properties":{"id":227249747,"highway":"unclassified"},"geometry":{"type":"LineString","coordinates":[[140.206312,37.048648],[140.206234,37.048602],[140.20618,37.048568],[140.205882,37.048353],[140.20539,37.047971],[140.205279,37.047869],[140.205054,37.047695],[140.204937,37.047619],[140.204772,37.047515],[140.204477,37.047351],[140.204302,37.047233],[140.204064,37.046985],[140.203874,37.046839],[140.203725,37.046766],[140.203557,37.046698],[140.203093,37.046574],[140.202798,37.046512],[140.202313,37.046467],[140.201809,37.046433],[140.200713,37.046405],[140.20059,37.046396]]}},{"type":"Feature","properties":{"id":227249776,"highway":"unclassified"},"geometry":{"type":"LineString","coordinates":[[140.204422,37.055065],[140.203709,37.055024],[140.203572,37.055035],[140.203213,37.055086],[140.20256,37.055255],[140.202447,37.055272],[140.202132,37.055272],[140.201752,37.055238],[140.201175,37.055221],[140.200959,37.055233],[140.200762,37.055278],[140.200572,37.055334],[140.200255,37.055424],[140.200059,37.055435],[140.199862,37.055418],[140.199602,37.055368],[140.199447,37.055317],[140.199279,37.055244],[140.19904,37.055176],[140.198843,37.055148],[140.198775,37.055144],[140.198653,37.055137]]}},{"type":"Feature","properties":{"id":227251417,"highway":"residential"},"geometry":{"type":"LineString","coordinates":[[140.211758,37.027729],[140.211987,37.02764],[140.212212,37.027556],[140.212465,37.027494],[140.212696,37.027449],[140.212921,37.027449],[140.213146,37.02746],[140.213307,37.027409],[140.213617,37.027212],[140.213779,37.027139],[140.21382,37.027128],[140.213934,37.027122],[140.214039,37.02715],[140.214157,37.027218],[140.2142,37.027263],[140.214292,37.027331],[140.214622,37.027449],[140.214775,37.027539],[140.21491,37.027669],[140.215057,37.02786],[140.215225,37.027995],[140.215418,37.028175],[140.215398,37.028265],[140.21539,37.028451],[140.215422,37.028581],[140.215485,37.028649],[140.215985,37.02893],[140.216125,37.028987],[140.216308,37.029038],[140.216624,37.029105],[140.216898,37.029218],[140.217144,37.029359],[140.217207,37.029409],[140.217424,37.029556],[140.217825,37.029888],[140.217951,37.03004],[140.218011,37.030088],[140.21805,37.030118]]}},{"type":"Feature","properties":{"id":227251859,"highway":"unclassified"},"geometry":{"type":"LineString","coordinates":[[140.20059,37.046396],[140.200467,37.046388],[140.200256,37.046394],[140.200144,37.046403]]}},{"type":"Feature","properties":{"id":227253327,"highway":"residential"},"geometry":{"type":"LineString","coordinates":[[140.218514,37.025995],[140.21857,37.02599],[140.21864,37.025961],[140.218907,37.02595],[140.219083,37.025893],[140.219241,37.025821]]}},{"type":"Feature","properties":{"id":227253541,"highway":"residential"},"geometry":{"type":"LineString","coordinates":[[140.219599,37.026013],[140.219862,37.02582],[140.220255,37.025455],[140.220515,37.025241],[140.220719,37.025122],[140.220929,37.025021]]}},{"type":"Feature","properties":{"id":227254340,"highway":"residential"},"geometry":{"type":"LineString","coordinates":[[140.203414,37.050097],[140.203235,37.050112],[140.20303,37.050105],[140.202517,37.050015],[140.202364,37.049982],[140.20216,37.04993],[140.201949,37.04988],[140.201844,37.049848]]}},{"type":"Feature","properties":{"id":353333728,"highway":"residential"},"geometry":{"type":"LineString","coordinates":[[140.215418,37.028175],[140.215458,37.027875],[140.215499,37.027691],[140.215506,37.027504],[140.215471,37.027386],[140.215469,37.02734]]}},{"type":"Feature","properties":{"id":353431293,"highway":"primary"},"geometry":{"type":"LineString","coordinates":[[140.227384,37.046591],[140.227349,37.046524],[140.227328,37.046433],[140.227311,37.046378],[140.227279,37.046213],[140.227304,37.046071],[140.227379,37.045862],[140.227497,37.045521],[140.227553,37.045391],[140.227703,37.044818],[140.227793,37.044542],[140.227854,37.044128],[140.227854,37.043966],[140.227852,37.043807],[140.227848,37.043443],[140.227863,37.043048],[140.22785,37.042297],[140.227918,37.041853],[140.228123,37.041208],[140.228241,37.040838],[140.228341,37.040525],[140.228444,37.040264],[140.22861,37.039987],[140.228793,37.039637],[140.228877,37.039422],[140.228905,37.039291],[140.228998,37.038155],[140.229,37.038062],[140.228955,37.037476],[140.228945,37.037174],[140.22893,37.036784],[140.228897,37.036411],[140.228874,37.036254],[140.228875,37.036121],[140.228813,37.035862],[140.228666,37.035533],[140.228427,37.035224],[140.22826,37.035017],[140.228128,37.03477],[140.228114,37.034626],[140.228093,37.034505],[140.228121,37.034239],[140.228221,37.033942],[140.228347,37.033477],[140.228364,37.033416],[140.228453,37.033094],[140.228467,37.032818],[140.22846,37.03253],[140.228354,37.031905],[140.228291,37.031601],[140.228032,37.031415],[140.227964,37.031149],[140.22798,37.031057],[140.228006,37.030917],[140.228049,37.030718],[140.228144,37.030232],[140.228179,37.029832],[140.228196,37.029139],[140.228219,37.028823],[140.228227,37.028649],[140.228416,37.028391],[140.228977,37.02756],[140.229442,37.026756],[140.229561,37.026528],[140.229602,37.026403],[140.229619,37.025886],[140.229657,37.025788],[140.229799,37.025495],[140.229812,37.025432],[140.229795,37.025291],[140.229723,37.025154],[140.229573,37.024938],[140.229509,37.024822],[140.229379,37.024438],[140.229357,37.024215],[140.229322,37.023929],[140.229314,37.023802]]}},{"type":"Feature","properties":{"id":415174833,"highway":"primary"},"geometry":{"type":"LineString","coordinates":[[140.218211,36.999749],[140.218254,36.999983],[140.218292,37.00009],[140.218377,37.000188],[140.218691,37.00045],[140.219091,37.000817],[140.219643,37.001371],[140.219962,37.001707],[140.220441,37.002321],[140.220834,37.002887],[140.220977,37.003073],[140.221135,37.003236],[140.221507,37.003531],[140.221885,37.003766],[140.222211,37.003945],[140.222477,37.004048],[140.223046,37.004212],[140.223233,37.004298],[140.223352,37.004388],[140.223629,37.004711],[140.223653,37.004791],[140.223657,37.004901],[140.223609,37.005387],[140.223542,37.005944],[140.223542,37.006086],[140.223563,37.006209],[140.223611,37.006344],[140.223667,37.006462],[140.223737,37.00655],[140.22383,37.006611],[140.224591,37.006962],[140.224783,37.007058],[140.225067,37.007243],[140.225174,37.007339],[140.225243,37.007445],[140.225307,37.007573],[140.225374,37.007781],[140.225455,37.007918],[140.225557,37.008056],[140.225673,37.008169],[140.225954,37.008347],[140.226744,37.008866],[140.226902,37.009067],[140.227,37.009319],[140.22708,37.009778],[140.227168,37.009976],[140.227479,37.01046],[140.227498,37.010583],[140.227415,37.010956],[140.227153,37.011891],[140.227156,37.012242],[140.227305,37.012853],[140.227297,37.013252],[140.227281,37.013736],[140.227391,37.014108],[140.227737,37.014772],[140.227968,37.015346],[140.22805,37.015833],[140.228082,37.016329],[140.228116,37.016518],[140.228165,37.016688],[140.228266,37.016968],[140.228341,37.017239],[140.228359,37.017415],[140.22831,37.018074],[140.228295,37.01847],[140.228317,37.018732],[140.228326,37.018843],[140.228414,37.019045],[140.22857,37.0194],[140.228845,37.019914],[140.228949,37.020033],[140.22904,37.020097],[140.229123,37.020138],[140.229692,37.020336],[140.229873,37.020431],[140.229967,37.020502],[140.230041,37.020613],[140.230144,37.020798]]}},{"type":"Feature","properties":{"id":566486166,"highway":"residential"},"geometry":{"type":"LineString","coordinates":[[140.212325,37.006733],[140.212576,37.006742],[140.212964,37.006781]]}},{"type":"Feature","properties":{"id":655299687,"highway":"primary"},"geometry":{"type":"LineString","coordinates":[[140.230144,37.020798],[140.23025,37.021007],[140.230315,37.021192],[140.23033,37.021335],[140.230321,37.021492],[140.230265,37.021649],[140.230189,37.021759],[140.230086,37.021889],[140.229928,37.022096],[140.229685,37.02251],[140.229582,37.022728],[140.229506,37.022932],[140.229322,37.023715],[140.229314,37.023802]]}},{"type":"Feature","properties":{"id":955631845,"highway":"service"},"geometry":{"type":"LineString","coordinates":[[140.232935,37.021076],[140.232875,37.021067],[140.232654,37.02098],[140.23261,37.020963],[140.232521,37.020955],[140.23227,37.021008],[140.232114,37.021012],[140.231996,37.021],[140.231875,37.020979],[140.231401,37.020862],[140.231298,37.02083],[140.231234,37.0208],[140.231113,37.020716],[140.23098,37.020653],[140.230911,37.020629],[140.230848,37.020629],[140.230757,37.020646],[140.230489,37.020709],[140.230144,37.020798]]}}]}