{"type":"FeatureCollection","features":[{"type":"Feature","properties":{"id":107141682,"highway":"unclassified"},"geometry":{"type":"LineString","coordinates":[[140.489436,36.817958],[140.489316,36.817931],[140.489241,36.817897],[140.489169,36.817844],[140.489084,36.817775],[140.488921,36.817631],[140.488717,36.81745],[140.488026,36.816832],[140.487847,36.81666],[140.487747,36.816557],[140.487643,36.816427],[140.487525,36.816259],[140.487362,36.81609],[140.487201,36.815908],[140.487132,36.815864],[140.487051,36.815845],[140.486967,36.815855],[140.486818,36.815894],[140.486673,36.815931],[140.486564,36.815941],[140.4865,36.815928],[140.486387,36.81587],[140.486314,36.815811],[140.486288,36.815758],[140.486292,36.815698],[140.48631,36.815644],[140.486336,36.815607],[140.486383,36.81557],[140.486444,36.815538],[140.486685,36.815465],[140.486735,36.815439],[140.486774,36.815408],[140.486802,36.815367],[140.486813,36.815303],[140.486809,36.815237],[140.486616,36.814501],[140.486596,36.814433],[140.486477,36.814228],[140.486438,36.814138],[140.486417,36.81406],[140.486417,36.813991],[140.486433,36.813929],[140.486469,36.813872],[140.486626,36.813691],[140.486658,36.813649],[140.486676,36.813588],[140.486685,36.813503],[140.486683,36.813277],[140.48667,36.812721],[140.48668,36.812527],[140.486704,36.812462],[140.486744,36.812411],[140.486935,36.812241],[140.486979,36.812169],[140.486998,36.812117],[140.487013,36.812061],[140.487017,36.811987],[140.487007,36.811927],[140.486972,36.811867],[140.486902,36.811821],[140.486764,36.811765],[140.486344,36.811573],[140.485797,36.811174],[140.485721,36.811129],[140.485647,36.811102],[140.485584,36.811094],[140.485517,36.811095],[140.485452,36.811107],[140.485368,36.811136],[140.485161,36.811221],[140.484847,36.811351],[140.484788,36.811389],[140.484659,36.811541],[140.484555,36.81165],[140.484302,36.811869],[140.484169,36.811958],[140.484033,36.812048],[140.48394,36.812098],[140.483858,36.812121],[140.48377,36.812126],[140.48365,36.812129],[140.483556,36.812113],[140.483455,36.812109],[140.483375,36.812114],[140.48329,36.812139],[140.483182,36.812185],[140.483092,36.812215],[140.483036,36.812225],[140.482975,36.812224],[140.482905,36.812201],[140.48285,36.812166],[140.482813,36.812119],[140.482797,36.812056],[140.482708,36.811872],[140.482642,36.811803],[140.48253,36.811689],[140.482477,36.811657],[140.482416,36.811638],[140.482333,36.811622],[140.482154,36.8116],[140.482082,36.811575],[140.482022,36.811538],[140.481975,36.811494],[140.481944,36.811437],[140.481927,36.811374],[140.481901,36.811085],[140.481914,36.811025],[140.481936,36.810977],[140.481996,36.810909],[140.482077,36.810807],[140.482099,36.810758],[140.482105,36.810699],[140.482089,36.810633],[140.482058,36.81059],[140.482025,36.810558],[140.481958,36.810536],[140.481891,36.81053],[140.481823,36.810539],[140.481769,36.810563],[140.48172,36.810602],[140.481696,36.810647],[140.481661,36.81076],[140.481627,36.810809],[140.481582,36.810843],[140.48153,36.810862],[140.481469,36.810879],[140.481421,36.81088],[140.481369,36.81087],[140.481308,36.810841],[140.481261,36.810807],[140.481237,36.810761],[140.481233,36.810705],[140.481244,36.810658],[140.481267,36.810617],[140.481309,36.810574],[140.481492,36.810479],[140.481684,36.810376],[140.481798,36.8103],[140.481873,36.810239],[140.481913,36.81019],[140.481948,36.81012],[140.481973,36.810042],[140.481981,36.809963],[140.481979,36.809886],[140.481959,36.809786],[140.481936,36.809719],[140.481902,36.809652],[140.48186,36.809607],[140.481763,36.809517],[140.481721,36.809462],[140.481697,36.809393],[140.481665,36.809229],[140.481639,36.809141],[140.481615,36.8091],[140.481571,36.809066],[140.481524,36.80905],[140.481465,36.809043],[140.481401,36.809045],[140.481343,36.809058],[140.481297,36.809077],[140.481262,36.80911],[140.481173,36.809232],[140.481128,36.809279],[140.48107,36.809307],[140.481013,36.809327],[140.480953,36.809325],[140.480897,36.809315],[140.480846,36.809289],[140.480804,36.809249],[140.480779,36.809207],[140.480772,36.809162],[140.480782,36.809116],[140.480832,36.80904],[140.48089,36.808976],[140.481036,36.808857],[140.481106,36.808798],[140.481164,36.808723],[140.481184,36.808666],[140.481183,36.808618],[140.481177,36.808564],[140.481153,36.808481],[140.481116,36.808433],[140.481075,36.808392],[140.481018,36.808357],[140.480953,36.808332],[140.48087,36.808311],[140.480611,36.808253],[140.480516,36.808221],[140.480437,36.808184],[140.480342,36.808129],[140.480265,36.808077],[140.480198,36.808011],[140.480119,36.807927],[140.480041,36.80786],[140.47996,36.807809],[140.479909,36.807786],[140.479813,36.807755],[140.479536,36.807696],[140.479477,36.807673],[140.479423,36.80764],[140.479357,36.807591],[140.4793,36.807539],[140.479256,36.807504],[140.479205,36.807493],[140.479111,36.807485],[140.478993,36.80748],[140.478924,36.807491],[140.478854,36.807518],[140.478769,36.807565],[140.478612,36.80769],[140.478568,36.807714],[140.478509,36.807732],[140.478415,36.807736],[140.478317,36.807729],[140.478255,36.80771],[140.47809,36.807647],[140.478042,36.807637],[140.477994,36.807644],[140.477946,36.807665],[140.477877,36.807715],[140.477852,36.807758],[140.477841,36.807812],[140.477851,36.807855],[140.477878,36.807915],[140.477965,36.808017],[140.478015,36.808082],[140.478317,36.80853],[140.47835,36.808606],[140.47835,36.808665],[140.478327,36.808716],[140.478291,36.808759],[140.478242,36.808789],[140.478186,36.808803],[140.478138,36.808796],[140.478083,36.808782],[140.47804,36.808761],[140.477951,36.808686],[140.477913,36.808644],[140.477874,36.808584],[140.477835,36.808499],[140.477819,36.808386],[140.477787,36.808327],[140.477752,36.808279],[140.477713,36.808251],[140.477657,36.808238],[140.477603,36.808238],[140.47754,36.808256],[140.477495,36.808281],[140.477434,36.808327],[140.477376,36.808385],[140.477305,36.808489],[140.477221,36.808679],[140.47719,36.80873],[140.477151,36.808761],[140.477105,36.808787],[140.477045,36.808814],[140.476976,36.808825],[140.476897,36.80882],[140.476844,36.8088],[140.476783,36.808761],[140.476745,36.808706],[140.476731,36.808655],[140.476736,36.808604],[140.476756,36.808558],[140.476809,36.808506],[140.47687,36.808467],[140.477013,36.808397],[140.477096,36.808351],[140.477146,36.808305],[140.477192,36.808257],[140.477212,36.808215],[140.477223,36.80814],[140.47719,36.807954],[140.477188,36.807853],[140.477206,36.807752],[140.477235,36.807639],[140.477346,36.807451],[140.47748,36.807285],[140.477517,36.807221],[140.477542,36.807161],[140.47755,36.807109],[140.477537,36.80706],[140.4775,36.806967],[140.477473,36.806877],[140.477462,36.80681],[140.477466,36.806757],[140.477498,36.806626],[140.477519,36.806524],[140.477519,36.806452],[140.477499,36.806388],[140.477471,36.806341],[140.477427,36.806308],[140.477377,36.806292],[140.477257,36.80627],[140.477137,36.806265],[140.477051,36.80625],[140.476954,36.806216],[140.476908,36.80619],[140.476843,36.806151],[140.476772,36.806118],[140.476644,36.806088],[140.476512,36.806059],[140.476245,36.806036],[140.476107,36.806013],[140.475989,36.805982],[140.475809,36.805923],[140.475696,36.805893],[140.475377,36.805821],[140.474937,36.805698],[140.474682,36.805656],[140.474429,36.805626],[140.474311,36.805617],[140.474185,36.805612],[140.47378,36.805608],[140.473177,36.805596],[140.473069,36.805582],[140.472958,36.805557],[140.472712,36.805485],[140.472663,36.805473],[140.472597,36.805475],[140.472529,36.805504],[140.47248,36.805539],[140.472449,36.805585],[140.472433,36.80563],[140.472434,36.805698],[140.472455,36.805818],[140.472472,36.80591],[140.472479,36.805971],[140.472455,36.806027],[140.472416,36.806069],[140.472345,36.806104],[140.472278,36.806114],[140.472216,36.806109],[140.472152,36.806081],[140.472115,36.806036],[140.472087,36.805964],[140.472083,36.805891],[140.472103,36.805745],[140.472145,36.805624],[140.472213,36.805508],[140.472351,36.805355],[140.472399,36.805272],[140.47241,36.805222],[140.472396,36.805178],[140.472371,36.805121],[140.472333,36.805088],[140.472282,36.805062],[140.472224,36.805053],[140.472144,36.805051],[140.472099,36.805064],[140.471999,36.805106],[140.471448,36.805354],[140.471294,36.805426],[140.471159,36.805484],[140.471066,36.805503],[140.470976,36.805519],[140.470888,36.805523]]}},{"type":"Feature","properties":{"id":107141698,"highway":"secondary"},"geometry":{"type":"LineString","coordinates":[[140.426953,36.831006],[140.427023,36.830814],[140.427099,36.830668],[140.427163,36.830599],[140.42723,36.830558],[140.427314,36.830489],[140.427366,36.830438],[140.427396,36.830367],[140.427396,36.830324],[140.427379,36.830268],[140.427351,36.830189],[140.427348,36.830159],[140.427355,36.830131],[140.427386,36.830093],[140.427508,36.830043],[140.427564,36.829987],[140.427589,36.829913],[140.427612,36.829831],[140.427599,36.829707],[140.427607,36.829652],[140.427632,36.829592],[140.427643,36.829541],[140.427622,36.829479],[140.427603,36.829456],[140.427572,36.829436],[140.427506,36.829429],[140.427481,36.82943],[140.427448,36.829447],[140.427428,36.829465],[140.427416,36.82948],[140.427407,36.829499],[140.4274,36.829603],[140.427409,36.829661],[140.427422,36.829742],[140.427426,36.829776],[140.427418,36.829812],[140.427395,36.829839],[140.427362,36.829857],[140.427313,36.829864],[140.427256,36.829861],[140.427209,36.829836],[140.427188,36.829819],[140.427174,36.829776],[140.427174,36.829754],[140.42718,36.82969],[140.427281,36.82906],[140.427449,36.828398],[140.427455,36.828342],[140.427458,36.828308],[140.42753,36.827154],[140.42754,36.827035],[140.427687,36.82569],[140.427726,36.825563],[140.427799,36.825459],[140.427898,36.825355],[140.428076,36.825192],[140.428354,36.824944],[140.428513,36.824822]]}},{"type":"Feature","properties":{"id":107141743,"highway":"residential"},"geometry":{"type":"LineString","coordinates":[[140.473484,36.801627],[140.473455,36.801669],[140.473379,36.801731],[140.473147,36.801843],[140.472735,36.801996],[140.472674,36.802045]]}},{"type":"Feature","properties":{"id":107141796,"highway":"residential"},"geometry":{"type":"LineString","coordinates":[[140.496729,36.822339],[140.496833,36.822312],[140.49696,36.822317],[140.497071,36.822348],[140.497217,36.822414],[140.497385,36.822459],[140.497499,36.822523],[140.497604,36.822604],[140.497726,36.822691],[140.497802,36.822731]]}},{"type":"Feature","properties":{"id":107141831,"highway":"unclassified"},"geometry":{"type":"LineString","coordinates":[[140.492479,36.824146],[140.492461,36.824076],[140.492437,36.823954],[140.492424,36.823833],[140.492382,36.823575],[140.492355,36.823435],[140.492298,36.823301],[140.492162,36.822974],[140.492122,36.822901],[140.491929,36.822701],[140.491647,36.822426],[140.491582,36.822365],[140.491537,36.822308],[140.491502,36.822238],[140.491473,36.822174],[140.491392,36.821859],[140.491354,36.821651],[140.491351,36.821564],[140.491374,36.821493],[140.491406,36.821421],[140.491457,36.821357],[140.491511,36.821289],[140.4917,36.821106],[140.491775,36.82104],[140.491836,36.820961],[140.491874,36.82086],[140.49198,36.82051],[140.49198,36.820429],[140.491973,36.820357],[140.491949,36.820285],[140.491874,36.820121],[140.491815,36.820031],[140.491756,36.819974],[140.491688,36.819938],[140.491603,36.8199],[140.491496,36.819876],[140.491231,36.819844],[140.491124,36.81982],[140.491048,36.819793],[140.490989,36.819752],[140.49094,36.819713],[140.49089,36.81965],[140.490794,36.819492],[140.490696,36.819316],[140.490605,36.819145],[140.49057,36.819048],[140.490554,36.818987],[140.490557,36.818948],[140.490574,36.818899],[140.490629,36.818833],[140.490797,36.818669],[140.490871,36.818587],[140.4909,36.818529],[140.490916,36.81847],[140.490891,36.818403],[140.490829,36.818301],[140.490734,36.818181],[140.490676,36.81811],[140.49059,36.818049],[140.490527,36.818021],[140.490373,36.818001],[140.489986,36.817993],[140.489436,36.817958]]}},{"type":"Feature","properties":{"id":107141896,"highway":"residential"},"geometry":{"type":"LineString","coordinates":[[140.472674,36.802045],[140.472622,36.802086],[140.472497,36.802227],[140.472342,36.802334],[140.472014,36.802498],[140.471852,36.802543],[140.47172,36.802565],[140.471552,36.802583],[140.471405,36.802616],[140.471314,36.802656],[140.471104,36.802803],[140.471054,36.802867],[140.471002,36.802906],[140.470923,36.802922],[140.470548,36.802858]]}},{"type":"Feature","properties":{"id":107141917,"highway":"residential"},"geometry":{"type":"LineString","coordinates":[[140.431045,36.82374],[140.431041,36.823673],[140.430988,36.823566],[140.430939,36.823514],[140.430917,36.823501],[140.430889,36.823494],[140.430828,36.82349],[140.430747,36.823501],[140.43061,36.823604],[140.430307,36.823789],[140.430121,36.823865],[140.429944,36.823864],[140.429613,36.823805]]}},{"type":"Feature","properties":{"id":107141979,"highway":"residential"},"geometry":{"type":"LineString","coordinates":[[140.449208,36.815828],[140.449372,36.815689],[140.449404,36.815642],[140.449497,36.815619],[140.449714,36.815766],[140.449819,36.815817],[140.449952,36.815851],[140.450191,36.815889],[140.450355,36.815897],[140.450518,36.815875],[140.45065,36.815861],[140.450795,36.815844],[140.450914,36.815829],[140.45101,36.815796],[140.451114,36.815741],[140.451185,36.815675],[140.451198,36.815602],[140.451193,36.815539],[140.451072,36.815323],[140.450884,36.815089],[140.450849,36.815005],[140.450773,36.814872],[140.450701,36.814728],[140.450548,36.814521],[140.450503,36.814363],[140.45045,36.814262],[140.450414,36.814196],[140.450403,36.81412],[140.450426,36.814082],[140.450453,36.814048],[140.450502,36.814006],[140.450569,36.813949],[140.450674,36.813929],[140.450821,36.813962],[140.451009,36.81401],[140.451129,36.814028],[140.451189,36.813998],[140.451237,36.813963],[140.451283,36.813892],[140.451296,36.813837],[140.451246,36.813729],[140.451197,36.813631],[140.451017,36.81336],[140.450953,36.813164],[140.451,36.813079],[140.451059,36.813018],[140.451108,36.813004],[140.451135,36.812975],[140.451288,36.812947],[140.451458,36.812984],[140.451625,36.813048],[140.451753,36.813077],[140.451885,36.813054],[140.451987,36.81301],[140.452015,36.812934],[140.452101,36.812791],[140.45224,36.812744],[140.452312,36.812722],[140.452417,36.812803],[140.452508,36.81297],[140.452609,36.813018],[140.452763,36.813034],[140.452915,36.813009],[140.452991,36.812996],[140.453049,36.812977],[140.453201,36.812993],[140.453336,36.813082],[140.453457,36.813163],[140.453598,36.813184],[140.453737,36.813148],[140.453817,36.813101],[140.453837,36.813067],[140.453859,36.81303],[140.453835,36.812884],[140.453784,36.812744],[140.453671,36.812555],[140.453632,36.812339],[140.453599,36.812213],[140.453589,36.812046]]}},{"type":"Feature","properties":{"id":107141983,"highway":"residential"},"geometry":{"type":"LineString","coordinates":[[140.472827,36.800397],[140.473093,36.800452],[140.473185,36.800481],[140.473244,36.800527]]}},{"type":"Feature","properties":{"id":107142099,"highway":"residential"},"geometry":{"type":"LineString","coordinates":[[140.465295,36.800402],[140.465274,36.8003],[140.465285,36.800153],[140.465305,36.799951],[140.465343,36.799824],[140.465399,36.799735],[140.465505,36.799669],[140.465638,36.799639],[140.465781,36.799646],[140.466135,36.799744],[140.466363,36.799792],[140.466614,36.799819],[140.466775,36.799826],[140.466873,36.79977],[140.466919,36.799718],[140.466923,36.799689],[140.466946,36.799586],[140.466963,36.799447],[140.467034,36.799376],[140.467096,36.799304],[140.467159,36.799265],[140.467204,36.79921],[140.467222,36.799141],[140.467194,36.79906],[140.467121,36.798897],[140.467117,36.798814],[140.467184,36.798738],[140.467226,36.798708],[140.467287,36.79867],[140.467365,36.798626],[140.467442,36.798584],[140.46754,36.79855],[140.467679,36.798493],[140.467853,36.798426],[140.46801,36.798407],[140.468112,36.798404],[140.468233,36.798334],[140.4683,36.798259],[140.468336,36.798181],[140.468342,36.79808],[140.468312,36.797943],[140.468261,36.797859],[140.46825,36.797795],[140.468256,36.797714],[140.4683,36.79767],[140.468351,36.797637],[140.468484,36.797605],[140.468616,36.797636],[140.468852,36.797702],[140.468969,36.797705],[140.469038,36.797698],[140.469106,36.797691],[140.469165,36.797675],[140.469232,36.79767],[140.469304,36.797663],[140.469357,36.79768],[140.469396,36.797709],[140.469473,36.797799],[140.469537,36.7979],[140.469593,36.797961],[140.469675,36.797996],[140.46977,36.79802],[140.469927,36.798006],[140.470053,36.797996],[140.470186,36.797976],[140.470292,36.797967],[140.470419,36.797939],[140.470475,36.797893],[140.470528,36.797831],[140.470605,36.797705],[140.470714,36.797597],[140.470954,36.797503],[140.471106,36.797455],[140.471166,36.797391],[140.471207,36.797314],[140.47128,36.797109],[140.471347,36.796901],[140.47143,36.796715],[140.471505,36.796611],[140.471587,36.796499],[140.47165,36.796364],[140.47167,36.796246],[140.471659,36.796128],[140.471623,36.796057],[140.471605,36.795979]]}},{"type":"Feature","properties":{"id":107142108,"highway":"residential"},"geometry":{"type":"LineString","coordinates":[[140.460597,36.803706],[140.46072,36.803775],[140.46088,36.803889],[140.460951,36.804014],[140.461082,36.804184],[140.461375,36.804298],[140.461469,36.804355],[140.461655,36.804593],[140.461695,36.804794],[140.461778,36.804902],[140.461883,36.80497],[140.462232,36.805131],[140.462534,36.805245],[140.462807,36.80536],[140.463227,36.805439],[140.46362,36.805543],[140.464429,36.805514],[140.464618,36.805437],[140.464725,36.805408],[140.464902,36.805403],[140.465083,36.805474],[140.465328,36.805546],[140.465776,36.805694],[140.466224,36.805879],[140.466511,36.805969],[140.4667,36.806053],[140.466826,36.806121],[140.466994,36.806273],[140.467215,36.806467],[140.467271,36.806536],[140.467367,36.806687],[140.467403,36.806754],[140.467387,36.806799],[140.467386,36.806882],[140.467393,36.806966],[140.467426,36.80707],[140.467436,36.807122],[140.46746,36.807167],[140.467485,36.807255],[140.467505,36.807307],[140.467772,36.807748],[140.46782,36.807844],[140.467891,36.807926],[140.467939,36.807971],[140.467969,36.807994]]}},{"type":"Feature","properties":{"id":107142129,"highway":"residential"},"geometry":{"type":"LineString","coordinates":[[140.453589,36.812046],[140.453632,36.811938],[140.453626,36.811869],[140.453609,36.811822],[140.453551,36.81176],[140.453538,36.811698],[140.453542,36.811586],[140.453585,36.811528],[140.453663,36.811468],[140.453768,36.811384],[140.453851,36.811342],[140.453911,36.811324],[140.454072,36.811298],[140.454221,36.811257],[140.454326,36.811191],[140.454359,36.811102],[140.454354,36.811004],[140.454326,36.810917],[140.454272,36.810833],[140.454127,36.810694],[140.454001,36.810557],[140.453796,36.810425],[140.453646,36.810398],[140.453554,36.810325],[140.453552,36.810264],[140.453568,36.810187],[140.453611,36.810142],[140.453656,36.810095],[140.453766,36.810066],[140.45389,36.81004],[140.453937,36.809971],[140.453964,36.809916],[140.45397,36.809839],[140.453913,36.809636],[140.453768,36.809444],[140.45367,36.809253],[140.45367,36.809183],[140.453683,36.809112],[140.453706,36.809069],[140.453787,36.809021],[140.453891,36.809021],[140.454052,36.80904],[140.454281,36.809133],[140.454395,36.809189],[140.454551,36.809201],[140.454721,36.80919],[140.45493,36.809215],[140.455045,36.809177],[140.455126,36.809109],[140.455112,36.808937],[140.455093,36.808812],[140.455063,36.808673],[140.455019,36.808559],[140.454921,36.80843],[140.454768,36.808267],[140.45466,36.808149],[140.454523,36.807999],[140.454449,36.807934],[140.454444,36.807856],[140.454448,36.807781],[140.454497,36.807717],[140.454665,36.807686],[140.454811,36.807641],[140.454909,36.807579],[140.455001,36.807472],[140.455148,36.807362],[140.455254,36.807292],[140.455452,36.807273],[140.455687,36.807267],[140.455877,36.807358],[140.456065,36.807429],[140.456202,36.807479],[140.456339,36.807503],[140.456516,36.807594],[140.456642,36.807671],[140.456781,36.807756],[140.456891,36.807803]]}},{"type":"Feature","properties":{"id":107142133,"highway":"residential"},"geometry":{"type":"LineString","coordinates":[[140.473244,36.800527],[140.473325,36.800642],[140.473375,36.800757],[140.473433,36.800917],[140.473429,36.801034],[140.473484,36.801337],[140.473512,36.801433],[140.473512,36.801585],[140.473484,36.801627]]}},{"type":"Feature","properties":{"id":107142189,"highway":"residential"},"geometry":{"type":"LineString","coordinates":[[140.460597,36.803706],[140.460453,36.803376],[140.460492,36.803323],[140.460587,36.803264],[140.460736,36.803231],[140.460892,36.803244],[140.461031,36.803238],[140.461121,36.803258],[140.461239,36.803365],[140.461386,36.803557],[140.461512,36.803687],[140.461701,36.803816],[140.461799,36.803856],[140.461934,36.803916],[140.462093,36.803953],[140.462222,36.803981],[140.462351,36.803971],[140.462486,36.803911],[140.462588,36.803821],[140.462666,36.803701],[140.462866,36.803464],[140.46298,36.803337],[140.463035,36.803235],[140.463052,36.803166],[140.463033,36.8031],[140.462903,36.802983],[140.462682,36.802832],[140.46254,36.80272],[140.462465,36.80261],[140.462453,36.802496],[140.462505,36.802431],[140.462584,36.802387],[140.462677,36.802348],[140.462829,36.802334],[140.463066,36.802419],[140.463219,36.802458],[140.463345,36.802493],[140.463499,36.802432],[140.463549,36.802377],[140.463532,36.802275],[140.463507,36.802199],[140.463418,36.801981],[140.463224,36.801792],[140.463046,36.801563],[140.462948,36.80144],[140.462923,36.801379],[140.46291,36.801282],[140.462934,36.801216],[140.462985,36.801182],[140.463031,36.801162],[140.463074,36.80115],[140.463158,36.801148],[140.463414,36.801168],[140.463632,36.80118],[140.463885,36.801141],[140.464097,36.801127],[140.464684,36.801094],[140.464838,36.801107],[140.464991,36.801087],[140.465107,36.801049],[140.46518,36.800987],[140.465233,36.800938],[140.465266,36.800904],[140.465293,36.800862],[140.465307,36.800687],[140.465312,36.800558],[140.465295,36.800402]]}},{"type":"Feature","properties":{"id":107142218,"highway":"residential"},"geometry":{"type":"LineString","coordinates":[[140.442749,36.822784],[140.442804,36.822769],[140.443021,36.822729],[140.443202,36.822718],[140.443252,36.822701],[140.443455,36.822527],[140.443587,36.82251],[140.443686,36.822476],[140.443812,36.822409],[140.443882,36.822347],[140.443882,36.822256],[140.443714,36.821963],[140.443651,36.821783],[140.443559,36.821603],[140.443581,36.821551],[140.443874,36.821208],[140.444127,36.821145],[140.44433,36.821117],[140.444386,36.821078],[140.444414,36.820988],[140.444414,36.820818],[140.444357,36.820751],[140.444302,36.820712],[140.444099,36.820621],[140.444064,36.820576],[140.444042,36.820526],[140.444057,36.820312],[140.444106,36.820266],[140.444232,36.820216],[140.444357,36.820205],[140.444491,36.820137],[140.444701,36.819962],[140.444742,36.81989],[140.444736,36.819292],[140.44482,36.819225],[140.445217,36.819239],[140.445454,36.819153],[140.445543,36.819064],[140.445539,36.818888],[140.445523,36.818618],[140.445496,36.818409],[140.445505,36.81827],[140.445525,36.818149],[140.445504,36.817909],[140.445457,36.817745],[140.445513,36.817673],[140.44565,36.817619],[140.445791,36.817497],[140.445887,36.817433],[140.446007,36.817332],[140.446068,36.817275],[140.446129,36.81725],[140.446208,36.817232],[140.446284,36.817219],[140.446578,36.817349],[140.446696,36.817368],[140.446841,36.817357],[140.446994,36.817314],[140.447068,36.817202],[140.447176,36.817148],[140.447225,36.817138],[140.447273,36.817128],[140.447403,36.817145]]}},{"type":"Feature","properties":{"id":107142221,"highway":"secondary"},"geometry":{"type":"LineString","coordinates":[[140.429613,36.823805],[140.42985,36.823276],[140.429965,36.82319],[140.430036,36.823072],[140.430033,36.822929],[140.43001,36.822717],[140.43003,36.822635],[140.4301,36.82247],[140.430135,36.822333],[140.430104,36.822086],[140.430117,36.821962],[140.43012,36.821686],[140.430127,36.821475],[140.430066,36.821353],[140.430015,36.821327],[140.429955,36.821345],[140.429919,36.82141],[140.429934,36.821533],[140.429916,36.821606],[140.429857,36.821628],[140.429771,36.821616],[140.429734,36.821567],[140.429757,36.821436],[140.42973,36.82126],[140.429668,36.82116],[140.429594,36.821099],[140.429541,36.821027],[140.429478,36.820891],[140.429433,36.820744],[140.429386,36.820592],[140.429345,36.820478],[140.429248,36.820323],[140.429177,36.820255],[140.429101,36.820217],[140.428704,36.82013],[140.428605,36.820093],[140.427703,36.819294],[140.427541,36.819185],[140.427325,36.819031],[140.427249,36.818891],[140.427179,36.818747],[140.427107,36.818308],[140.427054,36.818132],[140.426924,36.817932],[140.426612,36.817585],[140.426338,36.817107],[140.426221,36.816867],[140.426184,36.816488]]}},{"type":"Feature","properties":{"id":107142225,"highway":"residential"},"geometry":{"type":"LineString","coordinates":[[140.447403,36.817145],[140.447545,36.81718],[140.447683,36.817172],[140.44782,36.817145],[140.447899,36.817078],[140.44804,36.816972],[140.448208,36.81688],[140.448385,36.816767],[140.448461,36.816696],[140.44849,36.816622],[140.448493,36.81657],[140.448444,36.816471],[140.448378,36.816386],[140.448339,36.816308],[140.448354,36.816245],[140.448409,36.816141],[140.448509,36.816098],[140.448659,36.816054],[140.448836,36.815987],[140.448967,36.81595],[140.449036,36.815908],[140.449089,36.815888],[140.449208,36.815828]]}},{"type":"Feature","properties":{"id":107142350,"highway":"residential"},"geometry":{"type":"LineString","coordinates":[[140.442222,36.825666],[140.442201,36.82553],[140.442182,36.825416],[140.442189,36.825381],[140.442229,36.825349],[140.442292,36.825321],[140.442327,36.825316],[140.442572,36.82531],[140.442706,36.825383],[140.443007,36.825524],[140.443056,36.82553],[140.443189,36.82553],[140.44325,36.825514],[140.443289,36.825479],[140.443322,36.825428],[140.443322,36.825366],[140.443287,36.825276],[140.44321,36.825091],[140.443203,36.824764],[140.443147,36.824538],[140.443147,36.824426],[140.443196,36.824381],[140.443259,36.824341],[140.443644,36.824336],[140.4437,36.824307],[140.443756,36.824262],[140.443777,36.824211],[140.44377,36.82411],[140.443721,36.823992],[140.443686,36.823958],[140.443644,36.823935],[140.443434,36.82389],[140.44335,36.823845],[140.443287,36.823727],[140.443021,36.8234],[140.442817,36.823197],[140.442741,36.82309],[140.442657,36.822904],[140.442661,36.822837],[140.442687,36.8228],[140.442749,36.822784]]}},{"type":"Feature","properties":{"id":107142432,"highway":"unclassified"},"geometry":{"type":"LineString","coordinates":[[140.493522,36.82386],[140.493557,36.823791],[140.493602,36.823709],[140.493632,36.823657],[140.493778,36.823583],[140.493943,36.823517],[140.494085,36.823459],[140.494195,36.823383],[140.494277,36.823302],[140.494456,36.82321],[140.494552,36.823159],[140.494589,36.82314]]}},{"type":"Feature","properties":{"id":107142438,"highway":"residential"},"geometry":{"type":"LineString","coordinates":[[140.456891,36.807803],[140.457035,36.807816],[140.457186,36.807811],[140.457275,36.80777],[140.457345,36.807706],[140.457371,36.807642],[140.457394,36.807552],[140.457413,36.807408],[140.457418,36.807269],[140.457452,36.807067],[140.457462,36.806971],[140.457497,36.806876],[140.457594,36.806745],[140.45765,36.806706],[140.457737,36.806684],[140.457797,36.806685],[140.457874,36.80668],[140.457936,36.806667],[140.45802,36.806641],[140.458109,36.806626],[140.458252,36.806651],[140.458408,36.806727],[140.45856,36.806784],[140.458667,36.806795],[140.458789,36.80678],[140.458873,36.806732],[140.458956,36.806665],[140.458959,36.806595],[140.458938,36.806513],[140.458907,36.806451],[140.458777,36.806272],[140.458649,36.806118],[140.458566,36.806028],[140.458445,36.805883],[140.45836,36.805787],[140.458133,36.805552],[140.45787,36.805302],[140.45777,36.805179],[140.457735,36.805063],[140.457646,36.804722],[140.457684,36.804592],[140.457755,36.80451],[140.457787,36.804497],[140.457825,36.804467],[140.458014,36.804424],[140.458176,36.804453],[140.458325,36.804492],[140.458417,36.804519],[140.458557,36.804542],[140.458751,36.804561],[140.458958,36.804545],[140.459205,36.804491],[140.459344,36.804452],[140.459437,36.804431],[140.459505,36.804441],[140.459559,36.804472],[140.459761,36.804576],[140.459847,36.804649],[140.459958,36.804729],[140.460114,36.804694],[140.460236,36.804643],[140.460353,36.804542],[140.460483,36.80421],[140.460504,36.804171],[140.460594,36.804015],[140.460597,36.803885],[140.460585,36.803815],[140.460597,36.803706]]}},{"type":"Feature","properties":{"id":107142527,"highway":"secondary"},"geometry":{"type":"LineString","coordinates":[[140.428513,36.824822],[140.428633,36.824747],[140.429126,36.824606],[140.42923,36.824558],[140.429342,36.824473],[140.42938,36.824409],[140.429415,36.824329],[140.429409,36.824229],[140.429424,36.824103],[140.429613,36.823805]]}},{"type":"Feature","properties":{"id":107142532,"highway":"residential"},"geometry":{"type":"LineString","coordinates":[[140.481907,36.814459],[140.482187,36.814363],[140.482355,36.814268],[140.48239,36.814228],[140.482474,36.81407],[140.482621,36.81367],[140.482733,36.81349],[140.482949,36.813287],[140.482985,36.813214],[140.48309,36.812798],[140.483118,36.812708],[140.483251,36.812465],[140.483326,36.81225],[140.483368,36.812239],[140.483542,36.812223],[140.483642,36.812199],[140.483728,36.812175],[140.483749,36.812159],[140.48377,36.812126]]}},{"type":"Feature","properties":{"id":107142595,"highway":"residential"},"geometry":{"type":"LineString","coordinates":[[140.428513,36.824822],[140.428524,36.825046],[140.428519,36.825367],[140.428582,36.825434],[140.428661,36.825475],[140.428768,36.825473],[140.42885,36.825459],[140.429034,36.825351],[140.429262,36.825186],[140.429321,36.825106],[140.429389,36.824891],[140.429463,36.824771],[140.429557,36.824691],[140.429681,36.824624],[140.429825,36.824581],[140.430099,36.824528],[140.430286,36.824456],[140.430439,36.824338],[140.430768,36.824043],[140.43078,36.824024],[140.430998,36.823814],[140.431045,36.82374]]}},{"type":"Feature","properties":{"id":111551209,"highway":"unclassified"},"geometry":{"type":"LineString","coordinates":[[140.416524,36.818272],[140.416504,36.818498],[140.416399,36.819225],[140.41626,36.819451],[140.416059,36.819748],[140.41588,36.820087],[140.415434,36.820567],[140.415147,36.820891],[140.414941,36.821107],[140.414881,36.821192],[140.414603,36.821575],[140.414521,36.821705],[140.414356,36.821875],[140.414239,36.821957],[140.414084,36.822064],[140.413635,36.822357],[140.41353,36.822452],[140.41344,36.822615],[140.413377,36.822729],[140.413075,36.82305],[140.412914,36.82324],[140.412781,36.823461],[140.412746,36.823568],[140.412746,36.823822],[140.412865,36.824289],[140.412865,36.824385],[140.412781,36.824531],[140.412326,36.825208],[140.412081,36.825506],[140.411606,36.825878],[140.410234,36.826983],[140.410038,36.827205],[140.409784,36.827545],[140.409618,36.827619],[140.409506,36.82767],[140.409198,36.827708],[140.407846,36.827804],[140.407503,36.827849],[140.407321,36.827911],[140.40688,36.828125],[140.406558,36.828255],[140.406262,36.828327],[140.405879,36.828413],[140.4056,36.828453],[140.405249,36.828525],[140.404674,36.828554],[140.404464,36.828577],[140.404282,36.828661],[140.404101,36.828723],[140.403919,36.828729],[140.403849,36.828701],[140.403729,36.828611],[140.403519,36.828474],[140.403449,36.828419],[140.403372,36.828294],[140.403301,36.828109],[140.403155,36.827736],[140.403085,36.827658],[140.403064,36.827653],[140.402986,36.82763],[140.402923,36.827669],[140.402833,36.827754],[140.402545,36.828194],[140.402398,36.828379],[140.402321,36.828425],[140.402202,36.828429],[140.402125,36.828402],[140.401992,36.828318],[140.401838,36.828149],[140.401782,36.82803],[140.401768,36.827686],[140.40172,36.827585],[140.401558,36.82737],[140.40116,36.827066],[140.401047,36.827021],[140.40074,36.826959],[140.400515,36.826943],[140.400508,36.826954],[140.400417,36.826993],[140.40034,36.82705],[140.400256,36.82714],[140.400207,36.827247],[140.40018,36.827653],[140.400151,36.827788],[140.400095,36.827878],[140.399948,36.828047],[140.399906,36.828069],[140.39985,36.828086]]}},{"type":"Feature","properties":{"id":111551226,"highway":"unclassified"},"geometry":{"type":"LineString","coordinates":[[140.417262,36.808637],[140.417193,36.808683],[140.417121,36.808727],[140.416981,36.808816],[140.416774,36.808897],[140.416503,36.808985],[140.416275,36.809023]]}},{"type":"Feature","properties":{"id":111551273,"highway":"residential"},"geometry":{"type":"LineString","coordinates":[[140.431308,36.816227],[140.430916,36.815759],[140.430741,36.815574],[140.43023,36.815157],[140.430062,36.815044],[140.429803,36.814903],[140.429663,36.814847],[140.429425,36.814785],[140.428886,36.814706],[140.428724,36.814729],[140.428143,36.81474],[140.427954,36.814712],[140.427359,36.814655],[140.426932,36.814598],[140.426568,36.814575],[140.42614,36.814581],[140.425748,36.814632],[140.425531,36.814677]]}},{"type":"Feature","properties":{"id":111551288,"highway":"secondary"},"geometry":{"type":"LineString","coordinates":[[140.424447,36.81234],[140.42451,36.812661],[140.424797,36.813449],[140.424881,36.813641],[140.425069,36.813979],[140.425468,36.814587],[140.425531,36.814677]]}},{"type":"Feature","properties":{"id":111551302,"highway":"residential"},"geometry":{"type":"LineString","coordinates":[[140.406329,36.802506],[140.406591,36.802026],[140.406659,36.801875],[140.406676,36.801748],[140.406671,36.801165],[140.406692,36.800909],[140.406698,36.800735],[140.406652,36.800581],[140.406593,36.800404],[140.406507,36.800179],[140.406432,36.799892],[140.406419,36.799774],[140.406421,36.799524],[140.406421,36.799436],[140.406443,36.79926],[140.406494,36.799036],[140.40655,36.798826],[140.406553,36.798688],[140.40643,36.798289],[140.406419,36.798151],[140.406443,36.798048],[140.406574,36.797767],[140.406869,36.797074]]}},{"type":"Feature","properties":{"id":111551425,"highway":"unclassified"},"geometry":{"type":"LineString","coordinates":[[140.416214,36.812226],[140.416718,36.812085],[140.416991,36.811995],[140.417073,36.811945],[140.41722,36.811798]]}},{"type":"Feature","properties":{"id":111551489,"highway":"residential"},"geometry":{"type":"LineString","coordinates":[[140.405406,36.811262],[140.405474,36.811269],[140.405621,36.811286],[140.405957,36.811297],[140.406489,36.811364],[140.406671,36.811421],[140.406853,36.811528],[140.407042,36.811612],[140.407238,36.811669],[140.407413,36.811697],[140.407847,36.811697],[140.408218,36.811641],[140.408442,36.811584],[140.408603,36.811521],[140.408813,36.811409],[140.408841,36.811404],[140.409225,36.811211],[140.409505,36.811104],[140.409568,36.811104],[140.409695,36.811149],[140.409982,36.81124],[140.410128,36.811268],[140.410191,36.811268],[140.410317,36.811235],[140.410542,36.811155],[140.410647,36.811127],[140.410738,36.811127],[140.410857,36.81119],[140.410927,36.811285],[140.41092,36.811425],[140.410878,36.811521],[140.410787,36.811656],[140.41045,36.81209],[140.410177,36.812531],[140.410016,36.812762],[140.409953,36.812874],[140.40994,36.81297],[140.41001,36.813044],[140.410086,36.813094],[140.410325,36.813196],[140.410415,36.813252],[140.410718,36.813539],[140.410858,36.813624],[140.410969,36.813669],[140.411109,36.813686],[140.411551,36.81368],[140.411999,36.813607],[140.412727,36.813466],[140.413126,36.813393],[140.413392,36.813331],[140.41398,36.813123]]}},{"type":"Feature","properties":{"id":111551531,"highway":"unclassified"},"geometry":{"type":"LineString","coordinates":[[140.417515,36.811046],[140.417382,36.811331],[140.417242,36.811696],[140.41722,36.811798]]}},{"type":"Feature","properties":{"id":111551549,"highway":"unclassified"},"geometry":{"type":"LineString","coordinates":[[140.41722,36.811798],[140.417318,36.811995],[140.417353,36.812085],[140.417375,36.812198],[140.417375,36.812298]]}},{"type":"Feature","properties":{"id":111551636,"highway":"unclassified"},"geometry":{"type":"LineString","coordinates":[[140.429256,36.80337],[140.429312,36.80337],[140.429606,36.803297],[140.430089,36.803224],[140.430328,36.803201],[140.430748,36.803088],[140.430888,36.803066],[140.431056,36.803038],[140.431253,36.803021],[140.431532,36.80306],[140.432058,36.803077],[140.432309,36.803105],[140.432541,36.803173],[140.432681,36.803235],[140.433213,36.803455],[140.433591,36.803669],[140.434081,36.803861],[140.43413,36.803872],[140.434333,36.803962],[140.434907,36.804182],[140.43497,36.804193],[140.43511,36.804193],[140.435285,36.804148],[140.435411,36.804086],[140.435593,36.803945],[140.435656,36.803883],[140.435803,36.803782],[140.435943,36.803748],[140.436104,36.803731],[140.436538,36.803731],[140.436762,36.803782],[140.436923,36.803832],[140.437056,36.80381],[140.437188,36.803765],[140.4373,36.803736],[140.43777,36.803601],[140.437868,36.803562],[140.43901,36.80323],[140.439332,36.803083],[140.43957,36.802965],[140.439772,36.802891],[140.439975,36.802897],[140.440374,36.802976],[140.44048,36.80297],[140.44092,36.802863],[140.441229,36.802768],[140.441285,36.80275],[140.441495,36.802728],[140.44181,36.80271],[140.442056,36.802727],[140.442146,36.802762],[140.442286,36.802852],[140.442545,36.803065],[140.442783,36.803179],[140.443301,36.803342],[140.443484,36.803388],[140.443638,36.803393],[140.443757,36.803438],[140.443869,36.80355],[140.443953,36.803607],[140.4441,36.803658],[140.444478,36.803652],[140.444569,36.803675],[140.444842,36.803788],[140.444954,36.803855],[140.44501,36.803894],[140.445136,36.804024],[140.445227,36.804075],[140.445479,36.804109],[140.445682,36.804103],[140.445892,36.804064],[140.446452,36.803917],[140.446739,36.80386],[140.446865,36.803849],[140.446963,36.803833],[140.447328,36.803815],[140.447607,36.803803],[140.448425,36.80381],[140.448888,36.803865],[140.44926,36.803962],[140.4494,36.804007],[140.449449,36.804035],[140.449561,36.804147],[140.449694,36.80431],[140.449784,36.804402],[140.450037,36.804588],[140.45005,36.804625],[140.450035,36.804665],[140.449981,36.804695],[140.449666,36.804813]]}},{"type":"Feature","properties":{"id":111551919,"highway":"residential"},"geometry":{"type":"LineString","coordinates":[[140.41627,36.816905],[140.41602,36.816882],[140.41562,36.817039],[140.41582,36.817444],[140.41589,36.817568],[140.416016,36.81781],[140.41617,36.81799],[140.416387,36.818165],[140.416524,36.818272]]}},{"type":"Feature","properties":{"id":111551963,"highway":"residential"},"geometry":{"type":"LineString","coordinates":[[140.409359,36.816311],[140.410066,36.816261],[140.410403,36.816227],[140.410556,36.816193],[140.41099,36.81599],[140.411137,36.815962],[140.411606,36.815962],[140.411768,36.815906],[140.412307,36.815686],[140.41237,36.815641],[140.41237,36.815562],[140.412342,36.815517],[140.412251,36.815449],[140.411873,36.815235],[140.411838,36.815196],[140.411809,36.815117],[140.411873,36.815072],[140.412412,36.814852],[140.412538,36.814835],[140.413063,36.814807],[140.413231,36.814813],[140.413623,36.814982],[140.414148,36.815139],[140.414239,36.815151],[140.414673,36.815151],[140.415044,36.815128],[140.415597,36.815111],[140.41596,36.815078],[140.416583,36.814796],[140.41667,36.814758]]}},{"type":"Feature","properties":{"id":111552035,"highway":"unclassified"},"geometry":{"type":"LineString","coordinates":[[140.417262,36.808637],[140.417304,36.808731],[140.417368,36.808879],[140.417413,36.809002],[140.417523,36.809246]]}},{"type":"Feature","properties":{"id":111552202,"highway":"secondary"},"geometry":{"type":"LineString","coordinates":[[140.423883,36.807764],[140.423418,36.806891],[140.423362,36.806727],[140.423362,36.806457],[140.423418,36.806029],[140.423411,36.80599],[140.423355,36.805887],[140.423229,36.805769],[140.422921,36.805623],[140.422655,36.805504],[140.422599,36.80547],[140.422371,36.805366],[140.422242,36.805272],[140.422116,36.805138],[140.42204,36.805042],[140.421993,36.804965],[140.421969,36.804901],[140.421965,36.804849],[140.421976,36.804789]]}},{"type":"Feature","properties":{"id":111552253,"highway":"unclassified"},"geometry":{"type":"LineString","coordinates":[[140.416214,36.812226],[140.415983,36.812631],[140.415878,36.812745],[140.415814,36.812767],[140.415485,36.81279],[140.415345,36.812851],[140.415149,36.812952],[140.415065,36.81297],[140.414393,36.812997],[140.414232,36.813038],[140.41398,36.813123]]}},{"type":"Feature","properties":{"id":111552296,"highway":"residential"},"geometry":{"type":"LineString","coordinates":[[140.431308,36.816227],[140.431252,36.816288],[140.431126,36.81639],[140.431014,36.816412],[140.43093,36.816407],[140.430874,36.816384],[140.430685,36.816339],[140.430531,36.816333],[140.430188,36.816418],[140.429978,36.816418],[140.429593,36.816339],[140.429397,36.816339],[140.428941,36.816468],[140.428633,36.816564],[140.428325,36.816621],[140.428171,36.816655],[140.428038,36.816671],[140.427786,36.81666],[140.427688,36.816643],[140.427457,36.816626],[140.426897,36.816621],[140.426484,36.81656],[140.426372,36.816547],[140.426184,36.816488]]}},{"type":"Feature","properties":{"id":111552350,"highway":"unclassified"},"geometry":{"type":"LineString","coordinates":[[140.421976,36.804789],[140.421893,36.804791],[140.421676,36.8048],[140.421391,36.804812],[140.421281,36.804835],[140.42119,36.804884],[140.421092,36.804953],[140.421042,36.804999],[140.421017,36.805042],[140.421005,36.80511],[140.421002,36.805234],[140.420988,36.805349],[140.420966,36.805417],[140.420927,36.805492],[140.420842,36.805604],[140.420759,36.805693],[140.420683,36.805748],[140.420518,36.805835],[140.420268,36.805936],[140.420026,36.806023],[140.41979,36.806091],[140.419466,36.806177],[140.419296,36.806222],[140.419066,36.806288],[140.418923,36.806358],[140.418862,36.806414],[140.41882,36.806489],[140.418794,36.806578],[140.418783,36.806721],[140.418769,36.806892],[140.41875,36.807055],[140.418706,36.807217],[140.418658,36.807331],[140.418586,36.807433],[140.418493,36.807515],[140.418343,36.807634],[140.418079,36.807837],[140.417713,36.808113],[140.417435,36.808299],[140.417363,36.808391],[140.417311,36.808497],[140.417294,36.808544],[140.417262,36.808637]]}},{"type":"Feature","properties":{"id":111552366,"highway":"residential"},"geometry":{"type":"LineString","coordinates":[[140.414568,36.808435],[140.414715,36.808519],[140.415009,36.808266],[140.415563,36.808576],[140.415633,36.808621],[140.415983,36.808981],[140.416018,36.809004],[140.416101,36.809026],[140.416228,36.809026],[140.416275,36.809023]]}},{"type":"Feature","properties":{"id":111552446,"highway":"residential"},"geometry":{"type":"LineString","coordinates":[[140.41886,36.812958],[140.418237,36.81271],[140.417921,36.812648],[140.417648,36.812485],[140.417473,36.812361],[140.417375,36.812298]]}},{"type":"Feature","properties":{"id":111552468,"highway":"residential"},"geometry":{"type":"LineString","coordinates":[[140.397078,36.824891],[140.397169,36.82475],[140.397414,36.824513],[140.397491,36.824497],[140.39775,36.824468],[140.398128,36.824406],[140.398521,36.824305],[140.398709,36.824226],[140.398843,36.824131],[140.398948,36.82403],[140.398969,36.823917],[140.398983,36.823726],[140.399011,36.823613],[140.399382,36.823072],[140.399543,36.822886],[140.400537,36.821939],[140.400859,36.821556],[140.400936,36.821435],[140.401003,36.821305]]}},{"type":"Feature","properties":{"id":111552491,"highway":"unclassified"},"geometry":{"type":"LineString","coordinates":[[140.421711,36.79964],[140.421789,36.799655],[140.421866,36.799684],[140.42197,36.799713],[140.422145,36.799721],[140.422315,36.799718],[140.422612,36.80005],[140.42272,36.800083],[140.422855,36.80006],[140.423149,36.799967],[140.423252,36.79997],[140.42375,36.800143],[140.423929,36.800243],[140.424398,36.800575],[140.424594,36.800677],[140.424986,36.800823],[140.426443,36.801235],[140.426653,36.801325],[140.4268,36.801409],[140.42694,36.801471],[140.427086,36.801578],[140.427289,36.801838],[140.427423,36.801911],[140.427871,36.802097],[140.427941,36.802148],[140.428137,36.802379],[140.428256,36.802474],[140.428451,36.802581],[140.428549,36.8027],[140.428668,36.802925],[140.42878,36.803066],[140.429004,36.803297],[140.429088,36.803364],[140.429158,36.803376],[140.429256,36.80337]]}},{"type":"Feature","properties":{"id":111552557,"highway":"residential"},"geometry":{"type":"LineString","coordinates":[[140.406637,36.80477],[140.406659,36.804533],[140.406706,36.804312],[140.406748,36.804189],[140.406776,36.80413],[140.40679,36.804023],[140.406785,36.80387],[140.406705,36.803627],[140.406448,36.803262],[140.406294,36.802982],[140.406273,36.802885],[140.4063,36.802711],[140.406329,36.802506]]}},{"type":"Feature","properties":{"id":111552630,"highway":"unclassified"},"geometry":{"type":"LineString","coordinates":[[140.416275,36.809023],[140.416262,36.809097],[140.416284,36.809269],[140.416431,36.810125],[140.416438,36.810542],[140.416409,36.810993],[140.416354,36.811151],[140.416284,36.811303],[140.416284,36.811443],[140.416347,36.811843],[140.416339,36.811978],[140.416214,36.812226]]}},{"type":"Feature","properties":{"id":111552672,"highway":"unclassified"},"geometry":{"type":"LineString","coordinates":[[140.417375,36.812298],[140.417375,36.812417],[140.417318,36.812603],[140.41727,36.812693],[140.4172,36.81279],[140.416968,36.813031],[140.41692,36.81311],[140.416898,36.813167],[140.41687,36.81391],[140.416835,36.814018],[140.41666,36.814306],[140.416639,36.814368],[140.416639,36.814571],[140.41667,36.814758]]}},{"type":"Feature","properties":{"id":111552831,"highway":"secondary"},"geometry":{"type":"LineString","coordinates":[[140.425531,36.814677],[140.425755,36.815005],[140.425853,36.815173],[140.425986,36.815455],[140.426064,36.81572],[140.426161,36.816147],[140.426168,36.816283],[140.426184,36.816488]]}},{"type":"Feature","properties":{"id":111552878,"highway":"tertiary"},"geometry":{"type":"LineString","coordinates":[[140.423883,36.807764],[140.424293,36.807984],[140.424622,36.808114],[140.42493,36.80821],[140.425021,36.808221],[140.425175,36.808277],[140.425427,36.808424],[140.425574,36.808486],[140.425672,36.808497],[140.426183,36.808486],[140.426875,36.808412],[140.427163,36.808412],[140.427352,36.808452],[140.427582,36.808525],[140.428038,36.808745],[140.428233,36.808841],[140.428381,36.808925],[140.428984,36.809246],[140.429523,36.809572],[140.429593,36.80963],[140.429621,36.809641],[140.429908,36.809866],[140.429936,36.809877],[140.430299,36.810147],[140.430398,36.810199],[140.430727,36.810277],[140.430895,36.810306],[140.430937,36.810322],[140.431441,36.810419],[140.431588,36.810497],[140.431686,36.810588],[140.431952,36.810931],[140.43219,36.811286],[140.432337,36.811427],[140.432477,36.811478],[140.432715,36.811512],[140.432988,36.811534],[140.433604,36.811523],[140.433807,36.8115],[140.434269,36.811472],[140.435172,36.811467],[140.43548,36.81145],[140.435578,36.811432],[140.435949,36.81141],[140.436303,36.811404]]}},{"type":"Feature","properties":{"id":111552885,"highway":"unclassified"},"geometry":{"type":"LineString","coordinates":[[140.401057,36.809928],[140.400769,36.809775],[140.400327,36.80955],[140.399949,36.809353],[140.399634,36.809167],[140.399423,36.80906],[140.399164,36.808992],[140.399066,36.808981],[140.398828,36.808992],[140.398576,36.808992],[140.398464,36.808947],[140.398212,36.808761],[140.398163,36.808733],[140.398093,36.80871],[140.397842,36.808684],[140.397519,36.808673],[140.397204,36.808701],[140.397038,36.808733],[140.396909,36.808787],[140.396772,36.808882],[140.396708,36.808908],[140.396554,36.808913],[140.396379,36.808879]]}},{"type":"Feature","properties":{"id":111553049,"highway":"secondary"},"geometry":{"type":"LineString","coordinates":[[140.421841,36.79992],[140.42192,36.80009],[140.421965,36.800217],[140.421976,36.800338],[140.421969,36.80053],[140.421939,36.801212],[140.421895,36.801616],[140.421895,36.80173],[140.421924,36.801836],[140.421967,36.801936],[140.422021,36.802015],[140.422104,36.8021],[140.422166,36.802206],[140.422209,36.802324],[140.422308,36.80266],[140.422404,36.80296],[140.422458,36.803167],[140.422469,36.803321],[140.422458,36.803476],[140.422407,36.803686],[140.422378,36.803847],[140.422384,36.803988],[140.422429,36.804284],[140.422435,36.804344],[140.422426,36.804391],[140.422407,36.804427],[140.422372,36.804468],[140.42231,36.804511],[140.422068,36.804676],[140.422031,36.804708],[140.421994,36.804753],[140.421976,36.804789]]}},{"type":"Feature","properties":{"id":111553086,"highway":"residential"},"geometry":{"type":"LineString","coordinates":[[140.431308,36.816227],[140.431714,36.81665],[140.432141,36.81701],[140.432385,36.817201],[140.432693,36.817483],[140.432861,36.817663],[140.433295,36.818025],[140.433405,36.818036]]}},{"type":"Feature","properties":{"id":111553197,"highway":"secondary"},"geometry":{"type":"LineString","coordinates":[[140.423883,36.807764],[140.424027,36.808178],[140.42412,36.808517],[140.424143,36.808703],[140.424132,36.808783],[140.424062,36.809078],[140.423922,36.809472],[140.423873,36.809647],[140.423873,36.8099],[140.423992,36.810278],[140.424034,36.810469],[140.424143,36.810925]]}},{"type":"Feature","properties":{"id":111553315,"highway":"unclassified"},"geometry":{"type":"LineString","coordinates":[[140.418586,36.807433],[140.418604,36.807522],[140.418611,36.807581],[140.418677,36.80866],[140.418677,36.808863],[140.418565,36.809032],[140.418285,36.8091],[140.417929,36.809207],[140.417523,36.809246]]}},{"type":"Feature","properties":{"id":111553775,"highway":"unclassified"},"geometry":{"type":"LineString","coordinates":[[140.417523,36.809246],[140.417558,36.809314],[140.417558,36.809398],[140.417376,36.809855],[140.417376,36.809973],[140.417578,36.810379],[140.417648,36.810581],[140.417648,36.810694],[140.417564,36.810942],[140.417515,36.811046]]}},{"type":"Feature","properties":{"id":111553815,"highway":"unclassified"},"geometry":{"type":"LineString","coordinates":[[140.403457,36.816862],[140.403114,36.816699],[140.402848,36.816558],[140.402652,36.8164],[140.402561,36.816237],[140.402484,36.816052],[140.402393,36.815922],[140.402183,36.815669],[140.401741,36.815066],[140.401511,36.814649],[140.401406,36.814412],[140.401315,36.814226],[140.401315,36.813899],[140.401364,36.813708],[140.401357,36.813573],[140.40128,36.813499],[140.400551,36.813116],[140.400334,36.813009],[140.400032,36.812834],[140.399592,36.812603],[140.399157,36.812384],[140.398612,36.812159],[140.398387,36.812057],[140.397855,36.811843],[140.39768,36.811798],[140.397393,36.811708],[140.397246,36.81164],[140.397155,36.811556],[140.396818,36.811133],[140.396595,36.810829],[140.396295,36.81035],[140.396239,36.810231],[140.396211,36.810141],[140.396393,36.809736],[140.396379,36.809623],[140.396169,36.809398],[140.396127,36.809313],[140.396113,36.809178],[140.396253,36.809009],[140.396379,36.808879]]}},{"type":"Feature","properties":{"id":111554094,"highway":"unclassified"},"geometry":{"type":"LineString","coordinates":[[140.41627,36.816905],[140.416282,36.817016],[140.416429,36.817309],[140.416492,36.817551],[140.416553,36.817875],[140.416524,36.818272]]}},{"type":"Feature","properties":{"id":111554173,"highway":"secondary"},"geometry":{"type":"LineString","coordinates":[[140.424143,36.810925],[140.424146,36.810937],[140.424258,36.81141],[140.424447,36.81234]]}},{"type":"Feature","properties":{"id":111554303,"highway":"unclassified"},"geometry":{"type":"LineString","coordinates":[[140.424447,36.81234],[140.424265,36.81243],[140.423817,36.812711],[140.423691,36.812824],[140.423501,36.813033],[140.423278,36.81319],[140.423194,36.813241],[140.422648,36.81346],[140.422599,36.813471],[140.422241,36.813618],[140.422094,36.813708],[140.422052,36.81377],[140.422059,36.813865],[140.422164,36.81403],[140.422409,36.814328],[140.422514,36.814475],[140.422641,36.814688],[140.422654,36.81475],[140.422599,36.814902],[140.422514,36.815015],[140.422448,36.81503],[140.422384,36.815003],[140.422318,36.814942],[140.422198,36.814835],[140.422117,36.81481],[140.422038,36.81483],[140.421996,36.814863],[140.421968,36.814908],[140.42194,36.815071],[140.421779,36.81532],[140.421737,36.815443],[140.421737,36.815574],[140.421835,36.815788],[140.421842,36.815929],[140.421807,36.816396],[140.421793,36.816706],[140.421744,36.817343],[140.42173,36.817478],[140.421723,36.817703],[140.421695,36.817951],[140.421667,36.818002],[140.421492,36.818233],[140.421289,36.818509],[140.421289,36.818554],[140.421324,36.81865],[140.421422,36.818903]]}},{"type":"Feature","properties":{"id":111554452,"highway":"residential"},"geometry":{"type":"LineString","coordinates":[[140.431308,36.806599],[140.43121,36.806492],[140.431182,36.806435],[140.431133,36.806379],[140.431077,36.806289],[140.430986,36.806103],[140.430909,36.805883],[140.430846,36.805652],[140.430769,36.805534],[140.430671,36.805483],[140.430601,36.805472],[140.43016,36.805472],[140.430027,36.805432],[140.429929,36.805382],[140.42974,36.805224],[140.429536,36.804987],[140.42934,36.804728],[140.429319,36.804688],[140.429312,36.804604],[140.429466,36.804486],[140.429564,36.804413],[140.429613,36.804339],[140.429613,36.804204],[140.429578,36.80408],[140.429361,36.803731],[140.429298,36.803584],[140.429263,36.803432],[140.429256,36.80337]]}},{"type":"Feature","properties":{"id":111554463,"highway":"unclassified"},"geometry":{"type":"LineString","coordinates":[[140.41667,36.814758],[140.416702,36.814959],[140.416702,36.815128],[140.416639,36.815253],[140.416464,36.815539],[140.416191,36.816188],[140.416079,36.816582],[140.416079,36.816728],[140.4161,36.816774],[140.41627,36.816905]]}},{"type":"Feature","properties":{"id":111554730,"highway":"unclassified"},"geometry":{"type":"LineString","coordinates":[[140.405406,36.811262],[140.405249,36.811235],[140.404857,36.811111],[140.404766,36.811088],[140.404696,36.81106],[140.404283,36.810948],[140.403975,36.81084],[140.403632,36.810671],[140.403471,36.810598],[140.403275,36.810536],[140.403135,36.810514],[140.402224,36.810508],[140.402015,36.810485],[140.401791,36.810435],[140.401644,36.810384],[140.401517,36.810316],[140.40142,36.810243],[140.401237,36.810068],[140.401076,36.809939],[140.401057,36.809928]]}},{"type":"Feature","properties":{"id":111554758,"highway":"residential"},"geometry":{"type":"LineString","coordinates":[[140.417515,36.811046],[140.417809,36.811173],[140.417956,36.811196],[140.418174,36.811184],[140.418236,36.811173],[140.418502,36.811083],[140.41881,36.81103],[140.41921,36.810988],[140.420042,36.810999],[140.420162,36.811016],[140.420407,36.811089],[140.420708,36.811207],[140.420806,36.811224],[140.420974,36.811235],[140.421002,36.811224],[140.421213,36.811201],[140.421394,36.81119],[140.421793,36.811196],[140.422052,36.811218],[140.422501,36.811286],[140.422829,36.811331],[140.423341,36.811478],[140.423481,36.811478],[140.423558,36.811466],[140.423642,36.811433],[140.423789,36.811269],[140.423936,36.811072],[140.424046,36.810985],[140.424143,36.810925]]}},{"type":"Feature","properties":{"id":226026118,"highway":"unclassified"},"geometry":{"type":"LineString","coordinates":[[140.500475,36.809097],[140.500481,36.809204],[140.500552,36.809287],[140.500706,36.809412],[140.50093,36.809563],[140.501252,36.809902],[140.501301,36.810009],[140.501294,36.810104],[140.501224,36.8102],[140.500965,36.810347],[140.500775,36.810432],[140.500797,36.810476],[140.500818,36.810493],[140.501021,36.810538],[140.501021,36.810566],[140.501028,36.810595],[140.500937,36.81064],[140.500881,36.810657],[140.500748,36.810657],[140.500496,36.8106],[140.500377,36.810583],[140.500342,36.810628],[140.500341,36.810708],[140.500477,36.810775],[140.500797,36.810825],[140.50093,36.810859],[140.501028,36.810921],[140.501084,36.811013],[140.501118,36.811141],[140.501146,36.811294],[140.501174,36.8114],[140.501188,36.811531],[140.501111,36.811598],[140.501019,36.811618],[140.500915,36.811574],[140.500804,36.811304],[140.50065,36.811135],[140.500552,36.811074],[140.50044,36.811051],[140.499999,36.811034],[140.499852,36.811045],[140.499726,36.811079],[140.499621,36.811131],[140.499221,36.811379],[140.499144,36.811418],[140.499033,36.811503],[140.498963,36.811593],[140.498893,36.811745],[140.498893,36.811835],[140.49899,36.811948],[140.499103,36.812032],[140.499404,36.812128],[140.499488,36.812184],[140.499551,36.812274],[140.4996,36.812381],[140.499712,36.812725],[140.499845,36.813283],[140.499929,36.813474],[140.500062,36.813678],[140.500167,36.813807],[140.500271,36.813903],[140.500376,36.81397],[140.500705,36.814061],[140.500775,36.814106],[140.50081,36.814168],[140.500824,36.814371],[140.500873,36.814433],[140.501195,36.814674],[140.501454,36.814877],[140.50158,36.815041],[140.501657,36.815475],[140.501685,36.815942],[140.501714,36.8161],[140.501784,36.816269],[140.501994,36.816511],[140.502092,36.816664],[140.50219,36.816928],[140.502232,36.817018],[140.502246,36.817035],[140.502666,36.8173],[140.502812,36.817413],[140.502841,36.817486],[140.502862,36.817593],[140.50289,36.817723],[140.502932,36.817784],[140.503099,36.817936],[140.503337,36.818195],[140.503576,36.818505],[140.503724,36.818657],[140.503794,36.818713],[140.503997,36.818803],[140.504088,36.81886],[140.5042,36.818973],[140.504347,36.819182],[140.504389,36.819227],[140.504424,36.819277],[140.504522,36.819384],[140.504655,36.81948],[140.504725,36.819564],[140.504767,36.819643],[140.504879,36.819795],[140.505068,36.819942],[140.505208,36.820032],[140.505257,36.820077],[140.505313,36.820162],[140.505355,36.820308],[140.505369,36.820753],[140.505432,36.821013],[140.505537,36.821222],[140.505642,36.821357],[140.505796,36.821498],[140.505992,36.82161],[140.506132,36.821667],[140.506293,36.821701],[140.506433,36.821706]]}},{"type":"Feature","properties":{"id":226030685,"highway":"residential"},"geometry":{"type":"LineString","coordinates":[[140.480226,36.797629],[140.480238,36.797738],[140.480276,36.79785],[140.480283,36.797991],[140.480262,36.798031],[140.480248,36.798064],[140.480108,36.798217],[140.480059,36.798281],[140.480051,36.798326],[140.480066,36.798419],[140.480108,36.798509],[140.480185,36.798588],[140.480542,36.798797],[140.480766,36.798921],[140.48092,36.799028],[140.481221,36.799343],[140.481389,36.799473],[140.481494,36.799535],[140.481613,36.799535],[140.482019,36.799456],[140.482207,36.799445],[140.48234,36.799462],[140.482432,36.79949],[140.482585,36.79958],[140.482788,36.799766],[140.483033,36.800042],[140.483208,36.800251],[140.483495,36.800549],[140.483762,36.800758],[140.483881,36.800819],[140.48421,36.800949],[140.484526,36.801051],[140.484918,36.801158]]}},{"type":"Feature","properties":{"id":226031626,"highway":"unclassified"},"geometry":{"type":"LineString","coordinates":[[140.494834,36.802506],[140.495812,36.802475],[140.495965,36.802442],[140.496047,36.802405],[140.496095,36.802372]]}},{"type":"Feature","properties":{"id":226032953,"highway":"unclassified"},"geometry":{"type":"LineString","coordinates":[[140.496659,36.801817],[140.496729,36.801817],[140.496855,36.801895],[140.497163,36.802137],[140.497198,36.802177],[140.497261,36.802279],[140.49731,36.802414],[140.497345,36.802555],[140.497359,36.80274],[140.497408,36.803017],[140.497443,36.803112],[140.497548,36.80322],[140.497786,36.80336],[140.497842,36.803384],[140.49794,36.803457],[140.498374,36.804156],[140.498494,36.804398],[140.498536,36.804505],[140.498592,36.804803],[140.498697,36.805147],[140.498851,36.805463],[140.499068,36.805818],[140.499159,36.805998],[140.499215,36.806178],[140.499348,36.806381],[140.499383,36.806409],[140.4996,36.806657],[140.499712,36.806798],[140.499838,36.80708],[140.500083,36.807446],[140.500258,36.807604],[140.500349,36.807711],[140.500426,36.807874],[140.500454,36.807942],[140.500538,36.808043],[140.500615,36.808105],[140.500846,36.808252],[140.50121,36.808432],[140.501399,36.808556],[140.501742,36.808809],[140.502028,36.808928],[140.502189,36.808996],[140.50228,36.809058],[140.502406,36.809187],[140.502553,36.809373],[140.502658,36.809458],[140.502945,36.809598],[140.503051,36.809649],[140.50359,36.809858],[140.503745,36.809886],[140.504095,36.809897],[140.504186,36.809908],[140.504242,36.809942],[140.504319,36.810015],[140.504424,36.810162],[140.504501,36.81033],[140.504529,36.810414],[140.50455,36.810505],[140.504584,36.810623],[140.504647,36.810741],[140.504704,36.810809],[140.504962,36.811],[140.505249,36.811152],[140.505551,36.811276],[140.505796,36.811361],[140.506125,36.811485],[140.506777,36.811795],[140.506917,36.81184],[140.507204,36.811919],[140.507666,36.81202],[140.507771,36.812037],[140.508009,36.812093],[140.508429,36.812183],[140.508814,36.812302],[140.509101,36.812369],[140.509178,36.812403],[140.509297,36.812493],[140.509346,36.812567],[140.509465,36.812871],[140.509584,36.813159],[140.509602,36.81325]]}},{"type":"Feature","properties":{"id":342741338,"highway":"primary"},"geometry":{"type":"LineString","coordinates":[[140.533208,36.822835],[140.532814,36.822843],[140.532615,36.822832],[140.532439,36.822803],[140.532237,36.822755],[140.532044,36.822703],[140.531796,36.822627],[140.531565,36.822578],[140.531382,36.822565],[140.531189,36.82257],[140.530981,36.822585],[140.530603,36.822644],[140.530399,36.822657],[140.530207,36.822648],[140.530031,36.822618],[140.5299,36.822578],[140.529745,36.822505],[140.529566,36.822404],[140.529007,36.822068],[140.528752,36.821943],[140.5285,36.82184],[140.528065,36.82167],[140.526912,36.821256],[140.525359,36.820703],[140.524853,36.820521],[140.524641,36.820456],[140.524225,36.820351],[140.523849,36.820249],[140.523645,36.820197],[140.523449,36.820124],[140.52327,36.820034],[140.522553,36.819651],[140.522334,36.819536],[140.522041,36.819408],[140.521869,36.819362],[140.5217,36.819331],[140.521095,36.819299],[140.520726,36.819276],[140.520561,36.819243],[140.52035,36.819183],[140.519912,36.819008],[140.519507,36.818849],[140.519285,36.818747],[140.519082,36.818634],[140.51892,36.818518],[140.518693,36.81833],[140.517958,36.817718],[140.517785,36.817605],[140.517635,36.817526],[140.517476,36.817467],[140.517285,36.817431],[140.517109,36.817417],[140.516917,36.817418],[140.515712,36.817457],[140.515518,36.817419],[140.515379,36.817355],[140.515256,36.81725],[140.515191,36.817158],[140.515151,36.817036],[140.515137,36.816921],[140.515201,36.816592],[140.515202,36.816497],[140.515198,36.816399],[140.515178,36.816291],[140.515069,36.815862],[140.514984,36.815544],[140.514938,36.815462],[140.514877,36.815403],[140.514564,36.815145],[140.514249,36.814898],[140.514154,36.81484],[140.514017,36.814777],[140.513832,36.814721],[140.513669,36.814673],[140.51355,36.814617],[140.513388,36.814523],[140.513245,36.814448],[140.513036,36.814359],[140.512859,36.814306],[140.512705,36.814246],[140.512363,36.814101],[140.512227,36.81405],[140.512059,36.814005],[140.511865,36.813965],[140.511461,36.813905],[140.511295,36.813868],[140.511121,36.813811],[140.510984,36.81374],[140.510609,36.813494],[140.510439,36.813398],[140.510313,36.813357],[140.510149,36.813331],[140.50977,36.813273],[140.509602,36.81325],[140.509409,36.813215],[140.509199,36.813136],[140.509129,36.813074],[140.509052,36.812938],[140.508894,36.812659],[140.508819,36.812574],[140.50875,36.812531],[140.508649,36.812514],[140.508557,36.812516],[140.508436,36.812563],[140.508297,36.812656],[140.508127,36.812788],[140.508014,36.812848],[140.507891,36.812876],[140.507806,36.81287],[140.507708,36.812849],[140.507539,36.812781],[140.507421,36.812703],[140.507225,36.812505],[140.507078,36.812426],[140.506823,36.81233],[140.506559,36.81229],[140.506385,36.81224],[140.506246,36.812164],[140.506055,36.812074],[140.505883,36.812026],[140.505446,36.811952],[140.505312,36.811913],[140.505202,36.811856],[140.50507,36.811761],[140.504868,36.811585],[140.504704,36.811485],[140.504472,36.811338],[140.504285,36.811228],[140.504127,36.811154],[140.503788,36.811028],[140.503672,36.810963],[140.503501,36.81085],[140.503326,36.810759],[140.502417,36.810364],[140.502282,36.810335],[140.502131,36.810311],[140.501969,36.810273],[140.501838,36.810195],[140.501748,36.810103],[140.501449,36.809791],[140.50128,36.809614],[140.501011,36.809395],[140.500877,36.809314],[140.500475,36.809097],[140.500295,36.809007],[140.500187,36.808956],[140.499929,36.8089],[140.499756,36.808809],[140.499557,36.808668],[140.499411,36.808562],[140.499186,36.808308],[140.499132,36.808183],[140.499114,36.808087],[140.499128,36.807994],[140.499177,36.80788],[140.499208,36.807787],[140.499212,36.807687],[140.499194,36.807599],[140.499155,36.807501],[140.499025,36.807235],[140.498872,36.806933],[140.498823,36.806826],[140.498704,36.806646],[140.498583,36.806443],[140.498465,36.806272],[140.49819,36.805989],[140.498027,36.805799],[140.497869,36.805557],[140.49774,36.805355],[140.497627,36.8052],[140.497506,36.805057],[140.497296,36.804888],[140.497149,36.804753],[140.497009,36.804589],[140.496829,36.804359],[140.4964,36.80375],[140.496166,36.803438],[140.495961,36.803162],[140.495852,36.80303],[140.495783,36.802956],[140.495706,36.802893],[140.495573,36.802823],[140.495155,36.802654],[140.494834,36.802506],[140.494437,36.802307],[140.494226,36.802166],[140.493948,36.801868],[140.49376,36.801596],[140.493672,36.801415],[140.493542,36.80124],[140.493359,36.80104],[140.493197,36.800928],[140.49294,36.800759],[140.492789,36.800645],[140.492684,36.800531],[140.492593,36.800416],[140.492483,36.800262],[140.492376,36.800149],[140.492233,36.800049],[140.492056,36.799942],[140.491483,36.799605],[140.490895,36.799262],[140.490716,36.799139],[140.490558,36.798986],[140.490438,36.798854],[140.490347,36.798693],[140.490308,36.79857],[140.490286,36.798443],[140.490264,36.798253],[140.490252,36.798112],[140.490265,36.797958],[140.490295,36.797815],[140.490321,36.797648],[140.490325,36.797476],[140.490326,36.797331],[140.490301,36.797169],[140.490253,36.797027],[140.490174,36.796876],[140.490088,36.79676],[140.489958,36.796612],[140.489792,36.796483],[140.489635,36.796394],[140.489486,36.796326],[140.489286,36.796273],[140.489051,36.796236],[140.488659,36.79619],[140.488458,36.79616],[140.488264,36.796113],[140.488077,36.796047],[140.486706,36.79539],[140.486514,36.795284],[140.486377,36.795195],[140.486252,36.79509],[140.486146,36.794969],[140.48608,36.794859],[140.486018,36.79472],[140.485871,36.794222],[140.485827,36.794134],[140.485772,36.794041],[140.485705,36.79395],[140.485595,36.793839],[140.485469,36.793727],[140.485157,36.793506],[140.4849,36.793329],[140.484737,36.793174],[140.484629,36.793057],[140.484541,36.79294],[140.484246,36.792507],[140.484126,36.792367],[140.483997,36.792243],[140.483849,36.792149],[140.483699,36.792079],[140.483271,36.791906],[140.483084,36.79182],[140.482944,36.791714],[140.482621,36.7915],[140.482451,36.791412],[140.482306,36.791353],[140.482164,36.7913],[140.481965,36.791257],[140.481775,36.791246],[140.481593,36.791253],[140.481435,36.791283],[140.481316,36.791313],[140.481163,36.791373],[140.480585,36.791653],[140.480501,36.791696],[140.480245,36.7918],[140.480145,36.791837],[140.47998,36.791869],[140.479758,36.791888],[140.479558,36.79188],[140.479325,36.791853],[140.479099,36.79179],[140.478904,36.791722],[140.478643,36.791609],[140.478357,36.791487],[140.477355,36.79106]]}},{"type":"Feature","properties":{"id":813347122,"highway":"trunk"},"geometry":{"type":"LineString","coordinates":[[140.47304,36.800057],[140.472827,36.800397],[140.472429,36.801039],[140.472311,36.801218],[140.472196,36.801377],[140.472067,36.801537],[140.471934,36.801667],[140.471776,36.801833],[140.471581,36.80201],[140.471289,36.802239],[140.470989,36.802483],[140.470804,36.802645],[140.470672,36.802755],[140.470548,36.802858],[140.470375,36.80307],[140.470271,36.803237],[140.470251,36.803284],[140.470189,36.803428],[140.470145,36.803589],[140.470102,36.803801],[140.470009,36.804646],[140.47,36.804729]]}},{"type":"Feature","properties":{"id":813347124,"highway":"trunk"},"geometry":{"type":"LineString","coordinates":[[140.474517,36.795873],[140.474163,36.796298],[140.474053,36.796461],[140.473962,36.796579],[140.473801,36.796861],[140.473638,36.797159],[140.473485,36.797496],[140.473412,36.797761],[140.473337,36.798213],[140.473319,36.79852],[140.473276,36.798906],[140.473272,36.799298],[140.473254,36.799453],[140.473233,36.799585],[140.473188,36.799737],[140.473117,36.799898],[140.47304,36.800057]]}},{"type":"Feature","properties":{"id":1223475391,"highway":"service"},"geometry":{"type":"LineString","coordinates":[[140.431045,36.82374],[140.431184,36.82376],[140.431634,36.823767]]}},{"type":"Feature","properties":{"id":1223475392,"highway":"service"},"geometry":{"type":"LineString","coordinates":[[140.431671,36.824187],[140.431634,36.823767]]}},{"type":"Feature","properties":{"id":1548050849,"highway":"unclassified"},"geometry":{"type":"LineString","coordinates":[[140.427458,36.828308],[140.427306,36.828347],[140.427225,36.828399],[140.42717,36.828457],[140.427158,36.828504],[140.427151,36.828637],[140.427133,36.82871],[140.427101,36.828766],[140.427044,36.828804],[140.426966,36.828836],[140.426678,36.828967],[140.426589,36.829069],[140.426549,36.829085],[140.426468,36.829069],[140.426378,36.828989],[140.426191,36.828825]]}},{"type":"Feature","properties":{"id":1548051071,"highway":"unclassified"},"geometry":{"type":"LineString","coordinates":[[140.426338,36.817107],[140.426301,36.817115],[140.426285,36.817159],[140.426291,36.81722],[140.426381,36.817468],[140.426466,36.817736],[140.426459,36.817791],[140.426423,36.81784],[140.426192,36.817993],[140.426077,36.818025],[140.426003,36.818039],[140.425916,36.818035],[140.425866,36.818016],[140.425786,36.817969],[140.425758,36.817918],[140.425699,36.817871],[140.425605,36.817825],[140.425512,36.81778],[140.42541,36.817726],[140.42534,36.817675],[140.425289,36.817606],[140.425212,36.817522],[140.425169,36.817473],[140.425107,36.817454],[140.425036,36.817484],[140.425025,36.817518],[140.425029,36.817571],[140.425061,36.817648]]}},{"type":"Feature","properties":{"id":1552187533,"highway":"unclassified"},"geometry":{"type":"LineString","coordinates":[[140.493509,36.823901],[140.493522,36.82386]]}},{"type":"Feature","properties":{"id":1552187534,"highway":"unclassified"},"geometry":{"type":"LineString","coordinates":[[140.492461,36.824076],[140.492678,36.824131],[140.492739,36.824145],[140.492817,36.82415],[140.492962,36.824135],[140.493138,36.824078],[140.493254,36.824035],[140.493346,36.823995],[140.493471,36.823946],[140.493503,36.823921],[140.493509,36.823901]]}},{"type":"Feature","properties":{"id":1552187535,"highway":"unclassified"},"geometry":{"type":"LineString","coordinates":[[140.492483,36.82418],[140.492479,36.824146]]}},{"type":"Feature","properties":{"id":1552187536,"highway":"unclassified"},"geometry":{"type":"LineString","coordinates":[[140.494944,36.828541],[140.494747,36.828166],[140.494662,36.827983],[140.494634,36.827863],[140.49463,36.82779],[140.494642,36.827531],[140.49472,36.82692],[140.494728,36.826824],[140.494721,36.826779],[140.494704,36.826749],[140.494655,36.826701],[140.49447,36.826506],[140.494242,36.826277],[140.494158,36.826195],[140.49408,36.826148],[140.494012,36.826125],[140.493957,36.826116],[140.493888,36.826135],[140.493672,36.82622],[140.493607,36.82624],[140.493517,36.826234],[140.493448,36.826212],[140.493135,36.825999],[140.493092,36.825954],[140.493057,36.825902],[140.493029,36.825829],[140.493012,36.82574],[140.493034,36.825574],[140.493054,36.825271],[140.493039,36.825189],[140.493006,36.825103],[140.492964,36.825019],[140.492532,36.824354],[140.492506,36.824286],[140.492491,36.824222],[140.492483,36.82418]]}},{"type":"Feature","properties":{"id":1552187542,"highway":"service"},"geometry":{"type":"LineString","coordinates":[[140.493254,36.824035],[140.49325,36.824217]]}},{"type":"Feature","properties":{"id":1552190630,"highway":"unclassified"},"geometry":{"type":"LineString","coordinates":[[140.494619,36.823117],[140.494854,36.822964],[140.495005,36.822852],[140.495093,36.822842],[140.495253,36.822838],[140.495397,36.82282],[140.495525,36.822784],[140.49583,36.822687],[140.496089,36.822558],[140.496417,36.822437],[140.496558,36.822373],[140.496729,36.822339]]}},{"type":"Feature","properties":{"id":1552190631,"highway":"unclassified"},"geometry":{"type":"LineString","coordinates":[[140.494589,36.82314],[140.494619,36.823117]]}}]}