{"type":"FeatureCollection","features":[{"type":"Feature","properties":{"id":38944749,"highway":"tertiary"},"geometry":{"type":"LineString","coordinates":[[140.404271,35.251384],[140.403456,35.251817],[140.402614,35.252263],[140.402327,35.252456],[140.402034,35.252702],[140.401853,35.25288],[140.401274,35.253604],[140.40114,35.253778],[140.400955,35.253933],[140.400717,35.254197],[140.400617,35.254308],[140.40024,35.254736],[140.400156,35.254832],[140.40009,35.254915],[140.399657,35.255471],[140.399463,35.255753],[140.399324,35.256006],[140.398945,35.256791],[140.398745,35.257295],[140.398726,35.257386]]}},{"type":"Feature","properties":{"id":125730413,"highway":"unclassified"},"geometry":{"type":"LineString","coordinates":[[140.405124,35.293415],[140.405553,35.293288]]}},{"type":"Feature","properties":{"id":125730763,"highway":"residential"},"geometry":{"type":"LineString","coordinates":[[140.398213,35.238718],[140.398945,35.238646],[140.399218,35.23887],[140.399305,35.238938],[140.39946,35.239001],[140.399589,35.239034],[140.399754,35.239122],[140.399815,35.239156],[140.399964,35.239209],[140.400028,35.239198]]}},{"type":"Feature","properties":{"id":125730991,"highway":"tertiary"},"geometry":{"type":"LineString","coordinates":[[140.398184,35.238672],[140.398213,35.238718],[140.398783,35.239691],[140.399021,35.240398],[140.399103,35.240681],[140.399291,35.241446],[140.399381,35.241833],[140.39944,35.241976],[140.399511,35.242063],[140.399594,35.242154],[140.399761,35.242283],[140.399986,35.242382],[140.400233,35.242561],[140.400364,35.242694],[140.400456,35.242833],[140.400486,35.242898],[140.400519,35.242964],[140.40101,35.244066],[140.401287,35.244666],[140.401406,35.245067],[140.401456,35.245832],[140.401505,35.246271],[140.401596,35.246632],[140.401625,35.246779],[140.401721,35.24726],[140.401765,35.247634],[140.401807,35.248153],[140.401844,35.248593],[140.401846,35.248616],[140.40193,35.249395]]}},{"type":"Feature","properties":{"id":125730997,"highway":"unclassified"},"geometry":{"type":"LineString","coordinates":[[140.402469,35.292656],[140.402618,35.292892],[140.402687,35.292975],[140.40303,35.293217],[140.403055,35.293237],[140.403108,35.293281],[140.403299,35.293524],[140.403398,35.293681],[140.403461,35.293794],[140.403517,35.293831],[140.403811,35.293896],[140.403895,35.293948],[140.403959,35.294031],[140.404303,35.294543],[140.404337,35.294575],[140.404418,35.294589],[140.404469,35.294587],[140.404695,35.29458],[140.404794,35.294545]]}},{"type":"Feature","properties":{"id":125731081,"highway":"unclassified"},"geometry":{"type":"LineString","coordinates":[[140.401112,35.291147],[140.401366,35.291108],[140.401412,35.291108],[140.401453,35.291126],[140.401531,35.291299],[140.401611,35.291398],[140.401713,35.291524],[140.401743,35.291565],[140.401831,35.291687],[140.401955,35.291865],[140.401965,35.291882],[140.401972,35.29191],[140.40197,35.292142],[140.401975,35.292161],[140.402,35.292203],[140.402174,35.292375],[140.402469,35.292656]]}},{"type":"Feature","properties":{"id":125731196,"highway":"unclassified"},"geometry":{"type":"LineString","coordinates":[[140.405124,35.293415],[140.404808,35.29352],[140.404755,35.293525],[140.40471,35.293498],[140.404607,35.293362],[140.404293,35.293018],[140.403872,35.29256],[140.40381,35.29252],[140.403752,35.292521],[140.403652,35.292532],[140.403429,35.292589],[140.40317,35.292617],[140.403153,35.292619],[140.402745,35.292653],[140.402469,35.292656]]}},{"type":"Feature","properties":{"id":125731386,"highway":"tertiary"},"geometry":{"type":"LineString","coordinates":[[140.40149,35.292912],[140.401877,35.292761]]}},{"type":"Feature","properties":{"id":125731387,"highway":"unclassified"},"geometry":{"type":"LineString","coordinates":[[140.399324,35.256006],[140.400758,35.256751],[140.402155,35.257477]]}},{"type":"Feature","properties":{"id":125731394,"highway":"tertiary"},"geometry":{"type":"LineString","coordinates":[[140.395477,35.29401],[140.396311,35.293879],[140.397203,35.29374],[140.399273,35.293398],[140.400981,35.293112],[140.401352,35.292979],[140.40149,35.292912]]}},{"type":"Feature","properties":{"id":125731505,"highway":"tertiary"},"geometry":{"type":"LineString","coordinates":[[140.401877,35.292761],[140.402151,35.292687],[140.402469,35.292656]]}},{"type":"Feature","properties":{"id":125731511,"highway":"residential"},"geometry":{"type":"LineString","coordinates":[[140.403362,35.244719],[140.403295,35.244379]]}},{"type":"Feature","properties":{"id":125731529,"highway":"residential"},"geometry":{"type":"LineString","coordinates":[[140.401619,35.294107],[140.401909,35.295322]]}},{"type":"Feature","properties":{"id":125731602,"highway":"residential"},"geometry":{"type":"LineString","coordinates":[[140.399375,35.287636],[140.400654,35.288141],[140.401094,35.288314]]}},{"type":"Feature","properties":{"id":125731603,"highway":"residential"},"geometry":{"type":"LineString","coordinates":[[140.403362,35.244719],[140.403365,35.245148]]}},{"type":"Feature","properties":{"id":125731604,"highway":"residential"},"geometry":{"type":"LineString","coordinates":[[140.399612,35.289696],[140.400864,35.289965]]}},{"type":"Feature","properties":{"id":125731679,"highway":"tertiary"},"geometry":{"type":"LineString","coordinates":[[140.401634,35.25558],[140.400648,35.255061],[140.400257,35.254879],[140.400156,35.254832],[140.400007,35.25479],[140.399156,35.254654],[140.398805,35.2546],[140.397844,35.254459],[140.397063,35.254345],[140.397039,35.254341],[140.396022,35.254168],[140.395398,35.254082]]}},{"type":"Feature","properties":{"id":125731704,"highway":"unclassified"},"geometry":{"type":"LineString","coordinates":[[140.401341,35.282163],[140.401524,35.282107]]}},{"type":"Feature","properties":{"id":125731843,"highway":"residential"},"geometry":{"type":"LineString","coordinates":[[140.401619,35.294107],[140.402623,35.293948]]}},{"type":"Feature","properties":{"id":125731868,"highway":"unclassified"},"geometry":{"type":"LineString","coordinates":[[140.400049,35.257663],[140.398745,35.257295]]}},{"type":"Feature","properties":{"id":125732170,"highway":"residential"},"geometry":{"type":"LineString","coordinates":[[140.401619,35.294107],[140.401352,35.292979]]}},{"type":"Feature","properties":{"id":125732178,"highway":"unclassified"},"geometry":{"type":"LineString","coordinates":[[140.40516,35.25565],[140.403773,35.256332],[140.403692,35.256325],[140.403384,35.256495],[140.40208,35.255809],[140.401634,35.25558]]}},{"type":"Feature","properties":{"id":125732185,"highway":"residential"},"geometry":{"type":"LineString","coordinates":[[140.403295,35.244379],[140.403556,35.244294]]}},{"type":"Feature","properties":{"id":125732202,"highway":"unclassified"},"geometry":{"type":"LineString","coordinates":[[140.40356,35.25047],[140.403957,35.250275]]}},{"type":"Feature","properties":{"id":125732204,"highway":"unclassified"},"geometry":{"type":"LineString","coordinates":[[140.404848,35.252888],[140.402958,35.253772],[140.402866,35.25391],[140.401946,35.255158],[140.401634,35.25558],[140.401578,35.255654]]}},{"type":"Feature","properties":{"id":125732214,"highway":"unclassified"},"geometry":{"type":"LineString","coordinates":[[140.405399,35.251787],[140.405192,35.251544],[140.405126,35.251479],[140.405038,35.251371]]}},{"type":"Feature","properties":{"id":125732359,"highway":"residential"},"geometry":{"type":"LineString","coordinates":[[140.399822,35.28679],[140.400045,35.286749],[140.400201,35.286688],[140.400248,35.286667],[140.400351,35.286622],[140.400454,35.28656],[140.400543,35.286494],[140.400624,35.286428],[140.400654,35.286404],[140.400727,35.286314],[140.400831,35.28608],[140.400884,35.285847],[140.400901,35.285706],[140.400922,35.285477],[140.400913,35.285345],[140.400867,35.285067],[140.40086,35.285027],[140.400836,35.285012],[140.400802,35.285012],[140.400542,35.285039],[140.400505,35.284993],[140.400392,35.284735],[140.400163,35.284345],[140.399896,35.28446],[140.399668,35.284565],[140.398803,35.284962],[140.398042,35.285277]]}},{"type":"Feature","properties":{"id":125732398,"highway":"residential"},"geometry":{"type":"LineString","coordinates":[[140.399536,35.294453],[140.401619,35.294107]]}},{"type":"Feature","properties":{"id":125732402,"highway":"unclassified"},"geometry":{"type":"LineString","coordinates":[[140.403336,35.2541],[140.403386,35.254095],[140.40344,35.254083],[140.405528,35.253085]]}},{"type":"Feature","properties":{"id":125732513,"highway":"residential"},"geometry":{"type":"LineString","coordinates":[[140.401112,35.291147],[140.401038,35.29074],[140.400953,35.290271],[140.400864,35.289965]]}},{"type":"Feature","properties":{"id":125732560,"highway":"unclassified"},"geometry":{"type":"LineString","coordinates":[[140.403957,35.250275],[140.404165,35.250458],[140.404443,35.250649]]}},{"type":"Feature","properties":{"id":125732780,"highway":"tertiary"},"geometry":{"type":"LineString","coordinates":[[140.405038,35.251371],[140.404376,35.251378],[140.404271,35.251384]]}},{"type":"Feature","properties":{"id":125732783,"highway":"unclassified"},"geometry":{"type":"LineString","coordinates":[[140.405038,35.251371],[140.404994,35.251323],[140.404921,35.251243],[140.404377,35.250685]]}},{"type":"Feature","properties":{"id":125732812,"highway":"unclassified"},"geometry":{"type":"LineString","coordinates":[[140.400049,35.257663],[140.401136,35.257979],[140.402155,35.257477]]}},{"type":"Feature","properties":{"id":125733341,"highway":"unclassified"},"geometry":{"type":"LineString","coordinates":[[140.401341,35.282163],[140.39953,35.282742],[140.399147,35.282865],[140.397471,35.283391]]}},{"type":"Feature","properties":{"id":125733385,"highway":"residential"},"geometry":{"type":"LineString","coordinates":[[140.400736,35.238751],[140.40071,35.238668],[140.400628,35.238407],[140.400489,35.238056],[140.400463,35.237964],[140.400432,35.237763],[140.400379,35.237548],[140.400271,35.237224]]}},{"type":"Feature","properties":{"id":125733403,"highway":"residential"},"geometry":{"type":"LineString","coordinates":[[140.399951,35.288661],[140.400239,35.288717],[140.400667,35.2888],[140.400788,35.289677],[140.400864,35.289965]]}},{"type":"Feature","properties":{"id":125733492,"highway":"unclassified"},"geometry":{"type":"LineString","coordinates":[[140.401287,35.244666],[140.401572,35.244477],[140.401635,35.244427],[140.40166,35.244346],[140.401662,35.244252],[140.401624,35.243919],[140.401284,35.243102],[140.401194,35.242771],[140.401182,35.242552],[140.401196,35.242505],[140.401386,35.242174],[140.40138,35.242156],[140.401364,35.242127],[140.401326,35.242093],[140.401283,35.242066],[140.401243,35.242049],[140.401215,35.242041],[140.401173,35.242043],[140.40115,35.24206],[140.400868,35.242362],[140.400852,35.242385],[140.400846,35.242398],[140.400843,35.242423],[140.400843,35.242516],[140.400848,35.242583],[140.400867,35.242766],[140.400861,35.242802],[140.400848,35.242823],[140.400823,35.242845],[140.400519,35.242964]]}},{"type":"Feature","properties":{"id":125733570,"highway":"unclassified"},"geometry":{"type":"LineString","coordinates":[[140.399343,35.23506],[140.399657,35.23482],[140.400065,35.234496]]}},{"type":"Feature","properties":{"id":125733743,"highway":"residential"},"geometry":{"type":"LineString","coordinates":[[140.400736,35.238751],[140.40093,35.238789],[140.401037,35.238826],[140.40119,35.238944],[140.401303,35.238983]]}},{"type":"Feature","properties":{"id":125733793,"highway":"unclassified"},"geometry":{"type":"LineString","coordinates":[[140.399276,35.290756],[140.400456,35.291008],[140.401025,35.29113],[140.401112,35.291147]]}},{"type":"Feature","properties":{"id":125733860,"highway":"residential"},"geometry":{"type":"LineString","coordinates":[[140.399854,35.239649],[140.400028,35.239198]]}},{"type":"Feature","properties":{"id":125733996,"highway":"unclassified"},"geometry":{"type":"LineString","coordinates":[[140.405528,35.253085],[140.404848,35.252888]]}},{"type":"Feature","properties":{"id":125734282,"highway":"residential"},"geometry":{"type":"LineString","coordinates":[[140.400028,35.239198],[140.400203,35.239069],[140.400389,35.238937],[140.40047,35.238928],[140.400621,35.2389],[140.400674,35.238857],[140.400736,35.238751]]}},{"type":"Feature","properties":{"id":125734945,"highway":"residential"},"geometry":{"type":"LineString","coordinates":[[140.401406,35.245067],[140.402091,35.245006],[140.402268,35.244971],[140.402391,35.244934],[140.40249,35.244868],[140.402662,35.244713],[140.40286,35.244588],[140.403001,35.244501],[140.403295,35.244379]]}},{"type":"Feature","properties":{"id":126398167,"highway":"residential"},"geometry":{"type":"LineString","coordinates":[[140.406818,35.299285],[140.406789,35.299293],[140.406588,35.299289],[140.406443,35.299272],[140.406359,35.299251],[140.406289,35.299219],[140.406176,35.299168],[140.406142,35.299149],[140.406121,35.299126],[140.406067,35.299045],[140.405971,35.298916]]}},{"type":"Feature","properties":{"id":126398526,"highway":"residential"},"geometry":{"type":"LineString","coordinates":[[140.405702,35.298638],[140.405706,35.29892]]}},{"type":"Feature","properties":{"id":126399307,"highway":"residential"},"geometry":{"type":"LineString","coordinates":[[140.405702,35.298638],[140.405666,35.298343],[140.405618,35.297969],[140.405562,35.297624],[140.40552,35.297321]]}},{"type":"Feature","properties":{"id":126400249,"highway":"residential"},"geometry":{"type":"LineString","coordinates":[[140.405706,35.29892],[140.405711,35.29904],[140.405727,35.299362],[140.405745,35.299734],[140.405764,35.299954],[140.405776,35.300253],[140.40578,35.300424],[140.405782,35.300504],[140.405747,35.300738],[140.405702,35.300849],[140.40561,35.300989]]}},{"type":"Feature","properties":{"id":184597915,"highway":"residential"},"geometry":{"type":"LineString","coordinates":[[140.403456,35.251817],[140.403108,35.251451],[140.402612,35.250952],[140.402215,35.250591],[140.402157,35.250538],[140.402061,35.250456],[140.401687,35.250443],[140.401647,35.250441],[140.401509,35.25028],[140.401479,35.250189],[140.401477,35.250124],[140.401473,35.250017],[140.401463,35.249955],[140.401364,35.249637],[140.401292,35.249426]]}},{"type":"Feature","properties":{"id":184597919,"highway":"residential"},"geometry":{"type":"LineString","coordinates":[[140.401802,35.252119],[140.401442,35.25166],[140.40115,35.251308],[140.400846,35.251436],[140.400603,35.251495],[140.400291,35.251545],[140.399922,35.251542],[140.399538,35.251524],[140.399246,35.251472],[140.399226,35.251468],[140.398823,35.251387],[140.39842,35.251298],[140.398012,35.251206],[140.396719,35.250896],[140.396249,35.250896]]}},{"type":"Feature","properties":{"id":184597921,"highway":"residential"},"geometry":{"type":"LineString","coordinates":[[140.397092,35.253675],[140.397455,35.253584],[140.397826,35.253549],[140.397926,35.253511],[140.398033,35.253438],[140.398223,35.253317],[140.39831,35.253284],[140.398501,35.253171],[140.398652,35.253033],[140.399009,35.252622],[140.399032,35.252578],[140.399062,35.252566],[140.399295,35.252553],[140.39949,35.252575],[140.399765,35.25263],[140.400151,35.252769],[140.400261,35.252765],[140.400584,35.252706]]}},{"type":"Feature","properties":{"id":184597923,"highway":"residential"},"geometry":{"type":"LineString","coordinates":[[140.404733,35.250492],[140.404651,35.250536],[140.404505,35.250615],[140.404443,35.250649],[140.404377,35.250685],[140.403919,35.250962],[140.403108,35.251451],[140.402975,35.251529],[140.402579,35.251759],[140.402086,35.251994],[140.401802,35.252119],[140.401519,35.252258],[140.401304,35.252412],[140.401198,35.252501],[140.401117,35.252569],[140.401041,35.252678],[140.400991,35.252798],[140.400903,35.252922],[140.400756,35.253021],[140.400411,35.25328],[140.399979,35.253595],[140.399871,35.253675],[140.399809,35.253736],[140.399586,35.253966],[140.399499,35.253999],[140.399192,35.254093],[140.399009,35.254171],[140.398805,35.2546]]}},{"type":"Feature","properties":{"id":184597938,"highway":"residential"},"geometry":{"type":"LineString","coordinates":[[140.401442,35.25166],[140.402118,35.251266],[140.402612,35.250952],[140.40356,35.25047]]}},{"type":"Feature","properties":{"id":184597943,"highway":"residential"},"geometry":{"type":"LineString","coordinates":[[140.401274,35.253604],[140.400892,35.253214],[140.400756,35.253021],[140.400674,35.252929],[140.400633,35.252844],[140.400584,35.252706],[140.400503,35.252439],[140.400378,35.251941],[140.400291,35.251545]]}},{"type":"Feature","properties":{"id":184597947,"highway":"residential"},"geometry":{"type":"LineString","coordinates":[[140.400786,35.250101],[140.400603,35.250193],[140.40048,35.250211],[140.400201,35.250214],[140.399824,35.250157],[140.399563,35.250172],[140.399342,35.249858],[140.399302,35.249794],[140.399254,35.249656]]}},{"type":"Feature","properties":{"id":184718478,"highway":"residential"},"geometry":{"type":"LineString","coordinates":[[140.405985,35.298552],[140.406379,35.298547],[140.406773,35.298542]]}},{"type":"Feature","properties":{"id":184718479,"highway":"residential"},"geometry":{"type":"LineString","coordinates":[[140.405706,35.29892],[140.405971,35.298916]]}},{"type":"Feature","properties":{"id":184718829,"highway":"residential"},"geometry":{"type":"LineString","coordinates":[[140.405971,35.298916],[140.405967,35.298631],[140.405967,35.298613],[140.405985,35.298552],[140.406006,35.298473],[140.406086,35.298304],[140.406139,35.298247],[140.406222,35.298182],[140.40629,35.298152],[140.406467,35.298088],[140.406494,35.29809]]}},{"type":"Feature","properties":{"id":184718832,"highway":"unclassified"},"geometry":{"type":"LineString","coordinates":[[140.405553,35.293288],[140.405768,35.293227]]}},{"type":"Feature","properties":{"id":185045555,"highway":"unclassified"},"geometry":{"type":"LineString","coordinates":[[140.405768,35.293227],[140.406074,35.293223]]}},{"type":"Feature","properties":{"id":264857500,"highway":"unclassified"},"geometry":{"type":"LineString","coordinates":[[140.399499,35.253999],[140.400617,35.254308]]}},{"type":"Feature","properties":{"id":264857502,"highway":"residential"},"geometry":{"type":"LineString","coordinates":[[140.402649,35.24952],[140.402779,35.249161],[140.402789,35.249023],[140.402712,35.248883],[140.402532,35.248686],[140.402266,35.248584],[140.402186,35.24864],[140.401846,35.248616]]}},{"type":"Feature","properties":{"id":264857504,"highway":"residential"},"geometry":{"type":"LineString","coordinates":[[140.400689,35.249087],[140.400791,35.249031],[140.400824,35.249005],[140.40097,35.249042],[140.40133,35.249135]]}},{"type":"Feature","properties":{"id":264857511,"highway":"residential"},"geometry":{"type":"LineString","coordinates":[[140.404271,35.251384],[140.404486,35.251875]]}},{"type":"Feature","properties":{"id":264857514,"highway":"residential"},"geometry":{"type":"LineString","coordinates":[[140.403117,35.249831],[140.403423,35.249719],[140.403435,35.2497],[140.403431,35.24966],[140.403316,35.249362],[140.403276,35.249301],[140.403383,35.249249],[140.403375,35.249212],[140.40336,35.249172]]}},{"type":"Feature","properties":{"id":264857516,"highway":"residential"},"geometry":{"type":"LineString","coordinates":[[140.402712,35.248883],[140.403158,35.248722],[140.403197,35.248669],[140.403192,35.248606],[140.403173,35.248506],[140.403228,35.248449],[140.403483,35.24842],[140.403523,35.248382],[140.40357,35.248262],[140.40356,35.24817],[140.403479,35.248034],[140.403399,35.247823],[140.4034,35.247763],[140.403479,35.247608],[140.403495,35.247515],[140.403473,35.247376],[140.403349,35.247185],[140.403215,35.247059]]}},{"type":"Feature","properties":{"id":264858616,"highway":"residential"},"geometry":{"type":"LineString","coordinates":[[140.404994,35.251323],[140.405106,35.251293],[140.405168,35.251256],[140.405331,35.25116],[140.405543,35.251035]]}},{"type":"Feature","properties":{"id":369008663,"highway":"service"},"geometry":{"type":"LineString","coordinates":[[140.405248,35.298066],[140.405246,35.297976]]}},{"type":"Feature","properties":{"id":369008664,"highway":"service"},"geometry":{"type":"LineString","coordinates":[[140.405182,35.297735],[140.405179,35.29763]]}},{"type":"Feature","properties":{"id":369008665,"highway":"service"},"geometry":{"type":"LineString","coordinates":[[140.404527,35.298182],[140.404497,35.297838]]}},{"type":"Feature","properties":{"id":369008666,"highway":"service"},"geometry":{"type":"LineString","coordinates":[[140.404494,35.298588],[140.404487,35.298369]]}},{"type":"Feature","properties":{"id":369008667,"highway":"service"},"geometry":{"type":"LineString","coordinates":[[140.40493,35.298071],[140.404929,35.297982]]}},{"type":"Feature","properties":{"id":369008668,"highway":"service"},"geometry":{"type":"LineString","coordinates":[[140.403994,35.297884],[140.404497,35.297838],[140.404571,35.297835]]}},{"type":"Feature","properties":{"id":369008669,"highway":"service"},"geometry":{"type":"LineString","coordinates":[[140.40408,35.298599],[140.404494,35.298588],[140.404717,35.29858]]}},{"type":"Feature","properties":{"id":369008670,"highway":"service"},"geometry":{"type":"LineString","coordinates":[[140.404029,35.298203],[140.404527,35.298182],[140.404762,35.298173]]}},{"type":"Feature","properties":{"id":369008671,"highway":"service"},"geometry":{"type":"LineString","coordinates":[[140.404842,35.297635],[140.405179,35.29763],[140.405562,35.297624]]}},{"type":"Feature","properties":{"id":369008672,"highway":"residential"},"geometry":{"type":"LineString","coordinates":[[140.406052,35.29311],[140.406151,35.293102],[140.406305,35.293051]]}},{"type":"Feature","properties":{"id":369008673,"highway":"service"},"geometry":{"type":"LineString","coordinates":[[140.404874,35.297983],[140.404929,35.297982],[140.405246,35.297976],[140.405618,35.297969]]}},{"type":"Feature","properties":{"id":369008674,"highway":"residential"},"geometry":{"type":"LineString","coordinates":[[140.404056,35.298383],[140.404487,35.298369],[140.404826,35.298353],[140.405666,35.298343]]}},{"type":"Feature","properties":{"id":369008675,"highway":"service"},"geometry":{"type":"LineString","coordinates":[[140.403906,35.297178],[140.404529,35.297148],[140.404571,35.29716],[140.40463,35.297188]]}},{"type":"Feature","properties":{"id":369008676,"highway":"residential"},"geometry":{"type":"LineString","coordinates":[[140.406314,35.293473],[140.406137,35.293261],[140.406107,35.29324],[140.406074,35.293223]]}},{"type":"Feature","properties":{"id":369008677,"highway":"residential"},"geometry":{"type":"LineString","coordinates":[[140.406167,35.293547],[140.406074,35.293223],[140.406052,35.29311],[140.40602,35.292926],[140.405975,35.292746],[140.40587,35.292535]]}},{"type":"Feature","properties":{"id":369008678,"highway":"service"},"geometry":{"type":"LineString","coordinates":[[140.40642,35.293118],[140.406363,35.293095],[140.40634,35.293083],[140.406305,35.293051],[140.40625,35.292921],[140.40604,35.292455]]}},{"type":"Feature","properties":{"id":369008928,"highway":"residential"},"geometry":{"type":"LineString","coordinates":[[140.404908,35.299051],[140.405711,35.29904]]}},{"type":"Feature","properties":{"id":369008930,"highway":"residential"},"geometry":{"type":"LineString","coordinates":[[140.406391,35.299036],[140.406379,35.298547]]}},{"type":"Feature","properties":{"id":369008931,"highway":"residential"},"geometry":{"type":"LineString","coordinates":[[140.405702,35.298638],[140.405967,35.298631]]}},{"type":"Feature","properties":{"id":369008933,"highway":"residential"},"geometry":{"type":"LineString","coordinates":[[140.406067,35.299045],[140.406391,35.299036],[140.406805,35.299025]]}},{"type":"Feature","properties":{"id":369008935,"highway":"residential"},"geometry":{"type":"LineString","coordinates":[[140.405764,35.299954],[140.405109,35.299977]]}},{"type":"Feature","properties":{"id":369008936,"highway":"residential"},"geometry":{"type":"LineString","coordinates":[[140.404192,35.299786],[140.405118,35.299761],[140.405745,35.299734]]}},{"type":"Feature","properties":{"id":369008938,"highway":"residential"},"geometry":{"type":"LineString","coordinates":[[140.405118,35.299761],[140.405097,35.299425],[140.405106,35.299412],[140.405124,35.299403],[140.405727,35.299362]]}},{"type":"Feature","properties":{"id":369008940,"highway":"residential"},"geometry":{"type":"LineString","coordinates":[[140.406494,35.29809],[140.406515,35.2981],[140.406636,35.298312],[140.406773,35.298542],[140.406799,35.298601],[140.406805,35.299025],[140.406818,35.299285]]}},{"type":"Feature","properties":{"id":369017934,"highway":"residential"},"geometry":{"type":"LineString","coordinates":[[140.402866,35.25391],[140.402984,35.253966],[140.403257,35.254095],[140.403336,35.2541]]}},{"type":"Feature","properties":{"id":369017935,"highway":"residential"},"geometry":{"type":"LineString","coordinates":[[140.400964,35.254663],[140.401946,35.255158]]}},{"type":"Feature","properties":{"id":369017936,"highway":"residential"},"geometry":{"type":"LineString","coordinates":[[140.40208,35.255809],[140.40332,35.254209],[140.403336,35.2541]]}},{"type":"Feature","properties":{"id":369017937,"highway":"residential"},"geometry":{"type":"LineString","coordinates":[[140.400648,35.255061],[140.400964,35.254663]]}},{"type":"Feature","properties":{"id":370957960,"highway":"unclassified"},"geometry":{"type":"LineString","coordinates":[[140.400551,35.233437],[140.400509,35.23385],[140.400435,35.234102],[140.400406,35.234238],[140.400356,35.23431],[140.400274,35.234352],[140.400065,35.234496]]}},{"type":"Feature","properties":{"id":371743926,"highway":"residential"},"geometry":{"type":"LineString","coordinates":[[140.400248,35.286667],[140.400138,35.286407],[140.400124,35.286314],[140.400139,35.28618],[140.400187,35.285947]]}},{"type":"Feature","properties":{"id":371743940,"highway":"residential"},"geometry":{"type":"LineString","coordinates":[[140.39953,35.282742],[140.399882,35.283061],[140.399924,35.28313],[140.399976,35.283248],[140.40001,35.283267],[140.400575,35.283159],[140.400647,35.283176],[140.400926,35.28413]]}},{"type":"Feature","properties":{"id":371743945,"highway":"residential"},"geometry":{"type":"LineString","coordinates":[[140.399668,35.284565],[140.399722,35.284667],[140.3998,35.2848],[140.399868,35.284938],[140.399913,35.285079],[140.399946,35.285195],[140.399953,35.285204],[140.399984,35.285249],[140.400081,35.285354]]}},{"type":"Feature","properties":{"id":371750990,"highway":"residential"},"geometry":{"type":"LineString","coordinates":[[140.400908,35.287038],[140.400918,35.286716],[140.400908,35.286695],[140.400895,35.28668],[140.400861,35.286653],[140.400861,35.286633],[140.400861,35.286525],[140.40086,35.286442],[140.400844,35.286427],[140.400624,35.286428]]}},{"type":"Feature","properties":{"id":371750992,"highway":"residential"},"geometry":{"type":"LineString","coordinates":[[140.40381,35.29252],[140.403881,35.292458],[140.403948,35.292423],[140.403969,35.292417],[140.404,35.292417],[140.404027,35.29243],[140.404146,35.29252],[140.40425,35.29261],[140.404358,35.292738],[140.404412,35.292804]]}},{"type":"Feature","properties":{"id":371750995,"highway":"residential"},"geometry":{"type":"LineString","coordinates":[[140.401743,35.291565],[140.401844,35.291543],[140.40186,35.291542],[140.401884,35.291544],[140.401934,35.291554],[140.401979,35.291559],[140.402026,35.291553],[140.402253,35.291475],[140.402653,35.291345],[140.402677,35.291339],[140.402822,35.291307]]}},{"type":"Feature","properties":{"id":371750999,"highway":"residential"},"geometry":{"type":"LineString","coordinates":[[140.403153,35.292619],[140.403107,35.292397],[140.403101,35.292369],[140.403031,35.292147],[140.403052,35.292117],[140.40337,35.292067],[140.403414,35.292078],[140.40344,35.292114],[140.403504,35.292253],[140.403496,35.292281],[140.403473,35.292296],[140.403321,35.292361],[140.403265,35.292381],[140.403107,35.292397]]}},{"type":"Feature","properties":{"id":371751013,"highway":"residential"},"geometry":{"type":"LineString","coordinates":[[140.400861,35.286525],[140.401306,35.286564]]}},{"type":"Feature","properties":{"id":371751045,"highway":"residential"},"geometry":{"type":"LineString","coordinates":[[140.400456,35.291008],[140.400539,35.290781]]}},{"type":"Feature","properties":{"id":371751051,"highway":"residential"},"geometry":{"type":"LineString","coordinates":[[140.403055,35.293237],[140.403484,35.293061]]}},{"type":"Feature","properties":{"id":371751055,"highway":"residential"},"geometry":{"type":"LineString","coordinates":[[140.400534,35.284257],[140.40041,35.283792]]}},{"type":"Feature","properties":{"id":371751082,"highway":"residential"},"geometry":{"type":"LineString","coordinates":[[140.402011,35.290876],[140.402303,35.29079],[140.402531,35.290724]]}},{"type":"Feature","properties":{"id":371751085,"highway":"residential"},"geometry":{"type":"LineString","coordinates":[[140.400667,35.2888],[140.400591,35.288251],[140.400654,35.288141]]}},{"type":"Feature","properties":{"id":371751103,"highway":"residential"},"geometry":{"type":"LineString","coordinates":[[140.400163,35.284345],[140.400534,35.284257],[140.400761,35.284218]]}},{"type":"Feature","properties":{"id":371751129,"highway":"residential"},"geometry":{"type":"LineString","coordinates":[[140.39983,35.28903],[140.400074,35.289091],[140.400116,35.28908],[140.400125,35.289052],[140.400239,35.288717]]}},{"type":"Feature","properties":{"id":371751131,"highway":"residential"},"geometry":{"type":"LineString","coordinates":[[140.401366,35.291108],[140.401308,35.290753],[140.401294,35.290724],[140.40127,35.290714],[140.401038,35.29074]]}},{"type":"Feature","properties":{"id":371751151,"highway":"residential"},"geometry":{"type":"LineString","coordinates":[[140.402677,35.291339],[140.402646,35.291283],[140.402303,35.29079],[140.401931,35.290233],[140.401902,35.290199],[140.401855,35.290186],[140.401817,35.290185],[140.401642,35.290204]]}},{"type":"Feature","properties":{"id":371751153,"highway":"residential"},"geometry":{"type":"LineString","coordinates":[[140.404695,35.29458],[140.404734,35.294693],[140.404724,35.294718],[140.40469,35.29473],[140.404551,35.29474],[140.404521,35.294719],[140.404496,35.294685],[140.404469,35.294587]]}},{"type":"Feature","properties":{"id":371758663,"highway":"residential"},"geometry":{"type":"LineString","coordinates":[[140.400314,35.27388],[140.399633,35.274023],[140.399454,35.274065],[140.399393,35.274082],[140.398887,35.274179],[140.398744,35.274188],[140.398566,35.274213],[140.398233,35.274298],[140.398066,35.274348]]}},{"type":"Feature","properties":{"id":371758667,"highway":"residential"},"geometry":{"type":"LineString","coordinates":[[140.399345,35.275798],[140.399674,35.275746],[140.39979,35.27572],[140.40004,35.275675],[140.400135,35.275658]]}},{"type":"Feature","properties":{"id":371763979,"highway":"residential"},"geometry":{"type":"LineString","coordinates":[[140.400201,35.250214],[140.399931,35.249681],[140.399843,35.249708],[140.399675,35.249758]]}},{"type":"Feature","properties":{"id":371763995,"highway":"residential"},"geometry":{"type":"LineString","coordinates":[[140.399009,35.281311],[140.400108,35.281402],[140.400475,35.281432]]}},{"type":"Feature","properties":{"id":371764000,"highway":"residential"},"geometry":{"type":"LineString","coordinates":[[140.401263,35.246633],[140.401436,35.246662],[140.401596,35.246632]]}},{"type":"Feature","properties":{"id":371764015,"highway":"residential"},"geometry":{"type":"LineString","coordinates":[[140.401505,35.246271],[140.401742,35.246235],[140.402056,35.246064],[140.40206,35.246013],[140.40204,35.245947]]}},{"type":"Feature","properties":{"id":390451414,"highway":"residential"},"geometry":{"type":"LineString","coordinates":[[140.403878,35.297042],[140.403906,35.297178],[140.403994,35.297884],[140.404029,35.298203],[140.404056,35.298383],[140.40408,35.298599],[140.404192,35.299786],[140.404251,35.300534]]}},{"type":"Feature","properties":{"id":399816623,"highway":"secondary"},"geometry":{"type":"LineString","coordinates":[[140.39098,35.249299],[140.391028,35.249297],[140.391073,35.249295],[140.391138,35.249293],[140.39116,35.249292],[140.39119,35.249291],[140.392029,35.249249],[140.392373,35.249233],[140.394172,35.249184],[140.394382,35.249169],[140.394981,35.249144],[140.395529,35.24912],[140.39614,35.24911],[140.396444,35.249139],[140.396554,35.249161],[140.3967,35.249189],[140.397584,35.249433],[140.397631,35.249437],[140.39767,35.24944],[140.397947,35.249359],[140.398028,35.249328],[140.398228,35.249251],[140.398401,35.249218],[140.398623,35.249214],[140.398842,35.249215],[140.39915,35.249194],[140.39947,35.249213],[140.399808,35.249156],[140.400587,35.249069],[140.400689,35.249087],[140.401292,35.249426],[140.401356,35.249428],[140.40193,35.249395],[140.402103,35.249393],[140.402261,35.249391],[140.40239,35.249408],[140.402649,35.24952],[140.402885,35.249629],[140.40301,35.249717],[140.403117,35.249831],[140.403359,35.25023],[140.40356,35.25047],[140.403919,35.250962],[140.403932,35.251009],[140.404271,35.251384]]}},{"type":"Feature","properties":{"id":420482294,"highway":"unclassified"},"geometry":{"type":"LineString","coordinates":[[140.402155,35.257477],[140.402404,35.257341],[140.40299,35.256545]]}},{"type":"Feature","properties":{"id":469904255,"highway":"residential"},"geometry":{"type":"LineString","coordinates":[[140.399099,35.279766],[140.399752,35.27982],[140.400234,35.279834]]}},{"type":"Feature","properties":{"id":469904261,"highway":"residential"},"geometry":{"type":"LineString","coordinates":[[140.400108,35.281402],[140.400146,35.281121]]}},{"type":"Feature","properties":{"id":469904273,"highway":"residential"},"geometry":{"type":"LineString","coordinates":[[140.400716,35.279998],[140.400652,35.280373],[140.400604,35.280419],[140.400541,35.280429],[140.399671,35.280404],[140.399004,35.280385]]}},{"type":"Feature","properties":{"id":469904283,"highway":"residential"},"geometry":{"type":"LineString","coordinates":[[140.399307,35.277443],[140.399602,35.27749],[140.399629,35.277489],[140.399703,35.277435],[140.399739,35.277418],[140.400143,35.277417],[140.400458,35.277417],[140.400488,35.277428],[140.40051,35.277454],[140.400525,35.27782]]}},{"type":"Feature","properties":{"id":469904304,"highway":"residential"},"geometry":{"type":"LineString","coordinates":[[140.400149,35.277669],[140.400143,35.277417]]}},{"type":"Feature","properties":{"id":469904315,"highway":"residential"},"geometry":{"type":"LineString","coordinates":[[140.398993,35.280744],[140.400233,35.280803]]}},{"type":"Feature","properties":{"id":469904551,"highway":"residential"},"geometry":{"type":"LineString","coordinates":[[140.399768,35.275637],[140.400017,35.275588]]}},{"type":"Feature","properties":{"id":469904553,"highway":"residential"},"geometry":{"type":"LineString","coordinates":[[140.398325,35.27678],[140.398655,35.276818],[140.398865,35.276815],[140.399363,35.276789],[140.400451,35.276662]]}},{"type":"Feature","properties":{"id":469904554,"highway":"residential"},"geometry":{"type":"LineString","coordinates":[[140.39979,35.27572],[140.399768,35.275637],[140.399635,35.275136],[140.399882,35.275085],[140.400017,35.275588],[140.40004,35.275675]]}},{"type":"Feature","properties":{"id":469906856,"highway":"residential"},"geometry":{"type":"LineString","coordinates":[[140.400378,35.251941],[140.399807,35.252041]]}},{"type":"Feature","properties":{"id":469907041,"highway":"residential"},"geometry":{"type":"LineString","coordinates":[[140.40239,35.249408],[140.402401,35.249203]]}},{"type":"Feature","properties":{"id":469907046,"highway":"service"},"geometry":{"type":"LineString","coordinates":[[140.402579,35.251759],[140.402118,35.251266]]}},{"type":"Feature","properties":{"id":469907162,"highway":"residential"},"geometry":{"type":"LineString","coordinates":[[140.401543,35.248177],[140.401625,35.248161],[140.401807,35.248153]]}},{"type":"Feature","properties":{"id":469907163,"highway":"residential"},"geometry":{"type":"LineString","coordinates":[[140.400824,35.249005],[140.400474,35.248533],[140.400515,35.248509],[140.400537,35.248396],[140.400522,35.248312],[140.40033,35.248194],[140.400242,35.248116],[140.400222,35.24804],[140.400243,35.247988],[140.400257,35.247972],[140.40029,35.247933],[140.400343,35.247854],[140.400325,35.247583],[140.400185,35.247418],[140.400119,35.2474]]}},{"type":"Feature","properties":{"id":469908307,"highway":"residential"},"geometry":{"type":"LineString","coordinates":[[140.400119,35.2474],[140.400219,35.247334],[140.400427,35.247264],[140.400538,35.24727],[140.400634,35.247319],[140.400913,35.247752],[140.40099,35.247892],[140.401025,35.247944],[140.401303,35.248022],[140.401424,35.248078],[140.401543,35.248177],[140.401565,35.248236],[140.401589,35.248352],[140.401577,35.248476],[140.401554,35.248562],[140.401538,35.248598],[140.401458,35.248807],[140.401413,35.248968],[140.401358,35.249109],[140.40133,35.249135],[140.401303,35.249278],[140.401292,35.249426]]}},{"type":"Feature","properties":{"id":469908312,"highway":"residential"},"geometry":{"type":"LineString","coordinates":[[140.400634,35.247319],[140.400822,35.24721]]}},{"type":"Feature","properties":{"id":469908313,"highway":"residential"},"geometry":{"type":"LineString","coordinates":[[140.401625,35.246779],[140.401961,35.246477],[140.402465,35.246132],[140.402598,35.245984]]}},{"type":"Feature","properties":{"id":469908314,"highway":"residential"},"geometry":{"type":"LineString","coordinates":[[140.400913,35.247752],[140.401074,35.247527]]}},{"type":"Feature","properties":{"id":469908315,"highway":"residential"},"geometry":{"type":"LineString","coordinates":[[140.399986,35.242382],[140.400137,35.242092]]}},{"type":"Feature","properties":{"id":469908318,"highway":"residential"},"geometry":{"type":"LineString","coordinates":[[140.401765,35.247634],[140.401498,35.247643]]}},{"type":"Feature","properties":{"id":885922220,"highway":"unclassified"},"geometry":{"type":"LineString","coordinates":[[140.401494,35.255768],[140.401486,35.25578],[140.401453,35.255823],[140.401298,35.256031],[140.400758,35.256751],[140.400049,35.257663]]}},{"type":"Feature","properties":{"id":885922221,"highway":"unclassified"},"geometry":{"type":"LineString","coordinates":[[140.401578,35.255654],[140.401494,35.255768]]}},{"type":"Feature","properties":{"id":903233226,"highway":"service"},"geometry":{"type":"LineString","coordinates":[[140.399919,35.253106],[140.400081,35.253005],[140.400411,35.25328]]}},{"type":"Feature","properties":{"id":903233229,"highway":"service"},"geometry":{"type":"LineString","coordinates":[[140.401355,35.250294],[140.401229,35.250005],[140.401463,35.249955]]}},{"type":"Feature","properties":{"id":903233230,"highway":"service"},"geometry":{"type":"LineString","coordinates":[[140.401888,35.250757],[140.402215,35.250591]]}},{"type":"Feature","properties":{"id":903251266,"highway":"residential"},"geometry":{"type":"LineString","coordinates":[[140.403957,35.250275],[140.403775,35.250095]]}},{"type":"Feature","properties":{"id":903251267,"highway":"service"},"geometry":{"type":"LineString","coordinates":[[140.403949,35.25],[140.403775,35.250095]]}},{"type":"Feature","properties":{"id":903251269,"highway":"residential"},"geometry":{"type":"LineString","coordinates":[[140.402555,35.248275],[140.40237,35.248313]]}},{"type":"Feature","properties":{"id":903251270,"highway":"residential"},"geometry":{"type":"LineString","coordinates":[[140.402698,35.248063],[140.402354,35.24817]]}},{"type":"Feature","properties":{"id":903251271,"highway":"residential"},"geometry":{"type":"LineString","coordinates":[[140.402312,35.248063],[140.402354,35.24817],[140.40237,35.248261],[140.40237,35.248313]]}},{"type":"Feature","properties":{"id":903251272,"highway":"service"},"geometry":{"type":"LineString","coordinates":[[140.40237,35.248313],[140.402354,35.248337],[140.402297,35.248442],[140.402259,35.248547],[140.402266,35.248584]]}},{"type":"Feature","properties":{"id":903251273,"highway":"service"},"geometry":{"type":"LineString","coordinates":[[140.404364,35.251932],[140.404486,35.251875],[140.405192,35.251544]]}},{"type":"Feature","properties":{"id":903251274,"highway":"service"},"geometry":{"type":"LineString","coordinates":[[140.403166,35.251796],[140.402975,35.251529]]}},{"type":"Feature","properties":{"id":903251275,"highway":"service"},"geometry":{"type":"LineString","coordinates":[[140.40086,35.252405],[140.40109,35.252344],[140.401198,35.252501]]}},{"type":"Feature","properties":{"id":903251277,"highway":"service"},"geometry":{"type":"LineString","coordinates":[[140.401372,35.250725],[140.401407,35.250672],[140.401461,35.250603]]}},{"type":"Feature","properties":{"id":903251278,"highway":"service"},"geometry":{"type":"LineString","coordinates":[[140.401391,35.250535],[140.401461,35.250603],[140.401687,35.250443]]}},{"type":"Feature","properties":{"id":903251280,"highway":"service"},"geometry":{"type":"LineString","coordinates":[[140.400158,35.247656],[140.40014,35.247522],[140.400113,35.247442],[140.400119,35.2474]]}},{"type":"Feature","properties":{"id":903251281,"highway":"residential"},"geometry":{"type":"LineString","coordinates":[[140.400119,35.2474],[140.400092,35.247377],[140.400053,35.247343],[140.400038,35.247316],[140.40002,35.247249],[140.39999,35.247187],[140.399925,35.247108],[140.399757,35.246941],[140.399865,35.246838],[140.39985,35.246715]]}},{"type":"Feature","properties":{"id":906181783,"highway":"service"},"geometry":{"type":"LineString","coordinates":[[140.400409,35.253834],[140.400717,35.254197]]}},{"type":"Feature","properties":{"id":962531473,"highway":"service"},"geometry":{"type":"LineString","coordinates":[[140.401486,35.25578],[140.401624,35.255836],[140.40299,35.256545]]}},{"type":"Feature","properties":{"id":962531474,"highway":"service"},"geometry":{"type":"LineString","coordinates":[[140.403086,35.256423],[140.403842,35.25682]]}},{"type":"Feature","properties":{"id":962531475,"highway":"service"},"geometry":{"type":"LineString","coordinates":[[140.40299,35.256545],[140.403086,35.256423]]}},{"type":"Feature","properties":{"id":1157965234,"highway":"residential"},"geometry":{"type":"LineString","coordinates":[[140.399846,35.235042],[140.399896,35.235074],[140.400004,35.23514],[140.400093,35.235113],[140.400211,35.23513],[140.400222,35.235231],[140.400305,35.235293],[140.400409,35.235526],[140.400436,35.235733],[140.400388,35.235837]]}},{"type":"Feature","properties":{"id":1157965236,"highway":"residential"},"geometry":{"type":"LineString","coordinates":[[140.399846,35.235042],[140.399915,35.235057],[140.40001,35.23509],[140.4002,35.235028],[140.400416,35.234885],[140.400494,35.234632],[140.400492,35.234424],[140.400356,35.23431]]}},{"type":"Feature","properties":{"id":1157965237,"highway":"residential"},"geometry":{"type":"LineString","coordinates":[[140.400409,35.235526],[140.400475,35.235573],[140.400549,35.235573],[140.400743,35.235796],[140.400925,35.235555]]}}]}