{"type":"FeatureCollection","features":[{"type":"Feature","properties":{"id":33805920,"highway":"tertiary"},"geometry":{"type":"LineString","coordinates":[[140.511203,35.592065],[140.509734,35.593167],[140.509604,35.593264]]}},{"type":"Feature","properties":{"id":120647608,"highway":"tertiary"},"geometry":{"type":"LineString","coordinates":[[140.509354,35.594154],[140.509433,35.594218],[140.50967,35.594414],[140.510074,35.59479],[140.510216,35.594915],[140.510261,35.594953],[140.511002,35.595627],[140.511045,35.595669],[140.511874,35.596465],[140.512311,35.596952],[140.512617,35.597307],[140.512956,35.597699],[140.512981,35.597728],[140.513288,35.598084],[140.514168,35.599113],[140.514231,35.599186],[140.514329,35.599297],[140.514678,35.599701],[140.514779,35.599821],[140.514984,35.600056],[140.515229,35.600299],[140.515468,35.600499],[140.515925,35.600815],[140.516004,35.600857],[140.516316,35.601027],[140.516464,35.601108],[140.516618,35.601194],[140.517068,35.601426],[140.517729,35.601804],[140.518042,35.602036],[140.518092,35.602074],[140.518135,35.602111],[140.51835,35.602298],[140.518901,35.602789],[140.519667,35.603494],[140.520184,35.603965],[140.520395,35.60416]]}},{"type":"Feature","properties":{"id":122640250,"highway":"unclassified"},"geometry":{"type":"LineString","coordinates":[[140.498053,35.598989],[140.50035,35.597409]]}},{"type":"Feature","properties":{"id":122640291,"highway":"unclassified"},"geometry":{"type":"LineString","coordinates":[[140.511746,35.600851],[140.51148,35.600713],[140.511403,35.600676],[140.511152,35.60055],[140.51099,35.600429],[140.510772,35.600176],[140.510699,35.600111],[140.510669,35.600085],[140.510399,35.599843],[140.509959,35.59947],[140.508717,35.598492],[140.508344,35.598189],[140.507205,35.597306],[140.506319,35.59661]]}},{"type":"Feature","properties":{"id":122640456,"highway":"tertiary"},"geometry":{"type":"LineString","coordinates":[[140.494323,35.583255],[140.494898,35.582723],[140.49529,35.582483],[140.495812,35.582273],[140.49597,35.582246],[140.49608,35.582316],[140.496646,35.58323],[140.496993,35.583748],[140.497761,35.584732],[140.499294,35.586495],[140.499373,35.586586],[140.499449,35.586679],[140.499776,35.587078],[140.500745,35.588214],[140.500886,35.588382],[140.501353,35.588867],[140.501399,35.588906],[140.501683,35.589163],[140.501754,35.589226],[140.502247,35.589615],[140.502682,35.589929],[140.503276,35.590311],[140.503998,35.590719],[140.504813,35.591173]]}},{"type":"Feature","properties":{"id":122640514,"highway":"unclassified"},"geometry":{"type":"LineString","coordinates":[[140.50035,35.597409],[140.502959,35.595608]]}},{"type":"Feature","properties":{"id":122640666,"highway":"residential"},"geometry":{"type":"LineString","coordinates":[[140.506807,35.592561],[140.506442,35.592758],[140.505996,35.592982],[140.505643,35.593198],[140.5053,35.593304]]}},{"type":"Feature","properties":{"id":122641243,"highway":"tertiary"},"geometry":{"type":"LineString","coordinates":[[140.515865,35.598247],[140.515742,35.59832],[140.515529,35.598448],[140.515368,35.598545],[140.515134,35.598685]]}},{"type":"Feature","properties":{"id":122641318,"highway":"unclassified"},"geometry":{"type":"LineString","coordinates":[[140.513031,35.599808],[140.512971,35.599842],[140.51257,35.600075],[140.51204,35.60058],[140.512027,35.60059],[140.511746,35.600851],[140.511249,35.601324],[140.510371,35.602122],[140.510221,35.602269],[140.509975,35.602475],[140.509712,35.602695],[140.509144,35.60317],[140.509028,35.603273],[140.506514,35.605386],[140.506421,35.605512],[140.506308,35.605764]]}},{"type":"Feature","properties":{"id":122641394,"highway":"unclassified"},"geometry":{"type":"LineString","coordinates":[[140.505822,35.59614],[140.504458,35.597085],[140.501856,35.598853],[140.499548,35.600417]]}},{"type":"Feature","properties":{"id":122642170,"highway":"unclassified"},"geometry":{"type":"LineString","coordinates":[[140.505041,35.597638],[140.504458,35.597085],[140.502959,35.595608],[140.502211,35.594861],[140.500691,35.593413],[140.499206,35.591956],[140.498136,35.590905]]}},{"type":"Feature","properties":{"id":122642477,"highway":"unclassified"},"geometry":{"type":"LineString","coordinates":[[140.500886,35.588382],[140.501119,35.588189],[140.50126,35.588072],[140.501333,35.588011],[140.501365,35.587984],[140.502025,35.587452]]}},{"type":"Feature","properties":{"id":122642641,"highway":"residential"},"geometry":{"type":"LineString","coordinates":[[140.506319,35.59661],[140.505822,35.59614],[140.504319,35.594702],[140.503871,35.594225],[140.503572,35.593912],[140.502065,35.592463],[140.501245,35.591671],[140.500582,35.59103],[140.500433,35.590883],[140.499506,35.58997]]}},{"type":"Feature","properties":{"id":122643234,"highway":"unclassified"},"geometry":{"type":"LineString","coordinates":[[140.51536,35.598874],[140.515692,35.599153],[140.51639,35.599737],[140.516849,35.600121]]}},{"type":"Feature","properties":{"id":122643811,"highway":"service"},"geometry":{"type":"LineString","coordinates":[[140.516849,35.600121],[140.517176,35.599879],[140.517522,35.59963]]}},{"type":"Feature","properties":{"id":122644235,"highway":"unclassified"},"geometry":{"type":"LineString","coordinates":[[140.503572,35.593912],[140.502211,35.594861]]}},{"type":"Feature","properties":{"id":122644613,"highway":"unclassified"},"geometry":{"type":"LineString","coordinates":[[140.502679,35.599654],[140.501856,35.598853]]}},{"type":"Feature","properties":{"id":122644682,"highway":"unclassified"},"geometry":{"type":"LineString","coordinates":[[140.503545,35.59892],[140.505323,35.600337]]}},{"type":"Feature","properties":{"id":122645413,"highway":"tertiary"},"geometry":{"type":"LineString","coordinates":[[140.51772,35.597131],[140.516553,35.597863],[140.516097,35.598105],[140.516031,35.598145]]}},{"type":"Feature","properties":{"id":122645555,"highway":"tertiary"},"geometry":{"type":"LineString","coordinates":[[140.501688,35.58484],[140.502209,35.584481]]}},{"type":"Feature","properties":{"id":122645565,"highway":"unclassified"},"geometry":{"type":"LineString","coordinates":[[140.500691,35.593413],[140.502065,35.592463],[140.502952,35.591906]]}},{"type":"Feature","properties":{"id":122645676,"highway":"residential"},"geometry":{"type":"LineString","coordinates":[[140.504813,35.591173],[140.50463,35.591294],[140.503946,35.591852],[140.503586,35.592178],[140.503351,35.592351]]}},{"type":"Feature","properties":{"id":122645845,"highway":"unclassified"},"geometry":{"type":"LineString","coordinates":[[140.507509,35.599921],[140.50619,35.601023]]}},{"type":"Feature","properties":{"id":122646518,"highway":"unclassified"},"geometry":{"type":"LineString","coordinates":[[140.505323,35.600337],[140.50673,35.599146],[140.507054,35.599035],[140.507577,35.598771],[140.507981,35.598499],[140.508344,35.598189]]}},{"type":"Feature","properties":{"id":122647092,"highway":"unclassified"},"geometry":{"type":"LineString","coordinates":[[140.500139,35.589617],[140.499506,35.58997],[140.499255,35.590143],[140.498136,35.590905]]}},{"type":"Feature","properties":{"id":122647321,"highway":"unclassified"},"geometry":{"type":"LineString","coordinates":[[140.510371,35.602122],[140.509369,35.601332],[140.508525,35.60067],[140.507509,35.599921],[140.50673,35.599146]]}},{"type":"Feature","properties":{"id":122648364,"highway":"unclassified"},"geometry":{"type":"LineString","coordinates":[[140.498094,35.595202],[140.500691,35.593413]]}},{"type":"Feature","properties":{"id":122648378,"highway":"unclassified"},"geometry":{"type":"LineString","coordinates":[[140.513031,35.599808],[140.513167,35.599736],[140.51353,35.599545],[140.513676,35.599468],[140.514028,35.599282],[140.514139,35.59923],[140.514231,35.599186]]}},{"type":"Feature","properties":{"id":122648682,"highway":"residential"},"geometry":{"type":"LineString","coordinates":[[140.50513,35.593214],[140.503871,35.594225]]}},{"type":"Feature","properties":{"id":122648832,"highway":"unclassified"},"geometry":{"type":"LineString","coordinates":[[140.50673,35.599146],[140.506052,35.598444],[140.505041,35.597638]]}},{"type":"Feature","properties":{"id":122648901,"highway":"unclassified"},"geometry":{"type":"LineString","coordinates":[[140.502959,35.595608],[140.504319,35.594702]]}},{"type":"Feature","properties":{"id":122649560,"highway":"unclassified"},"geometry":{"type":"LineString","coordinates":[[140.508525,35.60067],[140.509232,35.599972],[140.509959,35.59947],[140.511606,35.598183]]}},{"type":"Feature","properties":{"id":122649786,"highway":"unclassified"},"geometry":{"type":"LineString","coordinates":[[140.507812,35.588996],[140.506861,35.58973],[140.506321,35.590094],[140.505786,35.590446]]}},{"type":"Feature","properties":{"id":122651070,"highway":"residential"},"geometry":{"type":"LineString","coordinates":[[140.51034,35.596971],[140.509875,35.597464],[140.508717,35.598492]]}},{"type":"Feature","properties":{"id":368679723,"highway":"tertiary"},"geometry":{"type":"LineString","coordinates":[[140.516031,35.598145],[140.515865,35.598247]]}},{"type":"Feature","properties":{"id":368679729,"highway":"residential"},"geometry":{"type":"LineString","coordinates":[[140.500445,35.587226],[140.50129,35.586606]]}},{"type":"Feature","properties":{"id":368679730,"highway":"residential"},"geometry":{"type":"LineString","coordinates":[[140.500899,35.587599],[140.50164,35.587001]]}},{"type":"Feature","properties":{"id":368679731,"highway":"unclassified"},"geometry":{"type":"LineString","coordinates":[[140.49956,35.586485],[140.500445,35.587226],[140.500899,35.587599],[140.501365,35.587984]]}},{"type":"Feature","properties":{"id":368679735,"highway":"unclassified"},"geometry":{"type":"LineString","coordinates":[[140.502025,35.587452],[140.50164,35.587001],[140.50129,35.586606],[140.500361,35.585898]]}},{"type":"Feature","properties":{"id":368680203,"highway":"residential"},"geometry":{"type":"LineString","coordinates":[[140.505996,35.592982],[140.505936,35.592909]]}},{"type":"Feature","properties":{"id":420550746,"highway":"service"},"geometry":{"type":"LineString","coordinates":[[140.500745,35.588214],[140.500979,35.588068],[140.501108,35.587988],[140.500395,35.587383],[140.499921,35.586981],[140.499776,35.587078]]}},{"type":"Feature","properties":{"id":420551214,"highway":"service"},"geometry":{"type":"LineString","coordinates":[[140.510216,35.594915],[140.510412,35.594732],[140.510454,35.594692]]}},{"type":"Feature","properties":{"id":476940330,"highway":"residential"},"geometry":{"type":"LineString","coordinates":[[140.508909,35.594542],[140.506442,35.592758]]}},{"type":"Feature","properties":{"id":476940332,"highway":"residential"},"geometry":{"type":"LineString","coordinates":[[140.506453,35.597933],[140.507205,35.597306],[140.508054,35.596584],[140.508226,35.596404],[140.508516,35.596013]]}},{"type":"Feature","properties":{"id":476940335,"highway":"residential"},"geometry":{"type":"LineString","coordinates":[[140.505513,35.597227],[140.506453,35.597933],[140.507577,35.598771],[140.507883,35.599055],[140.508177,35.599357],[140.508334,35.599549],[140.508534,35.599713],[140.508741,35.599574],[140.509232,35.599972]]}},{"type":"Feature","properties":{"id":481257360,"highway":"tertiary"},"geometry":{"type":"LineString","coordinates":[[140.498129,35.587275],[140.498198,35.58725],[140.498799,35.586951],[140.49916,35.5867],[140.499289,35.586631],[140.499373,35.586586],[140.499442,35.586548],[140.49956,35.586485],[140.500361,35.585898],[140.500693,35.585631],[140.500823,35.585522],[140.501688,35.58484]]}},{"type":"Feature","properties":{"id":561822906,"highway":"residential"},"geometry":{"type":"LineString","coordinates":[[140.511403,35.600676],[140.511714,35.600353],[140.512017,35.600038],[140.511998,35.599827],[140.512057,35.599716],[140.512215,35.599542],[140.512561,35.599292]]}},{"type":"Feature","properties":{"id":561822908,"highway":"residential"},"geometry":{"type":"LineString","coordinates":[[140.513676,35.599468],[140.514321,35.60021]]}},{"type":"Feature","properties":{"id":561822909,"highway":"residential"},"geometry":{"type":"LineString","coordinates":[[140.514028,35.599282],[140.514857,35.60022],[140.515087,35.600443],[140.515292,35.600625],[140.515332,35.600652],[140.515749,35.60094],[140.516327,35.601269],[140.517346,35.601805],[140.517944,35.602212]]}},{"type":"Feature","properties":{"id":561856678,"highway":"service"},"geometry":{"type":"LineString","coordinates":[[140.505111,35.591096],[140.50541,35.59125],[140.505361,35.591324],[140.505277,35.591437]]}},{"type":"Feature","properties":{"id":562241896,"highway":"service"},"geometry":{"type":"LineString","coordinates":[[140.515368,35.598545],[140.515431,35.598619],[140.515443,35.598674]]}},{"type":"Feature","properties":{"id":562241897,"highway":"service"},"geometry":{"type":"LineString","coordinates":[[140.514779,35.599821],[140.51492,35.599709],[140.515009,35.599638],[140.51507,35.59959],[140.515157,35.599521],[140.515222,35.59947],[140.515279,35.599425],[140.515376,35.599348],[140.515522,35.599232]]}},{"type":"Feature","properties":{"id":565023598,"highway":"unclassified"},"geometry":{"type":"LineString","coordinates":[[140.505786,35.590446],[140.505706,35.590501]]}},{"type":"Feature","properties":{"id":565023599,"highway":"unclassified"},"geometry":{"type":"LineString","coordinates":[[140.505706,35.590501],[140.505689,35.590513],[140.505659,35.590535],[140.505626,35.59056],[140.504883,35.591113],[140.504813,35.591173]]}},{"type":"Feature","properties":{"id":585957359,"highway":"primary"},"geometry":{"type":"LineString","coordinates":[[140.507709,35.595562],[140.507631,35.595511],[140.507513,35.595434],[140.507364,35.595317],[140.507009,35.594952],[140.505875,35.593712],[140.50565,35.593529],[140.5053,35.593304],[140.50513,35.593214],[140.504673,35.592997],[140.503778,35.592598],[140.503475,35.592453],[140.503351,35.592351],[140.502952,35.591906],[140.502502,35.591385],[140.502026,35.590939],[140.50188,35.590803],[140.501317,35.590284],[140.500638,35.589658],[140.50009,35.58916],[140.499584,35.588664],[140.498198,35.587345],[140.498129,35.587275]]}},{"type":"Feature","properties":{"id":587477139,"highway":"tertiary"},"geometry":{"type":"LineString","coordinates":[[140.509476,35.593364],[140.509433,35.593405],[140.509414,35.593433],[140.509402,35.593477],[140.509406,35.593529],[140.509494,35.593863],[140.509503,35.593921],[140.5095,35.593975],[140.509479,35.594026],[140.509448,35.594069],[140.50941,35.594103],[140.509354,35.594154]]}},{"type":"Feature","properties":{"id":587477140,"highway":"tertiary"},"geometry":{"type":"LineString","coordinates":[[140.509604,35.593264],[140.509476,35.593364]]}},{"type":"Feature","properties":{"id":588994264,"highway":"residential"},"geometry":{"type":"LineString","coordinates":[[140.514028,35.599282],[140.513078,35.598169],[140.512508,35.597487],[140.512154,35.597084],[140.511624,35.5965],[140.510817,35.59574],[140.510098,35.59509],[140.51009,35.595083],[140.50918,35.594303],[140.508686,35.593881],[140.507699,35.593147],[140.506807,35.592561],[140.506745,35.592524]]}},{"type":"Feature","properties":{"id":588994276,"highway":"service"},"geometry":{"type":"LineString","coordinates":[[140.501754,35.589226],[140.501937,35.589077],[140.502209,35.589296],[140.502268,35.589298],[140.502395,35.58921],[140.502508,35.589235]]}},{"type":"Feature","properties":{"id":591022758,"highway":"residential"},"geometry":{"type":"LineString","coordinates":[[140.504673,35.592997],[140.504817,35.592784],[140.50508,35.59256],[140.504709,35.592177],[140.505109,35.59182],[140.505313,35.591694]]}},{"type":"Feature","properties":{"id":685614365,"highway":"service"},"geometry":{"type":"LineString","coordinates":[[140.515448,35.598751],[140.515423,35.598818],[140.51536,35.598874],[140.515224,35.598984],[140.515079,35.5991]]}},{"type":"Feature","properties":{"id":685614366,"highway":"service"},"geometry":{"type":"LineString","coordinates":[[140.515443,35.598674],[140.515448,35.598751]]}},{"type":"Feature","properties":{"id":694000284,"highway":"residential"},"geometry":{"type":"LineString","coordinates":[[140.501245,35.591671],[140.502026,35.590939]]}},{"type":"Feature","properties":{"id":694000285,"highway":"residential"},"geometry":{"type":"LineString","coordinates":[[140.500433,35.590883],[140.501317,35.590284]]}},{"type":"Feature","properties":{"id":694000286,"highway":"residential"},"geometry":{"type":"LineString","coordinates":[[140.505812,35.591968],[140.505313,35.591694],[140.50463,35.591294],[140.502645,35.590157],[140.501661,35.589429],[140.501178,35.589003],[140.500744,35.588543],[140.49916,35.5867],[140.497582,35.584785],[140.496807,35.583845],[140.496516,35.583443],[140.495812,35.582273]]}},{"type":"Feature","properties":{"id":694000287,"highway":"residential"},"geometry":{"type":"LineString","coordinates":[[140.505812,35.591968],[140.505937,35.591815]]}},{"type":"Feature","properties":{"id":694000288,"highway":"residential"},"geometry":{"type":"LineString","coordinates":[[140.506704,35.5925],[140.505936,35.592909]]}},{"type":"Feature","properties":{"id":694000289,"highway":"residential"},"geometry":{"type":"LineString","coordinates":[[140.505936,35.592909],[140.505512,35.592395],[140.505542,35.592296],[140.505812,35.591968]]}},{"type":"Feature","properties":{"id":694000290,"highway":"residential"},"geometry":{"type":"LineString","coordinates":[[140.506704,35.5925],[140.505812,35.591968]]}},{"type":"Feature","properties":{"id":694000291,"highway":"residential"},"geometry":{"type":"LineString","coordinates":[[140.506745,35.592524],[140.506931,35.59239]]}},{"type":"Feature","properties":{"id":694000292,"highway":"residential"},"geometry":{"type":"LineString","coordinates":[[140.506745,35.592524],[140.506704,35.5925]]}},{"type":"Feature","properties":{"id":694000293,"highway":"residential"},"geometry":{"type":"LineString","coordinates":[[140.510817,35.59574],[140.511002,35.595627]]}},{"type":"Feature","properties":{"id":694000294,"highway":"residential"},"geometry":{"type":"LineString","coordinates":[[140.51009,35.595083],[140.510261,35.594953]]}},{"type":"Feature","properties":{"id":694000295,"highway":"residential"},"geometry":{"type":"LineString","coordinates":[[140.511339,35.597871],[140.512053,35.597178],[140.512154,35.597084]]}},{"type":"Feature","properties":{"id":694000296,"highway":"residential"},"geometry":{"type":"LineString","coordinates":[[140.511581,35.598153],[140.512508,35.597487]]}},{"type":"Feature","properties":{"id":694000297,"highway":"residential"},"geometry":{"type":"LineString","coordinates":[[140.510669,35.600085],[140.511158,35.599719],[140.511486,35.599442],[140.512164,35.59883]]}},{"type":"Feature","properties":{"id":730771608,"highway":"service"},"geometry":{"type":"LineString","coordinates":[[140.509591,35.593751],[140.509611,35.593862],[140.509626,35.593941],[140.509661,35.594137],[140.509674,35.594209]]}},{"type":"Feature","properties":{"id":733932562,"highway":"service"},"geometry":{"type":"LineString","coordinates":[[140.500979,35.588068],[140.5005,35.587676],[140.500309,35.587459],[140.500395,35.587383]]}},{"type":"Feature","properties":{"id":980741799,"highway":"tertiary"},"geometry":{"type":"LineString","coordinates":[[140.504813,35.591173],[140.505277,35.591437],[140.505389,35.591496],[140.505632,35.591632],[140.505937,35.591815],[140.506917,35.592381],[140.506931,35.59239],[140.507236,35.592583],[140.50756,35.592799],[140.508245,35.593288],[140.508884,35.59378],[140.508975,35.593851],[140.509028,35.593892],[140.509203,35.594026],[140.509247,35.594059],[140.509354,35.594154]]}},{"type":"Feature","properties":{"id":1053969919,"highway":"service"},"geometry":{"type":"LineString","coordinates":[[140.51492,35.599709],[140.516017,35.600625]]}},{"type":"Feature","properties":{"id":1053969920,"highway":"service"},"geometry":{"type":"LineString","coordinates":[[140.514917,35.59954],[140.515009,35.599638]]}},{"type":"Feature","properties":{"id":1053969921,"highway":"service"},"geometry":{"type":"LineString","coordinates":[[140.515157,35.599521],[140.515062,35.599443],[140.514745,35.599177]]}},{"type":"Feature","properties":{"id":1053969922,"highway":"service"},"geometry":{"type":"LineString","coordinates":[[140.515062,35.599443],[140.514917,35.59954],[140.514772,35.599638],[140.514678,35.599701]]}},{"type":"Feature","properties":{"id":1053969923,"highway":"service"},"geometry":{"type":"LineString","coordinates":[[140.516167,35.600506],[140.51507,35.59959]]}},{"type":"Feature","properties":{"id":1053969924,"highway":"service"},"geometry":{"type":"LineString","coordinates":[[140.515222,35.59947],[140.51632,35.600385]]}},{"type":"Feature","properties":{"id":1053969925,"highway":"service"},"geometry":{"type":"LineString","coordinates":[[140.514863,35.599078],[140.515279,35.599425]]}},{"type":"Feature","properties":{"id":1053969926,"highway":"service"},"geometry":{"type":"LineString","coordinates":[[140.516474,35.600263],[140.515376,35.599348],[140.515079,35.5991],[140.514969,35.599008]]}},{"type":"Feature","properties":{"id":1053969928,"highway":"service"},"geometry":{"type":"LineString","coordinates":[[140.515111,35.598889],[140.515224,35.598984],[140.515522,35.599232],[140.51662,35.600147]]}},{"type":"Feature","properties":{"id":1053969929,"highway":"service"},"geometry":{"type":"LineString","coordinates":[[140.512707,35.597179],[140.51275,35.597228]]}},{"type":"Feature","properties":{"id":1053969930,"highway":"service"},"geometry":{"type":"LineString","coordinates":[[140.512617,35.597307],[140.5127,35.597258],[140.51275,35.597228],[140.512861,35.597163]]}},{"type":"Feature","properties":{"id":1053969931,"highway":"service"},"geometry":{"type":"LineString","coordinates":[[140.512861,35.597163],[140.512817,35.597114],[140.512707,35.597179]]}},{"type":"Feature","properties":{"id":1053969932,"highway":"service"},"geometry":{"type":"LineString","coordinates":[[140.510454,35.594692],[140.510297,35.594581]]}},{"type":"Feature","properties":{"id":1053969933,"highway":"service"},"geometry":{"type":"LineString","coordinates":[[140.510742,35.594422],[140.509676,35.593669]]}},{"type":"Feature","properties":{"id":1053969934,"highway":"service"},"geometry":{"type":"LineString","coordinates":[[140.509676,35.593669],[140.509636,35.593707],[140.509591,35.593751]]}},{"type":"Feature","properties":{"id":1053969935,"highway":"service"},"geometry":{"type":"LineString","coordinates":[[140.510454,35.594692],[140.510556,35.594597],[140.510596,35.594559],[140.510702,35.59446],[140.510742,35.594422]]}},{"type":"Feature","properties":{"id":1053969936,"highway":"service"},"geometry":{"type":"LineString","coordinates":[[140.509661,35.594137],[140.510297,35.594581]]}},{"type":"Feature","properties":{"id":1053969937,"highway":"service"},"geometry":{"type":"LineString","coordinates":[[140.510412,35.594732],[140.510255,35.594621],[140.509674,35.594209]]}},{"type":"Feature","properties":{"id":1053969938,"highway":"service"},"geometry":{"type":"LineString","coordinates":[[140.510297,35.594581],[140.510255,35.594621],[140.510074,35.59479]]}},{"type":"Feature","properties":{"id":1053969939,"highway":"service"},"geometry":{"type":"LineString","coordinates":[[140.509636,35.593707],[140.510702,35.59446]]}},{"type":"Feature","properties":{"id":1053969940,"highway":"service"},"geometry":{"type":"LineString","coordinates":[[140.510596,35.594559],[140.509611,35.593862]]}},{"type":"Feature","properties":{"id":1053969941,"highway":"service"},"geometry":{"type":"LineString","coordinates":[[140.509626,35.593941],[140.510556,35.594597]]}},{"type":"Feature","properties":{"id":1054414988,"highway":"primary"},"geometry":{"type":"LineString","coordinates":[[140.49576,35.603188],[140.495869,35.603138],[140.496419,35.602892],[140.496916,35.602739],[140.49703,35.602708],[140.497279,35.602655],[140.49823,35.602501],[140.498322,35.602486],[140.498873,35.602363],[140.499188,35.602255],[140.499502,35.602144],[140.499846,35.601962],[140.500088,35.601814],[140.500202,35.601737],[140.500542,35.601467],[140.500601,35.601421],[140.500668,35.601364],[140.50085,35.601207],[140.501646,35.600527],[140.502679,35.599654],[140.503545,35.59892],[140.505041,35.597638],[140.505513,35.597227],[140.506319,35.59661],[140.506731,35.596341],[140.507087,35.596076],[140.507628,35.595629],[140.507709,35.595562]]}},{"type":"Feature","properties":{"id":1054414989,"highway":"tertiary"},"geometry":{"type":"LineString","coordinates":[[140.507709,35.595562],[140.50779,35.595493],[140.508909,35.594542],[140.50918,35.594303],[140.509286,35.594212],[140.509354,35.594154]]}},{"type":"Feature","properties":{"id":1054414990,"highway":"primary"},"geometry":{"type":"LineString","coordinates":[[140.513031,35.599808],[140.512979,35.599751],[140.512561,35.599292],[140.512164,35.59883],[140.511606,35.598183],[140.511581,35.598153],[140.511429,35.597977],[140.511339,35.597871],[140.511214,35.597726],[140.510874,35.597408],[140.510579,35.597154],[140.51034,35.596971],[140.510146,35.596841],[140.509728,35.59656],[140.509382,35.596362],[140.50882,35.596149],[140.508516,35.596013],[140.508176,35.595849],[140.507803,35.59562],[140.507709,35.595562]]}},{"type":"Feature","properties":{"id":1054414991,"highway":"primary"},"geometry":{"type":"LineString","coordinates":[[140.521607,35.609435],[140.52136,35.609192],[140.521274,35.60909],[140.521191,35.608979],[140.521129,35.608892],[140.521115,35.608873],[140.521003,35.608711],[140.520873,35.608558],[140.520671,35.608379],[140.520332,35.6081],[140.520059,35.607867],[140.519756,35.6076],[140.51902,35.606982],[140.518386,35.606449],[140.518332,35.606403],[140.518105,35.60617],[140.518099,35.606163],[140.517984,35.606022],[140.517848,35.605843],[140.517776,35.605731],[140.517693,35.60559],[140.517601,35.605396],[140.517516,35.605194],[140.517451,35.60498],[140.517403,35.604747],[140.517268,35.603927],[140.517242,35.603766],[140.517068,35.602685],[140.517053,35.602646],[140.516987,35.602472],[140.516877,35.602308],[140.516731,35.60213],[140.516505,35.601951],[140.515846,35.601571],[140.515374,35.601298],[140.515151,35.601175],[140.514957,35.601068],[140.514908,35.601042],[140.514091,35.600559],[140.513738,35.60036],[140.513468,35.600187],[140.513114,35.599893],[140.513031,35.599808]]}},{"type":"Feature","properties":{"id":1054414992,"highway":"unclassified"},"geometry":{"type":"LineString","coordinates":[[140.515134,35.598685],[140.51536,35.598874]]}},{"type":"Feature","properties":{"id":1054414993,"highway":"tertiary"},"geometry":{"type":"LineString","coordinates":[[140.515134,35.598685],[140.514532,35.599049],[140.514326,35.599143],[140.514231,35.599186]]}},{"type":"Feature","properties":{"id":1082613340,"highway":"service"},"geometry":{"type":"LineString","coordinates":[[140.515529,35.598448],[140.515529,35.598386],[140.515522,35.598366],[140.515364,35.598073]]}},{"type":"Feature","properties":{"id":1226950443,"highway":"unclassified"},"geometry":{"type":"LineString","coordinates":[[140.511686,35.595043],[140.511831,35.595159],[140.512589,35.595767],[140.512597,35.595803],[140.512603,35.596008],[140.512609,35.596037]]}}]}