{"type":"FeatureCollection","features":[{"type":"Feature","properties":{"id":107145134,"highway":"unclassified"},"geometry":{"type":"LineString","coordinates":[[140.565235,36.935263],[140.565222,36.935219],[140.5652,36.935183],[140.565163,36.935146],[140.565121,36.93511],[140.56509,36.93509],[140.564975,36.935057],[140.564952,36.935049],[140.564913,36.935027],[140.564739,36.934944],[140.564584,36.934898],[140.564394,36.934858],[140.564341,36.934842],[140.564302,36.934821],[140.564279,36.934798],[140.564254,36.934751],[140.564187,36.934644],[140.564163,36.934588],[140.564023,36.93413],[140.563735,36.932891],[140.5637,36.932818],[140.563552,36.93266],[140.563447,36.932564],[140.562978,36.932204]]}},{"type":"Feature","properties":{"id":107145256,"highway":"unclassified"},"geometry":{"type":"LineString","coordinates":[[140.565924,36.926615],[140.565587,36.926779],[140.565356,36.926897],[140.565047,36.927055],[140.564844,36.927191],[140.564759,36.927314],[140.564718,36.927461],[140.564682,36.927675],[140.564605,36.927956],[140.564549,36.928064],[140.564479,36.928142],[140.564395,36.928199],[140.564282,36.928232],[140.563883,36.928311],[140.563651,36.92834],[140.562998,36.92839],[140.562584,36.928412],[140.56252,36.928419]]}},{"type":"Feature","properties":{"id":107145687,"highway":"residential"},"geometry":{"type":"LineString","coordinates":[[140.560689,36.931923],[140.560815,36.931906],[140.561167,36.931782],[140.561349,36.931748],[140.561623,36.931714],[140.561847,36.931669],[140.561988,36.931658],[140.562009,36.931647],[140.562149,36.931641],[140.562388,36.931613],[140.562619,36.931596],[140.56297,36.931534],[140.563159,36.931472],[140.563278,36.931435]]}},{"type":"Feature","properties":{"id":107145698,"highway":"residential"},"geometry":{"type":"LineString","coordinates":[[140.565235,36.935263],[140.565348,36.935236],[140.565417,36.935211],[140.565496,36.935168],[140.565573,36.935106],[140.565629,36.935011],[140.565629,36.934684],[140.565671,36.934536],[140.565791,36.934356],[140.565889,36.934288],[140.566124,36.9342],[140.566157,36.93418],[140.566182,36.934145],[140.566247,36.934018],[140.56652,36.933488],[140.566548,36.93328],[140.566549,36.933153],[140.566541,36.933095],[140.566415,36.932791],[140.566257,36.932402],[140.566251,36.932368],[140.566274,36.932321],[140.566401,36.932148],[140.566604,36.931889],[140.56664,36.93187],[140.566703,36.931861],[140.567131,36.931839],[140.567587,36.931822],[140.567761,36.931801],[140.567913,36.931753],[140.568008,36.931715],[140.568111,36.931638],[140.568176,36.931585],[140.568255,36.931479]]}},{"type":"Feature","properties":{"id":107265678,"highway":"primary"},"geometry":{"type":"LineString","coordinates":[[140.567711,36.919969],[140.567848,36.919982],[140.567974,36.919991],[140.568036,36.919989],[140.56811,36.919979],[140.568181,36.919963],[140.568267,36.919941],[140.568359,36.91991],[140.568452,36.919876],[140.568529,36.919841],[140.568671,36.91978],[140.568849,36.919707],[140.568999,36.91965],[140.56919,36.919604],[140.569557,36.91952],[140.569716,36.919475],[140.570009,36.919349],[140.570119,36.919274],[140.570295,36.919159],[140.570508,36.919032],[140.570708,36.918938],[140.570844,36.918903],[140.571126,36.918868],[140.571607,36.918831],[140.571872,36.918791],[140.572369,36.918695],[140.572573,36.918625],[140.572765,36.918561],[140.573001,36.918488],[140.573239,36.918445],[140.573596,36.918424],[140.573906,36.9184],[140.574129,36.918367],[140.574369,36.918313],[140.574502,36.918266],[140.574636,36.918197],[140.574749,36.918099],[140.57484,36.917953],[140.574908,36.91787],[140.57498,36.91782],[140.575087,36.917787],[140.575399,36.91773],[140.575622,36.917724],[140.575745,36.917716],[140.575904,36.917734],[140.576072,36.917775],[140.576225,36.917832],[140.576377,36.917886],[140.576448,36.917902],[140.576536,36.91789],[140.576601,36.917858],[140.576666,36.917806],[140.57673,36.917783],[140.576784,36.917773],[140.576887,36.917765],[140.576986,36.917767],[140.577059,36.917778],[140.577145,36.917782],[140.577245,36.917756],[140.577407,36.917679],[140.577472,36.917644],[140.577536,36.917624],[140.577593,36.917617],[140.577668,36.917621],[140.577757,36.917643],[140.578087,36.917753],[140.578219,36.917785],[140.578333,36.917792],[140.578449,36.917777],[140.57858,36.917749],[140.5787,36.917734],[140.578824,36.917736],[140.578905,36.917765],[140.578955,36.91781],[140.578992,36.917911],[140.579024,36.918044],[140.579051,36.918119],[140.579089,36.91818],[140.579145,36.918208],[140.579249,36.918205],[140.579343,36.918179],[140.579479,36.918128],[140.57958,36.918048],[140.579672,36.917988],[140.579734,36.917939],[140.579801,36.917929],[140.579891,36.917956],[140.580032,36.918005],[140.58011,36.918021],[140.580197,36.918022],[140.580384,36.917974],[140.580572,36.917913],[140.58074,36.917907],[140.581127,36.917929],[140.581193,36.917926],[140.58127,36.917918],[140.581551,36.917843],[140.581742,36.917795],[140.58189,36.917773],[140.582031,36.917779],[140.582169,36.9178],[140.582479,36.917899],[140.582616,36.917943],[140.58269,36.917953],[140.582787,36.917945],[140.582872,36.917919],[140.582931,36.917912],[140.583042,36.917929],[140.583159,36.917949],[140.58324,36.917956],[140.583325,36.917957],[140.583445,36.917933],[140.583503,36.917895],[140.583542,36.917855],[140.583562,36.917802],[140.583559,36.917766]]}},{"type":"Feature","properties":{"id":107265846,"highway":"unclassified"},"geometry":{"type":"LineString","coordinates":[[140.561186,36.934185],[140.561349,36.9341],[140.561433,36.934058],[140.561692,36.933933],[140.561742,36.933905],[140.561786,36.93387],[140.561973,36.933663],[140.562465,36.9331],[140.562682,36.932745],[140.56293,36.932304],[140.562978,36.932204],[140.563061,36.932013],[140.563089,36.931946],[140.563158,36.931782],[140.563219,36.931623],[140.563252,36.931522],[140.563278,36.931435],[140.563293,36.931371],[140.563303,36.931294],[140.563307,36.93105],[140.563251,36.930345],[140.563229,36.930011],[140.563214,36.92997],[140.563164,36.929914],[140.563096,36.929861],[140.562851,36.929714],[140.562717,36.929641],[140.562676,36.929603],[140.562611,36.929523],[140.56257,36.929444],[140.562556,36.929303],[140.56257,36.929106],[140.56252,36.928526],[140.56252,36.928419]]}},{"type":"Feature","properties":{"id":107265976,"highway":"unclassified"},"geometry":{"type":"LineString","coordinates":[[140.56252,36.928419],[140.562507,36.928345],[140.562465,36.928237],[140.562402,36.928137],[140.562302,36.928035],[140.562162,36.927945],[140.56196,36.927866],[140.561587,36.927697],[140.561362,36.927562],[140.561235,36.927501],[140.561132,36.927466],[140.560885,36.927421],[140.560745,36.927382],[140.56052,36.927292],[140.560142,36.9271],[140.55984,36.926942],[140.55937,36.926711],[140.55931,36.926676],[140.559278,36.926652],[140.55926,36.926626],[140.559229,36.926559],[140.559153,36.926299],[140.55909,36.926154],[140.559071,36.926129],[140.559046,36.926104],[140.559012,36.926091],[140.558733,36.926055],[140.55867,36.92604],[140.558627,36.92601],[140.558571,36.925945],[140.558544,36.925899],[140.558522,36.925826],[140.558532,36.925704],[140.558543,36.925615],[140.558551,36.925544],[140.558543,36.925514],[140.558522,36.925476],[140.558476,36.925438],[140.558297,36.925341],[140.558031,36.925241],[140.557746,36.925148],[140.557703,36.925145],[140.557652,36.925157],[140.55749,36.925223],[140.557343,36.925279],[140.557265,36.925299],[140.557229,36.9253],[140.557176,36.925294],[140.557135,36.925264],[140.557104,36.925234],[140.557055,36.92515],[140.556993,36.924948],[140.556958,36.92489],[140.556915,36.924845],[140.556831,36.924778],[140.556444,36.924558],[140.556369,36.924509],[140.556332,36.924479],[140.556303,36.924433],[140.556283,36.924395],[140.556255,36.924316],[140.556257,36.92421],[140.556263,36.924169],[140.556333,36.924057],[140.556601,36.923717],[140.556609,36.923686],[140.556606,36.92361],[140.556598,36.923575],[140.556529,36.923477],[140.556494,36.923445],[140.556333,36.923252],[140.556263,36.923196],[140.556185,36.923151],[140.556103,36.923113],[140.555996,36.923077],[140.555906,36.923063],[140.555846,36.923063],[140.555746,36.923086]]}},{"type":"Feature","properties":{"id":107266392,"highway":"unclassified"},"geometry":{"type":"LineString","coordinates":[[140.564484,36.940194],[140.564267,36.940019],[140.564232,36.939969],[140.564197,36.939905],[140.564078,36.939466],[140.564036,36.939393],[140.56398,36.939319],[140.563812,36.939179],[140.563643,36.938994],[140.56358,36.938881],[140.563384,36.938419],[140.563268,36.938091],[140.563243,36.938036],[140.563173,36.937918],[140.563152,36.937876],[140.563141,36.937839],[140.563142,36.93777],[140.563149,36.937741],[140.563173,36.937703],[140.563206,36.937669],[140.563262,36.937636],[140.563699,36.937472],[140.563833,36.937376],[140.56391,36.937303],[140.563968,36.937218],[140.564008,36.937146],[140.564026,36.937093],[140.564036,36.937044],[140.564041,36.936993],[140.564036,36.936887],[140.564026,36.93684],[140.563974,36.936722],[140.563932,36.936661],[140.563861,36.936577],[140.563736,36.936441],[140.563709,36.93639],[140.563702,36.936344],[140.563708,36.936276],[140.563726,36.936239],[140.563769,36.936199],[140.563875,36.936143],[140.564598,36.935931],[140.564793,36.935843],[140.564885,36.935793],[140.564984,36.935717],[140.565069,36.93563],[140.565138,36.935529],[140.565186,36.935459],[140.565224,36.93538],[140.565234,36.935334],[140.565236,36.935287],[140.565235,36.935263]]}},{"type":"Feature","properties":{"id":107267895,"highway":"unclassified"},"geometry":{"type":"LineString","coordinates":[[140.563684,36.945189],[140.563893,36.945187],[140.564025,36.94518],[140.56415,36.945174],[140.56434,36.945133],[140.564444,36.945096],[140.564515,36.945056],[140.564579,36.945016],[140.564733,36.944881],[140.564914,36.944733],[140.565065,36.944626],[140.565184,36.944537],[140.565306,36.944376],[140.565362,36.944291],[140.565415,36.94417],[140.56549,36.94399],[140.565572,36.94376],[140.565688,36.943448],[140.565761,36.943323],[140.565801,36.943252],[140.565888,36.943175],[140.566038,36.943077],[140.566248,36.942971],[140.566352,36.942903],[140.566469,36.942851],[140.566569,36.942825],[140.566683,36.942803],[140.566823,36.942807],[140.566922,36.942816],[140.566985,36.942816],[140.567058,36.942807],[140.567127,36.94278],[140.567204,36.942726],[140.567303,36.942611],[140.567402,36.942502],[140.567496,36.942417],[140.567542,36.942344],[140.567606,36.942263],[140.567684,36.94215],[140.567725,36.942069],[140.567758,36.941982],[140.567823,36.941744],[140.567832,36.941394],[140.567834,36.941315],[140.567829,36.94126],[140.567812,36.941217],[140.567768,36.941162],[140.567739,36.941139],[140.567644,36.94108],[140.567567,36.941047],[140.567354,36.940965],[140.567152,36.940907],[140.56699,36.940859],[140.565797,36.940537],[140.565499,36.940469],[140.565369,36.940446],[140.565202,36.94043],[140.564869,36.940391],[140.564817,36.940381],[140.564768,36.940369],[140.564731,36.940351],[140.564484,36.940194]]}},{"type":"Feature","properties":{"id":198727433,"highway":"primary"},"geometry":{"type":"LineString","coordinates":[[140.583537,36.917596],[140.583503,36.917499],[140.583432,36.917381],[140.583374,36.917216],[140.583301,36.91699],[140.583225,36.916621],[140.583102,36.916118],[140.583036,36.915789],[140.58295,36.915669],[140.582877,36.915615],[140.58277,36.915579],[140.582686,36.915567],[140.582592,36.915562],[140.582409,36.915568],[140.582135,36.915599],[140.582006,36.915593],[140.581766,36.915575],[140.581628,36.915547],[140.581463,36.91548],[140.581273,36.915367],[140.581182,36.915277],[140.581148,36.915213],[140.58112,36.915086],[140.581053,36.914926],[140.580957,36.914731],[140.580884,36.914616],[140.580766,36.914507],[140.580671,36.914444],[140.58017,36.914174],[140.579937,36.914035],[140.579739,36.913902],[140.579714,36.913863],[140.57969,36.913825],[140.57969,36.913774],[140.579707,36.913753],[140.579724,36.91374],[140.579802,36.913701],[140.579899,36.913679],[140.58007,36.913649],[140.58018,36.913623],[140.580349,36.913595],[140.580418,36.913566],[140.580492,36.913485],[140.580496,36.913371],[140.580433,36.913314],[140.580344,36.913298],[140.580251,36.913312],[140.580086,36.913365],[140.579864,36.913417],[140.57974,36.913417],[140.579657,36.913391],[140.579585,36.913369],[140.57953,36.913344],[140.579481,36.913297],[140.579469,36.913242],[140.579555,36.913033],[140.579641,36.91292],[140.579807,36.91274],[140.57994,36.91262],[140.580108,36.912507],[140.580207,36.912468],[140.580312,36.91244],[140.58048,36.912423],[140.580557,36.912401],[140.580599,36.912379],[140.580711,36.912215],[140.580725,36.912198],[140.580795,36.91217],[140.581083,36.912112],[140.581244,36.91209],[140.581506,36.912049],[140.581625,36.912024],[140.581696,36.911959],[140.581803,36.911857],[140.58188,36.911773],[140.581945,36.911693],[140.582023,36.911594],[140.582111,36.911448],[140.582234,36.911294],[140.582305,36.911183],[140.582362,36.910955],[140.582424,36.910725],[140.582512,36.910545],[140.582582,36.910426],[140.582647,36.910359],[140.582689,36.910339],[140.582786,36.910296],[140.582913,36.910302],[140.583021,36.910333],[140.583139,36.910385],[140.583371,36.910413],[140.583596,36.910401],[140.58377,36.910407],[140.583915,36.910397],[140.584148,36.910368],[140.584254,36.910336],[140.584371,36.910275],[140.584488,36.910199],[140.584631,36.910061],[140.584873,36.909714],[140.584973,36.909539],[140.584994,36.909394],[140.585029,36.909275],[140.585113,36.909169],[140.585204,36.909116],[140.585316,36.909078],[140.585834,36.908966],[140.585963,36.908945],[140.586076,36.908915],[140.586175,36.908846],[140.586249,36.908786],[140.586301,36.908669],[140.586357,36.908393],[140.586391,36.908316],[140.586444,36.908178],[140.586532,36.90805],[140.586596,36.907925],[140.586694,36.907776],[140.586688,36.907726],[140.586734,36.907672],[140.586777,36.907644],[140.586877,36.907596],[140.58705,36.907526],[140.587211,36.907511],[140.587362,36.90753],[140.58746,36.907522],[140.587552,36.907488],[140.587619,36.907434],[140.587651,36.90735],[140.587664,36.906804],[140.587664,36.906568],[140.587675,36.906495],[140.587706,36.906447],[140.587703,36.906421],[140.587637,36.906383],[140.587466,36.906337],[140.587401,36.906307],[140.587366,36.90625],[140.587294,36.90614],[140.587288,36.90607],[140.58733,36.905991],[140.587832,36.905242],[140.587883,36.905121],[140.587917,36.905034],[140.587934,36.904918],[140.587916,36.90446],[140.58794,36.904425],[140.58799,36.904402],[140.58803,36.904393],[140.588167,36.904364],[140.588481,36.90436],[140.588717,36.904341],[140.589016,36.904317],[140.58916,36.90431],[140.589304,36.904349],[140.589379,36.904391],[140.589463,36.904458],[140.589718,36.904663],[140.589896,36.904769],[140.590037,36.904819],[140.590112,36.904791],[140.590154,36.904718],[140.590206,36.90462],[140.590275,36.904528],[140.590316,36.904425],[140.590396,36.904203],[140.590466,36.90399],[140.590554,36.903906],[140.590664,36.903855],[140.59085,36.903835],[140.591027,36.903833],[140.59112,36.903862],[140.591207,36.903912],[140.591385,36.904013],[140.591442,36.904036],[140.591513,36.904055],[140.591617,36.904049],[140.591711,36.903975],[140.591752,36.903914],[140.59185,36.903775],[140.591885,36.903741],[140.591948,36.903722],[140.592098,36.903686],[140.592239,36.903687],[140.592312,36.903676],[140.592361,36.90362],[140.592453,36.903534],[140.592646,36.903382],[140.59277,36.903273],[140.592875,36.903092],[140.593043,36.902918],[140.593139,36.902851],[140.593251,36.902806],[140.593384,36.902744],[140.593514,36.902683],[140.593678,36.902532],[140.59384,36.902362],[140.593965,36.902218],[140.594015,36.902105],[140.594029,36.901991],[140.593893,36.90178],[140.593728,36.901617],[140.593587,36.901473],[140.593546,36.901368],[140.593524,36.901236],[140.593549,36.901108],[140.593603,36.900944],[140.593757,36.900627],[140.593852,36.900475]]}},{"type":"Feature","properties":{"id":198727441,"highway":"primary"},"geometry":{"type":"LineString","coordinates":[[140.583559,36.917766],[140.583537,36.917596]]}},{"type":"Feature","properties":{"id":198727917,"highway":"unclassified"},"geometry":{"type":"LineString","coordinates":[[140.582185,36.919776],[140.582192,36.919676],[140.582222,36.919646],[140.582449,36.919546],[140.582645,36.919448],[140.582687,36.919387],[140.582687,36.919263],[140.582631,36.919118],[140.582532,36.918857],[140.582526,36.918796],[140.582547,36.918751],[140.582582,36.918707],[140.582742,36.918549],[140.582969,36.918368],[140.583024,36.918335],[140.583101,36.918318],[140.583476,36.918315],[140.583517,36.918307],[140.583606,36.918224],[140.583632,36.918151],[140.583651,36.918073],[140.583658,36.917973]]}},{"type":"Feature","properties":{"id":198728052,"highway":"residential"},"geometry":{"type":"LineString","coordinates":[[140.579232,36.924212],[140.579129,36.924176]]}},{"type":"Feature","properties":{"id":198728338,"highway":"residential"},"geometry":{"type":"LineString","coordinates":[[140.579232,36.924212],[140.579292,36.924261],[140.579332,36.92432],[140.579337,36.924402],[140.579326,36.924486],[140.57927,36.924633],[140.579137,36.924802],[140.578996,36.924914],[140.578884,36.924988],[140.578786,36.925039],[140.578639,36.925163],[140.578576,36.925247],[140.578512,36.92541],[140.578497,36.925472],[140.578505,36.925596],[140.578576,36.925799],[140.57866,36.925985],[140.578681,36.926075],[140.578676,36.926196],[140.57865,36.926261],[140.578611,36.926317]]}},{"type":"Feature","properties":{"id":198729011,"highway":"residential"},"geometry":{"type":"LineString","coordinates":[[140.578611,36.926317],[140.57854,36.926415],[140.578477,36.926481],[140.578091,36.926864]]}},{"type":"Feature","properties":{"id":198729248,"highway":"unclassified"},"geometry":{"type":"LineString","coordinates":[[140.583658,36.917973],[140.583621,36.917919],[140.583542,36.917855]]}},{"type":"Feature","properties":{"id":198729475,"highway":"unclassified"},"geometry":{"type":"LineString","coordinates":[[140.579129,36.924176],[140.578782,36.923996],[140.578735,36.923959],[140.578707,36.923934],[140.578692,36.923904],[140.578692,36.923824],[140.5787,36.923766],[140.578706,36.923705],[140.578722,36.92362],[140.578761,36.923533],[140.578789,36.923478],[140.578847,36.923429],[140.578991,36.923337],[140.579072,36.923268],[140.579132,36.923197],[140.579172,36.923139],[140.579222,36.923032],[140.57927,36.922892],[140.57935,36.922523],[140.579377,36.922443],[140.579419,36.922382],[140.579472,36.922324],[140.579584,36.922244],[140.579689,36.922185],[140.579769,36.922148],[140.579892,36.922105],[140.580001,36.922058],[140.580139,36.92199],[140.580231,36.921935],[140.58032,36.921873],[140.580389,36.921815],[140.580435,36.921747],[140.580497,36.921652],[140.580567,36.921582],[140.580617,36.921547],[140.580682,36.921527],[140.580751,36.92151],[140.580825,36.921507],[140.581452,36.9215],[140.58151,36.921493],[140.581629,36.921467],[140.581733,36.921437],[140.581842,36.9214],[140.581926,36.921358],[140.581979,36.921328],[140.582055,36.921263],[140.582102,36.921213],[140.582141,36.921162],[140.582167,36.921112],[140.58219,36.921025],[140.582208,36.920928],[140.582241,36.920608],[140.582246,36.920455],[140.582241,36.920237],[140.582195,36.920004],[140.582182,36.91993],[140.582185,36.919776]]}},{"type":"Feature","properties":{"id":198729642,"highway":"residential"},"geometry":{"type":"LineString","coordinates":[[140.57767,36.934301],[140.577733,36.934312],[140.577817,36.93434],[140.578021,36.934391],[140.578421,36.934521],[140.578876,36.934695],[140.579084,36.934606]]}},{"type":"Feature","properties":{"id":198729834,"highway":"residential"},"geometry":{"type":"LineString","coordinates":[[140.579084,36.934606],[140.5792,36.93466],[140.579291,36.934724],[140.579465,36.93474],[140.579823,36.934718],[140.580272,36.934705],[140.580725,36.934715],[140.580847,36.934706],[140.580945,36.934706],[140.581145,36.934702],[140.581298,36.934644],[140.581461,36.934532],[140.581653,36.934383],[140.581819,36.934193],[140.581906,36.933958],[140.582003,36.933775],[140.582033,36.933568],[140.582007,36.933423],[140.581869,36.932977],[140.581854,36.932853],[140.581874,36.93275],[140.581959,36.932641],[140.58206,36.932591],[140.582183,36.932517],[140.582439,36.932407],[140.582782,36.932237],[140.582843,36.932161],[140.582896,36.932049],[140.583039,36.931813],[140.583088,36.931599],[140.583125,36.931395],[140.583383,36.93106],[140.583577,36.930759],[140.583458,36.930554],[140.5835,36.929787],[140.583556,36.929489],[140.583577,36.929304],[140.58367,36.929049],[140.583692,36.928971],[140.583711,36.928823],[140.58369,36.928711],[140.583648,36.928581],[140.583431,36.928198],[140.583333,36.928063],[140.583238,36.927968],[140.583188,36.927937],[140.582926,36.927788],[140.582484,36.927602],[140.582329,36.927518],[140.582196,36.927394],[140.582091,36.927264],[140.582028,36.927134],[140.581979,36.926869],[140.581972,36.926746],[140.581909,36.926419],[140.581888,36.926374],[140.581838,36.926329],[140.581249,36.926041],[140.581179,36.925985],[140.581059,36.925912],[140.580954,36.925821],[140.580842,36.925709],[140.580765,36.925591],[140.58073,36.925484],[140.580716,36.925377],[140.580731,36.925232],[140.580733,36.925175],[140.58073,36.925129],[140.580706,36.925061],[140.580655,36.925024],[140.580491,36.92496],[140.580169,36.924853],[140.580091,36.924808],[140.579993,36.924712],[140.579755,36.924342],[140.579704,36.924272],[140.579593,36.924193],[140.579507,36.924146],[140.579429,36.924132],[140.579367,36.924135],[140.579307,36.924157],[140.579232,36.924212]]}},{"type":"Feature","properties":{"id":198729908,"highway":"residential"},"geometry":{"type":"LineString","coordinates":[[140.578611,36.926317],[140.578364,36.926306],[140.578225,36.926272],[140.57807,36.926261],[140.57798,36.926263],[140.577916,36.926272],[140.577842,36.926285],[140.577747,36.926312],[140.577582,36.926369]]}},{"type":"Feature","properties":{"id":785787029,"highway":"unclassified"},"geometry":{"type":"LineString","coordinates":[[140.612761,36.919311],[140.612547,36.919125],[140.612373,36.918946],[140.612115,36.918713],[140.611762,36.91857],[140.611515,36.918579],[140.611302,36.918695],[140.611202,36.91894],[140.611261,36.9192],[140.611404,36.919715],[140.611374,36.919924],[140.611235,36.920132],[140.611056,36.920253],[140.610808,36.920292],[140.610736,36.920303],[140.610503,36.92033],[140.610005,36.920331],[140.609534,36.920311],[140.60928,36.920333],[140.609109,36.92041],[140.608955,36.920518],[140.60875,36.920704],[140.608524,36.920958],[140.608441,36.921047],[140.608388,36.921088],[140.608321,36.921129],[140.608177,36.921139],[140.608062,36.921118],[140.607957,36.92107],[140.607892,36.920978],[140.60784,36.92088],[140.607786,36.920757],[140.607643,36.920492],[140.607505,36.920309],[140.607336,36.920096],[140.60719,36.919917],[140.606948,36.919694],[140.606879,36.91966],[140.606798,36.919657],[140.606541,36.919716],[140.606458,36.919742],[140.606332,36.919755],[140.606207,36.919713],[140.606103,36.919655],[140.60597,36.919538],[140.605843,36.919339],[140.605661,36.919147],[140.605448,36.918989],[140.605227,36.918789],[140.605129,36.918699],[140.605007,36.918658],[140.604863,36.91866],[140.604718,36.91872],[140.604554,36.918796],[140.604325,36.918905],[140.604012,36.919032],[140.603934,36.919071],[140.603763,36.919206],[140.603665,36.919342],[140.603585,36.919493],[140.603492,36.9197],[140.603311,36.920209],[140.603215,36.920337],[140.60306,36.920439],[140.602666,36.92057],[140.602305,36.920682],[140.602086,36.920755],[140.601822,36.920848],[140.601651,36.920913],[140.601437,36.92097],[140.601296,36.921025],[140.601194,36.921074],[140.601123,36.921183],[140.601099,36.92126],[140.601075,36.921374],[140.601079,36.921565],[140.601115,36.921741],[140.601211,36.9219],[140.601497,36.92231],[140.601634,36.922519],[140.601702,36.922689],[140.601777,36.922814],[140.601764,36.923015],[140.601569,36.92315],[140.601306,36.923211],[140.601191,36.923247],[140.600917,36.923296],[140.600509,36.923368],[140.600063,36.923462],[140.599825,36.923508],[140.599599,36.923596],[140.599329,36.923721],[140.599111,36.923908],[140.599012,36.924214],[140.598933,36.924521],[140.598731,36.925043],[140.59859,36.925158],[140.598214,36.925358],[140.597705,36.925549],[140.59734,36.925608],[140.596838,36.925622],[140.59655,36.92566],[140.596275,36.925787],[140.596024,36.925896],[140.595612,36.925937],[140.595335,36.925977],[140.594975,36.926152],[140.594664,36.926478],[140.59422,36.926671],[140.593567,36.926747],[140.593384,36.926814],[140.593242,36.926929],[140.593213,36.927149],[140.593165,36.927256],[140.593366,36.92757],[140.593675,36.927766],[140.594002,36.92794],[140.594257,36.928054],[140.594456,36.928182],[140.594516,36.928313],[140.594522,36.928475],[140.594406,36.928612],[140.594242,36.928784],[140.594168,36.92891],[140.59427,36.929077],[140.594455,36.929247],[140.594691,36.929429],[140.594785,36.929524],[140.59489,36.929606],[140.595048,36.929794],[140.595111,36.929985],[140.59505,36.930379],[140.594878,36.930563],[140.594747,36.93081],[140.594679,36.931228],[140.594664,36.931286],[140.594674,36.931508],[140.594657,36.931727],[140.594705,36.93198],[140.594824,36.932341],[140.594733,36.932512],[140.594359,36.932968],[140.594253,36.933158],[140.594222,36.933447],[140.59423,36.933743],[140.594277,36.933944],[140.594249,36.934259],[140.594231,36.934376],[140.59412,36.9345],[140.593916,36.934713],[140.59374,36.934903],[140.593594,36.93515],[140.593462,36.935532],[140.593378,36.935709],[140.593191,36.935928],[140.593077,36.936074],[140.593072,36.936201],[140.593173,36.936306],[140.593551,36.936684],[140.59369,36.93692],[140.593835,36.937105],[140.594052,36.937284],[140.594278,36.937373],[140.594424,36.93738],[140.594589,36.937623],[140.594663,36.937889],[140.594705,36.938],[140.594725,36.938128],[140.594741,36.938234],[140.59471,36.93839],[140.594341,36.938693],[140.594259,36.93876],[140.594232,36.938893],[140.59424,36.93904],[140.594171,36.93913],[140.593931,36.939265],[140.593592,36.939592],[140.593602,36.939738],[140.59386,36.939898],[140.594205,36.940152],[140.594405,36.940454],[140.594458,36.940688],[140.594464,36.940768],[140.594412,36.940855],[140.59433,36.940973],[140.594263,36.941085],[140.594158,36.941203],[140.594138,36.941366],[140.594129,36.941412],[140.594094,36.941469],[140.594011,36.941552],[140.593992,36.94164],[140.594308,36.941823],[140.594686,36.942186],[140.594829,36.942358],[140.594932,36.942539],[140.594963,36.942642],[140.594871,36.942807],[140.594698,36.943015],[140.594498,36.943257],[140.594417,36.943385],[140.594384,36.943503],[140.594318,36.943784],[140.594256,36.943891],[140.594189,36.943954],[140.594026,36.944057],[140.593922,36.944196],[140.59383,36.944359],[140.593711,36.944469],[140.593548,36.944564],[140.593495,36.944604],[140.593447,36.944662],[140.593413,36.94471],[140.593381,36.944801],[140.593365,36.944873],[140.59333,36.944941],[140.593309,36.944958],[140.593265,36.944975],[140.593125,36.945038],[140.592973,36.945143],[140.592847,36.945275],[140.592822,36.945312],[140.592809,36.945368],[140.592807,36.945399],[140.592834,36.945446],[140.59286,36.945485],[140.592925,36.945532],[140.593066,36.945581],[140.593191,36.945655],[140.593222,36.94569],[140.593237,36.945735],[140.593243,36.945779],[140.593237,36.94584],[140.593196,36.945957],[140.59317,36.945996],[140.593126,36.946034],[140.593026,36.946073],[140.592907,36.946094],[140.592764,36.946101],[140.592636,36.946108],[140.59259,36.946128],[140.592559,36.946167],[140.592542,36.946253],[140.592565,36.946301],[140.592614,36.946345],[140.592792,36.946503],[140.592924,36.946627],[140.59305,36.946754],[140.593089,36.946812],[140.593116,36.946879],[140.593081,36.947012],[140.59302,36.947117],[140.59275,36.947449],[140.592455,36.947793],[140.592376,36.947859],[140.592264,36.947903],[140.591985,36.947929],[140.591903,36.947939],[140.59182,36.948014],[140.591776,36.9481],[140.591716,36.948228],[140.591495,36.948646],[140.591414,36.948751],[140.591344,36.948776],[140.591144,36.948786],[140.591057,36.948783],[140.591026,36.94879],[140.59099,36.948809],[140.590953,36.948843],[140.590923,36.948884],[140.590888,36.948948],[140.590835,36.949093],[140.590783,36.949228],[140.590699,36.949531],[140.590666,36.949697],[140.590644,36.949876],[140.590612,36.950018],[140.590611,36.950226],[140.590603,36.950471],[140.590571,36.950743],[140.590583,36.950811],[140.590612,36.950819],[140.59063,36.95085],[140.590633,36.950916],[140.590602,36.950972],[140.590483,36.95106],[140.590378,36.951167],[140.590316,36.951276],[140.590258,36.951437],[140.590229,36.951538],[140.590228,36.951588],[140.590238,36.951637],[140.590295,36.951694],[140.590346,36.951743],[140.590427,36.95179],[140.590536,36.951832],[140.590623,36.95187],[140.590684,36.951891],[140.590716,36.951927],[140.590717,36.951986],[140.590684,36.952041],[140.590621,36.952087],[140.590491,36.95211],[140.590378,36.952114],[140.590237,36.952141],[140.589976,36.952232],[140.589689,36.952372],[140.589403,36.952553],[140.589079,36.952769],[140.588981,36.952852],[140.588851,36.952927],[140.588725,36.95303]]}},{"type":"Feature","properties":{"id":785790947,"highway":"unclassified"},"geometry":{"type":"LineString","coordinates":[[140.593592,36.939592],[140.593186,36.93988],[140.593004,36.939977],[140.592816,36.939971],[140.592587,36.939939],[140.592416,36.939894],[140.59228,36.939848],[140.592151,36.939798],[140.59204,36.939722],[140.592005,36.939647],[140.591968,36.93951],[140.591927,36.939424],[140.591882,36.93934],[140.591829,36.939279],[140.591767,36.939243],[140.591713,36.939223],[140.591626,36.939208],[140.591526,36.939215],[140.591448,36.939243],[140.591388,36.939291],[140.591339,36.939364],[140.591271,36.939438],[140.591067,36.939586],[140.590983,36.939716],[140.590914,36.93984],[140.590811,36.939959],[140.590687,36.940047],[140.59058,36.940117],[140.590507,36.940172],[140.590452,36.94023],[140.59042,36.940265],[140.590403,36.940409],[140.590366,36.94051],[140.590284,36.940666],[140.590245,36.940908],[140.589732,36.941744],[140.589639,36.941892],[140.589605,36.942048],[140.589518,36.94217]]}},{"type":"Feature","properties":{"id":1024704347,"highway":"residential"},"geometry":{"type":"LineString","coordinates":[[140.590031,36.940026],[140.590081,36.94007],[140.59017,36.94014],[140.590452,36.94023]]}},{"type":"Feature","properties":{"id":1024704348,"highway":"residential"},"geometry":{"type":"LineString","coordinates":[[140.589925,36.939691],[140.589913,36.939774],[140.589833,36.939957],[140.589841,36.940007],[140.590021,36.94003],[140.590031,36.940026],[140.590071,36.940008],[140.590189,36.939951],[140.590292,36.939875],[140.590605,36.93964],[140.590733,36.939552],[140.591069,36.939325],[140.59125,36.939184],[140.591533,36.938987],[140.591761,36.93887],[140.591888,36.938832],[140.591991,36.938825],[140.592067,36.938832],[140.592144,36.93886]]}},{"type":"Feature","properties":{"id":1024704397,"highway":"unclassified"},"geometry":{"type":"LineString","coordinates":[[140.581854,36.932853],[140.581634,36.932864],[140.58122,36.932837],[140.580993,36.932803],[140.580794,36.932771]]}},{"type":"Feature","properties":{"id":1156989134,"highway":"primary"},"geometry":{"type":"LineString","coordinates":[[140.551861,36.920652],[140.551852,36.920593],[140.551825,36.92055],[140.551782,36.920488],[140.551728,36.920381],[140.551704,36.920302],[140.551715,36.920252],[140.551758,36.920191],[140.5518,36.920147],[140.551857,36.920095],[140.551928,36.920048],[140.551995,36.920018],[140.552082,36.919991],[140.552177,36.91997],[140.55229,36.919962],[140.552439,36.919964],[140.552631,36.919972],[140.552814,36.919966],[140.55295,36.919949],[140.55309,36.919916],[140.553187,36.919897],[140.553333,36.919851],[140.553393,36.919818],[140.553478,36.919793],[140.553548,36.919781],[140.553718,36.919764],[140.554194,36.919728],[140.554395,36.919689],[140.554556,36.91963],[140.554745,36.919533],[140.55491,36.919456],[140.555088,36.919376],[140.555235,36.919315],[140.55542,36.919245],[140.555597,36.919163],[140.555729,36.919105],[140.55584,36.919079],[140.55597,36.919079],[140.556089,36.919099],[140.556189,36.919135],[140.556259,36.919168],[140.556358,36.919249],[140.556551,36.919393],[140.556761,36.919497],[140.556943,36.919552],[140.557112,36.919602],[140.55721,36.919624],[140.557339,36.919633],[140.55753,36.91961],[140.557698,36.919572],[140.557844,36.91954],[140.558013,36.919522],[140.558086,36.919537],[140.558197,36.919572],[140.558313,36.919612],[140.558432,36.919645],[140.55857,36.919673],[140.55872,36.919698],[140.558875,36.919718],[140.5591,36.919725],[140.559498,36.919683],[140.559878,36.919696],[140.560392,36.919727],[140.560602,36.919758],[140.560678,36.91977],[140.561073,36.919832],[140.561178,36.919843],[140.561467,36.919831],[140.561869,36.91981],[140.562016,36.91981],[140.562115,36.919808],[140.562218,36.919804],[140.562316,36.919804],[140.562487,36.9198],[140.562639,36.919795],[140.562771,36.919779],[140.562938,36.919756],[140.563052,36.919726],[140.563149,36.91971],[140.563281,36.919675],[140.563435,36.919626],[140.563566,36.91958],[140.563779,36.919518],[140.563877,36.9195],[140.564088,36.919476],[140.564335,36.919477],[140.564601,36.919487],[140.564812,36.919504],[140.565024,36.919509],[140.565149,36.919516],[140.565344,36.919515],[140.565528,36.919525],[140.565648,36.919547],[140.565741,36.919573],[140.565843,36.919604],[140.566034,36.919654],[140.566115,36.919672],[140.566202,36.919674],[140.566267,36.919665],[140.566357,36.919657],[140.566468,36.919672],[140.566621,36.919716],[140.566713,36.919753],[140.566777,36.919779],[140.566897,36.91981],[140.566924,36.919817],[140.567008,36.919837],[140.567204,36.919874],[140.567321,36.919895],[140.567431,36.919919],[140.567532,36.919939],[140.567711,36.919969]]}},{"type":"Feature","properties":{"id":1156989135,"highway":"service"},"geometry":{"type":"LineString","coordinates":[[140.566924,36.919817],[140.566903,36.919845],[140.566865,36.91986],[140.566758,36.919856],[140.566479,36.919789]]}},{"type":"Feature","properties":{"id":1156989136,"highway":"service"},"geometry":{"type":"LineString","coordinates":[[140.565024,36.919509],[140.565014,36.919557],[140.564968,36.919627],[140.564926,36.919663],[140.564851,36.919699]]}},{"type":"Feature","properties":{"id":1156989142,"highway":"primary"},"geometry":{"type":"LineString","coordinates":[[140.593957,36.900335],[140.594042,36.900239],[140.594128,36.900145],[140.594233,36.900028],[140.594295,36.899948],[140.594366,36.899836],[140.594394,36.899704],[140.594406,36.899428],[140.594436,36.899311],[140.594485,36.899218],[140.594532,36.899151],[140.594594,36.899088],[140.594765,36.898976],[140.59491,36.898875],[140.595142,36.898607],[140.595219,36.898476],[140.595293,36.898364],[140.595403,36.898215],[140.595632,36.898082],[140.596018,36.897958],[140.596408,36.897787],[140.59675,36.897675],[140.597008,36.897565],[140.597631,36.8972],[140.597871,36.897053],[140.598074,36.896939],[140.598299,36.896782],[140.59843,36.896629],[140.598504,36.896575],[140.598667,36.896537],[140.598769,36.896502],[140.59885,36.896455],[140.59944,36.895927],[140.599676,36.895721],[140.599922,36.895471],[140.600079,36.895338],[140.600178,36.895298],[140.600305,36.895271],[140.600595,36.895216],[140.600959,36.895127],[140.601229,36.895074],[140.601363,36.895046],[140.601438,36.894998],[140.601469,36.894953],[140.601528,36.894886],[140.601732,36.894814],[140.602069,36.894705],[140.6023,36.89461],[140.602578,36.89445],[140.602838,36.894236],[140.603063,36.894046],[140.603224,36.893972],[140.603883,36.893753],[140.604046,36.893696],[140.604158,36.893619],[140.604247,36.893552],[140.604332,36.893445],[140.604368,36.89337],[140.604438,36.893316],[140.604519,36.893276],[140.60464,36.893253],[140.604949,36.89323],[140.605086,36.893221]]}},{"type":"Feature","properties":{"id":1156989143,"highway":"primary"},"geometry":{"type":"LineString","coordinates":[[140.593852,36.900475],[140.593957,36.900335]]}}]}