{"type":"FeatureCollection","features":[{"type":"Feature","properties":{"id":199143717,"highway":"unclassified"},"geometry":{"type":"LineString","coordinates":[[140.59427,36.103274],[140.594423,36.103307],[140.594605,36.103334],[140.594726,36.103334],[140.595077,36.103255],[140.595392,36.103245],[140.595675,36.103273],[140.596089,36.103301],[140.59626,36.10327],[140.596621,36.103181],[140.596895,36.103123],[140.597147,36.103147],[140.597295,36.103192],[140.597705,36.103379],[140.597935,36.103442],[140.59829,36.103437],[140.598493,36.103531],[140.598597,36.10363],[140.598692,36.103828],[140.598794,36.104005],[140.598913,36.104134],[140.599114,36.104187],[140.599253,36.104223],[140.599532,36.104341],[140.599883,36.104448],[140.60015,36.10451]]}},{"type":"Feature","properties":{"id":199143776,"highway":"unclassified"},"geometry":{"type":"LineString","coordinates":[[140.600638,36.103473],[140.600448,36.103895],[140.60015,36.10451],[140.600044,36.104855],[140.59921,36.10662],[140.598647,36.107773]]}},{"type":"Feature","properties":{"id":1446886829,"highway":"service"},"geometry":{"type":"LineString","coordinates":[[140.599863,36.102396],[140.600107,36.102501],[140.600672,36.102699]]}}]}