{"type":"FeatureCollection","features":[{"type":"Feature","properties":{"id":198727436,"highway":"primary"},"geometry":{"type":"LineString","coordinates":[[140.61833,36.900888],[140.618376,36.900887],[140.618462,36.90085],[140.618716,36.900729],[140.619024,36.900582],[140.619269,36.900482],[140.619459,36.900396],[140.619522,36.900324],[140.61955,36.900232],[140.619529,36.900182],[140.619501,36.900149],[140.619326,36.900029],[140.619248,36.899952],[140.619221,36.899879],[140.619206,36.899777],[140.619234,36.899654],[140.619291,36.899513],[140.619452,36.899254],[140.619487,36.899218],[140.619676,36.898949],[140.619725,36.898818],[140.619746,36.898696],[140.619662,36.898268],[140.619655,36.89811],[140.619669,36.898018],[140.619725,36.897821],[140.619837,36.89753],[140.620041,36.897096],[140.620265,36.896685],[140.620352,36.896523],[140.620419,36.896461],[140.620466,36.896423],[140.620495,36.896391],[140.620499,36.89635],[140.620496,36.896322],[140.62047,36.896283],[140.620425,36.896257],[140.620375,36.896251],[140.620316,36.896264],[140.620287,36.896292],[140.620271,36.896324],[140.620257,36.89649],[140.620216,36.896537],[140.620161,36.89656],[140.620103,36.896559],[140.620055,36.896541],[140.620025,36.896509],[140.620023,36.896457],[140.620056,36.896361],[140.620251,36.895935],[140.620381,36.895651],[140.620524,36.895269],[140.621127,36.894396],[140.62119,36.89426],[140.621204,36.89411],[140.62119,36.893776],[140.621246,36.893607],[140.621379,36.893393],[140.621584,36.893138],[140.621646,36.893066],[140.622002,36.892738],[140.622294,36.892503],[140.62248,36.892311],[140.622532,36.892202],[140.622539,36.892053],[140.622545,36.891538],[140.622518,36.891399],[140.622488,36.891298],[140.622406,36.891017],[140.622337,36.890689],[140.622327,36.890504],[140.622337,36.890397],[140.622501,36.889731],[140.622591,36.889587],[140.622644,36.889539],[140.622718,36.889512],[140.622872,36.889476],[140.622951,36.889433],[140.622997,36.889388],[140.62309,36.889042],[140.62319,36.888832],[140.623227,36.888776],[140.623295,36.888743]]}},{"type":"Feature","properties":{"id":198727474,"highway":"primary"},"geometry":{"type":"LineString","coordinates":[[140.605086,36.893221],[140.605295,36.893212],[140.605526,36.893228],[140.605647,36.893232],[140.605791,36.893212],[140.606239,36.893027],[140.606351,36.893005],[140.606499,36.893005],[140.606576,36.893027],[140.606849,36.893196],[140.606961,36.893208],[140.607228,36.893196],[140.607389,36.893146],[140.607417,36.89313],[140.607578,36.893071],[140.607805,36.892999],[140.607973,36.89299],[140.608114,36.893011],[140.608293,36.893071],[140.608463,36.893137],[140.608717,36.89324],[140.609023,36.893406],[140.609249,36.893518],[140.609567,36.89363],[140.609759,36.893668],[140.609878,36.893654],[140.609987,36.893675],[140.610089,36.893745],[140.610172,36.893825],[140.610375,36.894149],[140.610529,36.894352],[140.610753,36.894588],[140.610999,36.894774],[140.611104,36.894819],[140.611286,36.894863],[140.611518,36.894858],[140.611868,36.894791],[140.612274,36.894752],[140.612555,36.894758],[140.612946,36.894813],[140.613269,36.894894],[140.613605,36.894966],[140.61385,36.895027],[140.613977,36.89508],[140.61402,36.895108],[140.614149,36.895243],[140.61432,36.895508],[140.614385,36.895666],[140.614337,36.896029],[140.6143,36.896275],[140.614238,36.896424],[140.614152,36.896654],[140.614172,36.896773],[140.614251,36.896962],[140.614323,36.897076],[140.614555,36.897175],[140.614798,36.897255],[140.614965,36.897335],[140.615155,36.897447],[140.615217,36.897576],[140.615267,36.897772],[140.615288,36.897901],[140.615251,36.897997],[140.615192,36.898117],[140.61517,36.89822],[140.615166,36.898293],[140.615183,36.89836],[140.615247,36.898467],[140.615387,36.898602],[140.615534,36.898754],[140.615618,36.898835],[140.615735,36.898908],[140.615888,36.898961],[140.616035,36.899004],[140.616136,36.899014],[140.616243,36.899061],[140.616336,36.899161],[140.616347,36.899343],[140.616385,36.89949],[140.616512,36.899641],[140.616669,36.899829],[140.616697,36.899929],[140.61673,36.900044],[140.616752,36.900148],[140.616795,36.900232],[140.616844,36.900251],[140.616979,36.900226],[140.617052,36.900199],[140.617187,36.900112],[140.617316,36.900051],[140.617456,36.900039],[140.617606,36.900062],[140.617762,36.900154],[140.617778,36.900276],[140.617808,36.900395],[140.617856,36.900485],[140.617884,36.900551],[140.617947,36.900649],[140.618059,36.900751],[140.618176,36.90083],[140.618264,36.900884],[140.61833,36.900888]]}},{"type":"Feature","properties":{"id":198727890,"highway":"unclassified"},"geometry":{"type":"LineString","coordinates":[[140.621646,36.901718],[140.621456,36.901793],[140.621064,36.901968],[140.620952,36.901979],[140.620917,36.901979],[140.62084,36.901963],[140.620686,36.901962],[140.62009,36.902148],[140.620076,36.90216],[140.620019,36.902175],[140.619851,36.902273],[140.619648,36.90242],[140.619424,36.902515],[140.619347,36.902531],[140.619185,36.902525],[140.618849,36.902459],[140.618609,36.902379]]}},{"type":"Feature","properties":{"id":198729515,"highway":"unclassified"},"geometry":{"type":"LineString","coordinates":[[140.618709,36.903136],[140.618724,36.903081],[140.618741,36.90302],[140.618782,36.902873],[140.618728,36.902608],[140.618635,36.902445],[140.618609,36.902379]]}},{"type":"Feature","properties":{"id":198729753,"highway":"unclassified"},"geometry":{"type":"LineString","coordinates":[[140.617919,36.901467],[140.617938,36.90144],[140.617981,36.901406],[140.618176,36.901381],[140.618239,36.901331],[140.618274,36.901265],[140.618302,36.901068],[140.61833,36.900888]]}},{"type":"Feature","properties":{"id":198729871,"highway":"unclassified"},"geometry":{"type":"LineString","coordinates":[[140.618609,36.902379],[140.618204,36.902228],[140.618141,36.902181],[140.618071,36.90211],[140.618099,36.901828],[140.618092,36.901715],[140.618071,36.901665],[140.617924,36.901506],[140.617919,36.901467]]}},{"type":"Feature","properties":{"id":198729915,"highway":"unclassified"},"geometry":{"type":"LineString","coordinates":[[140.634001,36.894446],[140.634136,36.894586],[140.634241,36.894739],[140.634298,36.894864],[140.634389,36.895264],[140.634424,36.895375],[140.634473,36.895472],[140.634473,36.895608],[140.634382,36.895861],[140.633933,36.89688],[140.633849,36.897032],[140.633809,36.897067],[140.633758,36.897093],[140.633693,36.897101],[140.633604,36.897093],[140.633127,36.896993],[140.63303,36.896983],[140.632945,36.896993],[140.632412,36.897201],[140.632217,36.897247],[140.631865,36.897258],[140.631693,36.897258],[140.631614,36.897299],[140.63149,36.897415],[140.631437,36.897486],[140.631382,36.897646],[140.631355,36.897759],[140.63129,36.897848],[140.630965,36.898019],[140.630786,36.898102],[140.630643,36.89819],[140.630307,36.898287],[140.630099,36.898298],[140.629845,36.89832],[140.629733,36.898319],[140.629489,36.89831],[140.629102,36.898318],[140.628829,36.898311],[140.628472,36.898315],[140.628349,36.898366],[140.628214,36.898379],[140.628102,36.898366],[140.627989,36.898321],[140.627815,36.898256],[140.627674,36.898186],[140.627417,36.898094],[140.627344,36.898098],[140.627284,36.898126],[140.627242,36.898184],[140.627205,36.898289],[140.627054,36.898468],[140.626882,36.898626],[140.626404,36.899202],[140.626278,36.899405],[140.626124,36.899596],[140.626058,36.899694],[140.625845,36.899812],[140.625743,36.899849],[140.625678,36.899923],[140.625638,36.899989],[140.625569,36.900176],[140.625554,36.90032],[140.625503,36.900462],[140.62541,36.90057],[140.625317,36.900654],[140.625275,36.90071],[140.625199,36.900792],[140.625061,36.900875],[140.62497,36.900896],[140.624902,36.900934],[140.624877,36.900973],[140.624877,36.901093],[140.624846,36.9012],[140.624771,36.901246],[140.624727,36.901263],[140.624687,36.901252],[140.62456,36.901202],[140.624477,36.901207],[140.624056,36.901454],[140.623832,36.901552],[140.623727,36.901579],[140.623614,36.901568],[140.623572,36.901546],[140.623523,36.901488],[140.623495,36.901404],[140.623496,36.901128],[140.623458,36.901054],[140.623391,36.901016],[140.623272,36.900988],[140.623076,36.900993],[140.622872,36.901027],[140.622795,36.90106],[140.62269,36.901141],[140.62262,36.901185],[140.622374,36.901343],[140.622276,36.90136],[140.622115,36.901382],[140.621968,36.901421],[140.621912,36.901471],[140.621828,36.901596],[140.621785,36.901633],[140.621646,36.901718]]}},{"type":"Feature","properties":{"id":785787029,"highway":"unclassified"},"geometry":{"type":"LineString","coordinates":[[140.612761,36.919311],[140.612547,36.919125],[140.612373,36.918946],[140.612115,36.918713],[140.611762,36.91857],[140.611515,36.918579],[140.611302,36.918695],[140.611202,36.91894],[140.611261,36.9192],[140.611404,36.919715],[140.611374,36.919924],[140.611235,36.920132],[140.611056,36.920253],[140.610808,36.920292],[140.610736,36.920303],[140.610503,36.92033],[140.610005,36.920331],[140.609534,36.920311],[140.60928,36.920333],[140.609109,36.92041],[140.608955,36.920518],[140.60875,36.920704],[140.608524,36.920958],[140.608441,36.921047],[140.608388,36.921088],[140.608321,36.921129],[140.608177,36.921139],[140.608062,36.921118],[140.607957,36.92107],[140.607892,36.920978],[140.60784,36.92088],[140.607786,36.920757],[140.607643,36.920492],[140.607505,36.920309],[140.607336,36.920096],[140.60719,36.919917],[140.606948,36.919694],[140.606879,36.91966],[140.606798,36.919657],[140.606541,36.919716],[140.606458,36.919742],[140.606332,36.919755],[140.606207,36.919713],[140.606103,36.919655],[140.60597,36.919538],[140.605843,36.919339],[140.605661,36.919147],[140.605448,36.918989],[140.605227,36.918789],[140.605129,36.918699],[140.605007,36.918658],[140.604863,36.91866],[140.604718,36.91872],[140.604554,36.918796],[140.604325,36.918905],[140.604012,36.919032],[140.603934,36.919071],[140.603763,36.919206],[140.603665,36.919342],[140.603585,36.919493],[140.603492,36.9197],[140.603311,36.920209],[140.603215,36.920337],[140.60306,36.920439],[140.602666,36.92057],[140.602305,36.920682],[140.602086,36.920755],[140.601822,36.920848],[140.601651,36.920913],[140.601437,36.92097],[140.601296,36.921025],[140.601194,36.921074],[140.601123,36.921183],[140.601099,36.92126],[140.601075,36.921374],[140.601079,36.921565],[140.601115,36.921741],[140.601211,36.9219],[140.601497,36.92231],[140.601634,36.922519],[140.601702,36.922689],[140.601777,36.922814],[140.601764,36.923015],[140.601569,36.92315],[140.601306,36.923211],[140.601191,36.923247],[140.600917,36.923296],[140.600509,36.923368],[140.600063,36.923462],[140.599825,36.923508],[140.599599,36.923596],[140.599329,36.923721],[140.599111,36.923908],[140.599012,36.924214],[140.598933,36.924521],[140.598731,36.925043],[140.59859,36.925158],[140.598214,36.925358],[140.597705,36.925549],[140.59734,36.925608],[140.596838,36.925622],[140.59655,36.92566],[140.596275,36.925787],[140.596024,36.925896],[140.595612,36.925937],[140.595335,36.925977],[140.594975,36.926152],[140.594664,36.926478],[140.59422,36.926671],[140.593567,36.926747],[140.593384,36.926814],[140.593242,36.926929],[140.593213,36.927149],[140.593165,36.927256],[140.593366,36.92757],[140.593675,36.927766],[140.594002,36.92794],[140.594257,36.928054],[140.594456,36.928182],[140.594516,36.928313],[140.594522,36.928475],[140.594406,36.928612],[140.594242,36.928784],[140.594168,36.92891],[140.59427,36.929077],[140.594455,36.929247],[140.594691,36.929429],[140.594785,36.929524],[140.59489,36.929606],[140.595048,36.929794],[140.595111,36.929985],[140.59505,36.930379],[140.594878,36.930563],[140.594747,36.93081],[140.594679,36.931228],[140.594664,36.931286],[140.594674,36.931508],[140.594657,36.931727],[140.594705,36.93198],[140.594824,36.932341],[140.594733,36.932512],[140.594359,36.932968],[140.594253,36.933158],[140.594222,36.933447],[140.59423,36.933743],[140.594277,36.933944],[140.594249,36.934259],[140.594231,36.934376],[140.59412,36.9345],[140.593916,36.934713],[140.59374,36.934903],[140.593594,36.93515],[140.593462,36.935532],[140.593378,36.935709],[140.593191,36.935928],[140.593077,36.936074],[140.593072,36.936201],[140.593173,36.936306],[140.593551,36.936684],[140.59369,36.93692],[140.593835,36.937105],[140.594052,36.937284],[140.594278,36.937373],[140.594424,36.93738],[140.594589,36.937623],[140.594663,36.937889],[140.594705,36.938],[140.594725,36.938128],[140.594741,36.938234],[140.59471,36.93839],[140.594341,36.938693],[140.594259,36.93876],[140.594232,36.938893],[140.59424,36.93904],[140.594171,36.93913],[140.593931,36.939265],[140.593592,36.939592],[140.593602,36.939738],[140.59386,36.939898],[140.594205,36.940152],[140.594405,36.940454],[140.594458,36.940688],[140.594464,36.940768],[140.594412,36.940855],[140.59433,36.940973],[140.594263,36.941085],[140.594158,36.941203],[140.594138,36.941366],[140.594129,36.941412],[140.594094,36.941469],[140.594011,36.941552],[140.593992,36.94164],[140.594308,36.941823],[140.594686,36.942186],[140.594829,36.942358],[140.594932,36.942539],[140.594963,36.942642],[140.594871,36.942807],[140.594698,36.943015],[140.594498,36.943257],[140.594417,36.943385],[140.594384,36.943503],[140.594318,36.943784],[140.594256,36.943891],[140.594189,36.943954],[140.594026,36.944057],[140.593922,36.944196],[140.59383,36.944359],[140.593711,36.944469],[140.593548,36.944564],[140.593495,36.944604],[140.593447,36.944662],[140.593413,36.94471],[140.593381,36.944801],[140.593365,36.944873],[140.59333,36.944941],[140.593309,36.944958],[140.593265,36.944975],[140.593125,36.945038],[140.592973,36.945143],[140.592847,36.945275],[140.592822,36.945312],[140.592809,36.945368],[140.592807,36.945399],[140.592834,36.945446],[140.59286,36.945485],[140.592925,36.945532],[140.593066,36.945581],[140.593191,36.945655],[140.593222,36.94569],[140.593237,36.945735],[140.593243,36.945779],[140.593237,36.94584],[140.593196,36.945957],[140.59317,36.945996],[140.593126,36.946034],[140.593026,36.946073],[140.592907,36.946094],[140.592764,36.946101],[140.592636,36.946108],[140.59259,36.946128],[140.592559,36.946167],[140.592542,36.946253],[140.592565,36.946301],[140.592614,36.946345],[140.592792,36.946503],[140.592924,36.946627],[140.59305,36.946754],[140.593089,36.946812],[140.593116,36.946879],[140.593081,36.947012],[140.59302,36.947117],[140.59275,36.947449],[140.592455,36.947793],[140.592376,36.947859],[140.592264,36.947903],[140.591985,36.947929],[140.591903,36.947939],[140.59182,36.948014],[140.591776,36.9481],[140.591716,36.948228],[140.591495,36.948646],[140.591414,36.948751],[140.591344,36.948776],[140.591144,36.948786],[140.591057,36.948783],[140.591026,36.94879],[140.59099,36.948809],[140.590953,36.948843],[140.590923,36.948884],[140.590888,36.948948],[140.590835,36.949093],[140.590783,36.949228],[140.590699,36.949531],[140.590666,36.949697],[140.590644,36.949876],[140.590612,36.950018],[140.590611,36.950226],[140.590603,36.950471],[140.590571,36.950743],[140.590583,36.950811],[140.590612,36.950819],[140.59063,36.95085],[140.590633,36.950916],[140.590602,36.950972],[140.590483,36.95106],[140.590378,36.951167],[140.590316,36.951276],[140.590258,36.951437],[140.590229,36.951538],[140.590228,36.951588],[140.590238,36.951637],[140.590295,36.951694],[140.590346,36.951743],[140.590427,36.95179],[140.590536,36.951832],[140.590623,36.95187],[140.590684,36.951891],[140.590716,36.951927],[140.590717,36.951986],[140.590684,36.952041],[140.590621,36.952087],[140.590491,36.95211],[140.590378,36.952114],[140.590237,36.952141],[140.589976,36.952232],[140.589689,36.952372],[140.589403,36.952553],[140.589079,36.952769],[140.588981,36.952852],[140.588851,36.952927],[140.588725,36.95303]]}},{"type":"Feature","properties":{"id":786058359,"highway":"unclassified"},"geometry":{"type":"LineString","coordinates":[[140.618709,36.903136],[140.618661,36.903374],[140.61869,36.903615],[140.618771,36.903762],[140.618945,36.90386],[140.619134,36.903962],[140.619344,36.903988],[140.619556,36.904036],[140.619639,36.904132],[140.619673,36.904203],[140.619674,36.904291],[140.619618,36.904401],[140.619425,36.904512],[140.619106,36.904522],[140.618719,36.90445],[140.618482,36.90442],[140.618341,36.904421],[140.618209,36.904514],[140.618011,36.904736],[140.617845,36.90502],[140.617751,36.905333],[140.61777,36.905496],[140.617874,36.905676],[140.617955,36.905703],[140.618037,36.905688],[140.618215,36.905571],[140.618325,36.905498],[140.618388,36.90542],[140.618424,36.905369],[140.618495,36.905332],[140.618585,36.905289],[140.618811,36.905191],[140.618966,36.905139],[140.619249,36.905127],[140.619487,36.905181],[140.619619,36.905218],[140.61976,36.905252],[140.619858,36.905263],[140.620024,36.905301],[140.6202,36.905277],[140.620376,36.905172],[140.620467,36.905151],[140.620673,36.905242],[140.62082,36.905298],[140.620901,36.905316],[140.621101,36.905273],[140.621412,36.905364],[140.621788,36.905406],[140.622196,36.905391],[140.622566,36.905438],[140.622861,36.905552],[140.623065,36.905584],[140.623287,36.905567],[140.623381,36.905497],[140.623425,36.905418],[140.623652,36.905393],[140.623877,36.905363],[140.624038,36.905438],[140.624201,36.905594],[140.624231,36.905717],[140.624227,36.905877],[140.624228,36.90603],[140.624234,36.906111],[140.624245,36.906169],[140.624307,36.906209],[140.624412,36.906215],[140.624804,36.906189],[140.625213,36.90618],[140.62531,36.906143],[140.625357,36.905999],[140.625378,36.905876],[140.625426,36.905811],[140.625505,36.905783],[140.625628,36.905792],[140.625738,36.905841],[140.625746,36.905919],[140.62576,36.906073],[140.625849,36.90622],[140.62595,36.906286],[140.6261,36.90627],[140.626194,36.906177],[140.626245,36.906075],[140.626299,36.905987],[140.626344,36.905792],[140.626418,36.905625],[140.626484,36.905539],[140.626609,36.905475],[140.626745,36.905456],[140.626979,36.905447],[140.627104,36.905431]]}},{"type":"Feature","properties":{"id":786058360,"highway":"unclassified"},"geometry":{"type":"LineString","coordinates":[[140.627104,36.905431],[140.627171,36.905411],[140.627194,36.905385]]}},{"type":"Feature","properties":{"id":786058361,"highway":"unclassified"},"geometry":{"type":"LineString","coordinates":[[140.627255,36.905276],[140.627315,36.90517],[140.627393,36.905057],[140.627503,36.904967],[140.627664,36.904932],[140.627859,36.904903],[140.628081,36.904911],[140.628272,36.904961],[140.628353,36.905015]]}},{"type":"Feature","properties":{"id":786058362,"highway":"unclassified"},"geometry":{"type":"LineString","coordinates":[[140.627194,36.905385],[140.627255,36.905276]]}},{"type":"Feature","properties":{"id":786058363,"highway":"unclassified"},"geometry":{"type":"LineString","coordinates":[[140.62863,36.905302],[140.628713,36.905331],[140.629071,36.905435],[140.629204,36.905508],[140.6293,36.905548],[140.629408,36.905549],[140.629563,36.90554],[140.629745,36.905531],[140.629925,36.905532],[140.630201,36.905575],[140.630342,36.905545],[140.63047,36.905513],[140.630615,36.905504],[140.630741,36.905524],[140.630872,36.905572],[140.630915,36.905586],[140.631037,36.905702],[140.631179,36.905819],[140.631268,36.90586],[140.63139,36.905895],[140.631547,36.905899],[140.631709,36.9059],[140.631872,36.905908],[140.631954,36.905899],[140.632049,36.905925],[140.632085,36.905947],[140.632099,36.905988],[140.632071,36.906057],[140.631999,36.906122],[140.63195,36.906268],[140.63182,36.906339],[140.63174,36.906383],[140.631701,36.906455],[140.631718,36.906552],[140.631826,36.906613],[140.632217,36.906585],[140.632457,36.906589],[140.632658,36.906616],[140.63287,36.906708],[140.632994,36.906871],[140.633057,36.906978],[140.633129,36.907111],[140.633138,36.907256],[140.633137,36.907428],[140.633122,36.907611],[140.633179,36.907715],[140.633323,36.907753],[140.63353,36.907712],[140.633731,36.90775],[140.633802,36.907785],[140.63386,36.907878],[140.633895,36.907995],[140.633887,36.908097],[140.633819,36.90823],[140.633705,36.908433],[140.63361,36.908676],[140.633548,36.908823],[140.633451,36.90902],[140.633388,36.909128],[140.633282,36.909204],[140.633165,36.909266],[140.633047,36.909291],[140.632841,36.909263],[140.632747,36.909253],[140.63269,36.909288]]}},{"type":"Feature","properties":{"id":786058368,"highway":"unclassified"},"geometry":{"type":"LineString","coordinates":[[140.635241,36.9069],[140.635055,36.906886],[140.634688,36.906939],[140.634196,36.906945],[140.634006,36.90692],[140.633824,36.906955],[140.633659,36.906948],[140.633504,36.90687],[140.633464,36.906835],[140.633412,36.906756],[140.633293,36.906632],[140.633226,36.906541],[140.633122,36.906403],[140.63298,36.906209],[140.632848,36.905833],[140.632689,36.9057],[140.632506,36.90568],[140.632402,36.905661],[140.632307,36.905657],[140.632164,36.905687]]}},{"type":"Feature","properties":{"id":786058369,"highway":"unclassified"},"geometry":{"type":"LineString","coordinates":[[140.62831,36.905177],[140.62863,36.905302]]}},{"type":"Feature","properties":{"id":786058370,"highway":"unclassified"},"geometry":{"type":"LineString","coordinates":[[140.628353,36.905015],[140.62831,36.905177]]}},{"type":"Feature","properties":{"id":786058785,"highway":"unclassified"},"geometry":{"type":"LineString","coordinates":[[140.625373,36.909463],[140.625096,36.909416],[140.624902,36.909355],[140.624658,36.909316],[140.624438,36.909345],[140.624123,36.90934],[140.623921,36.909306],[140.623795,36.909225],[140.623678,36.909128],[140.623596,36.909025],[140.623584,36.908872],[140.623493,36.908769],[140.623412,36.908711],[140.623195,36.908593],[140.623088,36.908471],[140.623047,36.908333],[140.622984,36.90825],[140.622923,36.908188],[140.622819,36.908147],[140.622707,36.908139],[140.622596,36.908119],[140.622529,36.908062]]}},{"type":"Feature","properties":{"id":786058787,"highway":"unclassified"},"geometry":{"type":"LineString","coordinates":[[140.63992,36.905151],[140.63993,36.905107],[140.63993,36.905044],[140.63989,36.904927]]}},{"type":"Feature","properties":{"id":786058788,"highway":"unclassified"},"geometry":{"type":"LineString","coordinates":[[140.63989,36.904927],[140.639788,36.904781],[140.639684,36.904631],[140.639531,36.904439],[140.639322,36.904226],[140.639285,36.904187],[140.639253,36.904119],[140.639259,36.904024],[140.639309,36.903871],[140.639408,36.903727],[140.639415,36.903613],[140.639312,36.903475],[140.639209,36.903359],[140.639207,36.903244],[140.639219,36.903156],[140.63925,36.903087],[140.639338,36.902975],[140.639339,36.902889],[140.63938,36.902757],[140.639399,36.902666],[140.639471,36.902592],[140.639579,36.902484],[140.640054,36.902224],[140.640281,36.90207],[140.640444,36.90192],[140.640548,36.901746],[140.640627,36.90159],[140.640688,36.901441],[140.640704,36.900936]]}},{"type":"Feature","properties":{"id":786058790,"highway":"unclassified"},"geometry":{"type":"LineString","coordinates":[[140.639418,36.908366],[140.639356,36.908295],[140.639258,36.908114],[140.639232,36.907938],[140.639216,36.907659],[140.639196,36.907425],[140.639208,36.907289],[140.639204,36.907161],[140.639144,36.90703],[140.639065,36.906727],[140.639029,36.906571],[140.638953,36.906293],[140.638907,36.906165],[140.638928,36.906053],[140.638961,36.90601],[140.639007,36.905973],[140.639202,36.905887],[140.639292,36.905844],[140.639406,36.905768],[140.639482,36.905724],[140.639593,36.905602],[140.639718,36.905434],[140.639887,36.905251],[140.639913,36.905205],[140.63992,36.905151]]}}]}