{"type":"FeatureCollection","features":[{"type":"Feature","properties":{"id":29473702,"highway":"primary"},"geometry":{"type":"LineString","coordinates":[[140.715241,35.702013],[140.716417,35.701713],[140.716461,35.701701],[140.718298,35.70119],[140.719944,35.700704],[140.720183,35.700625],[140.72035,35.700534],[140.720634,35.700364],[140.721015,35.700124],[140.722352,35.699287],[140.722511,35.699172],[140.722633,35.699055],[140.723197,35.698435],[140.723357,35.698253],[140.723454,35.698075],[140.723459,35.698062],[140.723682,35.697473],[140.72378,35.697198],[140.723856,35.697031],[140.723978,35.696766],[140.724067,35.696609],[140.724297,35.69628],[140.724596,35.695604],[140.724684,35.695407],[140.724774,35.695165],[140.724957,35.694583],[140.72499,35.694392],[140.725081,35.694079],[140.725138,35.693952],[140.725181,35.693878],[140.725257,35.693818],[140.725354,35.693773],[140.725467,35.69373],[140.725595,35.693714],[140.725794,35.693719],[140.726083,35.693727],[140.727527,35.693736]]}},{"type":"Feature","properties":{"id":29473720,"highway":"tertiary"},"geometry":{"type":"LineString","coordinates":[[140.739201,35.697356],[140.738739,35.696293],[140.738679,35.696121],[140.73862,35.695936],[140.738587,35.695742],[140.738587,35.695577],[140.738616,35.695347],[140.73869,35.695067],[140.738842,35.694603],[140.738921,35.694432],[140.739013,35.694298],[140.739135,35.694163],[140.739297,35.694029],[140.739453,35.693911],[140.739596,35.693772],[140.739634,35.693727],[140.739701,35.693645],[140.739751,35.693664],[140.739879,35.693715],[140.740463,35.693925]]}},{"type":"Feature","properties":{"id":103997504,"highway":"unclassified"},"geometry":{"type":"LineString","coordinates":[[140.727592,35.693171],[140.727696,35.693165],[140.729122,35.693095],[140.729563,35.693073]]}},{"type":"Feature","properties":{"id":103997506,"highway":"service"},"geometry":{"type":"LineString","coordinates":[[140.733368,35.692882],[140.733372,35.693095],[140.733393,35.693422],[140.735042,35.693295],[140.735989,35.693221],[140.735989,35.693152],[140.735995,35.692771]]}},{"type":"Feature","properties":{"id":103997508,"highway":"residential"},"geometry":{"type":"LineString","coordinates":[[140.727699,35.696482],[140.727445,35.696505],[140.727357,35.696534],[140.727256,35.696565],[140.727066,35.696606],[140.72667,35.696678],[140.726311,35.696722],[140.726144,35.696719],[140.726062,35.696712]]}},{"type":"Feature","properties":{"id":103997509,"highway":"unclassified"},"geometry":{"type":"LineString","coordinates":[[140.727527,35.693736],[140.727535,35.693662],[140.727592,35.693171],[140.72778,35.691782]]}},{"type":"Feature","properties":{"id":103997510,"highway":"residential"},"geometry":{"type":"LineString","coordinates":[[140.725138,35.693952],[140.725244,35.693982],[140.725601,35.694062],[140.725881,35.694125],[140.726095,35.694156],[140.726631,35.694256],[140.726713,35.69429],[140.726789,35.694364],[140.726916,35.694465],[140.726993,35.694518],[140.72722,35.69458],[140.727398,35.69461],[140.727602,35.694639],[140.72808,35.694705],[140.728275,35.694769]]}},{"type":"Feature","properties":{"id":103997512,"highway":"unclassified"},"geometry":{"type":"LineString","coordinates":[[140.72778,35.691782],[140.729434,35.691714]]}},{"type":"Feature","properties":{"id":103997516,"highway":"service"},"geometry":{"type":"LineString","coordinates":[[140.733372,35.693095],[140.732743,35.693119],[140.732406,35.693122],[140.732178,35.693068],[140.731983,35.692941]]}},{"type":"Feature","properties":{"id":103997521,"highway":"residential"},"geometry":{"type":"LineString","coordinates":[[140.728943,35.693814],[140.728922,35.693878],[140.728776,35.6941],[140.728275,35.694769],[140.728209,35.694903]]}},{"type":"Feature","properties":{"id":104628693,"highway":"tertiary"},"geometry":{"type":"LineString","coordinates":[[140.715452,35.702725],[140.716414,35.702396],[140.716678,35.702295],[140.716707,35.702284],[140.716735,35.702274],[140.717621,35.70196],[140.718031,35.701834],[140.718942,35.701537],[140.719202,35.701454],[140.719707,35.701272],[140.719869,35.701211],[140.720604,35.700963],[140.72142,35.700694],[140.721788,35.700505],[140.72201,35.700372],[140.722065,35.70032],[140.722181,35.700085],[140.722266,35.699883],[140.722336,35.699805],[140.72256,35.69963],[140.722967,35.699335],[140.72315,35.699199],[140.723321,35.699081],[140.723394,35.699024],[140.723656,35.698819],[140.723697,35.69879],[140.724037,35.698509],[140.72413,35.698429],[140.724347,35.698205],[140.724374,35.698101],[140.724424,35.697891],[140.72444,35.697828],[140.724457,35.697764],[140.724656,35.697535],[140.724691,35.697502],[140.7249,35.69728],[140.724949,35.697236],[140.725215,35.69704],[140.725305,35.69699],[140.725936,35.696771],[140.725976,35.696757],[140.726062,35.696712],[140.726153,35.696659],[140.726269,35.696591],[140.72646,35.696474],[140.726601,35.696338],[140.726722,35.696226],[140.727079,35.695921],[140.727092,35.69591],[140.727118,35.695886],[140.727318,35.695726],[140.727703,35.695345],[140.727764,35.695276],[140.727992,35.69505],[140.728075,35.694973],[140.728209,35.694903],[140.728353,35.694889],[140.728454,35.694892],[140.728615,35.69494],[140.728864,35.695059],[140.729181,35.695234],[140.729544,35.695541],[140.729746,35.695695],[140.729916,35.695805],[140.73085,35.696271],[140.731126,35.696402],[140.731988,35.696832],[140.732123,35.6969]]}},{"type":"Feature","properties":{"id":104628739,"highway":"unclassified"},"geometry":{"type":"LineString","coordinates":[[140.723682,35.697473],[140.723974,35.697633],[140.724065,35.697683],[140.724424,35.697891]]}},{"type":"Feature","properties":{"id":104628740,"highway":"unclassified"},"geometry":{"type":"LineString","coordinates":[[140.724424,35.697891],[140.724625,35.698014],[140.725176,35.698464],[140.725352,35.698626],[140.72587,35.69905],[140.72615,35.699299],[140.726497,35.699722],[140.726895,35.700301],[140.726944,35.700383],[140.727111,35.700524],[140.727608,35.700896],[140.728018,35.701183],[140.728172,35.701296],[140.728186,35.701305]]}},{"type":"Feature","properties":{"id":104628758,"highway":"unclassified"},"geometry":{"type":"LineString","coordinates":[[140.737139,35.69407],[140.737179,35.694383],[140.737096,35.694454],[140.736527,35.69449],[140.735526,35.695695]]}},{"type":"Feature","properties":{"id":104628761,"highway":"service"},"geometry":{"type":"LineString","coordinates":[[140.733799,35.694943],[140.735042,35.693295]]}},{"type":"Feature","properties":{"id":104629048,"highway":"residential"},"geometry":{"type":"LineString","coordinates":[[140.729054,35.696681],[140.729839,35.697325]]}},{"type":"Feature","properties":{"id":104629049,"highway":"residential"},"geometry":{"type":"LineString","coordinates":[[140.728906,35.698085],[140.729025,35.697989],[140.729077,35.69795],[140.729383,35.697699],[140.729839,35.697325],[140.730183,35.697129],[140.730616,35.696792],[140.730827,35.696635],[140.731126,35.696402]]}},{"type":"Feature","properties":{"id":104629050,"highway":"unclassified"},"geometry":{"type":"LineString","coordinates":[[140.726722,35.696226],[140.726862,35.6963],[140.726929,35.696325],[140.727048,35.69633],[140.727451,35.696322],[140.727541,35.696317],[140.727643,35.696304],[140.727882,35.696242],[140.728571,35.695953],[140.728774,35.695867],[140.72894,35.695803],[140.729544,35.695541]]}},{"type":"Feature","properties":{"id":104629051,"highway":"unclassified"},"geometry":{"type":"LineString","coordinates":[[140.730827,35.696635],[140.731651,35.697323],[140.732742,35.6982],[140.733493,35.698828],[140.73421,35.699425]]}},{"type":"Feature","properties":{"id":104629052,"highway":"residential"},"geometry":{"type":"LineString","coordinates":[[140.728832,35.696263],[140.728571,35.695953]]}},{"type":"Feature","properties":{"id":104629053,"highway":"residential"},"geometry":{"type":"LineString","coordinates":[[140.727575,35.694035],[140.727825,35.694081],[140.727762,35.694257]]}},{"type":"Feature","properties":{"id":104629054,"highway":"residential"},"geometry":{"type":"LineString","coordinates":[[140.728481,35.696937],[140.729383,35.697699]]}},{"type":"Feature","properties":{"id":104629055,"highway":"unclassified"},"geometry":{"type":"LineString","coordinates":[[140.730868,35.698925],[140.730262,35.698439],[140.729383,35.697699]]}},{"type":"Feature","properties":{"id":104629056,"highway":"residential"},"geometry":{"type":"LineString","coordinates":[[140.727398,35.69461],[140.727417,35.694511],[140.727425,35.6944],[140.727575,35.694035],[140.727676,35.693738]]}},{"type":"Feature","properties":{"id":104629057,"highway":"service"},"geometry":{"type":"LineString","coordinates":[[140.732935,35.697654],[140.733139,35.697835],[140.733137,35.697872],[140.733115,35.697901],[140.732742,35.6982]]}},{"type":"Feature","properties":{"id":104629058,"highway":"unclassified"},"geometry":{"type":"LineString","coordinates":[[140.728172,35.701296],[140.728327,35.701118],[140.728397,35.701032],[140.72847,35.700817],[140.728512,35.700695],[140.728504,35.699945],[140.728504,35.699888],[140.728587,35.699821],[140.728838,35.699621],[140.729103,35.699404],[140.72935,35.699199],[140.729576,35.699005],[140.729818,35.698805],[140.730262,35.698439],[140.730741,35.698067],[140.731651,35.697323],[140.732123,35.6969]]}},{"type":"Feature","properties":{"id":104629060,"highway":"residential"},"geometry":{"type":"LineString","coordinates":[[140.726895,35.700301],[140.727059,35.700081],[140.72712,35.699931],[140.727168,35.699842],[140.727273,35.699721],[140.727431,35.699553],[140.727617,35.699396],[140.727696,35.699344],[140.727819,35.699287],[140.727909,35.699246],[140.727945,35.699183],[140.728093,35.699211],[140.728178,35.699233],[140.728279,35.699268],[140.72844,35.699369],[140.728838,35.699621]]}},{"type":"Feature","properties":{"id":104629061,"highway":"unclassified"},"geometry":{"type":"LineString","coordinates":[[140.732793,35.699742],[140.733251,35.699611],[140.733787,35.699494],[140.73421,35.699425],[140.734565,35.699381],[140.734976,35.699373],[140.735856,35.699394],[140.736062,35.699433],[140.736337,35.699456],[140.736422,35.69943],[140.736463,35.69939],[140.736498,35.6993],[140.7365,35.699225],[140.736518,35.699218],[140.73658,35.699196]]}},{"type":"Feature","properties":{"id":104629063,"highway":"unclassified"},"geometry":{"type":"LineString","coordinates":[[140.729839,35.697325],[140.730741,35.698067],[140.732595,35.699569],[140.732793,35.699742],[140.732837,35.699775],[140.732877,35.699804]]}},{"type":"Feature","properties":{"id":104629064,"highway":"residential"},"geometry":{"type":"LineString","coordinates":[[140.729544,35.695541],[140.729669,35.695503],[140.729807,35.695456],[140.729918,35.695424],[140.730006,35.695381],[140.731028,35.694652],[140.731385,35.694535],[140.731732,35.694371],[140.732135,35.694218]]}},{"type":"Feature","properties":{"id":104629066,"highway":"unclassified"},"geometry":{"type":"LineString","coordinates":[[140.729818,35.698805],[140.730589,35.699424],[140.731667,35.700294],[140.731712,35.70033],[140.731788,35.700392]]}},{"type":"Feature","properties":{"id":104629067,"highway":"residential"},"geometry":{"type":"LineString","coordinates":[[140.734266,35.694073],[140.73421,35.694176],[140.733697,35.694894]]}},{"type":"Feature","properties":{"id":104629068,"highway":"unclassified"},"geometry":{"type":"LineString","coordinates":[[140.734541,35.698102],[140.734548,35.698151],[140.734594,35.698205],[140.736062,35.699433]]}},{"type":"Feature","properties":{"id":104629070,"highway":"residential"},"geometry":{"type":"LineString","coordinates":[[140.727699,35.696482],[140.727727,35.696539],[140.727839,35.69675],[140.727999,35.697018],[140.728149,35.697217],[140.728186,35.697271],[140.728367,35.697481],[140.728504,35.697683],[140.728579,35.697776],[140.728906,35.698085],[140.728915,35.698127],[140.728921,35.698257],[140.728898,35.698426],[140.728754,35.698592],[140.728597,35.698979],[140.72844,35.699369]]}},{"type":"Feature","properties":{"id":104629071,"highway":"residential"},"geometry":{"type":"LineString","coordinates":[[140.728864,35.695059],[140.729045,35.694874],[140.729246,35.694793],[140.729315,35.694749],[140.729388,35.694734],[140.729462,35.694693],[140.729504,35.69465],[140.729616,35.69443],[140.729613,35.694389],[140.729595,35.694356],[140.729539,35.69432],[140.729232,35.694031],[140.728922,35.693878]]}},{"type":"Feature","properties":{"id":104629072,"highway":"unclassified"},"geometry":{"type":"LineString","coordinates":[[140.73085,35.696271],[140.731661,35.695163],[140.732275,35.69435]]}},{"type":"Feature","properties":{"id":104629073,"highway":"residential"},"geometry":{"type":"LineString","coordinates":[[140.731507,35.695787],[140.731746,35.695472],[140.731911,35.695547]]}},{"type":"Feature","properties":{"id":104629074,"highway":"unclassified"},"geometry":{"type":"LineString","coordinates":[[140.728838,35.699621],[140.728928,35.69969],[140.728947,35.699762],[140.72897,35.699804],[140.729093,35.699871],[140.729674,35.700172],[140.730699,35.701003],[140.730745,35.70104]]}},{"type":"Feature","properties":{"id":104629075,"highway":"unclassified"},"geometry":{"type":"LineString","coordinates":[[140.730589,35.699424],[140.729674,35.700172],[140.728771,35.700911],[140.728242,35.701344]]}},{"type":"Feature","properties":{"id":104629076,"highway":"residential"},"geometry":{"type":"LineString","coordinates":[[140.729292,35.69839],[140.72906,35.698589]]}},{"type":"Feature","properties":{"id":104629078,"highway":"residential"},"geometry":{"type":"LineString","coordinates":[[140.728898,35.698426],[140.72906,35.698589],[140.729576,35.699005]]}},{"type":"Feature","properties":{"id":104629079,"highway":"service"},"geometry":{"type":"LineString","coordinates":[[140.739881,35.695407],[140.73869,35.695067]]}},{"type":"Feature","properties":{"id":104629080,"highway":"residential"},"geometry":{"type":"LineString","coordinates":[[140.728149,35.697217],[140.728335,35.697046],[140.728481,35.696937],[140.728639,35.696841],[140.728698,35.69682],[140.728856,35.696811],[140.72895,35.696769],[140.729054,35.696681],[140.729059,35.696612]]}},{"type":"Feature","properties":{"id":104629081,"highway":"residential"},"geometry":{"type":"LineString","coordinates":[[140.729231,35.698082],[140.729077,35.69795]]}},{"type":"Feature","properties":{"id":104629082,"highway":"residential"},"geometry":{"type":"LineString","coordinates":[[140.729353,35.69628],[140.729141,35.696007],[140.729048,35.695973],[140.72894,35.695803]]}},{"type":"Feature","properties":{"id":104629083,"highway":"residential"},"geometry":{"type":"LineString","coordinates":[[140.728351,35.698543],[140.728612,35.698268],[140.728718,35.698182],[140.728809,35.698147]]}},{"type":"Feature","properties":{"id":104629084,"highway":"residential"},"geometry":{"type":"LineString","coordinates":[[140.731661,35.695163],[140.732066,35.695349],[140.731911,35.695547],[140.732604,35.695876]]}},{"type":"Feature","properties":{"id":104629085,"highway":"residential"},"geometry":{"type":"LineString","coordinates":[[140.732819,35.693991],[140.732439,35.694424]]}},{"type":"Feature","properties":{"id":104629086,"highway":"residential"},"geometry":{"type":"LineString","coordinates":[[140.728504,35.697683],[140.728628,35.697559]]}},{"type":"Feature","properties":{"id":104630062,"highway":"residential"},"geometry":{"type":"LineString","coordinates":[[140.726835,35.698375],[140.726697,35.698495],[140.726378,35.698878]]}},{"type":"Feature","properties":{"id":104630063,"highway":"residential"},"geometry":{"type":"LineString","coordinates":[[140.724861,35.695457],[140.724792,35.695636],[140.724699,35.695878],[140.724651,35.696052],[140.725103,35.696205],[140.725288,35.696217],[140.725802,35.696205],[140.725827,35.696189]]}},{"type":"Feature","properties":{"id":104630064,"highway":"residential"},"geometry":{"type":"LineString","coordinates":[[140.726083,35.693727],[140.726128,35.693977],[140.726121,35.694077],[140.726095,35.694156],[140.726098,35.694351],[140.726117,35.694414],[140.726163,35.694491]]}},{"type":"Feature","properties":{"id":104630065,"highway":"residential"},"geometry":{"type":"LineString","coordinates":[[140.7278,35.699144],[140.727782,35.699053],[140.727766,35.698999],[140.727672,35.69888],[140.727664,35.698867],[140.727625,35.698808],[140.727466,35.698658],[140.727363,35.698576]]}},{"type":"Feature","properties":{"id":104630066,"highway":"residential"},"geometry":{"type":"LineString","coordinates":[[140.726036,35.695587],[140.726298,35.695673],[140.726813,35.695774],[140.726904,35.6958],[140.727092,35.69591]]}},{"type":"Feature","properties":{"id":104630067,"highway":"unclassified"},"geometry":{"type":"LineString","coordinates":[[140.724602,35.696982],[140.7249,35.69728],[140.725099,35.697476],[140.725486,35.697854],[140.725576,35.698003],[140.725662,35.698167],[140.725776,35.698378],[140.725854,35.698566],[140.725904,35.698636],[140.726017,35.698703],[140.726154,35.698742],[140.726378,35.698878],[140.726554,35.698981],[140.726729,35.699061],[140.726946,35.699112],[140.727172,35.69912],[140.72744,35.699117],[140.727629,35.69912],[140.7278,35.699144],[140.727945,35.699183]]}},{"type":"Feature","properties":{"id":104630068,"highway":"residential"},"geometry":{"type":"LineString","coordinates":[[140.72499,35.694392],[140.725331,35.694497],[140.725783,35.694672],[140.725971,35.694719],[140.726474,35.694819]]}},{"type":"Feature","properties":{"id":104630069,"highway":"residential"},"geometry":{"type":"LineString","coordinates":[[140.723856,35.697031],[140.724235,35.697271],[140.724416,35.697385],[140.724656,35.697535],[140.724898,35.697699],[140.72501,35.697791],[140.725136,35.697924],[140.725234,35.698036],[140.725359,35.698173],[140.725476,35.698309],[140.725602,35.698439]]}},{"type":"Feature","properties":{"id":104630070,"highway":"residential"},"geometry":{"type":"LineString","coordinates":[[140.727764,35.695276],[140.728266,35.695591],[140.728393,35.695648],[140.728527,35.695702],[140.728617,35.695727],[140.728718,35.695784],[140.728774,35.695867]]}},{"type":"Feature","properties":{"id":104630071,"highway":"unclassified"},"geometry":{"type":"LineString","coordinates":[[140.72615,35.699299],[140.726392,35.69912],[140.726554,35.698981]]}},{"type":"Feature","properties":{"id":104630072,"highway":"residential"},"geometry":{"type":"LineString","coordinates":[[140.725827,35.696189],[140.726102,35.696203],[140.726247,35.696222],[140.72645,35.69627],[140.726601,35.696338]]}},{"type":"Feature","properties":{"id":104630073,"highway":"residential"},"geometry":{"type":"LineString","coordinates":[[140.727364,35.69523],[140.727386,35.695111],[140.727458,35.694973],[140.727509,35.694912],[140.727566,35.69481],[140.727593,35.694719],[140.727602,35.694639]]}},{"type":"Feature","properties":{"id":104630074,"highway":"residential"},"geometry":{"type":"LineString","coordinates":[[140.726297,35.695027],[140.726683,35.695161],[140.726871,35.695196],[140.727044,35.695225],[140.727192,35.695238],[140.727364,35.69523],[140.727453,35.695234],[140.727598,35.69529],[140.727703,35.695345]]}},{"type":"Feature","properties":{"id":104630076,"highway":"residential"},"geometry":{"type":"LineString","coordinates":[[140.724774,35.695165],[140.725328,35.695321],[140.725425,35.695351],[140.726061,35.695547]]}},{"type":"Feature","properties":{"id":104630077,"highway":"residential"},"geometry":{"type":"LineString","coordinates":[[140.725827,35.698347],[140.726268,35.698035],[140.726325,35.697994],[140.726353,35.697942],[140.726354,35.697822],[140.726312,35.697699],[140.726228,35.697559],[140.726101,35.697248],[140.726261,35.697185],[140.726309,35.697151],[140.726062,35.696712]]}},{"type":"Feature","properties":{"id":104630078,"highway":"residential"},"geometry":{"type":"LineString","coordinates":[[140.727118,35.695886],[140.727219,35.695962],[140.727413,35.69606],[140.727538,35.696196],[140.727541,35.696317]]}},{"type":"Feature","properties":{"id":104630080,"highway":"residential"},"geometry":{"type":"LineString","coordinates":[[140.726419,35.69486],[140.726921,35.694995]]}},{"type":"Feature","properties":{"id":104630333,"highway":"residential"},"geometry":{"type":"LineString","coordinates":[[140.722448,35.700389],[140.722657,35.700282],[140.722983,35.700109],[140.723477,35.699815],[140.723647,35.699697],[140.723814,35.699578],[140.723969,35.69946],[140.724266,35.699235],[140.724682,35.698876],[140.724945,35.69866],[140.725176,35.698464]]}},{"type":"Feature","properties":{"id":104630335,"highway":"residential"},"geometry":{"type":"LineString","coordinates":[[140.723394,35.699024],[140.723568,35.699156],[140.723665,35.699228],[140.723758,35.699295],[140.723829,35.69935],[140.723969,35.69946],[140.724083,35.699574],[140.724226,35.699711],[140.724366,35.699859],[140.724669,35.700159]]}},{"type":"Feature","properties":{"id":104630338,"highway":"residential"},"geometry":{"type":"LineString","coordinates":[[140.724347,35.698205],[140.724945,35.69866],[140.725514,35.69912],[140.725678,35.699263],[140.725875,35.699469]]}},{"type":"Feature","properties":{"id":104630339,"highway":"residential"},"geometry":{"type":"LineString","coordinates":[[140.72315,35.699199],[140.723301,35.69936],[140.723391,35.699443],[140.723533,35.699583],[140.723647,35.699697],[140.723771,35.699883],[140.723848,35.70002],[140.723883,35.700143],[140.723909,35.700216],[140.724112,35.700466]]}},{"type":"Feature","properties":{"id":104630341,"highway":"residential"},"geometry":{"type":"LineString","coordinates":[[140.72256,35.69963],[140.722676,35.699784],[140.722807,35.699937],[140.722983,35.700109],[140.72326,35.700375],[140.723606,35.700757]]}},{"type":"Feature","properties":{"id":104630343,"highway":"residential"},"geometry":{"type":"LineString","coordinates":[[140.725619,35.69961],[140.725546,35.699514],[140.725063,35.699139],[140.72484,35.69898],[140.724682,35.698876],[140.724438,35.69877],[140.724261,35.698692],[140.724037,35.698509],[140.723985,35.698448],[140.723692,35.698213],[140.723459,35.698062]]}},{"type":"Feature","properties":{"id":104630353,"highway":"residential"},"geometry":{"type":"LineString","coordinates":[[140.722633,35.699055],[140.722743,35.699128],[140.722849,35.699219],[140.722967,35.699335],[140.723109,35.699477],[140.723225,35.699597],[140.723477,35.699815]]}},{"type":"Feature","properties":{"id":104630355,"highway":"residential"},"geometry":{"type":"LineString","coordinates":[[140.725561,35.700222],[140.726031,35.699941],[140.726248,35.699825],[140.726497,35.699722]]}},{"type":"Feature","properties":{"id":104630360,"highway":"residential"},"geometry":{"type":"LineString","coordinates":[[140.723697,35.69879],[140.724266,35.699235],[140.72492,35.699835],[140.72501,35.699948]]}},{"type":"Feature","properties":{"id":104630571,"highway":"unclassified"},"geometry":{"type":"LineString","coordinates":[[140.723148,35.700994],[140.723606,35.700757],[140.724112,35.700466],[140.724398,35.700311],[140.724669,35.700159],[140.72501,35.699948],[140.725208,35.69983],[140.725619,35.69961],[140.725695,35.699566],[140.725875,35.699469],[140.72615,35.699299]]}},{"type":"Feature","properties":{"id":120821943,"highway":"unclassified"},"geometry":{"type":"LineString","coordinates":[[140.751441,35.699881],[140.751205,35.699908],[140.751035,35.699913],[140.750901,35.699882],[140.750706,35.699804],[140.750434,35.699725],[140.750207,35.699639],[140.750041,35.699607],[140.74988,35.699599],[140.749462,35.699594],[140.749291,35.699569],[140.749151,35.699538],[140.749069,35.699495],[140.749,35.699425],[140.748952,35.699334],[140.748524,35.699025],[140.74847,35.699001],[140.748414,35.698998],[140.748197,35.699071],[140.748109,35.69908],[140.747611,35.69907],[140.746999,35.698989],[140.746721,35.69885],[140.746371,35.698684],[140.745922,35.698435],[140.745781,35.698374],[140.745626,35.698332],[140.745103,35.698282]]}},{"type":"Feature","properties":{"id":120822560,"highway":"unclassified"},"geometry":{"type":"LineString","coordinates":[[140.743823,35.696914],[140.743711,35.69699],[140.743524,35.697057],[140.743484,35.697088],[140.743443,35.697156],[140.743468,35.697229],[140.743506,35.697294],[140.743554,35.697367],[140.74356,35.697418],[140.743528,35.697468],[140.743413,35.697594],[140.743152,35.697838]]}},{"type":"Feature","properties":{"id":120822730,"highway":"unclassified"},"geometry":{"type":"LineString","coordinates":[[140.757906,35.70141],[140.757921,35.701314],[140.758087,35.701045],[140.758087,35.700893],[140.758073,35.700853],[140.758073,35.700758],[140.75817,35.700539],[140.758287,35.700308],[140.758342,35.700246],[140.758453,35.700167],[140.758618,35.700082],[140.758695,35.70002],[140.758971,35.699646]]}},{"type":"Feature","properties":{"id":120822899,"highway":"unclassified"},"geometry":{"type":"LineString","coordinates":[[140.746691,35.696915],[140.746503,35.696877],[140.746276,35.69686],[140.746046,35.696888],[140.745865,35.696946],[140.744998,35.697244],[140.744861,35.697267],[140.744753,35.697263],[140.744649,35.697251],[140.74451,35.697209],[140.743961,35.696959],[140.743823,35.696914]]}},{"type":"Feature","properties":{"id":120823087,"highway":"unclassified"},"geometry":{"type":"LineString","coordinates":[[140.743152,35.697838],[140.742365,35.697503],[140.741967,35.697263],[140.741806,35.697168],[140.741657,35.69712],[140.741458,35.69711],[140.740561,35.697155],[140.739673,35.697272],[140.739201,35.697356]]}},{"type":"Feature","properties":{"id":120825714,"highway":"unclassified"},"geometry":{"type":"LineString","coordinates":[[140.751441,35.699881],[140.75158,35.699917],[140.751775,35.699986],[140.751949,35.700031],[140.752127,35.700033],[140.752351,35.700019],[140.752373,35.700017],[140.752529,35.700005],[140.752686,35.700021],[140.752938,35.700095],[140.753095,35.700122],[140.753399,35.700153],[140.75372,35.700251],[140.753894,35.700309],[140.75406,35.700344],[140.754268,35.70033]]}},{"type":"Feature","properties":{"id":120826492,"highway":"service"},"geometry":{"type":"LineString","coordinates":[[140.737064,35.693221],[140.73709,35.693509],[140.737139,35.69407]]}},{"type":"Feature","properties":{"id":120826914,"highway":"unclassified"},"geometry":{"type":"LineString","coordinates":[[140.758971,35.699646],[140.758019,35.699141]]}},{"type":"Feature","properties":{"id":120827313,"highway":"unclassified"},"geometry":{"type":"LineString","coordinates":[[140.756602,35.699012],[140.758019,35.699141]]}},{"type":"Feature","properties":{"id":120827627,"highway":"unclassified"},"geometry":{"type":"LineString","coordinates":[[140.752583,35.698719],[140.753075,35.698666],[140.753277,35.698675],[140.753544,35.698684],[140.753788,35.698722]]}},{"type":"Feature","properties":{"id":120828127,"highway":"unclassified"},"geometry":{"type":"LineString","coordinates":[[140.751282,35.698661],[140.751614,35.698783],[140.75187,35.698789],[140.752583,35.698719]]}},{"type":"Feature","properties":{"id":120828545,"highway":"unclassified"},"geometry":{"type":"LineString","coordinates":[[140.746691,35.696915],[140.748128,35.697466]]}},{"type":"Feature","properties":{"id":120829898,"highway":"service"},"geometry":{"type":"LineString","coordinates":[[140.743152,35.697838],[140.743085,35.697968],[140.743026,35.69807],[140.742999,35.698157],[140.742971,35.698327],[140.742971,35.698659],[140.743019,35.698822],[140.743102,35.698975]]}},{"type":"Feature","properties":{"id":120829955,"highway":"unclassified"},"geometry":{"type":"LineString","coordinates":[[140.748128,35.697466],[140.751282,35.698661]]}},{"type":"Feature","properties":{"id":120830041,"highway":"unclassified"},"geometry":{"type":"LineString","coordinates":[[140.753788,35.698722],[140.756602,35.699012]]}},{"type":"Feature","properties":{"id":265890684,"highway":"unclassified"},"geometry":{"type":"LineString","coordinates":[[140.734419,35.698042],[140.733493,35.698828],[140.732595,35.699569],[140.73202,35.700013],[140.732011,35.700122],[140.732007,35.700165]]}},{"type":"Feature","properties":{"id":265890694,"highway":"unclassified"},"geometry":{"type":"LineString","coordinates":[[140.735526,35.695695],[140.735479,35.695755],[140.733799,35.694943],[140.733697,35.694894]]}},{"type":"Feature","properties":{"id":395349607,"highway":"primary"},"geometry":{"type":"LineString","coordinates":[[140.732123,35.6969],[140.732254,35.696965],[140.734419,35.698042],[140.734541,35.698102],[140.736345,35.699023],[140.736478,35.699096],[140.736539,35.69914],[140.73658,35.699196],[140.736612,35.699255],[140.736622,35.699341],[140.736615,35.699434],[140.736605,35.699504],[140.736586,35.699595]]}},{"type":"Feature","properties":{"id":395349608,"highway":"primary"},"geometry":{"type":"LineString","coordinates":[[140.733697,35.694894],[140.732827,35.696],[140.732154,35.69686],[140.732123,35.6969]]}},{"type":"Feature","properties":{"id":395351048,"highway":"residential"},"geometry":{"type":"LineString","coordinates":[[140.725976,35.696757],[140.725885,35.696597],[140.725828,35.696463],[140.725827,35.696189],[140.725813,35.695997],[140.725955,35.695775],[140.726036,35.695587],[140.726061,35.695547],[140.726297,35.695027],[140.726331,35.694954],[140.726419,35.69486],[140.726474,35.694819],[140.726578,35.694771],[140.726916,35.694465]]}},{"type":"Feature","properties":{"id":420462767,"highway":"service"},"geometry":{"type":"LineString","coordinates":[[140.727696,35.693165],[140.727712,35.693254],[140.727908,35.693242],[140.728538,35.693202],[140.729129,35.693169]]}},{"type":"Feature","properties":{"id":420462769,"highway":"service"},"geometry":{"type":"LineString","coordinates":[[140.729129,35.693169],[140.729122,35.693095]]}},{"type":"Feature","properties":{"id":420462771,"highway":"service"},"geometry":{"type":"LineString","coordinates":[[140.728538,35.693202],[140.728579,35.693541]]}},{"type":"Feature","properties":{"id":420463474,"highway":"service"},"geometry":{"type":"LineString","coordinates":[[140.731078,35.692991],[140.731013,35.691815]]}},{"type":"Feature","properties":{"id":420463475,"highway":"service"},"geometry":{"type":"LineString","coordinates":[[140.729563,35.693073],[140.731078,35.692991],[140.731983,35.692941],[140.733368,35.692882],[140.735995,35.692771],[140.736268,35.69276]]}},{"type":"Feature","properties":{"id":420464116,"highway":"unclassified"},"geometry":{"type":"LineString","coordinates":[[140.729434,35.691714],[140.729563,35.693073]]}},{"type":"Feature","properties":{"id":420464117,"highway":"unclassified"},"geometry":{"type":"LineString","coordinates":[[140.72778,35.691782],[140.727868,35.691217],[140.729284,35.691148],[140.729391,35.691235],[140.729434,35.691714]]}},{"type":"Feature","properties":{"id":420464795,"highway":"service"},"geometry":{"type":"LineString","coordinates":[[140.739751,35.693664],[140.73979,35.69365],[140.7399,35.693604],[140.739983,35.693501],[140.739986,35.693476],[140.739991,35.693444],[140.739995,35.693399],[140.739963,35.693313],[140.739891,35.693268],[140.739381,35.693189]]}},{"type":"Feature","properties":{"id":430419678,"highway":"service"},"geometry":{"type":"LineString","coordinates":[[140.729129,35.693169],[140.729156,35.693515]]}},{"type":"Feature","properties":{"id":430419680,"highway":"service"},"geometry":{"type":"LineString","coordinates":[[140.729156,35.693515],[140.728579,35.693541]]}},{"type":"Feature","properties":{"id":770088573,"highway":"service"},"geometry":{"type":"LineString","coordinates":[[140.739983,35.693501],[140.74011,35.693543]]}},{"type":"Feature","properties":{"id":851991325,"highway":"residential"},"geometry":{"type":"LineString","coordinates":[[140.729093,35.699871],[140.729322,35.699643],[140.729323,35.699581],[140.729103,35.699404]]}},{"type":"Feature","properties":{"id":851991327,"highway":"residential"},"geometry":{"type":"LineString","coordinates":[[140.729826,35.696384],[140.730616,35.696792]]}},{"type":"Feature","properties":{"id":851991328,"highway":"residential"},"geometry":{"type":"LineString","coordinates":[[140.72935,35.699199],[140.729642,35.699427]]}},{"type":"Feature","properties":{"id":851993676,"highway":"residential"},"geometry":{"type":"LineString","coordinates":[[140.724684,35.695407],[140.724861,35.695457],[140.725335,35.695593],[140.72558,35.695663],[140.725831,35.695734],[140.725955,35.695775]]}},{"type":"Feature","properties":{"id":851993685,"highway":"residential"},"geometry":{"type":"LineString","coordinates":[[140.724957,35.694583],[140.725717,35.694788],[140.726331,35.694954]]}},{"type":"Feature","properties":{"id":851993686,"highway":"residential"},"geometry":{"type":"LineString","coordinates":[[140.723197,35.698435],[140.723333,35.698521],[140.723697,35.69879]]}},{"type":"Feature","properties":{"id":1016548344,"highway":"residential"},"geometry":{"type":"LineString","coordinates":[[140.737527,35.700042],[140.737383,35.699977],[140.73735,35.699962],[140.737208,35.699899],[140.737133,35.699866],[140.737061,35.699861],[140.736904,35.69986],[140.736836,35.699871],[140.736784,35.699922]]}},{"type":"Feature","properties":{"id":1020762244,"highway":"residential"},"geometry":{"type":"LineString","coordinates":[[140.727445,35.696505],[140.727451,35.696322]]}},{"type":"Feature","properties":{"id":1020762245,"highway":"residential"},"geometry":{"type":"LineString","coordinates":[[140.725601,35.694062],[140.725794,35.693719]]}},{"type":"Feature","properties":{"id":1020762246,"highway":"residential"},"geometry":{"type":"LineString","coordinates":[[140.725328,35.695321],[140.725456,35.695062],[140.725484,35.695028],[140.725569,35.694997],[140.725596,35.694959],[140.725717,35.694788]]}},{"type":"Feature","properties":{"id":1020762247,"highway":"residential"},"geometry":{"type":"LineString","coordinates":[[140.725596,35.694959],[140.725849,35.695039]]}},{"type":"Feature","properties":{"id":1020762248,"highway":"residential"},"geometry":{"type":"LineString","coordinates":[[140.725335,35.695593],[140.725425,35.695351]]}},{"type":"Feature","properties":{"id":1020762249,"highway":"residential"},"geometry":{"type":"LineString","coordinates":[[140.72558,35.695663],[140.725497,35.695822],[140.724792,35.695636],[140.724596,35.695604]]}},{"type":"Feature","properties":{"id":1020762250,"highway":"residential"},"geometry":{"type":"LineString","coordinates":[[140.725828,35.696463],[140.725433,35.696476],[140.725233,35.696503],[140.725031,35.696663],[140.724842,35.696812],[140.724643,35.696953]]}},{"type":"Feature","properties":{"id":1020762251,"highway":"residential"},"geometry":{"type":"LineString","coordinates":[[140.724297,35.69628],[140.724512,35.696257],[140.724862,35.696376],[140.72504,35.696425],[140.725233,35.696503]]}},{"type":"Feature","properties":{"id":1020762252,"highway":"residential"},"geometry":{"type":"LineString","coordinates":[[140.724297,35.69628],[140.724535,35.696373],[140.724695,35.696445],[140.725031,35.696663]]}},{"type":"Feature","properties":{"id":1020762277,"highway":"residential"},"geometry":{"type":"LineString","coordinates":[[140.728876,35.69813],[140.728915,35.698127]]}},{"type":"Feature","properties":{"id":1020762278,"highway":"residential"},"geometry":{"type":"LineString","coordinates":[[140.728809,35.698147],[140.728876,35.69813]]}},{"type":"Feature","properties":{"id":1020762279,"highway":"residential"},"geometry":{"type":"LineString","coordinates":[[140.724611,35.696979],[140.724602,35.696982],[140.724527,35.697023],[140.72434,35.697167],[140.724235,35.697271],[140.724097,35.697434],[140.724051,35.697523],[140.723974,35.697633]]}},{"type":"Feature","properties":{"id":1020762280,"highway":"residential"},"geometry":{"type":"LineString","coordinates":[[140.724643,35.696953],[140.724611,35.696979]]}},{"type":"Feature","properties":{"id":1020762287,"highway":"residential"},"geometry":{"type":"LineString","coordinates":[[140.725352,35.698626],[140.725602,35.698439],[140.725728,35.698381],[140.725776,35.698378],[140.725781,35.698374]]}},{"type":"Feature","properties":{"id":1020762288,"highway":"residential"},"geometry":{"type":"LineString","coordinates":[[140.725781,35.698374],[140.725827,35.698347]]}},{"type":"Feature","properties":{"id":1020762305,"highway":"residential"},"geometry":{"type":"LineString","coordinates":[[140.728552,35.698963],[140.728451,35.698941],[140.728317,35.698899],[140.728233,35.698863],[140.728166,35.698819],[140.728083,35.698749],[140.727953,35.698669],[140.727664,35.698867]]}},{"type":"Feature","properties":{"id":1020762310,"highway":"residential"},"geometry":{"type":"LineString","coordinates":[[140.728591,35.698977],[140.728552,35.698963]]}},{"type":"Feature","properties":{"id":1020762311,"highway":"residential"},"geometry":{"type":"LineString","coordinates":[[140.728597,35.698979],[140.728591,35.698977]]}},{"type":"Feature","properties":{"id":1149313204,"highway":"trunk"},"geometry":{"type":"LineString","coordinates":[[140.736568,35.699673],[140.736725,35.69969],[140.736885,35.69972],[140.737051,35.699761],[140.737172,35.699803],[140.737293,35.699862],[140.737432,35.699941]]}},{"type":"Feature","properties":{"id":1149313205,"highway":"primary"},"geometry":{"type":"LineString","coordinates":[[140.736586,35.699595],[140.736568,35.699673]]}},{"type":"Feature","properties":{"id":1149313206,"highway":"trunk"},"geometry":{"type":"LineString","coordinates":[[140.737432,35.699941],[140.737312,35.699822],[140.737199,35.699748],[140.737085,35.699697],[140.737008,35.69967],[140.736922,35.699646],[140.736807,35.699623],[140.736749,35.699613],[140.736586,35.699595]]}},{"type":"Feature","properties":{"id":1149313208,"highway":"trunk"},"geometry":{"type":"LineString","coordinates":[[140.729425,35.702236],[140.729495,35.70218],[140.729984,35.701785],[140.730811,35.701104],[140.731119,35.700852],[140.731414,35.700634],[140.731621,35.700497],[140.731685,35.700457],[140.731725,35.700432],[140.731788,35.700392],[140.732058,35.700238],[140.732357,35.700099],[140.73262,35.699989],[140.732839,35.69991],[140.732966,35.699869],[140.733242,35.699783],[140.733574,35.699704],[140.733839,35.699652],[140.734121,35.699608],[140.734484,35.699571],[140.734767,35.699557],[140.735037,35.699558],[140.735316,35.699564],[140.735718,35.699588],[140.735977,35.699613]]}},{"type":"Feature","properties":{"id":1149313209,"highway":"trunk"},"geometry":{"type":"LineString","coordinates":[[140.736586,35.699595],[140.736418,35.69958],[140.736,35.69954],[140.735322,35.699481],[140.734776,35.699474],[140.734471,35.699489],[140.734095,35.699526],[140.733817,35.699567],[140.733542,35.699622],[140.733194,35.69971],[140.732877,35.699804],[140.732773,35.69984],[140.732571,35.699917],[140.732275,35.700037],[140.732007,35.700165],[140.731766,35.7003],[140.731712,35.70033],[140.731663,35.700359],[140.731556,35.700422],[140.731337,35.700571],[140.731038,35.700797],[140.730745,35.70104],[140.730167,35.701504]]}},{"type":"Feature","properties":{"id":1149313789,"highway":"service"},"geometry":{"type":"LineString","coordinates":[[140.740073,35.693602],[140.74011,35.693543],[140.740131,35.693493]]}},{"type":"Feature","properties":{"id":1149313790,"highway":"service"},"geometry":{"type":"LineString","coordinates":[[140.740208,35.693271],[140.740097,35.693481]]}},{"type":"Feature","properties":{"id":1149313791,"highway":"service"},"geometry":{"type":"LineString","coordinates":[[140.74038,35.693331],[140.740289,35.6933],[140.740208,35.693271]]}},{"type":"Feature","properties":{"id":1149313792,"highway":"service"},"geometry":{"type":"LineString","coordinates":[[140.740269,35.693541],[140.74038,35.693331]]}},{"type":"Feature","properties":{"id":1149313793,"highway":"service"},"geometry":{"type":"LineString","coordinates":[[140.740201,35.693692],[140.740053,35.69364]]}},{"type":"Feature","properties":{"id":1149313794,"highway":"service"},"geometry":{"type":"LineString","coordinates":[[140.739991,35.693444],[140.740039,35.693461],[140.740097,35.693481],[140.740131,35.693493],[140.740269,35.693541]]}},{"type":"Feature","properties":{"id":1149313795,"highway":"service"},"geometry":{"type":"LineString","coordinates":[[140.740025,35.693693],[140.740053,35.69364],[140.740073,35.693602]]}},{"type":"Feature","properties":{"id":1149313800,"highway":"unclassified"},"geometry":{"type":"LineString","coordinates":[[140.745103,35.698282],[140.744397,35.698179],[140.744128,35.698174],[140.743921,35.69817],[140.743637,35.698092],[140.743459,35.698013],[140.743152,35.697838]]}},{"type":"Feature","properties":{"id":1162676132,"highway":"trunk"},"geometry":{"type":"LineString","coordinates":[[140.739046,35.701061],[140.738689,35.701],[140.738493,35.700955],[140.738342,35.700885],[140.738212,35.700814],[140.738095,35.700729],[140.738007,35.700643],[140.73784,35.700444],[140.737527,35.700042],[140.737432,35.699941]]}},{"type":"Feature","properties":{"id":1162676133,"highway":"tertiary"},"geometry":{"type":"LineString","coordinates":[[140.739046,35.701061],[140.739055,35.700671],[140.739055,35.700445],[140.739087,35.700269],[140.739146,35.700074],[140.739265,35.699699],[140.739306,35.69949],[140.739329,35.69922],[140.739312,35.698353],[140.739306,35.697952],[140.739275,35.69766],[140.739201,35.697356]]}},{"type":"Feature","properties":{"id":1385801817,"highway":"trunk"},"geometry":{"type":"LineString","coordinates":[[140.735977,35.699613],[140.736342,35.69965],[140.73641,35.699657],[140.736568,35.699673]]}},{"type":"Feature","properties":{"id":1385801842,"highway":"unclassified"},"geometry":{"type":"LineString","coordinates":[[140.736032,35.699694],[140.736084,35.699481]]}},{"type":"Feature","properties":{"id":1385801843,"highway":"unclassified"},"geometry":{"type":"LineString","coordinates":[[140.735959,35.699731],[140.736019,35.699728],[140.736032,35.699694]]}},{"type":"Feature","properties":{"id":1385801844,"highway":"unclassified"},"geometry":{"type":"LineString","coordinates":[[140.736084,35.699481],[140.736062,35.699433]]}},{"type":"Feature","properties":{"id":1509725556,"highway":"primary"},"geometry":{"type":"LineString","coordinates":[[140.727527,35.693736],[140.727676,35.693738],[140.727727,35.69374],[140.728443,35.693762],[140.728943,35.693814],[140.731464,35.693839],[140.731613,35.693861],[140.731743,35.693905],[140.731839,35.693965],[140.731926,35.694036],[140.732135,35.694218],[140.732208,35.694296],[140.732275,35.69435],[140.732439,35.694424],[140.733697,35.694894]]}}]}