{"type":"FeatureCollection","features":[{"type":"Feature","properties":{"id":43990814,"highway":"secondary"},"geometry":{"type":"LineString","coordinates":[[140.69625,35.909263],[140.696395,35.909034],[140.697452,35.907319],[140.697705,35.906892],[140.697819,35.906701],[140.698033,35.906359],[140.698128,35.906206],[140.698298,35.905935],[140.698979,35.904835],[140.701305,35.901095],[140.70136,35.901008],[140.701384,35.900969],[140.701462,35.900841],[140.702105,35.89978],[140.702744,35.898742],[140.702816,35.898624],[140.702859,35.898555],[140.702911,35.898465],[140.702964,35.898376],[140.703266,35.897905],[140.703873,35.897065],[140.704483,35.896229],[140.704778,35.895826],[140.704996,35.895513],[140.706026,35.8941],[140.706553,35.893371],[140.706817,35.893005],[140.707202,35.892489],[140.708162,35.891161],[140.708453,35.890753],[140.708836,35.890232],[140.709416,35.889432],[140.709815,35.888877],[140.710613,35.887769],[140.710737,35.887597],[140.710838,35.887456]]}},{"type":"Feature","properties":{"id":43990815,"highway":"tertiary"},"geometry":{"type":"LineString","coordinates":[[140.697819,35.906701],[140.697963,35.906776],[140.698552,35.907082],[140.700798,35.908251],[140.702109,35.908933],[140.706069,35.910957]]}},{"type":"Feature","properties":{"id":43990816,"highway":"tertiary"},"geometry":{"type":"LineString","coordinates":[[140.701384,35.900969],[140.70154,35.901048],[140.702681,35.901617],[140.704423,35.902495],[140.706337,35.903465],[140.708263,35.904402],[140.708355,35.904617],[140.706664,35.906814],[140.706118,35.907526],[140.705916,35.907573],[140.703948,35.906517]]}},{"type":"Feature","properties":{"id":43990817,"highway":"tertiary"},"geometry":{"type":"LineString","coordinates":[[140.702109,35.908933],[140.703948,35.906517],[140.706337,35.903465]]}},{"type":"Feature","properties":{"id":43990819,"highway":"tertiary"},"geometry":{"type":"LineString","coordinates":[[140.720371,35.903124],[140.719116,35.902558],[140.714821,35.900608],[140.714273,35.900357],[140.713776,35.900123],[140.712486,35.89947],[140.711415,35.898971],[140.710216,35.898396],[140.709005,35.897827],[140.707826,35.897286],[140.706058,35.896432],[140.704778,35.895826]]}},{"type":"Feature","properties":{"id":43990820,"highway":"tertiary"},"geometry":{"type":"LineString","coordinates":[[140.703068,35.898696],[140.704273,35.899267],[140.70428,35.89927],[140.704723,35.899414],[140.705192,35.899506],[140.706212,35.899632],[140.706909,35.899728],[140.707258,35.89978],[140.707567,35.899849],[140.708223,35.900062],[140.708816,35.900318],[140.710036,35.900892],[140.711063,35.901339],[140.711965,35.901693],[140.712529,35.901812],[140.713156,35.901811],[140.713688,35.901677],[140.714002,35.901511],[140.714441,35.901156],[140.714821,35.900608],[140.716597,35.89824],[140.717516,35.897022],[140.718328,35.895945],[140.718378,35.895878],[140.718513,35.8957],[140.718562,35.895575],[140.718729,35.895342],[140.718933,35.895058],[140.720325,35.893179],[140.720771,35.892576],[140.720946,35.89233],[140.720993,35.892265],[140.722545,35.890156],[140.724081,35.888058],[140.724306,35.887768],[140.725617,35.885976],[140.725771,35.885758],[140.727781,35.882998],[140.729653,35.880521],[140.732025,35.877266],[140.73463,35.873763],[140.734867,35.873436],[140.735916,35.871993],[140.736194,35.871594],[140.73631,35.871279],[140.736328,35.870701],[140.736382,35.870478],[140.73646,35.870307],[140.737633,35.868721],[140.738343,35.867778],[140.738393,35.867711],[140.740207,35.865302],[140.740533,35.864857],[140.741583,35.863439],[140.744626,35.859549],[140.745001,35.859052],[140.745163,35.858779],[140.745276,35.858474],[140.745553,35.857505],[140.74565,35.857224],[140.745755,35.857039],[140.745972,35.856708],[140.746439,35.856182],[140.74671,35.855877],[140.747008,35.855513],[140.747257,35.855127],[140.747809,35.854302],[140.748072,35.853772],[140.748211,35.853306],[140.748329,35.852697],[140.749082,35.851798],[140.749527,35.851276],[140.749669,35.851049],[140.750139,35.850226],[140.750597,35.849481]]}},{"type":"Feature","properties":{"id":43990861,"highway":"unclassified"},"geometry":{"type":"LineString","coordinates":[[140.705484,35.924474],[140.710854,35.91679]]}},{"type":"Feature","properties":{"id":43990865,"highway":"tertiary"},"geometry":{"type":"LineString","coordinates":[[140.716597,35.89824],[140.719698,35.899753],[140.720317,35.900056],[140.72039,35.900077],[140.720785,35.900284],[140.722014,35.900885]]}},{"type":"Feature","properties":{"id":43990883,"highway":"service"},"geometry":{"type":"LineString","coordinates":[[140.707779,35.900123],[140.707514,35.900525],[140.707442,35.900544],[140.706158,35.900042],[140.706136,35.899969],[140.706158,35.899846],[140.706196,35.899699],[140.706212,35.899632]]}},{"type":"Feature","properties":{"id":103761758,"highway":"unclassified"},"geometry":{"type":"LineString","coordinates":[[140.715031,35.893999],[140.714757,35.894377],[140.71446,35.894796],[140.713898,35.895568],[140.713839,35.895649],[140.713798,35.895705],[140.713047,35.89674],[140.712342,35.897715],[140.712161,35.897965],[140.711415,35.898971],[140.710803,35.899806],[140.710036,35.900892]]}},{"type":"Feature","properties":{"id":103761760,"highway":"tertiary"},"geometry":{"type":"LineString","coordinates":[[140.700004,35.938718],[140.697709,35.937726],[140.697084,35.937455],[140.694114,35.936231],[140.693739,35.936075]]}},{"type":"Feature","properties":{"id":198915141,"highway":"tertiary"},"geometry":{"type":"LineString","coordinates":[[140.700804,35.93763],[140.700577,35.937999],[140.70055,35.938027],[140.700023,35.938844]]}},{"type":"Feature","properties":{"id":198917202,"highway":"tertiary"},"geometry":{"type":"LineString","coordinates":[[140.700023,35.938844],[140.699864,35.939097],[140.699801,35.939188],[140.699794,35.93921],[140.699794,35.939211],[140.699739,35.939278],[140.699483,35.939683],[140.699337,35.939927]]}},{"type":"Feature","properties":{"id":199133605,"highway":"service"},"geometry":{"type":"LineString","coordinates":[[140.704413,35.921686],[140.704952,35.921805],[140.704872,35.921927],[140.706103,35.92244],[140.706198,35.922466],[140.706265,35.922408],[140.706502,35.922083],[140.707314,35.920904],[140.707813,35.920199],[140.708027,35.919896]]}},{"type":"Feature","properties":{"id":199133808,"highway":"service"},"geometry":{"type":"LineString","coordinates":[[140.713517,35.906324],[140.713559,35.906263]]}},{"type":"Feature","properties":{"id":199133829,"highway":"service"},"geometry":{"type":"LineString","coordinates":[[140.700211,35.920198],[140.699768,35.920851]]}},{"type":"Feature","properties":{"id":199133839,"highway":"service"},"geometry":{"type":"LineString","coordinates":[[140.705016,35.914582],[140.704996,35.914659]]}},{"type":"Feature","properties":{"id":199133846,"highway":"service"},"geometry":{"type":"LineString","coordinates":[[140.704852,35.917238],[140.706785,35.918122]]}},{"type":"Feature","properties":{"id":199133854,"highway":"service"},"geometry":{"type":"LineString","coordinates":[[140.705025,35.913338],[140.707658,35.914577]]}},{"type":"Feature","properties":{"id":199133858,"highway":"service"},"geometry":{"type":"LineString","coordinates":[[140.713517,35.906324],[140.713584,35.906355]]}},{"type":"Feature","properties":{"id":199133885,"highway":"service"},"geometry":{"type":"LineString","coordinates":[[140.713546,35.902943],[140.715286,35.903785]]}},{"type":"Feature","properties":{"id":199133893,"highway":"service"},"geometry":{"type":"LineString","coordinates":[[140.706331,35.915381],[140.706016,35.915773]]}},{"type":"Feature","properties":{"id":199133929,"highway":"service"},"geometry":{"type":"LineString","coordinates":[[140.709734,35.908496],[140.709683,35.908575]]}},{"type":"Feature","properties":{"id":199133942,"highway":"service"},"geometry":{"type":"LineString","coordinates":[[140.70462,35.91755],[140.704852,35.917238]]}},{"type":"Feature","properties":{"id":199134020,"highway":"service"},"geometry":{"type":"LineString","coordinates":[[140.699006,35.914935],[140.702364,35.916507]]}},{"type":"Feature","properties":{"id":199134037,"highway":"service"},"geometry":{"type":"LineString","coordinates":[[140.714857,35.910177],[140.714823,35.910226]]}},{"type":"Feature","properties":{"id":199134043,"highway":"service"},"geometry":{"type":"LineString","coordinates":[[140.713559,35.906263],[140.715286,35.903785]]}},{"type":"Feature","properties":{"id":199134046,"highway":"service"},"geometry":{"type":"LineString","coordinates":[[140.715286,35.903785],[140.716507,35.90435]]}},{"type":"Feature","properties":{"id":199134062,"highway":"service"},"geometry":{"type":"LineString","coordinates":[[140.701098,35.918884],[140.703175,35.919828]]}},{"type":"Feature","properties":{"id":199134102,"highway":"service"},"geometry":{"type":"LineString","coordinates":[[140.701382,35.920723],[140.700211,35.920198]]}},{"type":"Feature","properties":{"id":199134114,"highway":"service"},"geometry":{"type":"LineString","coordinates":[[140.710573,35.90498],[140.713441,35.90629]]}},{"type":"Feature","properties":{"id":199134128,"highway":"service"},"geometry":{"type":"LineString","coordinates":[[140.702364,35.916507],[140.702989,35.915623]]}},{"type":"Feature","properties":{"id":199134139,"highway":"service"},"geometry":{"type":"LineString","coordinates":[[140.702989,35.915623],[140.705217,35.916665]]}},{"type":"Feature","properties":{"id":199134175,"highway":"service"},"geometry":{"type":"LineString","coordinates":[[140.711803,35.908756],[140.711729,35.908722]]}},{"type":"Feature","properties":{"id":199134222,"highway":"service"},"geometry":{"type":"LineString","coordinates":[[140.703175,35.919828],[140.70462,35.91755]]}},{"type":"Feature","properties":{"id":199134254,"highway":"service"},"geometry":{"type":"LineString","coordinates":[[140.718283,35.90523],[140.716555,35.907698]]}},{"type":"Feature","properties":{"id":199134289,"highway":"tertiary"},"geometry":{"type":"LineString","coordinates":[[140.711803,35.908756],[140.711855,35.908683]]}},{"type":"Feature","properties":{"id":199134318,"highway":"service"},"geometry":{"type":"LineString","coordinates":[[140.711413,35.909364],[140.714615,35.910832]]}},{"type":"Feature","properties":{"id":199134324,"highway":"service"},"geometry":{"type":"LineString","coordinates":[[140.716507,35.90435],[140.718283,35.90523]]}},{"type":"Feature","properties":{"id":199134330,"highway":"service"},"geometry":{"type":"LineString","coordinates":[[140.705016,35.914582],[140.705274,35.914256]]}},{"type":"Feature","properties":{"id":199134379,"highway":"service"},"geometry":{"type":"LineString","coordinates":[[140.700505,35.908623],[140.700798,35.908251]]}},{"type":"Feature","properties":{"id":199134408,"highway":"service"},"geometry":{"type":"LineString","coordinates":[[140.700211,35.920198],[140.699522,35.919895]]}},{"type":"Feature","properties":{"id":199134418,"highway":"service"},"geometry":{"type":"LineString","coordinates":[[140.702364,35.916507],[140.70462,35.91755]]}},{"type":"Feature","properties":{"id":199134419,"highway":"service"},"geometry":{"type":"LineString","coordinates":[[140.700211,35.920198],[140.700428,35.919895]]}},{"type":"Feature","properties":{"id":199134439,"highway":"service"},"geometry":{"type":"LineString","coordinates":[[140.713517,35.906324],[140.713441,35.90629]]}},{"type":"Feature","properties":{"id":199134512,"highway":"tertiary"},"geometry":{"type":"LineString","coordinates":[[140.707369,35.91504],[140.707519,35.914819]]}},{"type":"Feature","properties":{"id":199134524,"highway":"service"},"geometry":{"type":"LineString","coordinates":[[140.701098,35.918884],[140.700428,35.919895]]}},{"type":"Feature","properties":{"id":199134540,"highway":"service"},"geometry":{"type":"LineString","coordinates":[[140.711803,35.908756],[140.711894,35.908799]]}},{"type":"Feature","properties":{"id":199134553,"highway":"tertiary"},"geometry":{"type":"LineString","coordinates":[[140.713473,35.906383],[140.713517,35.906324]]}},{"type":"Feature","properties":{"id":199134562,"highway":"service"},"geometry":{"type":"LineString","coordinates":[[140.701382,35.920723],[140.702271,35.921122]]}},{"type":"Feature","properties":{"id":199134567,"highway":"service"},"geometry":{"type":"LineString","coordinates":[[140.706785,35.918122],[140.705627,35.919896]]}},{"type":"Feature","properties":{"id":199134579,"highway":"service"},"geometry":{"type":"LineString","coordinates":[[140.700505,35.908623],[140.698244,35.907492]]}},{"type":"Feature","properties":{"id":199134611,"highway":"service"},"geometry":{"type":"LineString","coordinates":[[140.707658,35.914577],[140.707763,35.914429]]}},{"type":"Feature","properties":{"id":199134614,"highway":"service"},"geometry":{"type":"LineString","coordinates":[[140.711413,35.909364],[140.711748,35.908842]]}},{"type":"Feature","properties":{"id":199134712,"highway":"service"},"geometry":{"type":"LineString","coordinates":[[140.702271,35.921122],[140.70316,35.919896]]}},{"type":"Feature","properties":{"id":199134726,"highway":"service"},"geometry":{"type":"LineString","coordinates":[[140.714857,35.910177],[140.711894,35.908799]]}},{"type":"Feature","properties":{"id":199134731,"highway":"residential"},"geometry":{"type":"LineString","coordinates":[[140.717815,35.895568],[140.714273,35.900357]]}},{"type":"Feature","properties":{"id":199134764,"highway":"service"},"geometry":{"type":"LineString","coordinates":[[140.713584,35.906355],[140.716555,35.907698]]}},{"type":"Feature","properties":{"id":199134771,"highway":"service"},"geometry":{"type":"LineString","coordinates":[[140.707519,35.914819],[140.707658,35.914577]]}},{"type":"Feature","properties":{"id":199134807,"highway":"service"},"geometry":{"type":"LineString","coordinates":[[140.706331,35.915381],[140.707581,35.915924]]}},{"type":"Feature","properties":{"id":199134829,"highway":"service"},"geometry":{"type":"LineString","coordinates":[[140.70316,35.919896],[140.703175,35.919828]]}},{"type":"Feature","properties":{"id":199134867,"highway":"service"},"geometry":{"type":"LineString","coordinates":[[140.704852,35.917238],[140.705217,35.916665]]}},{"type":"Feature","properties":{"id":199134868,"highway":"tertiary"},"geometry":{"type":"LineString","coordinates":[[140.711855,35.908683],[140.713473,35.906383]]}},{"type":"Feature","properties":{"id":199135086,"highway":"service"},"geometry":{"type":"LineString","coordinates":[[140.711748,35.908842],[140.711803,35.908756]]}},{"type":"Feature","properties":{"id":199135161,"highway":"tertiary"},"geometry":{"type":"LineString","coordinates":[[140.7073,35.915163],[140.707369,35.91504]]}},{"type":"Feature","properties":{"id":199135346,"highway":"service"},"geometry":{"type":"LineString","coordinates":[[140.705627,35.919896],[140.70478,35.921121],[140.704413,35.921686]]}},{"type":"Feature","properties":{"id":199135384,"highway":"service"},"geometry":{"type":"LineString","coordinates":[[140.714615,35.910832],[140.714795,35.910927],[140.714876,35.910968]]}},{"type":"Feature","properties":{"id":199135390,"highway":"service"},"geometry":{"type":"LineString","coordinates":[[140.707658,35.914577],[140.711032,35.91613],[140.71125,35.916228]]}},{"type":"Feature","properties":{"id":199135488,"highway":"service"},"geometry":{"type":"LineString","coordinates":[[140.704996,35.914659],[140.7051,35.914837]]}},{"type":"Feature","properties":{"id":199135539,"highway":"service"},"geometry":{"type":"LineString","coordinates":[[140.711729,35.908722],[140.710083,35.907954],[140.709734,35.908496]]}},{"type":"Feature","properties":{"id":199135590,"highway":"service"},"geometry":{"type":"LineString","coordinates":[[140.709683,35.908575],[140.711381,35.909349],[140.711413,35.909364]]}},{"type":"Feature","properties":{"id":199135599,"highway":"service"},"geometry":{"type":"LineString","coordinates":[[140.714823,35.910226],[140.715002,35.910321],[140.714615,35.910832]]}},{"type":"Feature","properties":{"id":199135619,"highway":"service"},"geometry":{"type":"LineString","coordinates":[[140.698205,35.903287],[140.700014,35.900548],[140.701069,35.899045],[140.701715,35.898125]]}},{"type":"Feature","properties":{"id":199136089,"highway":"service"},"geometry":{"type":"LineString","coordinates":[[140.710573,35.90498],[140.710494,35.904944],[140.708378,35.907954],[140.709683,35.908575]]}},{"type":"Feature","properties":{"id":199136122,"highway":"residential"},"geometry":{"type":"LineString","coordinates":[[140.709577,35.899269],[140.708816,35.900318]]}},{"type":"Feature","properties":{"id":199136154,"highway":"service"},"geometry":{"type":"LineString","coordinates":[[140.716507,35.90435],[140.71713,35.903431],[140.71893,35.904274],[140.718283,35.90523]]}},{"type":"Feature","properties":{"id":199136212,"highway":"service"},"geometry":{"type":"LineString","coordinates":[[140.706528,35.914808],[140.706395,35.915021],[140.706516,35.915087],[140.706331,35.915381]]}},{"type":"Feature","properties":{"id":199136288,"highway":"service"},"geometry":{"type":"LineString","coordinates":[[140.702271,35.921122],[140.702768,35.921361],[140.703572,35.921519],[140.704413,35.921686]]}},{"type":"Feature","properties":{"id":199136454,"highway":"service"},"geometry":{"type":"LineString","coordinates":[[140.7051,35.914837],[140.705333,35.916445],[140.705217,35.916665]]}},{"type":"Feature","properties":{"id":199136691,"highway":"service"},"geometry":{"type":"LineString","coordinates":[[140.698928,35.921087],[140.699122,35.921183],[140.699535,35.921113],[140.700729,35.920855],[140.701382,35.920723]]}},{"type":"Feature","properties":{"id":199136910,"highway":"service"},"geometry":{"type":"LineString","coordinates":[[140.706785,35.918122],[140.708527,35.918919],[140.708575,35.919006],[140.708575,35.919086],[140.708495,35.919227],[140.708027,35.919896]]}},{"type":"Feature","properties":{"id":199137031,"highway":"unclassified"},"geometry":{"type":"LineString","coordinates":[[140.704546,35.923845],[140.704734,35.92394],[140.704786,35.924003],[140.70491,35.924197],[140.705066,35.924308],[140.705484,35.924474]]}},{"type":"Feature","properties":{"id":199137063,"highway":"service"},"geometry":{"type":"LineString","coordinates":[[140.697444,35.917169],[140.698003,35.917411],[140.697672,35.917876],[140.699592,35.918768],[140.6999,35.918303],[140.701098,35.918884]]}},{"type":"Feature","properties":{"id":199137292,"highway":"unclassified"},"geometry":{"type":"LineString","coordinates":[[140.704546,35.923845],[140.702301,35.922811]]}},{"type":"Feature","properties":{"id":199137352,"highway":"service"},"geometry":{"type":"LineString","coordinates":[[140.700005,35.914295],[140.701382,35.91488],[140.702989,35.915623]]}},{"type":"Feature","properties":{"id":199137418,"highway":"residential"},"geometry":{"type":"LineString","coordinates":[[140.713776,35.900123],[140.714358,35.899194],[140.714421,35.899053],[140.714421,35.89898],[140.714161,35.898853],[140.714077,35.898812],[140.713717,35.898603],[140.713511,35.89844]]}},{"type":"Feature","properties":{"id":199137430,"highway":"service"},"geometry":{"type":"LineString","coordinates":[[140.700505,35.908623],[140.700339,35.908848],[140.69989,35.909434],[140.699329,35.910244],[140.699007,35.910602],[140.698113,35.910174]]}},{"type":"Feature","properties":{"id":386601212,"highway":"unclassified"},"geometry":{"type":"LineString","coordinates":[[140.720785,35.900284],[140.719116,35.902558]]}},{"type":"Feature","properties":{"id":386601257,"highway":"residential"},"geometry":{"type":"LineString","coordinates":[[140.710803,35.899806],[140.710838,35.899865],[140.711847,35.900319]]}},{"type":"Feature","properties":{"id":386601287,"highway":"unclassified"},"geometry":{"type":"LineString","coordinates":[[140.712486,35.89947],[140.71246,35.899564],[140.712321,35.89975],[140.711847,35.900319],[140.711327,35.901139],[140.711186,35.901258],[140.711063,35.901339]]}},{"type":"Feature","properties":{"id":484931012,"highway":"service"},"geometry":{"type":"LineString","coordinates":[[140.72039,35.900077],[140.720662,35.899714],[140.720956,35.899315],[140.721089,35.899384],[140.722088,35.899895],[140.721795,35.900271],[140.720891,35.899829]]}},{"type":"Feature","properties":{"id":744811184,"highway":"service"},"geometry":{"type":"LineString","coordinates":[[140.704423,35.902495],[140.704723,35.902039],[140.704136,35.901763],[140.704179,35.901685],[140.70302,35.901102],[140.702913,35.901265],[140.702681,35.901617]]}},{"type":"Feature","properties":{"id":744811185,"highway":"service"},"geometry":{"type":"LineString","coordinates":[[140.702913,35.901265],[140.704035,35.901828],[140.704136,35.901763]]}},{"type":"Feature","properties":{"id":784106383,"highway":"tertiary"},"geometry":{"type":"LineString","coordinates":[[140.720223,35.903335],[140.720333,35.903179]]}},{"type":"Feature","properties":{"id":784106390,"highway":"tertiary"},"geometry":{"type":"LineString","coordinates":[[140.720333,35.903179],[140.720371,35.903124],[140.722014,35.900885],[140.722722,35.899905],[140.723007,35.89951],[140.723054,35.899447],[140.723996,35.898167],[140.726347,35.894973],[140.726401,35.8949],[140.731014,35.888596],[140.73117,35.888387]]}},{"type":"Feature","properties":{"id":1053595618,"highway":"unclassified"},"geometry":{"type":"LineString","coordinates":[[140.702301,35.922811],[140.702166,35.922751]]}},{"type":"Feature","properties":{"id":1053596888,"highway":"tertiary"},"geometry":{"type":"LineString","coordinates":[[140.710854,35.91679],[140.710943,35.916664]]}},{"type":"Feature","properties":{"id":1053596889,"highway":"tertiary"},"geometry":{"type":"LineString","coordinates":[[140.710943,35.916664],[140.711069,35.916482]]}},{"type":"Feature","properties":{"id":1053596890,"highway":"tertiary"},"geometry":{"type":"LineString","coordinates":[[140.711069,35.916482],[140.71125,35.916228],[140.714876,35.910968],[140.720223,35.903335]]}},{"type":"Feature","properties":{"id":1319646153,"highway":"tertiary"},"geometry":{"type":"LineString","coordinates":[[140.69806,35.910896],[140.704131,35.913778],[140.705274,35.914256],[140.706528,35.914808],[140.7073,35.915163],[140.710854,35.91679]]}}]}