{"type":"FeatureCollection","features":[{"type":"Feature","properties":{"id":26741934,"highway":"trunk"},"geometry":{"type":"LineString","coordinates":[[140.715503,36.697784],[140.715521,36.697862],[140.715885,36.699694],[140.716708,36.704014],[140.716791,36.704424],[140.716998,36.705447],[140.717067,36.705823],[140.717256,36.706715],[140.717552,36.7083],[140.717847,36.709825],[140.718067,36.71076],[140.718186,36.711338],[140.718413,36.712537],[140.718586,36.713372],[140.718707,36.71398],[140.718809,36.714517],[140.718906,36.715048],[140.719054,36.715754],[140.719174,36.716374],[140.719208,36.716686],[140.719168,36.717734]]}},{"type":"Feature","properties":{"id":82388909,"highway":"tertiary"},"geometry":{"type":"LineString","coordinates":[[140.710756,36.664968],[140.710902,36.664926],[140.710956,36.664911],[140.711464,36.664786],[140.711867,36.664706],[140.71207,36.664696],[140.712245,36.664698],[140.71238,36.664716],[140.713445,36.664854],[140.714138,36.664954]]}},{"type":"Feature","properties":{"id":104471171,"highway":"tertiary"},"geometry":{"type":"LineString","coordinates":[[140.690653,36.682467],[140.691076,36.682887],[140.691146,36.682983],[140.691224,36.683127],[140.691255,36.683244],[140.69126,36.683287],[140.691327,36.683893],[140.691355,36.683983],[140.691371,36.684034],[140.691497,36.68418],[140.691634,36.684265],[140.691725,36.684298],[140.691813,36.684331],[140.692148,36.684362],[140.693328,36.684343],[140.693928,36.684333],[140.694202,36.684375],[140.694476,36.684438],[140.694515,36.68445],[140.694692,36.68451],[140.694888,36.684603],[140.696057,36.685279],[140.697267,36.686455],[140.698405,36.687664],[140.698639,36.687907],[140.69895,36.688055],[140.70073,36.688495],[140.701416,36.688887],[140.703616,36.690609],[140.703909,36.691039],[140.704093,36.69156],[140.704496,36.69308],[140.704612,36.693543],[140.704626,36.693888],[140.704555,36.694137],[140.704487,36.694309],[140.703159,36.695883]]}},{"type":"Feature","properties":{"id":104472340,"highway":"residential"},"geometry":{"type":"LineString","coordinates":[[140.706059,36.697045],[140.705972,36.696831],[140.705843,36.696512],[140.705745,36.696162]]}},{"type":"Feature","properties":{"id":104472341,"highway":"residential"},"geometry":{"type":"LineString","coordinates":[[140.70308,36.698133],[140.704003,36.697811],[140.704233,36.697739],[140.704549,36.697584],[140.704993,36.697416],[140.706059,36.697045],[140.706521,36.696885],[140.707394,36.696623],[140.707709,36.696506],[140.708091,36.69642],[140.708486,36.696325],[140.709046,36.696198],[140.709287,36.696166],[140.709554,36.69607],[140.709869,36.696046]]}},{"type":"Feature","properties":{"id":104472342,"highway":"residential"},"geometry":{"type":"LineString","coordinates":[[140.70872,36.697687],[140.70866,36.697379],[140.708599,36.697066],[140.708551,36.69676],[140.708486,36.696325],[140.708423,36.696114],[140.708348,36.695737],[140.708263,36.695445],[140.708192,36.695035],[140.708016,36.69485],[140.707858,36.694787],[140.707486,36.694778],[140.707284,36.694789],[140.70709,36.694652],[140.706816,36.694415]]}},{"type":"Feature","properties":{"id":104472343,"highway":"residential"},"geometry":{"type":"LineString","coordinates":[[140.707176,36.697213],[140.707009,36.696917],[140.708551,36.69676],[140.709967,36.696632]]}},{"type":"Feature","properties":{"id":104472344,"highway":"residential"},"geometry":{"type":"LineString","coordinates":[[140.705843,36.696512],[140.704746,36.69638],[140.704126,36.696306],[140.704067,36.696165],[140.704117,36.695977]]}},{"type":"Feature","properties":{"id":104472345,"highway":"residential"},"geometry":{"type":"LineString","coordinates":[[140.709064,36.697648],[140.709075,36.697761],[140.708995,36.697847],[140.708046,36.698068],[140.70788,36.697769],[140.707764,36.697567],[140.707728,36.697492],[140.707597,36.69717]]}},{"type":"Feature","properties":{"id":104472346,"highway":"residential"},"geometry":{"type":"LineString","coordinates":[[140.707764,36.697567],[140.707159,36.697735],[140.70734,36.698066]]}},{"type":"Feature","properties":{"id":104472347,"highway":"service"},"geometry":{"type":"LineString","coordinates":[[140.703579,36.69945],[140.704167,36.69936]]}},{"type":"Feature","properties":{"id":104472348,"highway":"unclassified"},"geometry":{"type":"LineString","coordinates":[[140.700982,36.699678],[140.70264,36.6995],[140.703242,36.699431]]}},{"type":"Feature","properties":{"id":104472349,"highway":"residential"},"geometry":{"type":"LineString","coordinates":[[140.705972,36.696831],[140.704682,36.696683]]}},{"type":"Feature","properties":{"id":104472350,"highway":"residential"},"geometry":{"type":"LineString","coordinates":[[140.707728,36.697492],[140.70866,36.697379],[140.709716,36.697277]]}},{"type":"Feature","properties":{"id":104472351,"highway":"residential"},"geometry":{"type":"LineString","coordinates":[[140.70573,36.698827],[140.705861,36.698777],[140.706223,36.698608],[140.70734,36.698066],[140.70788,36.697769],[140.70872,36.697687],[140.709064,36.697648],[140.709483,36.697617],[140.709716,36.697277],[140.709831,36.697114],[140.709847,36.696942]]}},{"type":"Feature","properties":{"id":104472352,"highway":"residential"},"geometry":{"type":"LineString","coordinates":[[140.704993,36.697416],[140.7048,36.697071],[140.704706,36.69691],[140.704682,36.696683],[140.704746,36.69638],[140.704824,36.696066]]}},{"type":"Feature","properties":{"id":104472353,"highway":"service"},"geometry":{"type":"LineString","coordinates":[[140.703242,36.699431],[140.703579,36.69945],[140.704158,36.699646]]}},{"type":"Feature","properties":{"id":104472354,"highway":"residential"},"geometry":{"type":"LineString","coordinates":[[140.704496,36.69308],[140.705002,36.692987],[140.706295,36.692561],[140.706802,36.692434],[140.707285,36.692422],[140.708256,36.692703],[140.708971,36.692956],[140.709249,36.693167],[140.709387,36.693373],[140.709456,36.693541],[140.709563,36.694232],[140.709632,36.694581],[140.709839,36.695861],[140.709869,36.696046],[140.709967,36.696632],[140.709978,36.696823],[140.709939,36.696888],[140.709847,36.696942],[140.708599,36.697066],[140.707597,36.69717],[140.707176,36.697213],[140.706675,36.697258],[140.706521,36.696885],[140.706251,36.696224],[140.705745,36.696162],[140.704824,36.696066],[140.704117,36.695977],[140.703572,36.695922],[140.703159,36.695883]]}},{"type":"Feature","properties":{"id":104472382,"highway":"residential"},"geometry":{"type":"LineString","coordinates":[[140.716354,36.699666],[140.716282,36.699792],[140.716288,36.699915],[140.716531,36.700595],[140.716696,36.701258],[140.716768,36.701455],[140.717182,36.702608],[140.717372,36.703105],[140.717373,36.703108],[140.717475,36.703451],[140.717552,36.703708],[140.717557,36.703722],[140.717595,36.703834],[140.717747,36.704238],[140.717888,36.704592],[140.718059,36.705024],[140.718118,36.705172],[140.718165,36.705287],[140.718295,36.705608],[140.718368,36.705788],[140.718437,36.70596],[140.718439,36.705963],[140.718525,36.706122]]}},{"type":"Feature","properties":{"id":105231727,"highway":"residential"},"geometry":{"type":"LineString","coordinates":[[140.698211,36.650011],[140.698442,36.650552],[140.698472,36.650656],[140.698506,36.650775],[140.698535,36.650946],[140.698509,36.651145],[140.698393,36.651638],[140.698374,36.651774],[140.698369,36.651967],[140.698447,36.652157],[140.698702,36.652605],[140.699023,36.653116],[140.69941,36.65367],[140.69956,36.653872],[140.700148,36.654626],[140.700335,36.654896],[140.700479,36.655182],[140.700632,36.655518]]}},{"type":"Feature","properties":{"id":105231735,"highway":"tertiary"},"geometry":{"type":"LineString","coordinates":[[140.710153,36.676523],[140.70841,36.676539],[140.707898,36.676569],[140.707836,36.676577],[140.707119,36.676667],[140.703919,36.677206],[140.703034,36.677355],[140.702393,36.677435],[140.702079,36.677463],[140.701825,36.677482]]}},{"type":"Feature","properties":{"id":105231746,"highway":"service"},"geometry":{"type":"LineString","coordinates":[[140.694437,36.665958],[140.694548,36.665068],[140.694753,36.663456],[140.694973,36.661543],[140.698931,36.661805],[140.698964,36.661807],[140.700397,36.661902],[140.700692,36.661922]]}},{"type":"Feature","properties":{"id":105231748,"highway":"residential"},"geometry":{"type":"LineString","coordinates":[[140.700623,36.653295],[140.700286,36.653508],[140.700021,36.653642],[140.69956,36.653872],[140.699105,36.654081]]}},{"type":"Feature","properties":{"id":105257269,"highway":"tertiary_link"},"geometry":{"type":"LineString","coordinates":[[140.700594,36.655767],[140.700447,36.655622],[140.700151,36.655412]]}},{"type":"Feature","properties":{"id":105336466,"highway":"residential"},"geometry":{"type":"LineString","coordinates":[[140.698939,36.651802],[140.699091,36.652088],[140.699201,36.652254],[140.699632,36.652819],[140.700286,36.653508],[140.700739,36.653957],[140.700973,36.654265],[140.701091,36.654396],[140.701411,36.654717],[140.701601,36.654921],[140.701669,36.654994],[140.701749,36.655098],[140.701842,36.655283]]}},{"type":"Feature","properties":{"id":105336467,"highway":"residential"},"geometry":{"type":"LineString","coordinates":[[140.698665,36.655216],[140.698752,36.655163],[140.698806,36.655131],[140.699608,36.654827],[140.700148,36.654626],[140.700595,36.654433],[140.700973,36.654265],[140.701354,36.65407]]}},{"type":"Feature","properties":{"id":105336470,"highway":"residential"},"geometry":{"type":"LineString","coordinates":[[140.698699,36.650053],[140.698885,36.650578],[140.699002,36.650906],[140.69931,36.651685],[140.699368,36.651842],[140.699394,36.65188],[140.699732,36.652372],[140.699987,36.65265],[140.700266,36.652973],[140.700527,36.653213],[140.700623,36.653295],[140.700831,36.653465],[140.701009,36.653667],[140.701354,36.65407],[140.701903,36.654636],[140.70205,36.654841],[140.702101,36.654911],[140.702137,36.655018],[140.702126,36.655111],[140.702124,36.655122],[140.702024,36.655228],[140.701953,36.655259],[140.701842,36.655283],[140.701343,36.655394],[140.701096,36.655437],[140.700632,36.655518]]}},{"type":"Feature","properties":{"id":105336474,"highway":"residential"},"geometry":{"type":"LineString","coordinates":[[140.700021,36.653642],[140.700595,36.654433]]}},{"type":"Feature","properties":{"id":105338096,"highway":"unclassified"},"geometry":{"type":"LineString","coordinates":[[140.701302,36.659646],[140.701467,36.660058],[140.701539,36.660411],[140.701492,36.660815],[140.701303,36.66156],[140.700613,36.663926],[140.700556,36.664123],[140.700363,36.664303],[140.700056,36.664472],[140.699959,36.664535],[140.699955,36.664554],[140.699938,36.664627],[140.700009,36.665],[140.700006,36.665166],[140.699902,36.665335],[140.699741,36.665536],[140.699645,36.665722],[140.69967,36.665977],[140.699824,36.666559],[140.69993,36.666909]]}},{"type":"Feature","properties":{"id":105338103,"highway":"tertiary"},"geometry":{"type":"LineString","coordinates":[[140.710756,36.664968],[140.710563,36.665016],[140.710507,36.66503],[140.708672,36.665485],[140.706472,36.666174],[140.704415,36.666685],[140.704063,36.666724],[140.703695,36.666691],[140.702537,36.666354],[140.702341,36.666336],[140.702109,36.666353],[140.69993,36.666909],[140.697787,36.667451],[140.697005,36.667711],[140.696412,36.668003],[140.695187,36.668815],[140.690529,36.67205]]}},{"type":"Feature","properties":{"id":105338114,"highway":"tertiary"},"geometry":{"type":"LineString","coordinates":[[140.702042,36.659704],[140.702666,36.659754],[140.703132,36.65979],[140.703572,36.659823],[140.703658,36.659822],[140.703765,36.659812],[140.703886,36.659778],[140.70401,36.659735],[140.704132,36.659669],[140.704215,36.659609],[140.704534,36.659331],[140.704664,36.659218],[140.704897,36.659018],[140.70501,36.658942],[140.705132,36.65888],[140.705233,36.658845],[140.705387,36.658808],[140.705556,36.658802],[140.705724,36.658808],[140.705974,36.658825],[140.706732,36.658889],[140.707266,36.658927],[140.707583,36.658948],[140.707743,36.658947],[140.708043,36.65889],[140.708179,36.658869],[140.708267,36.658864],[140.708492,36.658858],[140.708557,36.658856],[140.708645,36.658852],[140.708777,36.658847]]}},{"type":"Feature","properties":{"id":106170644,"highway":"secondary"},"geometry":{"type":"LineString","coordinates":[[140.703159,36.695883],[140.702757,36.695839],[140.702244,36.695695],[140.70138,36.695265],[140.699751,36.694307],[140.699163,36.693906],[140.699051,36.693798],[140.698969,36.693664],[140.69875,36.693054],[140.698403,36.692513],[140.698376,36.692394],[140.698414,36.692292],[140.698989,36.691513]]}},{"type":"Feature","properties":{"id":106175759,"highway":"residential"},"geometry":{"type":"LineString","coordinates":[[140.710671,36.672585],[140.710788,36.672496],[140.711579,36.671951],[140.711671,36.671878],[140.712048,36.671579],[140.712488,36.671106],[140.712655,36.670755],[140.71278,36.670205],[140.712821,36.670024],[140.712828,36.669531],[140.712832,36.669294],[140.712753,36.669166],[140.712596,36.668909],[140.712341,36.668496],[140.711817,36.66758],[140.711747,36.667554]]}},{"type":"Feature","properties":{"id":106175765,"highway":"service"},"geometry":{"type":"LineString","coordinates":[[140.713662,36.664672],[140.71313,36.664423]]}},{"type":"Feature","properties":{"id":106231230,"highway":"service"},"geometry":{"type":"LineString","coordinates":[[140.701302,36.659646],[140.700982,36.659723],[140.700703,36.659779],[140.700579,36.659869],[140.700611,36.659981],[140.700548,36.660545],[140.700397,36.661902]]}},{"type":"Feature","properties":{"id":106231234,"highway":"service"},"geometry":{"type":"LineString","coordinates":[[140.699129,36.660433],[140.699608,36.660471],[140.700548,36.660545]]}},{"type":"Feature","properties":{"id":106407098,"highway":"residential"},"geometry":{"type":"LineString","coordinates":[[140.709786,36.67275],[140.709698,36.672868],[140.709632,36.672969],[140.709603,36.673076],[140.709548,36.673216],[140.709466,36.673323],[140.709364,36.673454],[140.709332,36.67353],[140.709266,36.673704],[140.709151,36.673874],[140.709031,36.674042],[140.708971,36.674157],[140.708921,36.67432],[140.708857,36.674441],[140.708772,36.674542],[140.708516,36.67478],[140.708295,36.674936],[140.708101,36.675096]]}},{"type":"Feature","properties":{"id":106407102,"highway":"residential"},"geometry":{"type":"LineString","coordinates":[[140.710788,36.672496],[140.710869,36.672551],[140.710937,36.672576],[140.711231,36.672591],[140.711594,36.672612],[140.711835,36.672623],[140.712837,36.672588],[140.712897,36.672574],[140.712914,36.672543],[140.712911,36.672476],[140.712845,36.671947],[140.712898,36.671857],[140.712956,36.67174],[140.713157,36.671218],[140.713144,36.671192],[140.713098,36.671181],[140.712922,36.671174],[140.712957,36.670779],[140.712655,36.670755]]}},{"type":"Feature","properties":{"id":106407103,"highway":"residential"},"geometry":{"type":"LineString","coordinates":[[140.710783,36.671971],[140.71006,36.671891],[140.709849,36.671911],[140.709748,36.671874],[140.70965,36.67182],[140.709623,36.671792],[140.709515,36.671651],[140.709423,36.671544]]}},{"type":"Feature","properties":{"id":106407106,"highway":"residential"},"geometry":{"type":"LineString","coordinates":[[140.701183,36.677078],[140.702318,36.676922],[140.703795,36.676726],[140.703826,36.676722],[140.705659,36.676469]]}},{"type":"Feature","properties":{"id":106407107,"highway":"residential"},"geometry":{"type":"LineString","coordinates":[[140.711671,36.671878],[140.711758,36.671941],[140.711831,36.671951],[140.712088,36.671939],[140.712845,36.671947],[140.713216,36.67192]]}},{"type":"Feature","properties":{"id":106407108,"highway":"residential"},"geometry":{"type":"LineString","coordinates":[[140.711835,36.672623],[140.711813,36.672957],[140.711794,36.673139],[140.711796,36.673305],[140.711818,36.673519],[140.711812,36.673605],[140.711783,36.673688],[140.711746,36.673796],[140.711721,36.673925],[140.711652,36.674364],[140.711642,36.674482],[140.711647,36.674613],[140.711649,36.67471],[140.711639,36.674754],[140.711601,36.674807],[140.711538,36.674841],[140.711419,36.674874],[140.711321,36.674906],[140.711278,36.674942],[140.711243,36.674999],[140.711136,36.675341],[140.7111,36.67543],[140.711039,36.675485],[140.710938,36.675498],[140.710717,36.675494],[140.708434,36.675509],[140.708233,36.675525],[140.708038,36.675571],[140.7079,36.675643],[140.707815,36.675725],[140.707464,36.676171],[140.707147,36.676444],[140.707071,36.676499],[140.707049,36.676533],[140.707046,36.676568],[140.707054,36.676598],[140.707071,36.676617],[140.707119,36.676667]]}},{"type":"Feature","properties":{"id":106407109,"highway":"residential"},"geometry":{"type":"LineString","coordinates":[[140.711183,36.670977],[140.711307,36.670932],[140.711373,36.670816],[140.711465,36.670696],[140.711558,36.670631],[140.711769,36.670569],[140.71191,36.670531],[140.712085,36.670471],[140.712166,36.670437],[140.712232,36.670373],[140.712353,36.670223],[140.712493,36.670032],[140.712828,36.669531]]}},{"type":"Feature","properties":{"id":106407110,"highway":"residential"},"geometry":{"type":"LineString","coordinates":[[140.712868,36.669165],[140.712991,36.668877],[140.713046,36.668679],[140.713101,36.668452],[140.713227,36.668177],[140.713274,36.667991]]}},{"type":"Feature","properties":{"id":106407112,"highway":"residential"},"geometry":{"type":"LineString","coordinates":[[140.708564,36.672171],[140.708665,36.672467],[140.708795,36.672466],[140.708848,36.672478],[140.708889,36.672515],[140.709035,36.672721]]}},{"type":"Feature","properties":{"id":106407113,"highway":"residential"},"geometry":{"type":"LineString","coordinates":[[140.7079,36.675643],[140.708055,36.675253],[140.708101,36.675096],[140.708113,36.674953],[140.708099,36.674744],[140.708074,36.674544],[140.708084,36.674459],[140.708144,36.674346],[140.708444,36.673869],[140.708566,36.673673],[140.7086,36.67356],[140.708668,36.67332],[140.708704,36.673205],[140.708753,36.67309],[140.708893,36.672923],[140.708988,36.672773],[140.709035,36.672721],[140.709121,36.672661],[140.709229,36.672635],[140.709385,36.672658],[140.709602,36.67272],[140.709786,36.67275],[140.709864,36.672747],[140.710066,36.672706],[140.710366,36.67262],[140.710671,36.672585]]}},{"type":"Feature","properties":{"id":106407114,"highway":"residential"},"geometry":{"type":"LineString","coordinates":[[140.711758,36.671941],[140.711762,36.672217],[140.711753,36.672395]]}},{"type":"Feature","properties":{"id":106407116,"highway":"residential"},"geometry":{"type":"LineString","coordinates":[[140.71278,36.670205],[140.713148,36.67022],[140.713157,36.669907],[140.713183,36.669788],[140.713223,36.669657],[140.713243,36.669544],[140.713249,36.669376],[140.713235,36.66916],[140.712868,36.669165],[140.712753,36.669166]]}},{"type":"Feature","properties":{"id":106407117,"highway":"residential"},"geometry":{"type":"LineString","coordinates":[[140.692913,36.67483],[140.693093,36.674651],[140.69354,36.674343],[140.693993,36.673876],[140.694304,36.673236],[140.694554,36.672851],[140.69481,36.672497],[140.694913,36.672429],[140.695082,36.672365],[140.695337,36.672302],[140.695513,36.672297],[140.695779,36.672351],[140.696203,36.672453],[140.696379,36.672458],[140.696561,36.672433],[140.697276,36.67238],[140.697707,36.67239],[140.697979,36.67237],[140.698997,36.672205],[140.699563,36.671976],[140.69961,36.671957],[140.699834,36.671874],[140.70127,36.671641],[140.701328,36.671647],[140.701403,36.671656],[140.701609,36.671758],[140.701749,36.671787],[140.702385,36.671874],[140.702694,36.671957],[140.702906,36.671991],[140.7033,36.671971],[140.703931,36.671947],[140.704094,36.671908],[140.704367,36.671801],[140.704543,36.671762],[140.704943,36.671826],[140.705221,36.671879],[140.705718,36.672001],[140.705918,36.67201],[140.706088,36.671971],[140.706415,36.671884],[140.70664,36.671903],[140.706876,36.67202],[140.707076,36.672088],[140.707264,36.672059],[140.707427,36.672059],[140.707627,36.672117],[140.707724,36.672176],[140.707888,36.672244],[140.708082,36.672292],[140.708254,36.672279],[140.708564,36.672171],[140.709623,36.671792]]}},{"type":"Feature","properties":{"id":106407121,"highway":"residential"},"geometry":{"type":"LineString","coordinates":[[140.709423,36.671544],[140.71009,36.671144],[140.710313,36.671313],[140.710877,36.671013],[140.710656,36.670459]]}},{"type":"Feature","properties":{"id":106548304,"highway":"residential"},"geometry":{"type":"LineString","coordinates":[[140.709834,36.693291],[140.710177,36.693172],[140.709967,36.692971],[140.70972,36.692692],[140.709595,36.692495],[140.709427,36.692368],[140.709185,36.69267],[140.708971,36.692956]]}},{"type":"Feature","properties":{"id":106548305,"highway":"residential"},"geometry":{"type":"LineString","coordinates":[[140.710057,36.694525],[140.709896,36.69357],[140.709834,36.693291],[140.70967,36.693058],[140.709402,36.692789],[140.709185,36.69267],[140.709055,36.692623],[140.708413,36.692378],[140.708256,36.692703],[140.708098,36.693033],[140.707928,36.69333],[140.707785,36.693645],[140.707521,36.693849],[140.706816,36.694415],[140.706726,36.694462],[140.706497,36.694551],[140.706326,36.694836],[140.70603,36.695222],[140.706026,36.695512],[140.706205,36.695855],[140.706378,36.696195],[140.706251,36.696224]]}},{"type":"Feature","properties":{"id":106548306,"highway":"residential"},"geometry":{"type":"LineString","coordinates":[[140.709632,36.694581],[140.710057,36.694525],[140.711688,36.694376],[140.711943,36.694377],[140.712183,36.694464],[140.712304,36.694549],[140.71246,36.694689],[140.712624,36.694991],[140.712726,36.695096],[140.712879,36.69516],[140.71409,36.695088]]}},{"type":"Feature","properties":{"id":106548307,"highway":"residential"},"geometry":{"type":"LineString","coordinates":[[140.709114,36.695632],[140.708963,36.694675]]}},{"type":"Feature","properties":{"id":106548308,"highway":"residential"},"geometry":{"type":"LineString","coordinates":[[140.708423,36.696114],[140.70957,36.695889],[140.709839,36.695861]]}},{"type":"Feature","properties":{"id":106548309,"highway":"residential"},"geometry":{"type":"LineString","coordinates":[[140.708721,36.695682],[140.708536,36.69472]]}},{"type":"Feature","properties":{"id":106548310,"highway":"residential"},"geometry":{"type":"LineString","coordinates":[[140.703572,36.695922],[140.703589,36.695785],[140.703738,36.695576],[140.70435,36.694843],[140.704699,36.694391],[140.704877,36.693928],[140.704956,36.693695],[140.705048,36.6935],[140.705246,36.693328],[140.705466,36.693217],[140.706351,36.692903],[140.706447,36.692874],[140.706646,36.692808],[140.707085,36.692766],[140.707358,36.692791],[140.708098,36.693033],[140.708583,36.693242],[140.708754,36.693337],[140.708988,36.693508],[140.709148,36.694275]]}},{"type":"Feature","properties":{"id":106548311,"highway":"residential"},"geometry":{"type":"LineString","coordinates":[[140.703738,36.695576],[140.704161,36.695631]]}},{"type":"Feature","properties":{"id":106548312,"highway":"residential"},"geometry":{"type":"LineString","coordinates":[[140.707709,36.696506],[140.707383,36.695793],[140.70789,36.695656],[140.707925,36.695556],[140.708027,36.695484],[140.708263,36.695445]]}},{"type":"Feature","properties":{"id":106548313,"highway":"residential"},"geometry":{"type":"LineString","coordinates":[[140.704447,36.695354],[140.704932,36.695392],[140.706026,36.695512]]}},{"type":"Feature","properties":{"id":106548314,"highway":"residential"},"geometry":{"type":"LineString","coordinates":[[140.708622,36.693629],[140.708988,36.693508],[140.709387,36.693373]]}},{"type":"Feature","properties":{"id":106548315,"highway":"residential"},"geometry":{"type":"LineString","coordinates":[[140.70709,36.694652],[140.707623,36.694202],[140.707923,36.694098],[140.708265,36.694028]]}},{"type":"Feature","properties":{"id":106548316,"highway":"residential"},"geometry":{"type":"LineString","coordinates":[[140.709515,36.695583],[140.709114,36.695632],[140.708721,36.695682],[140.708348,36.695737]]}},{"type":"Feature","properties":{"id":106548317,"highway":"residential"},"geometry":{"type":"LineString","coordinates":[[140.706497,36.694551],[140.706176,36.694561],[140.705668,36.694441],[140.705526,36.694452],[140.705386,36.694783],[140.704932,36.695392]]}},{"type":"Feature","properties":{"id":106548318,"highway":"residential"},"geometry":{"type":"LineString","coordinates":[[140.707785,36.693645],[140.708238,36.693781],[140.708265,36.694028],[140.708339,36.694381]]}},{"type":"Feature","properties":{"id":106548319,"highway":"residential"},"geometry":{"type":"LineString","coordinates":[[140.705668,36.694441],[140.705792,36.694083],[140.705895,36.693813],[140.70592,36.6938],[140.706094,36.693711],[140.706362,36.693621],[140.70649,36.693578],[140.706506,36.693572],[140.706549,36.693538],[140.706634,36.693469],[140.706674,36.693348],[140.706676,36.693342],[140.706638,36.693233],[140.706618,36.693176],[140.706447,36.692874],[140.706295,36.692561]]}},{"type":"Feature","properties":{"id":106548320,"highway":"residential"},"geometry":{"type":"LineString","coordinates":[[140.706816,36.694415],[140.706671,36.694289],[140.705792,36.694083],[140.705297,36.693997],[140.704877,36.693928],[140.704626,36.693888]]}},{"type":"Feature","properties":{"id":106548321,"highway":"residential"},"geometry":{"type":"LineString","coordinates":[[140.70789,36.695656],[140.708091,36.69642]]}},{"type":"Feature","properties":{"id":106548322,"highway":"residential"},"geometry":{"type":"LineString","coordinates":[[140.707486,36.694778],[140.707902,36.694451],[140.708339,36.694381],[140.708731,36.694318],[140.709148,36.694275],[140.709563,36.694232]]}},{"type":"Feature","properties":{"id":106548323,"highway":"residential"},"geometry":{"type":"LineString","coordinates":[[140.706205,36.695855],[140.704161,36.695631],[140.704447,36.695354],[140.704916,36.694801],[140.705125,36.694477],[140.705297,36.693997],[140.7054,36.693738],[140.705565,36.693582],[140.705745,36.693488],[140.706502,36.693204],[140.706618,36.693176],[140.7068,36.693142],[140.706936,36.693118],[140.706986,36.69312],[140.70714,36.693126],[140.707196,36.693141],[140.707433,36.693202],[140.707715,36.693275],[140.707928,36.69333],[140.708322,36.693468],[140.70846,36.693514],[140.708622,36.693629],[140.708731,36.694318]]}},{"type":"Feature","properties":{"id":198704041,"highway":"unclassified"},"geometry":{"type":"LineString","coordinates":[[140.717526,36.698709],[140.71749,36.698507],[140.717198,36.697788],[140.717136,36.697702],[140.717092,36.697672],[140.717047,36.697641],[140.716915,36.697581],[140.716798,36.697567],[140.716621,36.69759],[140.716213,36.697688],[140.715521,36.697862]]}},{"type":"Feature","properties":{"id":198704230,"highway":"residential"},"geometry":{"type":"LineString","coordinates":[[140.703795,36.701101],[140.703916,36.701074],[140.704434,36.700838],[140.704501,36.700838],[140.70469,36.700873],[140.70476,36.700861],[140.704846,36.700817],[140.705352,36.70038],[140.705684,36.700127],[140.705893,36.699871],[140.705935,36.699719],[140.705942,36.69938],[140.705893,36.699184],[140.705816,36.699025],[140.70573,36.698827],[140.705628,36.698591],[140.705493,36.698311],[140.705261,36.697855],[140.705055,36.697448],[140.704993,36.697416]]}},{"type":"Feature","properties":{"id":198704296,"highway":"residential"},"geometry":{"type":"LineString","coordinates":[[140.715885,36.699694],[140.716354,36.699666]]}},{"type":"Feature","properties":{"id":198704333,"highway":"residential"},"geometry":{"type":"LineString","coordinates":[[140.710612,36.698584],[140.710564,36.698183]]}},{"type":"Feature","properties":{"id":198704552,"highway":"residential"},"geometry":{"type":"LineString","coordinates":[[140.707095,36.69967],[140.707982,36.700069]]}},{"type":"Feature","properties":{"id":198704736,"highway":"unclassified"},"geometry":{"type":"LineString","coordinates":[[140.719071,36.70227],[140.718066,36.699889],[140.717982,36.699836]]}},{"type":"Feature","properties":{"id":198704770,"highway":"residential"},"geometry":{"type":"LineString","coordinates":[[140.714335,36.696419],[140.714204,36.696394],[140.71411,36.696386],[140.714,36.696371],[140.713909,36.696382],[140.713751,36.696429],[140.713266,36.696596]]}},{"type":"Feature","properties":{"id":198705410,"highway":"residential"},"geometry":{"type":"LineString","coordinates":[[140.710564,36.698183],[140.71033,36.698248],[140.709841,36.698369],[140.709613,36.698371],[140.709325,36.698346],[140.70898,36.698406],[140.708535,36.698549],[140.708308,36.698665],[140.707967,36.698827],[140.707704,36.699039],[140.707539,36.699244],[140.707269,36.699518],[140.707095,36.69967],[140.706968,36.699789],[140.70677,36.700015],[140.706619,36.700203],[140.706288,36.700528],[140.706168,36.700708],[140.705866,36.701245],[140.705761,36.70172],[140.705604,36.70221],[140.705543,36.702425],[140.70538,36.702888],[140.705335,36.703596]]}},{"type":"Feature","properties":{"id":198705726,"highway":"service"},"geometry":{"type":"LineString","coordinates":[[140.693647,36.698571],[140.694443,36.698883],[140.694671,36.698962],[140.694753,36.698993],[140.69478,36.699],[140.694816,36.699008],[140.696655,36.699637],[140.697597,36.700011],[140.697812,36.700092],[140.698026,36.70014],[140.698174,36.700141],[140.698382,36.700147],[140.698775,36.700052],[140.699253,36.699997],[140.699725,36.699906],[140.7009,36.699706],[140.700982,36.699678]]}},{"type":"Feature","properties":{"id":222401308,"highway":"trunk"},"geometry":{"type":"LineString","coordinates":[[140.71544,36.697457],[140.715503,36.697784]]}},{"type":"Feature","properties":{"id":222401309,"highway":"trunk"},"geometry":{"type":"LineString","coordinates":[[140.701312,36.656297],[140.701829,36.656693],[140.701996,36.656798],[140.702178,36.656889],[140.702367,36.656954],[140.702577,36.656998],[140.702773,36.657016],[140.702963,36.65701],[140.703132,36.656982],[140.703339,36.656923],[140.704125,36.656652],[140.704343,36.65659],[140.704565,36.656555],[140.704787,36.656535],[140.705026,36.656529],[140.705208,36.656539],[140.705426,36.656579],[140.70565,36.656644],[140.706102,36.65682],[140.706455,36.656973],[140.707345,36.657361],[140.707572,36.657478],[140.70777,36.6576],[140.70798,36.65776],[140.70817,36.657909],[140.708317,36.658059],[140.708422,36.658189],[140.708535,36.658352],[140.708621,36.658497],[140.708643,36.658534],[140.708697,36.658645],[140.708777,36.658847]]}},{"type":"Feature","properties":{"id":222401310,"highway":"trunk"},"geometry":{"type":"LineString","coordinates":[[140.701015,36.656074],[140.701312,36.656297]]}},{"type":"Feature","properties":{"id":222401314,"highway":"trunk"},"geometry":{"type":"LineString","coordinates":[[140.712557,36.689353],[140.712728,36.690242],[140.713126,36.692318],[140.713207,36.692506],[140.714284,36.694174],[140.71468,36.694855]]}},{"type":"Feature","properties":{"id":222401316,"highway":"trunk"},"geometry":{"type":"LineString","coordinates":[[140.71166,36.684399],[140.711713,36.684712]]}},{"type":"Feature","properties":{"id":266869399,"highway":"secondary"},"geometry":{"type":"LineString","coordinates":[[140.703159,36.695883],[140.703032,36.696715],[140.703024,36.697545],[140.70308,36.698133],[140.703242,36.699431],[140.703404,36.70054],[140.703362,36.700664],[140.703167,36.700824],[140.703096,36.700913],[140.703099,36.700967],[140.703137,36.701006],[140.703205,36.701034],[140.703288,36.70101],[140.703504,36.700962],[140.703644,36.700964],[140.703759,36.701034],[140.703795,36.701101],[140.703808,36.7012],[140.703708,36.70132],[140.703604,36.701395],[140.703579,36.701451],[140.703589,36.701531],[140.703984,36.702303],[140.704118,36.702717],[140.704227,36.703053],[140.704262,36.703148],[140.704381,36.703472],[140.704533,36.703847],[140.704665,36.704169],[140.7048,36.704459],[140.704962,36.704765],[140.705034,36.7049],[140.705061,36.704944]]}},{"type":"Feature","properties":{"id":266869403,"highway":"tertiary"},"geometry":{"type":"LineString","coordinates":[[140.702022,36.688115],[140.702076,36.687616],[140.702369,36.687032],[140.702443,36.686909],[140.70246,36.686872],[140.702754,36.686405],[140.703071,36.685923],[140.703452,36.685389],[140.70385,36.684807],[140.704293,36.683881],[140.704481,36.683494],[140.704566,36.683321],[140.704611,36.683219],[140.704646,36.683108],[140.704665,36.682799],[140.704593,36.68259],[140.704398,36.682221],[140.704358,36.682145],[140.704248,36.681743],[140.704194,36.68148],[140.70416,36.680877],[140.704175,36.680774],[140.704376,36.679528],[140.704375,36.679406],[140.704316,36.679232],[140.704198,36.679018],[140.704111,36.678902],[140.704043,36.678826],[140.703791,36.67866],[140.703191,36.67828],[140.702231,36.677712],[140.701912,36.677534],[140.701825,36.677482]]}},{"type":"Feature","properties":{"id":288291456,"highway":"service"},"geometry":{"type":"LineString","coordinates":[[140.693818,36.663373],[140.694753,36.663456],[140.696411,36.663589],[140.697352,36.66366],[140.698748,36.663767],[140.699076,36.663773],[140.700613,36.663926]]}},{"type":"Feature","properties":{"id":288291787,"highway":"residential"},"geometry":{"type":"LineString","coordinates":[[140.700632,36.655518],[140.700447,36.655622]]}},{"type":"Feature","properties":{"id":291150784,"highway":"unclassified"},"geometry":{"type":"LineString","coordinates":[[140.714284,36.694174],[140.714083,36.694121],[140.713921,36.694066],[140.713825,36.694],[140.713314,36.693506],[140.711554,36.692047],[140.710014,36.690759],[140.709881,36.690624],[140.70975,36.690461],[140.709293,36.690087],[140.708908,36.689776],[140.708497,36.689444],[140.708241,36.689245],[140.707964,36.689079],[140.707798,36.688978],[140.70762,36.688787],[140.707521,36.688644],[140.70734,36.68817],[140.707218,36.687969],[140.707066,36.687744],[140.706909,36.687457],[140.706509,36.686597]]}},{"type":"Feature","properties":{"id":291150785,"highway":"unclassified"},"geometry":{"type":"LineString","coordinates":[[140.711238,36.681631],[140.709609,36.681646],[140.707887,36.681661],[140.706614,36.681471],[140.706108,36.681313],[140.705738,36.681243],[140.705458,36.681273],[140.705228,36.681329],[140.704194,36.68148]]}},{"type":"Feature","properties":{"id":291155600,"highway":"trunk"},"geometry":{"type":"LineString","coordinates":[[140.709705,36.691555],[140.709643,36.691408],[140.709598,36.691254],[140.70957,36.691117],[140.709552,36.690957],[140.709551,36.690826],[140.709562,36.690685],[140.709583,36.690557],[140.709644,36.690349],[140.709723,36.690159]]}},{"type":"Feature","properties":{"id":291155601,"highway":"trunk"},"geometry":{"type":"LineString","coordinates":[[140.709723,36.690159],[140.709795,36.690033],[140.709884,36.6899],[140.709972,36.689792],[140.710096,36.689663],[140.710235,36.689539],[140.710423,36.689403],[140.710587,36.6893],[140.710772,36.689207],[140.711018,36.689117],[140.711319,36.689039],[140.711818,36.688958]]}},{"type":"Feature","properties":{"id":344021943,"highway":"trunk"},"geometry":{"type":"LineString","coordinates":[[140.713873,36.697404],[140.714197,36.696773],[140.71428,36.696571],[140.714335,36.696419],[140.714376,36.69621],[140.714389,36.696039],[140.714381,36.695817],[140.714347,36.695619],[140.714285,36.695428],[140.714202,36.695264],[140.71409,36.695088],[140.713946,36.694913],[140.713757,36.694743],[140.713514,36.694554],[140.712348,36.693718],[140.71045,36.692384],[140.710211,36.692197],[140.71001,36.692012],[140.709879,36.691844],[140.709779,36.691702],[140.709705,36.691555]]}},{"type":"Feature","properties":{"id":344021944,"highway":"trunk"},"geometry":{"type":"LineString","coordinates":[[140.713462,36.697972],[140.713604,36.6978],[140.713694,36.697677],[140.713795,36.697536],[140.713873,36.697404]]}},{"type":"Feature","properties":{"id":347631072,"highway":"residential"},"geometry":{"type":"LineString","coordinates":[[140.708643,36.658534],[140.709409,36.658417],[140.709491,36.658391],[140.709584,36.658337],[140.70978,36.658139],[140.709918,36.657967],[140.71004,36.657625],[140.710069,36.657579],[140.710238,36.657437]]}},{"type":"Feature","properties":{"id":373871145,"highway":"service"},"geometry":{"type":"LineString","coordinates":[[140.713942,36.662749],[140.713909,36.662757],[140.713883,36.662775],[140.713866,36.662799],[140.713863,36.662827],[140.713873,36.662853],[140.713895,36.662874],[140.713925,36.662887],[140.71396,36.662889],[140.713992,36.662881],[140.714019,36.662864],[140.714035,36.66284],[140.714038,36.662812],[140.714028,36.662786],[140.714006,36.662765],[140.713976,36.662752],[140.713942,36.662749]]}},{"type":"Feature","properties":{"id":373871146,"highway":"service"},"geometry":{"type":"LineString","coordinates":[[140.713461,36.664149],[140.713433,36.6642],[140.713232,36.664289],[140.71313,36.664423]]}},{"type":"Feature","properties":{"id":373871147,"highway":"service"},"geometry":{"type":"LineString","coordinates":[[140.71406,36.663988],[140.713944,36.66404],[140.713916,36.664044],[140.713819,36.664059],[140.71356,36.664117],[140.713461,36.664149],[140.713299,36.664203],[140.713189,36.664262],[140.712994,36.664373]]}},{"type":"Feature","properties":{"id":373871148,"highway":"service"},"geometry":{"type":"LineString","coordinates":[[140.714552,36.663663],[140.714606,36.663635],[140.714656,36.663612],[140.714694,36.663576],[140.714715,36.663533],[140.714716,36.663486],[140.714698,36.663441],[140.714686,36.663424]]}},{"type":"Feature","properties":{"id":373871150,"highway":"service"},"geometry":{"type":"LineString","coordinates":[[140.714589,36.663793],[140.714112,36.66392],[140.71406,36.663988],[140.71408,36.664108],[140.714167,36.664244],[140.714246,36.664359],[140.714307,36.66447]]}},{"type":"Feature","properties":{"id":396677909,"highway":"unclassified"},"geometry":{"type":"LineString","coordinates":[[140.716354,36.699666],[140.716314,36.69895]]}},{"type":"Feature","properties":{"id":396678066,"highway":"unclassified"},"geometry":{"type":"LineString","coordinates":[[140.716354,36.699666],[140.717135,36.699599],[140.717274,36.699999],[140.717698,36.699935],[140.717982,36.699836]]}},{"type":"Feature","properties":{"id":396678067,"highway":"unclassified"},"geometry":{"type":"LineString","coordinates":[[140.717982,36.699836],[140.717526,36.698709]]}},{"type":"Feature","properties":{"id":425368102,"highway":"tertiary"},"geometry":{"type":"LineString","coordinates":[[140.695934,36.659478],[140.69602,36.659483],[140.696221,36.659493],[140.69687,36.659515],[140.697035,36.659521],[140.697193,36.659523],[140.698558,36.659538],[140.698873,36.65954],[140.699243,36.659526],[140.699738,36.65948],[140.700876,36.659367],[140.70096,36.659364],[140.701011,36.659366],[140.701064,36.659376]]}},{"type":"Feature","properties":{"id":425368107,"highway":"tertiary"},"geometry":{"type":"LineString","coordinates":[[140.701458,36.659662],[140.702042,36.659704]]}},{"type":"Feature","properties":{"id":425953441,"highway":"trunk"},"geometry":{"type":"LineString","coordinates":[[140.711713,36.684712],[140.71237,36.688344]]}},{"type":"Feature","properties":{"id":444491931,"highway":"residential"},"geometry":{"type":"LineString","coordinates":[[140.71215,36.697064],[140.712052,36.697116],[140.711579,36.697388],[140.711245,36.697584],[140.71089,36.697745],[140.710691,36.697875],[140.710669,36.697937],[140.710709,36.698039],[140.710674,36.698132],[140.710564,36.698183]]}},{"type":"Feature","properties":{"id":444491932,"highway":"unclassified"},"geometry":{"type":"LineString","coordinates":[[140.704194,36.68148],[140.703546,36.681605],[140.703019,36.681657],[140.70255,36.681687],[140.702433,36.681728],[140.70196,36.68192],[140.701745,36.681949],[140.700061,36.682171],[140.699711,36.682186],[140.699497,36.682156],[140.699275,36.682113],[140.699009,36.682022],[140.69897,36.681998],[140.698307,36.681587],[140.698005,36.681456],[140.697841,36.681456],[140.697361,36.681479],[140.696953,36.681409],[140.696473,36.681383],[140.696313,36.681331],[140.695592,36.680963],[140.694286,36.680277],[140.693586,36.680023],[140.693309,36.679938],[140.692745,36.679595],[140.692614,36.679505],[140.692594,36.679489],[140.692519,36.679431],[140.69236,36.679286],[140.692277,36.679204],[140.692236,36.679158],[140.692207,36.67911],[140.6922,36.679048],[140.692209,36.678966],[140.692233,36.678874],[140.692259,36.678769],[140.69228,36.678623],[140.692286,36.678349],[140.692276,36.678295],[140.692256,36.678257],[140.692207,36.678239],[140.692144,36.678232],[140.691804,36.678227],[140.691582,36.678204],[140.691146,36.678085],[140.691045,36.677996],[140.69053,36.677346],[140.690542,36.677293]]}},{"type":"Feature","properties":{"id":444492103,"highway":"residential"},"geometry":{"type":"LineString","coordinates":[[140.698307,36.681587],[140.699442,36.68012],[140.699575,36.680094],[140.699981,36.680014],[140.700894,36.679822],[140.701112,36.67974],[140.701753,36.679416],[140.702073,36.679288],[140.702102,36.679177],[140.702105,36.679101],[140.702502,36.678949],[140.702589,36.678937],[140.702662,36.678926],[140.703277,36.678987],[140.703463,36.67892],[140.703791,36.67866]]}},{"type":"Feature","properties":{"id":444492105,"highway":"residential"},"geometry":{"type":"LineString","coordinates":[[140.712348,36.693718],[140.712625,36.69346],[140.712647,36.69339],[140.712647,36.693271],[140.712559,36.693166],[140.709179,36.69049],[140.707906,36.689466],[140.707356,36.689034],[140.707145,36.688894],[140.707047,36.688853],[140.706967,36.688862],[140.705992,36.689209],[140.705897,36.689267],[140.705781,36.689445],[140.705202,36.68974],[140.704893,36.689892],[140.704496,36.690014],[140.704169,36.690195],[140.703616,36.690609]]}},{"type":"Feature","properties":{"id":444492106,"highway":"residential"},"geometry":{"type":"LineString","coordinates":[[140.70957,36.695889],[140.709515,36.695583],[140.709332,36.69462],[140.708963,36.694675],[140.708536,36.69472],[140.708197,36.694778],[140.708063,36.694808],[140.708016,36.69485]]}},{"type":"Feature","properties":{"id":617644525,"highway":"residential"},"geometry":{"type":"LineString","coordinates":[[140.702666,36.659754],[140.702548,36.660856],[140.702455,36.661581],[140.702409,36.661942],[140.702368,36.66227],[140.702317,36.662665]]}},{"type":"Feature","properties":{"id":617644526,"highway":"residential"},"geometry":{"type":"LineString","coordinates":[[140.703132,36.65979],[140.703093,36.660142],[140.703008,36.660886],[140.702935,36.661618]]}},{"type":"Feature","properties":{"id":617644527,"highway":"residential"},"geometry":{"type":"LineString","coordinates":[[140.703093,36.660142],[140.703568,36.66018],[140.704002,36.660211],[140.704452,36.660241]]}},{"type":"Feature","properties":{"id":617644528,"highway":"residential"},"geometry":{"type":"LineString","coordinates":[[140.702368,36.66227],[140.70294,36.662313],[140.703008,36.662283],[140.703043,36.66198]]}},{"type":"Feature","properties":{"id":617644529,"highway":"residential"},"geometry":{"type":"LineString","coordinates":[[140.702409,36.661942],[140.703043,36.66198],[140.70378,36.662025]]}},{"type":"Feature","properties":{"id":617644530,"highway":"residential"},"geometry":{"type":"LineString","coordinates":[[140.70378,36.662025],[140.703822,36.661685],[140.703912,36.660951],[140.704002,36.660211]]}},{"type":"Feature","properties":{"id":617644532,"highway":"residential"},"geometry":{"type":"LineString","coordinates":[[140.703568,36.66018],[140.703471,36.660924],[140.703383,36.661652]]}},{"type":"Feature","properties":{"id":617644533,"highway":"residential"},"geometry":{"type":"LineString","coordinates":[[140.702455,36.661581],[140.702935,36.661618],[140.703383,36.661652],[140.703822,36.661685]]}},{"type":"Feature","properties":{"id":617644534,"highway":"residential"},"geometry":{"type":"LineString","coordinates":[[140.70378,36.662025],[140.704255,36.661853],[140.704349,36.660983],[140.704452,36.660241],[140.704491,36.659903],[140.704534,36.659331]]}},{"type":"Feature","properties":{"id":617644535,"highway":"residential"},"geometry":{"type":"LineString","coordinates":[[140.70571,36.661079],[140.705278,36.661049],[140.704823,36.661017],[140.704349,36.660983],[140.703912,36.660951],[140.703471,36.660924],[140.703008,36.660886],[140.702548,36.660856]]}},{"type":"Feature","properties":{"id":617644536,"highway":"residential"},"geometry":{"type":"LineString","coordinates":[[140.704823,36.661017],[140.704905,36.660327],[140.704951,36.659933],[140.705037,36.659229],[140.705167,36.65914],[140.705478,36.659165],[140.70593,36.659202]]}},{"type":"Feature","properties":{"id":617644537,"highway":"residential"},"geometry":{"type":"LineString","coordinates":[[140.70571,36.661079],[140.705787,36.660375],[140.705838,36.659999],[140.70593,36.659202],[140.705974,36.658825]]}},{"type":"Feature","properties":{"id":617644538,"highway":"residential"},"geometry":{"type":"LineString","coordinates":[[140.703765,36.659812],[140.703994,36.659867],[140.704491,36.659903],[140.704951,36.659933],[140.705391,36.659964],[140.705838,36.659999]]}},{"type":"Feature","properties":{"id":617644540,"highway":"residential"},"geometry":{"type":"LineString","coordinates":[[140.704905,36.660327],[140.70535,36.660351],[140.705787,36.660375]]}},{"type":"Feature","properties":{"id":617644541,"highway":"residential"},"geometry":{"type":"LineString","coordinates":[[140.705278,36.661049],[140.70535,36.660351]]}},{"type":"Feature","properties":{"id":628047398,"highway":"service"},"geometry":{"type":"LineString","coordinates":[[140.712941,36.663757],[140.713049,36.663618]]}},{"type":"Feature","properties":{"id":628047399,"highway":"service"},"geometry":{"type":"LineString","coordinates":[[140.712811,36.6636],[140.712801,36.663644],[140.712848,36.663691],[140.712927,36.663737],[140.712941,36.663757],[140.712963,36.663787],[140.712986,36.663837],[140.713043,36.663913],[140.713159,36.663931],[140.713353,36.663961],[140.713473,36.663966],[140.713597,36.663972],[140.713689,36.663969],[140.713729,36.663988],[140.713819,36.664059]]}},{"type":"Feature","properties":{"id":628047400,"highway":"service"},"geometry":{"type":"LineString","coordinates":[[140.71318,36.663523],[140.713154,36.66351],[140.713124,36.663504],[140.713094,36.663507],[140.713066,36.663518],[140.713045,36.663536],[140.713032,36.663559],[140.713031,36.663584],[140.71304,36.663608],[140.713049,36.663618],[140.713058,36.663628],[140.713084,36.663641],[140.713114,36.663647],[140.713145,36.663644],[140.713173,36.663633],[140.713194,36.663615],[140.713206,36.663592],[140.713208,36.663567],[140.713199,36.663543],[140.71318,36.663523]]}},{"type":"Feature","properties":{"id":633429948,"highway":"residential"},"geometry":{"type":"LineString","coordinates":[[140.714307,36.66447],[140.714179,36.664811],[140.714138,36.664954],[140.71395,36.665551],[140.71394,36.665756],[140.713972,36.666128],[140.713813,36.666715],[140.71365,36.667365],[140.713343,36.667856],[140.713274,36.667991],[140.712957,36.668225],[140.712341,36.668496]]}},{"type":"Feature","properties":{"id":634360914,"highway":"unclassified"},"geometry":{"type":"LineString","coordinates":[[140.692461,36.680104],[140.692525,36.680184],[140.692619,36.68026],[140.692737,36.680315],[140.693111,36.680468],[140.693332,36.680617],[140.694416,36.681471],[140.694617,36.681717],[140.694698,36.681774],[140.694774,36.681802],[140.694853,36.681845],[140.694923,36.681992],[140.695105,36.682151],[140.695241,36.682187],[140.695423,36.682307],[140.695567,36.682376],[140.69566,36.682452],[140.69571,36.682548],[140.695722,36.682676],[140.6957,36.682871],[140.695666,36.682993],[140.69561,36.68311],[140.695577,36.683217],[140.695557,36.683324],[140.695549,36.683396],[140.695565,36.683457],[140.695624,36.683637],[140.695667,36.683684],[140.695726,36.683723],[140.695912,36.683754],[140.696377,36.683838],[140.696526,36.683868],[140.696666,36.683867],[140.697288,36.683839],[140.697454,36.683856],[140.697511,36.683884],[140.697611,36.68396],[140.697664,36.684006],[140.699996,36.685752],[140.700349,36.68598],[140.700744,36.686224],[140.701187,36.686449],[140.701691,36.686726],[140.702369,36.687032]]}},{"type":"Feature","properties":{"id":640488105,"highway":"trunk"},"geometry":{"type":"LineString","coordinates":[[140.700594,36.655767],[140.70081,36.655909],[140.701015,36.656074]]}},{"type":"Feature","properties":{"id":680930939,"highway":"tertiary"},"geometry":{"type":"LineString","coordinates":[[140.701064,36.659376],[140.701102,36.659393],[140.701134,36.659414],[140.701168,36.659439]]}},{"type":"Feature","properties":{"id":680930940,"highway":"tertiary"},"geometry":{"type":"LineString","coordinates":[[140.701168,36.659439],[140.701196,36.659467],[140.701236,36.659524],[140.701302,36.659646],[140.701458,36.659662]]}},{"type":"Feature","properties":{"id":682191781,"highway":"tertiary"},"geometry":{"type":"LineString","coordinates":[[140.700151,36.655412],[140.700124,36.655508],[140.700107,36.655571]]}},{"type":"Feature","properties":{"id":682191785,"highway":"service"},"geometry":{"type":"LineString","coordinates":[[140.713866,36.662799],[140.713819,36.662789],[140.713675,36.662482],[140.713849,36.662383],[140.713942,36.66233]]}},{"type":"Feature","properties":{"id":682191786,"highway":"service"},"geometry":{"type":"LineString","coordinates":[[140.714023,36.662661],[140.71408,36.662556],[140.713942,36.66233],[140.714096,36.662268],[140.714225,36.662483],[140.71408,36.662556]]}},{"type":"Feature","properties":{"id":682191792,"highway":"service"},"geometry":{"type":"LineString","coordinates":[[140.714686,36.663424],[140.714657,36.663398]]}},{"type":"Feature","properties":{"id":682191793,"highway":"service"},"geometry":{"type":"LineString","coordinates":[[140.714657,36.663398],[140.714614,36.663379],[140.714571,36.663366],[140.714501,36.663363],[140.71445,36.663373]]}},{"type":"Feature","properties":{"id":682191796,"highway":"service"},"geometry":{"type":"LineString","coordinates":[[140.714167,36.664244],[140.714001,36.664376],[140.713912,36.664754]]}},{"type":"Feature","properties":{"id":682191797,"highway":"service"},"geometry":{"type":"LineString","coordinates":[[140.714001,36.664376],[140.713631,36.664203]]}},{"type":"Feature","properties":{"id":697149998,"highway":"service"},"geometry":{"type":"LineString","coordinates":[[140.713849,36.662383],[140.713876,36.662189],[140.713992,36.662146],[140.714154,36.662191],[140.714311,36.662357],[140.714553,36.662577],[140.714692,36.662789],[140.71469,36.662954],[140.71459,36.663071],[140.714516,36.663179],[140.714491,36.663244],[140.714474,36.663283],[140.714464,36.663323],[140.71445,36.663373],[140.714409,36.663422],[140.714383,36.663461],[140.714374,36.663505],[140.714383,36.663548],[140.714408,36.663588],[140.714447,36.663619],[140.714498,36.66364],[140.714552,36.663663],[140.714566,36.663726],[140.714589,36.663793],[140.714728,36.66427],[140.714744,36.664379],[140.714681,36.664454],[140.714575,36.664493],[140.714307,36.66447]]}},{"type":"Feature","properties":{"id":697149999,"highway":"service"},"geometry":{"type":"LineString","coordinates":[[140.714023,36.662661],[140.713976,36.662752]]}},{"type":"Feature","properties":{"id":1161711778,"highway":"residential"},"geometry":{"type":"LineString","coordinates":[[140.698989,36.691513],[140.699587,36.690919],[140.699984,36.690455],[140.70051,36.689672],[140.700939,36.689336],[140.701416,36.688887],[140.701647,36.688493],[140.701741,36.688398]]}},{"type":"Feature","properties":{"id":1161711779,"highway":"residential"},"geometry":{"type":"LineString","coordinates":[[140.701741,36.688398],[140.702022,36.688115]]}},{"type":"Feature","properties":{"id":1196999003,"highway":"residential"},"geometry":{"type":"LineString","coordinates":[[140.705391,36.659964],[140.705478,36.659165]]}},{"type":"Feature","properties":{"id":1196999004,"highway":"residential"},"geometry":{"type":"LineString","coordinates":[[140.706236,36.657332],[140.706786,36.657581]]}},{"type":"Feature","properties":{"id":1196999005,"highway":"residential"},"geometry":{"type":"LineString","coordinates":[[140.706455,36.656973],[140.706236,36.657332],[140.706038,36.657467],[140.705866,36.657616],[140.705799,36.65765],[140.705692,36.6577],[140.705641,36.657736],[140.705603,36.657786],[140.705499,36.657967],[140.705477,36.658025],[140.705517,36.658171],[140.705885,36.658119],[140.705906,36.658094],[140.705893,36.657977],[140.706072,36.657958],[140.706038,36.657467]]}},{"type":"Feature","properties":{"id":1196999008,"highway":"residential"},"geometry":{"type":"LineString","coordinates":[[140.706728,36.658526],[140.707484,36.658517]]}},{"type":"Feature","properties":{"id":1196999009,"highway":"residential"},"geometry":{"type":"LineString","coordinates":[[140.706724,36.658177],[140.706728,36.658526],[140.706732,36.658889]]}},{"type":"Feature","properties":{"id":1196999010,"highway":"residential"},"geometry":{"type":"LineString","coordinates":[[140.708043,36.65889],[140.707548,36.658029],[140.707285,36.65813],[140.707274,36.658171],[140.707065,36.658173],[140.706724,36.658177],[140.706311,36.658182],[140.706309,36.657844],[140.70695,36.657837],[140.707062,36.657902],[140.707065,36.658173]]}},{"type":"Feature","properties":{"id":1196999011,"highway":"residential"},"geometry":{"type":"LineString","coordinates":[[140.708532,36.660441],[140.708511,36.660344],[140.708484,36.660295],[140.708409,36.66025],[140.708031,36.659783],[140.707996,36.659718],[140.707743,36.658947],[140.707484,36.658517],[140.707274,36.658171]]}},{"type":"Feature","properties":{"id":1196999012,"highway":"residential"},"geometry":{"type":"LineString","coordinates":[[140.710856,36.660186],[140.710448,36.660213],[140.710023,36.660251],[140.70961,36.660286],[140.709223,36.660321]]}},{"type":"Feature","properties":{"id":1196999013,"highway":"residential"},"geometry":{"type":"LineString","coordinates":[[140.710226,36.661817],[140.710162,36.661325],[140.710023,36.660251],[140.709881,36.659158]]}},{"type":"Feature","properties":{"id":1196999014,"highway":"residential"},"geometry":{"type":"LineString","coordinates":[[140.70951,36.659459],[140.709149,36.659488],[140.709125,36.659512],[140.709223,36.660321],[140.709353,36.661392],[140.709396,36.66168],[140.709503,36.662214],[140.709554,36.662261],[140.709618,36.66224],[140.709825,36.662053],[140.710226,36.661817],[140.710636,36.661571],[140.710599,36.661288],[140.710448,36.660213],[140.710296,36.659126]]}},{"type":"Feature","properties":{"id":1196999015,"highway":"residential"},"geometry":{"type":"LineString","coordinates":[[140.709477,36.659189],[140.70951,36.659459],[140.70961,36.660286],[140.709741,36.66136],[140.709825,36.662053]]}},{"type":"Feature","properties":{"id":1196999016,"highway":"residential"},"geometry":{"type":"LineString","coordinates":[[140.710126,36.65914],[140.710077,36.658644]]}},{"type":"Feature","properties":{"id":1196999017,"highway":"residential"},"geometry":{"type":"LineString","coordinates":[[140.709452,36.659156],[140.709477,36.659189],[140.709881,36.659158],[140.710126,36.65914],[140.710296,36.659126],[140.710638,36.659097]]}},{"type":"Feature","properties":{"id":1196999018,"highway":"residential"},"geometry":{"type":"LineString","coordinates":[[140.710238,36.658652],[140.710302,36.65844],[140.710361,36.658328],[140.710572,36.658267]]}},{"type":"Feature","properties":{"id":1196999019,"highway":"residential"},"geometry":{"type":"LineString","coordinates":[[140.7089,36.659337],[140.709211,36.659271],[140.70935,36.65921],[140.709452,36.659156],[140.709511,36.659124],[140.70968,36.658814],[140.709752,36.658795],[140.709833,36.658692],[140.709932,36.658617],[140.710077,36.658644],[140.710238,36.658652],[140.710522,36.658651],[140.710522,36.658758],[140.710638,36.659097],[140.710703,36.659534],[140.710767,36.659764],[140.710819,36.659932],[140.71084,36.66005],[140.710856,36.660186],[140.71087,36.660358],[140.710975,36.66071],[140.710994,36.660809],[140.711059,36.66125],[140.710599,36.661288],[140.710162,36.661325],[140.709741,36.66136],[140.709353,36.661392]]}},{"type":"Feature","properties":{"id":1197000188,"highway":"trunk"},"geometry":{"type":"LineString","coordinates":[[140.708777,36.658847],[140.708805,36.658922],[140.708819,36.65896],[140.708832,36.658997],[140.70887,36.659146],[140.7089,36.659337],[140.709257,36.662084],[140.709299,36.662296],[140.709361,36.662488],[140.709546,36.66284],[140.710127,36.663568],[140.710402,36.664021],[140.71068,36.664764],[140.710698,36.664812],[140.710756,36.664968],[140.710811,36.665106],[140.710833,36.665161],[140.711442,36.666758],[140.711675,36.667366],[140.711735,36.667522],[140.711747,36.667554],[140.711828,36.667778],[140.711867,36.667887],[140.711986,36.668272],[140.712037,36.668583],[140.712042,36.668901],[140.711991,36.669191],[140.711925,36.669453],[140.711818,36.66969],[140.711183,36.670977],[140.710851,36.671718],[140.710783,36.671971],[140.710671,36.672585],[140.710655,36.672959],[140.710717,36.675494],[140.71072,36.675944]]}},{"type":"Feature","properties":{"id":1197003953,"highway":"residential"},"geometry":{"type":"LineString","coordinates":[[140.701012,36.655138],[140.70132,36.655042],[140.701464,36.654986],[140.701601,36.654921]]}},{"type":"Feature","properties":{"id":1197003954,"highway":"residential"},"geometry":{"type":"LineString","coordinates":[[140.701096,36.655437],[140.701012,36.655138],[140.70096,36.654986],[140.700907,36.654877],[140.700818,36.654733],[140.700595,36.654433]]}},{"type":"Feature","properties":{"id":1197037718,"highway":"tertiary"},"geometry":{"type":"LineString","coordinates":[[140.700151,36.655412],[140.699853,36.655182],[140.699783,36.655094],[140.699608,36.654827],[140.699105,36.654081],[140.698608,36.653329],[140.698315,36.652883],[140.698025,36.65242],[140.697897,36.652208],[140.697792,36.652113],[140.697645,36.652006],[140.697484,36.651837],[140.697298,36.65146],[140.697128,36.651069]]}},{"type":"Feature","properties":{"id":1197270057,"highway":"trunk"},"geometry":{"type":"LineString","coordinates":[[140.710758,36.701023],[140.71082,36.700926],[140.710943,36.700774],[140.712606,36.698866],[140.713342,36.698097],[140.713462,36.697972]]}},{"type":"Feature","properties":{"id":1259122375,"highway":"residential"},"geometry":{"type":"LineString","coordinates":[[140.699337,36.678758],[140.700325,36.678561],[140.700405,36.678545],[140.702231,36.677712]]}},{"type":"Feature","properties":{"id":1259122378,"highway":"residential"},"geometry":{"type":"LineString","coordinates":[[140.702589,36.678937],[140.702498,36.678547],[140.702624,36.678498],[140.702449,36.678224]]}},{"type":"Feature","properties":{"id":1259122380,"highway":"residential"},"geometry":{"type":"LineString","coordinates":[[140.703919,36.677206],[140.703908,36.67715],[140.703826,36.676722],[140.703738,36.676274]]}},{"type":"Feature","properties":{"id":1259122381,"highway":"residential"},"geometry":{"type":"LineString","coordinates":[[140.70416,36.680877],[140.705287,36.680826],[140.705397,36.68076],[140.705446,36.680353],[140.705588,36.679952]]}},{"type":"Feature","properties":{"id":1259122382,"highway":"residential"},"geometry":{"type":"LineString","coordinates":[[140.704398,36.682221],[140.704714,36.682211],[140.705198,36.682273],[140.70532,36.682365],[140.705507,36.682374],[140.705917,36.682309]]}},{"type":"Feature","properties":{"id":1259122383,"highway":"residential"},"geometry":{"type":"LineString","coordinates":[[140.703452,36.685389],[140.703021,36.685244],[140.702971,36.68422]]}},{"type":"Feature","properties":{"id":1259122395,"highway":"residential"},"geometry":{"type":"LineString","coordinates":[[140.711442,36.666758],[140.711201,36.66672],[140.710874,36.666612],[140.710601,36.666657],[140.710468,36.666748],[140.709739,36.667196],[140.708791,36.667587],[140.708504,36.667839],[140.707675,36.668051],[140.707309,36.668383],[140.706998,36.668667],[140.706566,36.668882],[140.70611,36.668963],[140.705583,36.669203],[140.70538,36.669401],[140.705149,36.669519],[140.703695,36.669693],[140.702914,36.669856],[140.702674,36.670055],[140.701808,36.670205],[140.701369,36.67013],[140.701069,36.670097],[140.700699,36.670238],[140.700203,36.67042],[140.699926,36.670479],[140.699487,36.670485]]}},{"type":"Feature","properties":{"id":1259122396,"highway":"residential"},"geometry":{"type":"LineString","coordinates":[[140.706998,36.668667],[140.707175,36.668819],[140.707529,36.66893],[140.707667,36.669024],[140.707716,36.669253],[140.708057,36.669461],[140.708704,36.669518],[140.708805,36.669527],[140.709078,36.669722],[140.709358,36.669752],[140.709618,36.669911],[140.709919,36.669843],[140.710122,36.669859],[140.710301,36.669928],[140.7105,36.670026],[140.710656,36.670459]]}},{"type":"Feature","properties":{"id":1259122399,"highway":"unclassified"},"geometry":{"type":"LineString","coordinates":[[140.706435,36.686233],[140.706431,36.68621],[140.706418,36.686136],[140.706349,36.68575],[140.706241,36.685381],[140.706151,36.685199],[140.705849,36.684704],[140.705456,36.684232],[140.705116,36.683925],[140.704982,36.683698],[140.70489,36.683466],[140.704804,36.683242],[140.704772,36.683195],[140.70471,36.683146],[140.704646,36.683108]]}},{"type":"Feature","properties":{"id":1259122400,"highway":"unclassified"},"geometry":{"type":"LineString","coordinates":[[140.706509,36.686597],[140.706435,36.686233]]}},{"type":"Feature","properties":{"id":1314191733,"highway":"trunk"},"geometry":{"type":"LineString","coordinates":[[140.699298,36.655372],[140.700107,36.655571],[140.700322,36.655642],[140.700502,36.655712],[140.700594,36.655767]]}},{"type":"Feature","properties":{"id":1314191736,"highway":"trunk"},"geometry":{"type":"LineString","coordinates":[[140.710738,36.67699],[140.710764,36.677845],[140.710863,36.678988],[140.711238,36.681631],[140.711614,36.684095],[140.711658,36.684385],[140.71166,36.684399]]}},{"type":"Feature","properties":{"id":1314191737,"highway":"trunk"},"geometry":{"type":"LineString","coordinates":[[140.710724,36.676518],[140.710727,36.676644],[140.710729,36.676693],[140.710738,36.67699]]}},{"type":"Feature","properties":{"id":1314191738,"highway":"trunk"},"geometry":{"type":"LineString","coordinates":[[140.71072,36.675944],[140.710723,36.676346],[140.710723,36.676388],[140.710724,36.676518]]}},{"type":"Feature","properties":{"id":1314191739,"highway":"tertiary"},"geometry":{"type":"LineString","coordinates":[[140.710724,36.676518],[140.710547,36.67652],[140.710482,36.67652],[140.710153,36.676523]]}},{"type":"Feature","properties":{"id":1315348770,"highway":"tertiary"},"geometry":{"type":"LineString","coordinates":[[140.701825,36.677482],[140.701611,36.677489],[140.701385,36.677496],[140.700925,36.6775],[140.700057,36.67749],[140.699755,36.677487],[140.698048,36.67747]]}},{"type":"Feature","properties":{"id":1315348771,"highway":"residential"},"geometry":{"type":"LineString","coordinates":[[140.701825,36.677482],[140.70173,36.677422],[140.701183,36.677078],[140.700796,36.676848],[140.700677,36.676776],[140.700594,36.676714],[140.700542,36.676631],[140.700506,36.676506],[140.700495,36.676403],[140.700511,36.67573],[140.700511,36.675489],[140.700506,36.675303],[140.700485,36.675149],[140.700423,36.674863],[140.700377,36.674622],[140.700299,36.674269],[140.70019,36.673809],[140.700051,36.673456],[140.699693,36.672543],[140.699585,36.672248],[140.699563,36.671976],[140.699518,36.67109],[140.699487,36.670485],[140.699455,36.669873],[140.699498,36.669086],[140.699449,36.668672],[140.699471,36.668625],[140.699653,36.668637],[140.699773,36.668631],[140.699826,36.668537],[140.699784,36.668411],[140.699728,36.668029],[140.699671,36.66782],[140.69969,36.667699],[140.699777,36.667473],[140.699924,36.66724],[140.699958,36.667097],[140.699947,36.667009],[140.69993,36.666909]]}},{"type":"Feature","properties":{"id":1315380092,"highway":"trunk"},"geometry":{"type":"LineString","coordinates":[[140.711818,36.688958],[140.712209,36.688911],[140.712268,36.688903],[140.712466,36.688879]]}},{"type":"Feature","properties":{"id":1315380093,"highway":"trunk"},"geometry":{"type":"LineString","coordinates":[[140.71237,36.688344],[140.712434,36.6887],[140.712442,36.688746],[140.712466,36.688879]]}},{"type":"Feature","properties":{"id":1315380094,"highway":"trunk"},"geometry":{"type":"LineString","coordinates":[[140.712466,36.688879],[140.712493,36.68902],[140.712503,36.68907],[140.712557,36.689353]]}},{"type":"Feature","properties":{"id":1523980365,"highway":"trunk"},"geometry":{"type":"LineString","coordinates":[[140.71468,36.694855],[140.715002,36.695407],[140.715088,36.695679],[140.715147,36.695989],[140.71544,36.697457]]}}]}