{"type":"FeatureCollection","features":[{"type":"Feature","properties":{"id":57826711,"highway":"unclassified"},"geometry":{"type":"LineString","coordinates":[[140.848511,35.705402],[140.84874,35.705289],[140.848896,35.70521],[140.849039,35.705137],[140.849388,35.704963],[140.849674,35.704819],[140.849915,35.704677],[140.849999,35.704627],[140.850465,35.70436],[140.850621,35.704295],[140.851144,35.704088],[140.851898,35.703793],[140.85228,35.703657],[140.852616,35.703545],[140.85353,35.703273],[140.853714,35.703174],[140.853893,35.70305],[140.854063,35.702899],[140.854216,35.702748],[140.854297,35.702653],[140.854322,35.702621],[140.854358,35.702575],[140.854527,35.702422],[140.854672,35.702321],[140.855569,35.70186],[140.855774,35.701725],[140.855868,35.701661],[140.856023,35.701292],[140.856077,35.701223],[140.856208,35.701069],[140.856314,35.700954],[140.856423,35.700841],[140.856559,35.700716],[140.856733,35.70057],[140.857066,35.700348],[140.857512,35.700061],[140.857647,35.699969],[140.857795,35.699874],[140.857955,35.699771],[140.858394,35.699496],[140.85889,35.699196],[140.859242,35.698988],[140.859357,35.698907],[140.85946,35.698814],[140.859522,35.698749],[140.859777,35.698429],[140.859917,35.6983],[140.860058,35.698171],[140.860851,35.697484],[140.86131,35.697091]]}},{"type":"Feature","properties":{"id":57826713,"highway":"unclassified"},"geometry":{"type":"LineString","coordinates":[[140.858808,35.702115],[140.858847,35.702056],[140.85895,35.701661],[140.858998,35.701543],[140.85897,35.701366],[140.8589,35.701229],[140.858824,35.701087],[140.858759,35.70093],[140.858738,35.700777],[140.858743,35.700707],[140.858812,35.700402],[140.858857,35.700181],[140.859004,35.699851],[140.859024,35.699805]]}},{"type":"Feature","properties":{"id":57826722,"highway":"unclassified"},"geometry":{"type":"LineString","coordinates":[[140.85889,35.699196],[140.859024,35.699805]]}},{"type":"Feature","properties":{"id":61189588,"highway":"tertiary"},"geometry":{"type":"LineString","coordinates":[[140.857955,35.699771],[140.857651,35.699029],[140.857566,35.698809],[140.857467,35.698547],[140.857315,35.69815],[140.857175,35.69783],[140.857079,35.697594],[140.857063,35.697502],[140.857053,35.697365],[140.857057,35.697238],[140.857061,35.697218],[140.857094,35.696928],[140.857091,35.696859],[140.85706,35.696725],[140.857015,35.69659],[140.856944,35.696479],[140.856929,35.696399],[140.856907,35.696275],[140.856844,35.69616],[140.856794,35.696083],[140.85666,35.695929]]}},{"type":"Feature","properties":{"id":61189597,"highway":"tertiary"},"geometry":{"type":"LineString","coordinates":[[140.848121,35.698393],[140.848159,35.698386],[140.848288,35.698361],[140.848485,35.698353],[140.850024,35.698336],[140.850393,35.698332],[140.850618,35.698333],[140.850785,35.698311],[140.853038,35.697629],[140.853108,35.697608],[140.854463,35.697193],[140.854542,35.697159],[140.854618,35.697113],[140.855043,35.69669]]}},{"type":"Feature","properties":{"id":103863210,"highway":"tertiary"},"geometry":{"type":"LineString","coordinates":[[140.859777,35.698429],[140.859402,35.697776],[140.859376,35.697731],[140.859152,35.69728],[140.859057,35.697036],[140.858963,35.696747]]}},{"type":"Feature","properties":{"id":107153878,"highway":"tertiary"},"geometry":{"type":"LineString","coordinates":[[140.861972,35.694828],[140.862096,35.694756],[140.862234,35.694694],[140.862354,35.694661],[140.862478,35.694643],[140.862832,35.694604],[140.862917,35.694594],[140.863165,35.694563],[140.863299,35.69453],[140.86416,35.69419],[140.864174,35.694185],[140.864594,35.694052],[140.86477,35.694015],[140.864857,35.693997],[140.864887,35.694001],[140.864918,35.694009],[140.864944,35.694035],[140.865201,35.694745],[140.86525,35.694874],[140.86525,35.694914],[140.865234,35.694949],[140.865205,35.694985],[140.864453,35.695596],[140.8644,35.69563],[140.864349,35.69565],[140.864194,35.695695],[140.864121,35.695722],[140.864066,35.695758],[140.863902,35.695897],[140.863825,35.695972],[140.863767,35.696031],[140.86333,35.6969],[140.863297,35.696936],[140.86324,35.696963],[140.862791,35.697021],[140.862575,35.697054],[140.862509,35.697045],[140.862472,35.697003],[140.862424,35.69679],[140.862393,35.696736]]}},{"type":"Feature","properties":{"id":191271412,"highway":"secondary"},"geometry":{"type":"LineString","coordinates":[[140.855907,35.698598],[140.855767,35.698409],[140.855634,35.698219],[140.855475,35.698023],[140.855302,35.697848],[140.855062,35.697617],[140.854791,35.697417]]}},{"type":"Feature","properties":{"id":191271426,"highway":"residential"},"geometry":{"type":"LineString","coordinates":[[140.851535,35.699979],[140.850873,35.700218],[140.850419,35.700422],[140.850185,35.700497],[140.850026,35.700514],[140.849812,35.700521],[140.849427,35.700537],[140.849191,35.700544],[140.848868,35.700547]]}},{"type":"Feature","properties":{"id":191271678,"highway":"residential"},"geometry":{"type":"LineString","coordinates":[[140.858963,35.696747],[140.859893,35.696537],[140.860058,35.696553],[140.86013,35.696556]]}},{"type":"Feature","properties":{"id":191271836,"highway":"service"},"geometry":{"type":"LineString","coordinates":[[140.855005,35.699067],[140.855204,35.699367],[140.855274,35.699465],[140.855472,35.699741],[140.855496,35.699785],[140.855674,35.70004],[140.855897,35.700257],[140.856003,35.700361],[140.856001,35.70038],[140.856172,35.700556]]}},{"type":"Feature","properties":{"id":191271938,"highway":"service"},"geometry":{"type":"LineString","coordinates":[[140.855805,35.697698],[140.855633,35.697878],[140.855475,35.698023]]}},{"type":"Feature","properties":{"id":191272025,"highway":"residential"},"geometry":{"type":"LineString","coordinates":[[140.854464,35.69936],[140.854308,35.699184],[140.854435,35.699109],[140.854436,35.699093],[140.854299,35.69891],[140.854157,35.698728],[140.854006,35.698541],[140.853827,35.698302],[140.853623,35.698011]]}},{"type":"Feature","properties":{"id":191272376,"highway":"unclassified"},"geometry":{"type":"LineString","coordinates":[[140.859934,35.700688],[140.85944,35.699902],[140.859323,35.69972],[140.859264,35.699702],[140.859024,35.699805]]}},{"type":"Feature","properties":{"id":191272588,"highway":"service"},"geometry":{"type":"LineString","coordinates":[[140.855674,35.699126],[140.855204,35.699367]]}},{"type":"Feature","properties":{"id":191272819,"highway":"unclassified"},"geometry":{"type":"LineString","coordinates":[[140.853082,35.702176],[140.853255,35.701151],[140.853296,35.700968],[140.853465,35.700709],[140.853901,35.700225],[140.853926,35.700196],[140.854075,35.699963],[140.854312,35.699518],[140.854343,35.699458],[140.854378,35.699421],[140.854464,35.69936],[140.855005,35.699067],[140.855024,35.699056],[140.855482,35.698834],[140.855907,35.698598]]}},{"type":"Feature","properties":{"id":191272874,"highway":"unclassified"},"geometry":{"type":"LineString","coordinates":[[140.856648,35.69799],[140.856509,35.697792],[140.856326,35.697562],[140.856166,35.697364],[140.855956,35.697211],[140.855713,35.697007],[140.855578,35.696934],[140.85533,35.696802]]}},{"type":"Feature","properties":{"id":191273100,"highway":"service"},"geometry":{"type":"LineString","coordinates":[[140.858203,35.697987],[140.857632,35.698078],[140.857315,35.69815]]}},{"type":"Feature","properties":{"id":191273116,"highway":"residential"},"geometry":{"type":"LineString","coordinates":[[140.854453,35.697642],[140.85465,35.697871],[140.854876,35.698083],[140.855055,35.69828],[140.855198,35.698462],[140.855348,35.69864],[140.855482,35.698834]]}},{"type":"Feature","properties":{"id":191273197,"highway":"service"},"geometry":{"type":"LineString","coordinates":[[140.859376,35.697731],[140.85852,35.697917],[140.858273,35.697972],[140.858203,35.697987]]}},{"type":"Feature","properties":{"id":191273213,"highway":"unclassified"},"geometry":{"type":"LineString","coordinates":[[140.850647,35.699072],[140.850441,35.69847],[140.850393,35.698332]]}},{"type":"Feature","properties":{"id":191273301,"highway":"service"},"geometry":{"type":"LineString","coordinates":[[140.855055,35.69828],[140.855292,35.69815],[140.855475,35.698023]]}},{"type":"Feature","properties":{"id":191273362,"highway":"tertiary"},"geometry":{"type":"LineString","coordinates":[[140.848277,35.696813],[140.848274,35.697662],[140.848288,35.698361]]}},{"type":"Feature","properties":{"id":191273484,"highway":"service"},"geometry":{"type":"LineString","coordinates":[[140.857315,35.69815],[140.856861,35.698341]]}},{"type":"Feature","properties":{"id":191273659,"highway":"residential"},"geometry":{"type":"LineString","coordinates":[[140.845037,35.705282],[140.845245,35.705272],[140.845417,35.705324],[140.845587,35.705324],[140.845723,35.705282],[140.845808,35.705186],[140.845875,35.705082],[140.845977,35.70502],[140.846172,35.704965],[140.846549,35.704903],[140.846673,35.704842],[140.846735,35.704756],[140.846751,35.704624],[140.846758,35.704309],[140.846781,35.704142],[140.846816,35.704027],[140.84689,35.703873],[140.846913,35.703751],[140.846901,35.703547],[140.846947,35.703458],[140.847005,35.703373],[140.847252,35.703214],[140.847327,35.703145],[140.847512,35.702824],[140.847781,35.702503],[140.847954,35.702215],[140.848272,35.701584],[140.848341,35.701369],[140.848361,35.701189],[140.848341,35.700952],[140.848293,35.700693],[140.848026,35.699954],[140.847894,35.699347],[140.847846,35.699199],[140.847561,35.698671]]}},{"type":"Feature","properties":{"id":191273770,"highway":"service"},"geometry":{"type":"LineString","coordinates":[[140.855055,35.69828],[140.854612,35.698499]]}},{"type":"Feature","properties":{"id":191273874,"highway":"service"},"geometry":{"type":"LineString","coordinates":[[140.848947,35.700277],[140.848871,35.700222],[140.848759,35.69996],[140.848519,35.699612],[140.848341,35.699397],[140.848211,35.699087],[140.847867,35.698485]]}},{"type":"Feature","properties":{"id":191273887,"highway":"service"},"geometry":{"type":"LineString","coordinates":[[140.855482,35.698834],[140.855674,35.699126],[140.855667,35.69916],[140.855912,35.699521],[140.855921,35.699532],[140.856266,35.700026],[140.85637,35.700147],[140.856733,35.70057]]}},{"type":"Feature","properties":{"id":191273899,"highway":"unclassified"},"geometry":{"type":"LineString","coordinates":[[140.862252,35.695793],[140.862602,35.695641],[140.862944,35.695526],[140.862952,35.695546],[140.862971,35.695571],[140.863399,35.695429],[140.863877,35.695247]]}},{"type":"Feature","properties":{"id":191273905,"highway":"service"},"geometry":{"type":"LineString","coordinates":[[140.856861,35.698341],[140.856824,35.698365],[140.856793,35.698386],[140.856538,35.698649]]}},{"type":"Feature","properties":{"id":191273906,"highway":"service"},"geometry":{"type":"LineString","coordinates":[[140.854612,35.698499],[140.854451,35.698581],[140.854157,35.698728]]}},{"type":"Feature","properties":{"id":191273997,"highway":"unclassified"},"geometry":{"type":"LineString","coordinates":[[140.857091,35.696859],[140.85728,35.696856],[140.85799,35.696836],[140.858259,35.696826],[140.858604,35.696795],[140.858963,35.696747]]}},{"type":"Feature","properties":{"id":191274115,"highway":"service"},"geometry":{"type":"LineString","coordinates":[[140.856166,35.697364],[140.855805,35.697698]]}},{"type":"Feature","properties":{"id":191274167,"highway":"unclassified"},"geometry":{"type":"LineString","coordinates":[[140.854075,35.699963],[140.854266,35.700119],[140.854296,35.700155],[140.854342,35.70021],[140.854527,35.700339],[140.854625,35.700409],[140.855172,35.700801],[140.855338,35.700917]]}},{"type":"Feature","properties":{"id":191274187,"highway":"unclassified"},"geometry":{"type":"LineString","coordinates":[[140.848485,35.698353],[140.848583,35.698644],[140.848713,35.699031],[140.84909,35.700036]]}},{"type":"Feature","properties":{"id":191274236,"highway":"residential"},"geometry":{"type":"LineString","coordinates":[[140.859777,35.698429],[140.860161,35.6989],[140.860573,35.699428],[140.860835,35.699846],[140.861045,35.700215],[140.861044,35.700239],[140.861018,35.700255],[140.860778,35.700343],[140.860191,35.700577],[140.859934,35.700688]]}},{"type":"Feature","properties":{"id":191274263,"highway":"service"},"geometry":{"type":"LineString","coordinates":[[140.851535,35.699979],[140.851286,35.699346],[140.851054,35.698906]]}},{"type":"Feature","properties":{"id":191274267,"highway":"residential"},"geometry":{"type":"LineString","coordinates":[[140.852246,35.699987],[140.852532,35.700283],[140.852874,35.700511],[140.853038,35.700571],[140.853229,35.700641],[140.853465,35.700709]]}},{"type":"Feature","properties":{"id":191274392,"highway":"service"},"geometry":{"type":"LineString","coordinates":[[140.856509,35.697047],[140.856532,35.697041],[140.856554,35.697036],[140.857091,35.696859]]}},{"type":"Feature","properties":{"id":191274397,"highway":"unclassified"},"geometry":{"type":"LineString","coordinates":[[140.86416,35.69419],[140.864287,35.694479],[140.864303,35.694575],[140.86446,35.695033],[140.864123,35.695158],[140.863877,35.695247]]}},{"type":"Feature","properties":{"id":191274466,"highway":"service"},"geometry":{"type":"LineString","coordinates":[[140.858203,35.697987],[140.858366,35.698177],[140.85861,35.698419],[140.859242,35.698988]]}},{"type":"Feature","properties":{"id":191274475,"highway":"residential"},"geometry":{"type":"LineString","coordinates":[[140.852095,35.699537],[140.852114,35.699614],[140.852123,35.699773],[140.85216,35.699866],[140.852246,35.699987]]}},{"type":"Feature","properties":{"id":191274530,"highway":"service"},"geometry":{"type":"LineString","coordinates":[[140.854312,35.699518],[140.854345,35.699539],[140.854534,35.699734],[140.854761,35.699619],[140.855204,35.699367]]}},{"type":"Feature","properties":{"id":191274602,"highway":"unclassified"},"geometry":{"type":"LineString","coordinates":[[140.856277,35.698329],[140.856538,35.698649],[140.856684,35.698826],[140.856817,35.698989],[140.856732,35.699047],[140.856329,35.699268]]}},{"type":"Feature","properties":{"id":191274708,"highway":"service"},"geometry":{"type":"LineString","coordinates":[[140.856861,35.698341],[140.856648,35.69799]]}},{"type":"Feature","properties":{"id":191274740,"highway":"service"},"geometry":{"type":"LineString","coordinates":[[140.861031,35.698851],[140.861312,35.699113]]}},{"type":"Feature","properties":{"id":191274785,"highway":"tertiary"},"geometry":{"type":"LineString","coordinates":[[140.861945,35.696788],[140.861999,35.696788],[140.862333,35.696728],[140.862393,35.696736]]}},{"type":"Feature","properties":{"id":191275806,"highway":"service"},"geometry":{"type":"LineString","coordinates":[[140.861031,35.698851],[140.86093,35.698781],[140.860562,35.698523],[140.860058,35.698171]]}},{"type":"Feature","properties":{"id":191275820,"highway":"unclassified"},"geometry":{"type":"LineString","coordinates":[[140.850399,35.69587],[140.849494,35.696174],[140.849398,35.696225],[140.848962,35.696681],[140.84878,35.696804],[140.848277,35.696813]]}},{"type":"Feature","properties":{"id":191275967,"highway":"service"},"geometry":{"type":"LineString","coordinates":[[140.852594,35.698341],[140.852903,35.698696],[140.852981,35.698761],[140.85302,35.698764],[140.853056,35.698761],[140.853187,35.698748]]}},{"type":"Feature","properties":{"id":265733130,"highway":"service"},"geometry":{"type":"LineString","coordinates":[[140.854436,35.699093],[140.854887,35.698865],[140.855348,35.69864],[140.855767,35.698409],[140.855796,35.698369],[140.85596,35.69825],[140.856127,35.6981],[140.85614,35.698061],[140.856358,35.697878],[140.856509,35.697792],[140.856753,35.697692],[140.857079,35.697594]]}},{"type":"Feature","properties":{"id":265733132,"highway":"unclassified"},"geometry":{"type":"LineString","coordinates":[[140.86242,35.696454],[140.862967,35.696305],[140.863767,35.696031]]}},{"type":"Feature","properties":{"id":265733133,"highway":"residential"},"geometry":{"type":"LineString","coordinates":[[140.853926,35.700196],[140.853493,35.70011],[140.853274,35.69992]]}},{"type":"Feature","properties":{"id":265733135,"highway":"service"},"geometry":{"type":"LineString","coordinates":[[140.853101,35.698099],[140.853329,35.698475]]}},{"type":"Feature","properties":{"id":265733140,"highway":"service"},"geometry":{"type":"LineString","coordinates":[[140.854299,35.69891],[140.854762,35.698681],[140.855198,35.698462],[140.855634,35.698219],[140.855649,35.698188],[140.8558,35.698059],[140.855966,35.697902],[140.856326,35.697562],[140.856484,35.697436],[140.856707,35.697326],[140.856927,35.69726],[140.857057,35.697238]]}},{"type":"Feature","properties":{"id":265733141,"highway":"unclassified"},"geometry":{"type":"LineString","coordinates":[[140.86446,35.695033],[140.864506,35.695046],[140.864971,35.694896]]}},{"type":"Feature","properties":{"id":265733144,"highway":"unclassified"},"geometry":{"type":"LineString","coordinates":[[140.8623,35.695931],[140.862038,35.696143]]}},{"type":"Feature","properties":{"id":265733149,"highway":"service"},"geometry":{"type":"LineString","coordinates":[[140.854006,35.698541],[140.854207,35.698414],[140.854433,35.6983],[140.85471,35.698153],[140.854876,35.698083],[140.855302,35.697848],[140.855458,35.697698],[140.855627,35.697534]]}},{"type":"Feature","properties":{"id":265733151,"highway":"unclassified"},"geometry":{"type":"LineString","coordinates":[[140.855907,35.698598],[140.856029,35.698532],[140.856277,35.698329],[140.856517,35.69808],[140.856648,35.69799]]}},{"type":"Feature","properties":{"id":265733155,"highway":"service"},"geometry":{"type":"LineString","coordinates":[[140.857061,35.697218],[140.857665,35.697353],[140.858145,35.69755]]}},{"type":"Feature","properties":{"id":265733317,"highway":"unclassified"},"geometry":{"type":"LineString","coordinates":[[140.862393,35.696736],[140.86243,35.696641],[140.86242,35.696454],[140.86239,35.69622],[140.8623,35.695931],[140.862252,35.695793]]}},{"type":"Feature","properties":{"id":265733318,"highway":"service"},"geometry":{"type":"LineString","coordinates":[[140.853224,35.698045],[140.853188,35.697823],[140.853167,35.697799],[140.853123,35.697657],[140.853108,35.697608]]}},{"type":"Feature","properties":{"id":265733319,"highway":"residential"},"geometry":{"type":"LineString","coordinates":[[140.852319,35.698267],[140.853167,35.697799]]}},{"type":"Feature","properties":{"id":265733321,"highway":"unclassified"},"geometry":{"type":"LineString","coordinates":[[140.856732,35.699047],[140.857054,35.699355],[140.857499,35.699778],[140.857647,35.699969]]}},{"type":"Feature","properties":{"id":265733322,"highway":"residential"},"geometry":{"type":"LineString","coordinates":[[140.858245,35.69578],[140.857923,35.695965],[140.857813,35.696134],[140.857794,35.696255],[140.857806,35.696405]]}},{"type":"Feature","properties":{"id":493637756,"highway":"residential"},"geometry":{"type":"LineString","coordinates":[[140.855083,35.697113],[140.85516,35.697176],[140.855384,35.697346],[140.855627,35.697534],[140.855805,35.697698],[140.855966,35.697902],[140.856127,35.6981],[140.856277,35.698329]]}},{"type":"Feature","properties":{"id":517500110,"highway":"unclassified"},"geometry":{"type":"LineString","coordinates":[[140.858963,35.696747],[140.858713,35.6963],[140.858497,35.696023],[140.858245,35.69578],[140.857869,35.695419],[140.857637,35.695225],[140.857274,35.694991]]}},{"type":"Feature","properties":{"id":517500112,"highway":"residential"},"geometry":{"type":"LineString","coordinates":[[140.859348,35.700995],[140.859228,35.70085],[140.859039,35.700661],[140.859026,35.700633],[140.85902,35.700606],[140.859039,35.700507],[140.859055,35.700423],[140.859118,35.700001],[140.859049,35.699876],[140.859004,35.699851]]}},{"type":"Feature","properties":{"id":523760014,"highway":"service"},"geometry":{"type":"LineString","coordinates":[[140.862944,35.695526],[140.862765,35.695007]]}},{"type":"Feature","properties":{"id":523760015,"highway":"service"},"geometry":{"type":"LineString","coordinates":[[140.863241,35.695143],[140.863273,35.6952],[140.863399,35.695429]]}},{"type":"Feature","properties":{"id":635382329,"highway":"service"},"geometry":{"type":"LineString","coordinates":[[140.857665,35.697353],[140.857673,35.697187]]}},{"type":"Feature","properties":{"id":635382338,"highway":"service"},"geometry":{"type":"LineString","coordinates":[[140.859315,35.700357],[140.859397,35.700312],[140.859213,35.699983],[140.859118,35.700001]]}},{"type":"Feature","properties":{"id":635382361,"highway":"service"},"geometry":{"type":"LineString","coordinates":[[140.859917,35.6983],[140.860341,35.698596]]}},{"type":"Feature","properties":{"id":635382363,"highway":"service"},"geometry":{"type":"LineString","coordinates":[[140.857175,35.69783],[140.857575,35.697752]]}},{"type":"Feature","properties":{"id":635382369,"highway":"residential"},"geometry":{"type":"LineString","coordinates":[[140.85944,35.699902],[140.859548,35.699866],[140.859631,35.699877],[140.859778,35.69991],[140.860191,35.700577]]}},{"type":"Feature","properties":{"id":635382370,"highway":"service"},"geometry":{"type":"LineString","coordinates":[[140.859749,35.699171],[140.860161,35.6989]]}},{"type":"Feature","properties":{"id":635382371,"highway":"service"},"geometry":{"type":"LineString","coordinates":[[140.858145,35.69755],[140.858284,35.697504],[140.858167,35.696994],[140.858282,35.696977],[140.858259,35.696826]]}},{"type":"Feature","properties":{"id":635624570,"highway":"service"},"geometry":{"type":"LineString","coordinates":[[140.858394,35.699496],[140.858475,35.699785]]}},{"type":"Feature","properties":{"id":635624573,"highway":"residential"},"geometry":{"type":"LineString","coordinates":[[140.853827,35.698302],[140.853924,35.698255],[140.854254,35.698102],[140.85465,35.697871],[140.855062,35.697617],[140.855384,35.697346],[140.855713,35.697007]]}},{"type":"Feature","properties":{"id":635624574,"highway":"service"},"geometry":{"type":"LineString","coordinates":[[140.853329,35.698475],[140.853147,35.698575],[140.853147,35.698597],[140.853187,35.698748],[140.853191,35.698777],[140.853205,35.698794],[140.85323,35.6988],[140.853355,35.698786],[140.853488,35.698788],[140.853511,35.698816],[140.853645,35.699069],[140.853783,35.699274],[140.853854,35.699352],[140.853897,35.699381],[140.854312,35.699518]]}},{"type":"Feature","properties":{"id":635624581,"highway":"service"},"geometry":{"type":"LineString","coordinates":[[140.853274,35.69992],[140.85276,35.700196]]}},{"type":"Feature","properties":{"id":635624994,"highway":"residential"},"geometry":{"type":"LineString","coordinates":[[140.862282,35.694943],[140.862267,35.694941],[140.862138,35.694998],[140.862104,35.69502],[140.861979,35.695176],[140.861978,35.695203],[140.861996,35.695266],[140.862027,35.695338],[140.862044,35.695357],[140.862082,35.695428],[140.862252,35.695793]]}},{"type":"Feature","properties":{"id":635624995,"highway":"service"},"geometry":{"type":"LineString","coordinates":[[140.862335,35.695033],[140.862502,35.695031],[140.862765,35.695007],[140.863106,35.694871],[140.862917,35.694594]]}},{"type":"Feature","properties":{"id":635625968,"highway":"service"},"geometry":{"type":"LineString","coordinates":[[140.86039,35.700021],[140.860835,35.699846]]}},{"type":"Feature","properties":{"id":635625971,"highway":"service"},"geometry":{"type":"LineString","coordinates":[[140.861601,35.69557],[140.86186,35.695382],[140.862027,35.695338]]}},{"type":"Feature","properties":{"id":635625972,"highway":"service"},"geometry":{"type":"LineString","coordinates":[[140.863273,35.6952],[140.863474,35.695129]]}},{"type":"Feature","properties":{"id":638946101,"highway":"residential"},"geometry":{"type":"LineString","coordinates":[[140.849702,35.699424],[140.849826,35.699624],[140.849901,35.699815]]}},{"type":"Feature","properties":{"id":640778105,"highway":"service"},"geometry":{"type":"LineString","coordinates":[[140.855472,35.699741],[140.855921,35.699532]]}},{"type":"Feature","properties":{"id":640778114,"highway":"service"},"geometry":{"type":"LineString","coordinates":[[140.851286,35.699346],[140.851722,35.699198]]}},{"type":"Feature","properties":{"id":645270901,"highway":"secondary"},"geometry":{"type":"LineString","coordinates":[[140.847986,35.703711],[140.848052,35.703617],[140.848141,35.70341],[140.848223,35.703229],[140.84843,35.702902],[140.848585,35.702628],[140.848711,35.702289],[140.848797,35.701919],[140.848874,35.701555],[140.848871,35.701087],[140.848878,35.700783],[140.848868,35.700547],[140.848868,35.700428],[140.848947,35.700277],[140.84909,35.700036],[140.849315,35.699619],[140.849356,35.699565],[140.849416,35.699514],[140.849702,35.699424],[140.850086,35.699308],[140.850647,35.699072],[140.851054,35.698906],[140.851721,35.69867],[140.852087,35.69857],[140.852274,35.698496],[140.85243,35.698419],[140.852594,35.698341],[140.852975,35.69815],[140.853101,35.698099],[140.853224,35.698045],[140.853319,35.698024],[140.853384,35.698011],[140.853561,35.698013],[140.853623,35.698011],[140.853682,35.698001],[140.853742,35.697982],[140.85405,35.697847],[140.854101,35.697823],[140.854453,35.697642],[140.854658,35.697511],[140.854713,35.697472],[140.854791,35.697417],[140.855083,35.697113],[140.85533,35.696802],[140.855551,35.696598],[140.855596,35.69651],[140.85569,35.696403],[140.855799,35.69632],[140.856007,35.696191],[140.856199,35.696085],[140.856355,35.696019],[140.85666,35.695929],[140.856815,35.695871],[140.856917,35.69582],[140.857046,35.695758],[140.857274,35.695652],[140.857869,35.695419],[140.858062,35.695349],[140.858179,35.695322],[140.858336,35.695312],[140.859052,35.695321],[140.859495,35.695362]]}},{"type":"Feature","properties":{"id":645270909,"highway":"secondary"},"geometry":{"type":"LineString","coordinates":[[140.859495,35.695362],[140.859779,35.695338],[140.860224,35.695274],[140.860295,35.695272]]}},{"type":"Feature","properties":{"id":645270913,"highway":"secondary"},"geometry":{"type":"LineString","coordinates":[[140.860295,35.695272],[140.860829,35.695273],[140.861145,35.695224],[140.861202,35.695225],[140.861266,35.695252],[140.861308,35.695282],[140.861601,35.69557],[140.861864,35.695846],[140.861918,35.695929],[140.861988,35.696042],[140.862038,35.696143],[140.862058,35.696213],[140.862077,35.69632],[140.862074,35.696407],[140.862059,35.696496],[140.862002,35.69671],[140.861985,35.696761],[140.861945,35.696788],[140.861909,35.696818],[140.861857,35.696846],[140.861488,35.696967],[140.861399,35.697013],[140.86131,35.697091]]}},{"type":"Feature","properties":{"id":681615084,"highway":"service"},"geometry":{"type":"LineString","coordinates":[[140.846096,35.698683],[140.846999,35.69885],[140.847321,35.698907]]}},{"type":"Feature","properties":{"id":681615088,"highway":"service"},"geometry":{"type":"LineString","coordinates":[[140.846999,35.69885],[140.846991,35.698776],[140.846956,35.698681],[140.846839,35.698621],[140.846694,35.698579],[140.846325,35.698475]]}},{"type":"Feature","properties":{"id":897635400,"highway":"service"},"geometry":{"type":"LineString","coordinates":[[140.855088,35.69995],[140.854761,35.699619]]}},{"type":"Feature","properties":{"id":927674062,"highway":"residential"},"geometry":{"type":"LineString","coordinates":[[140.85405,35.697847],[140.854102,35.697912],[140.854254,35.698102],[140.854433,35.6983],[140.854612,35.698499],[140.854762,35.698681],[140.854887,35.698865],[140.855024,35.699056]]}},{"type":"Feature","properties":{"id":927674063,"highway":"service"},"geometry":{"type":"LineString","coordinates":[[140.853123,35.697657],[140.853049,35.697713],[140.851799,35.698103],[140.85061,35.69846],[140.850441,35.69847]]}},{"type":"Feature","properties":{"id":1023518503,"highway":"secondary"},"geometry":{"type":"LineString","coordinates":[[140.861508,35.6992],[140.861513,35.699359],[140.861526,35.699485],[140.861585,35.699758],[140.861607,35.699838],[140.861788,35.700489],[140.861951,35.70101],[140.862017,35.701188],[140.862116,35.701358],[140.862178,35.701427],[140.862474,35.701744],[140.862549,35.701844],[140.86259,35.701918],[140.862616,35.701989],[140.86263,35.702061],[140.862637,35.702141],[140.862625,35.70221],[140.862601,35.702317],[140.862554,35.702404],[140.862464,35.702547],[140.862069,35.703163],[140.861885,35.703397],[140.861767,35.703496],[140.861609,35.703592]]}},{"type":"Feature","properties":{"id":1023518504,"highway":"secondary"},"geometry":{"type":"LineString","coordinates":[[140.855907,35.698598],[140.856101,35.698912],[140.856329,35.699268],[140.856365,35.699321],[140.856443,35.699445]]}},{"type":"Feature","properties":{"id":1023518507,"highway":"secondary"},"geometry":{"type":"LineString","coordinates":[[140.856443,35.699445],[140.856555,35.699623],[140.856724,35.699883],[140.857066,35.700348],[140.857188,35.700479],[140.85732,35.700596],[140.85751,35.700756],[140.858047,35.701156],[140.858099,35.701197],[140.858216,35.701292],[140.858311,35.701382],[140.85841,35.701506],[140.85852,35.701654],[140.858629,35.701803],[140.858725,35.701957],[140.858808,35.702115],[140.858973,35.70249],[140.859159,35.702939],[140.859282,35.703247],[140.859431,35.703631],[140.859709,35.704384]]}},{"type":"Feature","properties":{"id":1023518655,"highway":"secondary"},"geometry":{"type":"LineString","coordinates":[[140.86131,35.697091],[140.861558,35.697419],[140.861637,35.697571],[140.861688,35.697702],[140.86174,35.697914],[140.861757,35.698071],[140.861755,35.698226],[140.861722,35.698439],[140.861684,35.698604],[140.861527,35.699101],[140.861508,35.6992]]}},{"type":"Feature","properties":{"id":1023518656,"highway":"residential"},"geometry":{"type":"LineString","coordinates":[[140.861312,35.699113],[140.861348,35.699159],[140.861508,35.6992]]}},{"type":"Feature","properties":{"id":1138317526,"highway":"tertiary"},"geometry":{"type":"LineString","coordinates":[[140.861615,35.695048],[140.861972,35.694828]]}},{"type":"Feature","properties":{"id":1138317527,"highway":"tertiary"},"geometry":{"type":"LineString","coordinates":[[140.861266,35.695252],[140.861615,35.695048]]}},{"type":"Feature","properties":{"id":1138317531,"highway":"residential"},"geometry":{"type":"LineString","coordinates":[[140.855082,35.696705],[140.855198,35.696598],[140.855349,35.696522],[140.855505,35.69647],[140.855596,35.69651]]}},{"type":"Feature","properties":{"id":1138317534,"highway":"residential"},"geometry":{"type":"LineString","coordinates":[[140.853038,35.697629],[140.853028,35.696686]]}},{"type":"Feature","properties":{"id":1138317535,"highway":"service"},"geometry":{"type":"LineString","coordinates":[[140.854021,35.697685],[140.854101,35.697823]]}},{"type":"Feature","properties":{"id":1138317536,"highway":"residential"},"geometry":{"type":"LineString","coordinates":[[140.853123,35.697657],[140.853499,35.697643],[140.853703,35.697586],[140.853911,35.697494],[140.854126,35.697381]]}},{"type":"Feature","properties":{"id":1138317537,"highway":"service"},"geometry":{"type":"LineString","coordinates":[[140.848583,35.698644],[140.849169,35.698576]]}},{"type":"Feature","properties":{"id":1138317538,"highway":"service"},"geometry":{"type":"LineString","coordinates":[[140.84935,35.699245],[140.849302,35.698979]]}},{"type":"Feature","properties":{"id":1138317539,"highway":"service"},"geometry":{"type":"LineString","coordinates":[[140.848713,35.699031],[140.848976,35.698995],[140.849302,35.698979],[140.849477,35.698971]]}},{"type":"Feature","properties":{"id":1138317540,"highway":"residential"},"geometry":{"type":"LineString","coordinates":[[140.849985,35.698919],[140.850174,35.698892],[140.850024,35.698336]]}},{"type":"Feature","properties":{"id":1138317545,"highway":"service"},"geometry":{"type":"LineString","coordinates":[[140.851721,35.69867],[140.851921,35.699125],[140.852016,35.699341]]}},{"type":"Feature","properties":{"id":1138317546,"highway":"residential"},"geometry":{"type":"LineString","coordinates":[[140.853,35.699038],[140.853115,35.699202],[140.853245,35.699464],[140.85323,35.699515],[140.853075,35.699652],[140.853076,35.699695],[140.853274,35.69992]]}},{"type":"Feature","properties":{"id":1138317547,"highway":"service"},"geometry":{"type":"LineString","coordinates":[[140.858604,35.696795],[140.858741,35.697265],[140.858551,35.697304]]}},{"type":"Feature","properties":{"id":1138317548,"highway":"service"},"geometry":{"type":"LineString","coordinates":[[140.858956,35.698147],[140.859402,35.697776]]}},{"type":"Feature","properties":{"id":1138317552,"highway":"service"},"geometry":{"type":"LineString","coordinates":[[140.855578,35.696934],[140.856223,35.696407],[140.856316,35.696343],[140.85641,35.696257],[140.856497,35.696206],[140.856598,35.696164],[140.856794,35.696083]]}},{"type":"Feature","properties":{"id":1248944709,"highway":"tertiary"},"geometry":{"type":"LineString","coordinates":[[140.846904,35.700405],[140.846946,35.700336],[140.846983,35.700266],[140.847278,35.699033],[140.847306,35.698934],[140.847321,35.698907],[140.847367,35.698831],[140.847561,35.698671],[140.847805,35.698523],[140.847867,35.698485],[140.847993,35.698419],[140.848121,35.698393]]}},{"type":"Feature","properties":{"id":1248945494,"highway":"service"},"geometry":{"type":"LineString","coordinates":[[140.855956,35.697211],[140.856094,35.697033],[140.856246,35.696943],[140.85627,35.696937],[140.856509,35.697047]]}},{"type":"Feature","properties":{"id":1340417202,"highway":"tertiary"},"geometry":{"type":"LineString","coordinates":[[140.85666,35.695929],[140.856515,35.695772],[140.856443,35.695767],[140.855777,35.696054],[140.855166,35.696358],[140.855028,35.696452],[140.854881,35.6966],[140.855043,35.69669],[140.855082,35.696705],[140.855143,35.696729],[140.85533,35.696802]]}},{"type":"Feature","properties":{"id":1396267422,"highway":"service"},"geometry":{"type":"LineString","coordinates":[[140.856554,35.697036],[140.856707,35.697326]]}},{"type":"Feature","properties":{"id":1396267423,"highway":"service"},"geometry":{"type":"LineString","coordinates":[[140.856166,35.697364],[140.856437,35.697105],[140.856509,35.697047]]}},{"type":"Feature","properties":{"id":1396267954,"highway":"service"},"geometry":{"type":"LineString","coordinates":[[140.862602,35.695641],[140.862569,35.695524],[140.862545,35.695402],[140.862524,35.695363],[140.862452,35.695241],[140.862335,35.695033],[140.862282,35.694943]]}},{"type":"Feature","properties":{"id":1396576742,"highway":"service"},"geometry":{"type":"LineString","coordinates":[[140.85243,35.698419],[140.852319,35.698267],[140.852267,35.69821],[140.851933,35.698318],[140.851799,35.698103]]}},{"type":"Feature","properties":{"id":1396576743,"highway":"service"},"geometry":{"type":"LineString","coordinates":[[140.854126,35.697381],[140.854321,35.697288],[140.854677,35.697176],[140.85504,35.696784],[140.855143,35.696729]]}},{"type":"Feature","properties":{"id":1396576745,"highway":"service"},"geometry":{"type":"LineString","coordinates":[[140.860562,35.698523],[140.860854,35.69825],[140.861204,35.698522],[140.86093,35.698781]]}},{"type":"Feature","properties":{"id":1396576746,"highway":"service"},"geometry":{"type":"LineString","coordinates":[[140.853329,35.698475],[140.853827,35.698302]]}},{"type":"Feature","properties":{"id":1396594975,"highway":"service"},"geometry":{"type":"LineString","coordinates":[[140.86013,35.696556],[140.860739,35.696458],[140.860654,35.696291]]}},{"type":"Feature","properties":{"id":1396604814,"highway":"service"},"geometry":{"type":"LineString","coordinates":[[140.8473,35.698225],[140.847472,35.698298],[140.847476,35.698336],[140.847489,35.698413],[140.847557,35.698451],[140.84769,35.698462],[140.847805,35.698523]]}},{"type":"Feature","properties":{"id":1467911150,"highway":"service"},"geometry":{"type":"LineString","coordinates":[[140.853911,35.697494],[140.853987,35.697626]]}},{"type":"Feature","properties":{"id":1470175301,"highway":"service"},"geometry":{"type":"LineString","coordinates":[[140.854296,35.700155],[140.854472,35.700039],[140.854676,35.699913]]}},{"type":"Feature","properties":{"id":1470175302,"highway":"service"},"geometry":{"type":"LineString","coordinates":[[140.856598,35.696164],[140.856662,35.696299],[140.856701,35.696382],[140.856736,35.696424],[140.856775,35.696444],[140.85681,35.696441],[140.856929,35.696399]]}}]}