{"type":"FeatureCollection","features":[{"type":"Feature","properties":{"id":86127400,"highway":"residential"},"geometry":{"type":"LineString","coordinates":[[140.799952,36.833101],[140.80078,36.83314],[140.800826,36.833167],[140.800825,36.83338]]}},{"type":"Feature","properties":{"id":86127401,"highway":"tertiary"},"geometry":{"type":"LineString","coordinates":[[140.799923,36.833529],[140.799952,36.833101],[140.80001,36.832274],[140.800044,36.831789],[140.800076,36.831323],[140.800152,36.830236],[140.800218,36.829283]]}},{"type":"Feature","properties":{"id":86127405,"highway":"unclassified"},"geometry":{"type":"LineString","coordinates":[[140.799201,36.836657],[140.799354,36.83669],[140.799472,36.836706],[140.799565,36.836704],[140.800782,36.836408],[140.800942,36.836348],[140.801502,36.836092],[140.801607,36.836034],[140.8017,36.835962],[140.801767,36.835876],[140.801848,36.835693],[140.801945,36.83543],[140.801994,36.835316],[140.802582,36.83452],[140.802621,36.834447],[140.802632,36.834373],[140.802633,36.834294],[140.802613,36.834224],[140.80241,36.833806],[140.802399,36.833785],[140.802272,36.833539],[140.802208,36.833453],[140.80213,36.83338],[140.801992,36.833288],[140.801838,36.833218],[140.801773,36.833197],[140.801654,36.833202],[140.801587,36.833206],[140.801216,36.833284],[140.800825,36.83338],[140.800653,36.833425],[140.800429,36.833471],[140.800242,36.833495],[140.799923,36.833529]]}},{"type":"Feature","properties":{"id":104281739,"highway":"unclassified"},"geometry":{"type":"LineString","coordinates":[[140.800656,36.830993],[140.802271,36.831062],[140.80228,36.830693],[140.802292,36.830448],[140.802192,36.830326]]}},{"type":"Feature","properties":{"id":104372788,"highway":"unclassified"},"geometry":{"type":"LineString","coordinates":[[140.799517,36.831291],[140.799601,36.830209],[140.799635,36.82973],[140.79967,36.829258],[140.799697,36.828908],[140.799719,36.828801],[140.799754,36.828757],[140.799817,36.8287],[140.800129,36.828556]]}},{"type":"Feature","properties":{"id":104509602,"highway":"residential"},"geometry":{"type":"LineString","coordinates":[[140.800782,36.829313],[140.800716,36.830264],[140.800683,36.830627],[140.800656,36.830993],[140.800633,36.831285],[140.800389,36.831334],[140.800076,36.831323],[140.799517,36.831291],[140.79878,36.831252]]}},{"type":"Feature","properties":{"id":104509605,"highway":"residential"},"geometry":{"type":"LineString","coordinates":[[140.800683,36.830627],[140.80228,36.830693]]}},{"type":"Feature","properties":{"id":104509610,"highway":"residential"},"geometry":{"type":"LineString","coordinates":[[140.801327,36.829331],[140.801275,36.829909],[140.80124,36.830289]]}},{"type":"Feature","properties":{"id":104509612,"highway":"residential"},"geometry":{"type":"LineString","coordinates":[[140.801275,36.829909],[140.801715,36.82993],[140.801787,36.829951],[140.801851,36.829986],[140.802062,36.830206],[140.802192,36.830326]]}},{"type":"Feature","properties":{"id":104509614,"highway":"residential"},"geometry":{"type":"LineString","coordinates":[[140.798407,36.831572],[140.798554,36.831696],[140.798665,36.831728],[140.800044,36.831789]]}},{"type":"Feature","properties":{"id":104509615,"highway":"residential"},"geometry":{"type":"LineString","coordinates":[[140.797992,36.83219],[140.799532,36.832254],[140.80001,36.832274]]}},{"type":"Feature","properties":{"id":104509618,"highway":"residential"},"geometry":{"type":"LineString","coordinates":[[140.79967,36.829258],[140.800218,36.829283]]}},{"type":"Feature","properties":{"id":104769367,"highway":"unclassified"},"geometry":{"type":"LineString","coordinates":[[140.800156,36.828611],[140.800374,36.828612],[140.800466,36.828673],[140.800657,36.828779],[140.800833,36.828829],[140.800906,36.828908],[140.800993,36.829033],[140.801064,36.829137],[140.801331,36.829268],[140.801514,36.829357],[140.801993,36.829534],[140.802106,36.82962],[140.802283,36.82976],[140.802356,36.829871],[140.802407,36.829879],[140.802522,36.829861],[140.802575,36.82983],[140.802715,36.82973],[140.802882,36.829627],[140.80307,36.829583],[140.803314,36.829634],[140.803398,36.82972],[140.803414,36.829857],[140.803327,36.830169],[140.803245,36.830444],[140.803243,36.830728],[140.803243,36.830776],[140.803202,36.830872],[140.802991,36.830971],[140.802841,36.831036],[140.802695,36.831341],[140.802424,36.83157]]}},{"type":"Feature","properties":{"id":198727911,"highway":"unclassified"},"geometry":{"type":"LineString","coordinates":[[140.801216,36.833284],[140.801202,36.833017],[140.801153,36.832841],[140.800998,36.832598],[140.800866,36.832403],[140.800837,36.832178],[140.800844,36.831917],[140.800872,36.831856],[140.800921,36.831812],[140.801026,36.831773],[140.801216,36.831789],[140.801463,36.831933],[140.801588,36.832019],[140.801679,36.832042],[140.801745,36.832039],[140.801779,36.832038],[140.801862,36.83202],[140.801976,36.831993],[140.802119,36.83195],[140.802204,36.831903],[140.802279,36.831733],[140.802338,36.831651],[140.802424,36.83157]]}},{"type":"Feature","properties":{"id":198728274,"highway":"unclassified"},"geometry":{"type":"LineString","coordinates":[[140.802424,36.83157],[140.802271,36.831062]]}},{"type":"Feature","properties":{"id":320529796,"highway":"tertiary"},"geometry":{"type":"LineString","coordinates":[[140.800218,36.829283],[140.800234,36.828901],[140.800226,36.828783],[140.800177,36.828656],[140.800156,36.828611],[140.800129,36.828556],[140.799987,36.828375],[140.799872,36.828279],[140.799772,36.828212],[140.799676,36.828167],[140.799579,36.828127],[140.799465,36.828086],[140.799241,36.828055],[140.798572,36.828015],[140.798214,36.828003],[140.798055,36.827982],[140.797917,36.827949],[140.797814,36.827904],[140.797736,36.827862],[140.797615,36.827777],[140.797486,36.827672],[140.796996,36.827184],[140.796861,36.827058],[140.796679,36.826934],[140.796566,36.82688],[140.796334,36.826804],[140.79613,36.826759],[140.796002,36.826755],[140.795875,36.82676],[140.79576,36.826779],[140.795575,36.826827],[140.795465,36.826894],[140.795394,36.826946],[140.79489,36.827375],[140.794456,36.827889],[140.794207,36.828182],[140.794147,36.828286]]}},{"type":"Feature","properties":{"id":320529797,"highway":"residential"},"geometry":{"type":"LineString","coordinates":[[140.800218,36.829283],[140.800782,36.829313],[140.801327,36.829331]]}},{"type":"Feature","properties":{"id":373518874,"highway":"service"},"geometry":{"type":"LineString","coordinates":[[140.801848,36.835693],[140.802194,36.835881],[140.802311,36.835964],[140.802375,36.836052],[140.80241,36.836119],[140.802419,36.836186],[140.802406,36.836339],[140.802402,36.836394],[140.802369,36.83659],[140.80232,36.836804],[140.80224,36.837096],[140.802157,36.83748],[140.802031,36.837912]]}},{"type":"Feature","properties":{"id":727621995,"highway":"unclassified"},"geometry":{"type":"LineString","coordinates":[[140.802192,36.830326],[140.801514,36.83031],[140.80124,36.830289],[140.800716,36.830264],[140.800152,36.830236],[140.799601,36.830209],[140.799112,36.830193],[140.799043,36.830173],[140.798718,36.829883],[140.798487,36.829674],[140.798457,36.829619],[140.798474,36.829315],[140.79854,36.828482],[140.798572,36.828015]]}},{"type":"Feature","properties":{"id":1183346528,"highway":"residential"},"geometry":{"type":"LineString","coordinates":[[140.801331,36.829268],[140.801327,36.829331]]}},{"type":"Feature","properties":{"id":1234146922,"highway":"service"},"geometry":{"type":"LineString","coordinates":[[140.801945,36.83543],[140.801961,36.835435],[140.802202,36.835185],[140.802356,36.835097],[140.802669,36.83498],[140.80301,36.834887]]}},{"type":"Feature","properties":{"id":1234146923,"highway":"service"},"geometry":{"type":"LineString","coordinates":[[140.802356,36.835097],[140.802433,36.835215],[140.802257,36.835372]]}},{"type":"Feature","properties":{"id":1234146924,"highway":"service"},"geometry":{"type":"LineString","coordinates":[[140.802582,36.83452],[140.802644,36.834588],[140.802669,36.83498]]}}]}