{"type":"FeatureCollection","features":[{"type":"Feature","properties":{"id":801947392,"highway":"tertiary"},"geometry":{"type":"LineString","coordinates":[[138.444506,36.345206],[138.444518,36.345427],[138.44453,36.346121],[138.444513,36.346344],[138.44453,36.346588],[138.444587,36.346798],[138.444742,36.346976],[138.445012,36.347318],[138.44538,36.347785],[138.445416,36.347831],[138.445559,36.348193],[138.445715,36.348549],[138.446123,36.349417],[138.44636,36.349944],[138.446523,36.350306],[138.446621,36.350779],[138.446736,36.351326],[138.446842,36.351694],[138.446939,36.351806],[138.447044,36.351956],[138.447218,36.352128],[138.447528,36.352392],[138.44792,36.352661],[138.448017,36.352735],[138.448206,36.352878],[138.448891,36.353561],[138.44894,36.353615],[138.449258,36.353964],[138.449616,36.354334],[138.450116,36.354778],[138.450711,36.355252],[138.451188,36.355773],[138.451546,36.356135],[138.451689,36.356398],[138.451842,36.356958],[138.452086,36.357441],[138.452322,36.357797],[138.452628,36.3582],[138.452976,36.358455],[138.453149,36.358685],[138.453394,36.359022],[138.453558,36.359203],[138.453966,36.359606],[138.454232,36.360058],[138.454426,36.360593],[138.454538,36.36093],[138.45465,36.361234],[138.454844,36.361522],[138.455018,36.361818],[138.455202,36.36209],[138.4556,36.362484],[138.456141,36.362896],[138.456489,36.363183],[138.456836,36.363471],[138.457183,36.363759],[138.45727,36.363794],[138.457734,36.363981],[138.458133,36.364105],[138.458163,36.364244],[138.45802,36.364433],[138.457724,36.364688],[138.457438,36.365108],[138.457275,36.365478],[138.457265,36.365881],[138.457367,36.366202],[138.457642,36.366547],[138.457785,36.366794],[138.457888,36.367065],[138.458102,36.36746],[138.458245,36.367591],[138.458336,36.3676],[138.458429,36.367542],[138.458368,36.367336],[138.458255,36.36709],[138.458163,36.366835],[138.458082,36.366514],[138.458071,36.366127],[138.458163,36.365782],[138.458276,36.365609],[138.45847,36.365577],[138.458613,36.365675],[138.458756,36.366103],[138.458919,36.366555],[138.459134,36.366958],[138.459307,36.367353],[138.459542,36.367797],[138.459705,36.368076],[138.45995,36.368298],[138.460185,36.368545],[138.460625,36.368883],[138.460859,36.36908],[138.460992,36.369285],[138.460921,36.369606],[138.460849,36.369911],[138.460819,36.370157],[138.460768,36.370453],[138.460819,36.3707],[138.460921,36.370897],[138.461074,36.371045],[138.461129,36.371136],[138.461227,36.3713],[138.461145,36.371555],[138.461094,36.371777],[138.460911,36.37195],[138.46087,36.372081],[138.460941,36.372344],[138.461156,36.372649],[138.461421,36.372961],[138.461544,36.373101],[138.461758,36.373364],[138.462034,36.37357],[138.462245,36.373723],[138.462417,36.373885],[138.462551,36.37405],[138.462688,36.374321],[138.462843,36.374538],[138.463007,36.374735],[138.463162,36.374887],[138.463342,36.374998],[138.46344,36.375143],[138.463448,36.375354],[138.463399,36.37561],[138.463342,36.375762],[138.463317,36.375959],[138.463293,36.376156],[138.46335,36.376334],[138.463472,36.37661],[138.463595,36.377116],[138.463718,36.377465],[138.463873,36.377768],[138.464053,36.378018],[138.464224,36.378333],[138.464371,36.378597],[138.464461,36.378873],[138.464485,36.379083],[138.464428,36.379188],[138.464314,36.379202],[138.464183,36.379149],[138.46411,36.379031],[138.464028,36.378886],[138.463889,36.378768],[138.46366,36.378649],[138.463415,36.378452],[138.463203,36.378195],[138.463015,36.377972],[138.462852,36.377794],[138.462721,36.377768],[138.462664,36.377834],[138.462656,36.377919],[138.462729,36.378051],[138.462705,36.378136],[138.46259,36.378222],[138.462508,36.378195],[138.46241,36.37809],[138.462304,36.377939],[138.46219,36.377873],[138.462067,36.377847],[138.461961,36.377919],[138.461961,36.37811],[138.462116,36.378261],[138.462247,36.378458],[138.462427,36.378754],[138.46259,36.379037],[138.462729,36.379307],[138.462868,36.379517],[138.462999,36.379603],[138.46326,36.379662],[138.46344,36.379721],[138.463497,36.379833],[138.463391,36.379965],[138.463162,36.380116],[138.463105,36.380228],[138.463051,36.38046],[138.463036,36.38057],[138.462995,36.380658],[138.462924,36.380762],[138.462688,36.381004],[138.462463,36.381221],[138.462228,36.38146],[138.461995,36.381702],[138.461928,36.381786],[138.461897,36.381889],[138.461933,36.382109],[138.46199,36.382334],[138.462098,36.382744],[138.462146,36.383109],[138.462153,36.383417],[138.462131,36.383629],[138.462144,36.383725],[138.462165,36.383784],[138.462251,36.383811],[138.462436,36.383792],[138.462609,36.38371],[138.462777,36.383653],[138.46301,36.38364],[138.463167,36.383696],[138.463252,36.383777],[138.463334,36.383872],[138.463374,36.383979],[138.463379,36.384076],[138.463293,36.384207],[138.463031,36.384349],[138.462704,36.384536],[138.462599,36.384636],[138.46256,36.384764],[138.462613,36.384952],[138.46274,36.385083],[138.462987,36.385201],[138.463303,36.38525],[138.463623,36.385246],[138.463947,36.385241],[138.464082,36.385246],[138.464242,36.385267],[138.464444,36.385358],[138.46461,36.385465],[138.464748,36.385517],[138.464922,36.385518],[138.465006,36.385497],[138.465074,36.385452],[138.465262,36.385228],[138.46546,36.38499],[138.465538,36.384861],[138.465543,36.384814],[138.46553,36.384759],[138.465394,36.384522],[138.465275,36.384329],[138.465176,36.384163],[138.465168,36.384101],[138.465203,36.384051],[138.465265,36.384007],[138.465403,36.383994],[138.465493,36.384033],[138.465557,36.384117],[138.46567,36.384296],[138.465821,36.384563],[138.466013,36.384917],[138.466194,36.38525],[138.466295,36.385454],[138.466361,36.385657],[138.466397,36.385858],[138.466463,36.386305],[138.466519,36.386774],[138.466585,36.387178],[138.466597,36.387362],[138.466589,36.387517],[138.466563,36.387603],[138.466524,36.387644],[138.466457,36.387684],[138.466305,36.387713],[138.466164,36.387713],[138.465923,36.387681],[138.465664,36.387662],[138.465564,36.387674],[138.465502,36.387749],[138.465487,36.387823],[138.465515,36.387909],[138.465671,36.388117],[138.465746,36.38826],[138.465753,36.388299],[138.465683,36.388355],[138.465586,36.388395],[138.465455,36.388435],[138.465403,36.38847],[138.465388,36.388537],[138.465417,36.388602],[138.465459,36.388643],[138.465642,36.388683],[138.465996,36.3887],[138.466218,36.388692],[138.466273,36.388644],[138.466323,36.38854],[138.466385,36.38846],[138.466447,36.388407],[138.466533,36.388395],[138.466603,36.38843],[138.466634,36.388469],[138.466652,36.388515],[138.466646,36.388689],[138.466594,36.388886],[138.466552,36.38895],[138.4665,36.388996],[138.466379,36.389049],[138.46607,36.389052],[138.465717,36.389115],[138.465608,36.389183],[138.465573,36.389231],[138.465558,36.389307],[138.465577,36.389368],[138.465706,36.389414],[138.465858,36.389416],[138.466046,36.389377],[138.466271,36.389341],[138.466801,36.389252],[138.466988,36.389238],[138.467122,36.38924],[138.46725,36.389293],[138.467277,36.389365],[138.467252,36.38944],[138.467144,36.389494],[138.466722,36.389595],[138.466348,36.389679],[138.466111,36.389771],[138.465865,36.389884],[138.465767,36.389978],[138.465698,36.390138],[138.465603,36.390688],[138.465523,36.391249],[138.465524,36.391378],[138.465555,36.391425],[138.465629,36.391466],[138.465707,36.39147],[138.465812,36.391392],[138.465838,36.391296],[138.465888,36.391038],[138.465961,36.390734],[138.466031,36.390574],[138.466115,36.390455],[138.466295,36.390376],[138.466487,36.390349],[138.4669,36.390367],[138.467211,36.390379],[138.467329,36.390369],[138.467419,36.39035],[138.467557,36.390265],[138.467729,36.390205],[138.467864,36.390213],[138.467942,36.390279],[138.467938,36.390366],[138.467906,36.390451],[138.467776,36.390527],[138.467456,36.390662],[138.467115,36.390788],[138.466863,36.39087],[138.466649,36.390938],[138.466582,36.391003],[138.466533,36.391084],[138.466569,36.391264],[138.466695,36.391639],[138.466927,36.392091],[138.46709,36.392347],[138.467226,36.392568],[138.467333,36.392762],[138.467374,36.392875],[138.467366,36.392918],[138.467357,36.392961],[138.467284,36.393018],[138.467169,36.393035],[138.466893,36.39298],[138.466595,36.392905],[138.466415,36.392877],[138.466309,36.392908],[138.466244,36.392991],[138.466241,36.393078],[138.466359,36.393171],[138.466843,36.393302],[138.46723,36.393382],[138.467377,36.393401],[138.46753,36.393401],[138.467794,36.39336],[138.467994,36.393303],[138.468078,36.393234],[138.468135,36.393152],[138.468208,36.392642],[138.468271,36.392295],[138.468299,36.392127],[138.468333,36.392089],[138.46838,36.392066],[138.46851,36.392036],[138.468585,36.392069],[138.468622,36.392138],[138.468651,36.392609],[138.468733,36.393225],[138.468785,36.393649],[138.468797,36.393772],[138.4688,36.393858],[138.468786,36.393918],[138.46875,36.393962],[138.468617,36.394046],[138.468498,36.394116],[138.468217,36.394287],[138.467893,36.394474],[138.467623,36.394589],[138.467361,36.394628],[138.467232,36.394664],[138.467014,36.394774],[138.466764,36.39513],[138.466665,36.39527],[138.466609,36.395354],[138.466591,36.395488],[138.466631,36.395575],[138.466705,36.395612],[138.466805,36.395633],[138.466929,36.395601],[138.467251,36.395497],[138.46748,36.395398],[138.467674,36.395343],[138.467807,36.395336],[138.468036,36.395371],[138.468252,36.395452],[138.468703,36.395607],[138.469118,36.395747],[138.469331,36.395763],[138.469552,36.395759],[138.469966,36.39565],[138.470404,36.395523],[138.4706,36.395435],[138.470764,36.395314],[138.470964,36.395092],[138.471229,36.394812],[138.471329,36.394732],[138.471507,36.394613],[138.47172,36.394559],[138.471966,36.394566],[138.472301,36.39458],[138.472508,36.394568],[138.472649,36.394537],[138.47279,36.394529],[138.472868,36.394541],[138.472928,36.394569],[138.472954,36.39462],[138.472962,36.394667],[138.472925,36.394741],[138.472855,36.394774],[138.472761,36.394798],[138.472507,36.394835],[138.472206,36.39488],[138.471988,36.394942],[138.47185,36.395024],[138.471746,36.395129],[138.471655,36.395325],[138.471578,36.395537],[138.471536,36.395807],[138.471567,36.396231],[138.471601,36.396648],[138.47162,36.39703],[138.471675,36.397295],[138.47174,36.397439],[138.471928,36.397849],[138.472143,36.398265],[138.472389,36.398518],[138.472557,36.398777],[138.472656,36.399031],[138.472715,36.399171],[138.472763,36.399223],[138.472838,36.399294],[138.473283,36.399565],[138.473421,36.399675],[138.473465,36.399724],[138.473591,36.399887],[138.473672,36.400019],[138.473734,36.400221],[138.473743,36.40037],[138.473717,36.400417],[138.473674,36.400464],[138.473557,36.400512],[138.473401,36.400512],[138.473073,36.400434],[138.472889,36.400415],[138.47274,36.400427],[138.472477,36.40051],[138.472123,36.400662],[138.47181,36.400843],[138.471508,36.401097],[138.471226,36.401324],[138.471097,36.401421],[138.470689,36.401623],[138.470354,36.401802],[138.470164,36.401969],[138.469976,36.402072],[138.469724,36.402151],[138.469579,36.402217],[138.469512,36.402271],[138.469487,36.402324],[138.469524,36.402421],[138.469592,36.402451],[138.469669,36.402463],[138.469882,36.402425],[138.470208,36.402294],[138.470506,36.402133],[138.470757,36.402021],[138.470972,36.40198],[138.47116,36.40197],[138.471438,36.401937],[138.471779,36.401863],[138.471943,36.401815],[138.472184,36.401713],[138.472397,36.401617],[138.47259,36.40151],[138.472786,36.401418],[138.472827,36.40141],[138.472889,36.401409],[138.472949,36.401424],[138.473001,36.401488],[138.472992,36.401565],[138.472943,36.401636],[138.472583,36.401871],[138.472058,36.402253],[138.471699,36.402496],[138.471357,36.402759],[138.47095,36.402951],[138.470561,36.403131],[138.470316,36.403283],[138.470292,36.403357],[138.470339,36.40344],[138.47043,36.403475],[138.470608,36.403473],[138.470837,36.40343],[138.471094,36.403399],[138.471284,36.403382],[138.471417,36.403393],[138.471463,36.403436],[138.471446,36.403514],[138.471404,36.403601],[138.4713,36.403654],[138.471089,36.4037],[138.470708,36.403788],[138.470075,36.403947],[138.469779,36.404025],[138.469629,36.404118],[138.469594,36.404218],[138.469566,36.404324],[138.469588,36.404475],[138.469614,36.404624],[138.469649,36.404686],[138.469804,36.404752],[138.470017,36.404837],[138.470074,36.404982],[138.469976,36.405107],[138.469665,36.405251]]}}]}