{"type":"FeatureCollection","features":[{"type":"Feature","properties":{"id":164653118,"highway":"secondary"},"geometry":{"type":"LineString","coordinates":[[138.453103,36.636238],[138.45315,36.636088],[138.453201,36.635959],[138.453293,36.635829],[138.453393,36.635738],[138.453488,36.635653],[138.453638,36.635513],[138.453739,36.635438],[138.45383,36.635399],[138.453943,36.635377],[138.454048,36.635373],[138.454152,36.635383],[138.454367,36.635455],[138.45463,36.635598],[138.455027,36.635884],[138.455219,36.636054],[138.455303,36.636124],[138.455368,36.636153],[138.455529,36.636187],[138.45561,36.636197],[138.455721,36.636187],[138.455815,36.636161],[138.456115,36.636067],[138.456238,36.636041],[138.456544,36.635992],[138.456843,36.635959],[138.457305,36.635901],[138.45778,36.635819],[138.457852,36.635793],[138.457884,36.635774],[138.457979,36.635663],[138.458067,36.635536],[138.458103,36.635491],[138.458155,36.635458],[138.458363,36.63539],[138.458516,36.635374],[138.458666,36.635379],[138.458749,36.635396],[138.45897,36.635484],[138.459086,36.635523],[138.459187,36.635546],[138.459382,36.635588],[138.459491,36.635627],[138.459569,36.635673],[138.459644,36.635738],[138.459729,36.635832],[138.459771,36.635877],[138.459816,36.635897],[138.459871,36.635906],[138.459914,36.635906],[138.459989,36.635903],[138.460061,36.635881],[138.460116,36.635845],[138.460212,36.635764],[138.460331,36.63565],[138.460415,36.635585],[138.460496,36.635533],[138.46063,36.635474],[138.460952,36.635377],[138.461177,36.635334],[138.461239,36.635328],[138.461337,36.635328],[138.461447,36.635331],[138.461503,36.635338],[138.461545,36.635351],[138.461641,36.635385]]}},{"type":"Feature","properties":{"id":183925532,"highway":"secondary"},"geometry":{"type":"LineString","coordinates":[[138.455391,36.605532],[138.455235,36.605433],[138.455086,36.605321],[138.454998,36.605238],[138.454911,36.605141],[138.454865,36.605073],[138.454852,36.605036],[138.454837,36.604996],[138.454819,36.604891],[138.454801,36.604842],[138.454633,36.604679],[138.454467,36.604555],[138.454389,36.604521],[138.454241,36.604491],[138.454143,36.604484],[138.454067,36.604489],[138.453996,36.604496],[138.453908,36.604523],[138.453779,36.604578],[138.453681,36.604636],[138.453598,36.604693],[138.453386,36.604866],[138.453308,36.604919],[138.453226,36.604953],[138.45298,36.605162],[138.452814,36.605326],[138.452683,36.605477],[138.452547,36.605661],[138.452478,36.605787],[138.452435,36.605909],[138.452354,36.606178],[138.452311,36.606235],[138.452269,36.606263],[138.452232,36.606274],[138.452173,36.606286],[138.452122,36.606288],[138.452078,36.606281],[138.452021,36.606265],[138.451984,36.606235],[138.451961,36.606189],[138.451929,36.606111],[138.451896,36.606042],[138.451823,36.60595],[138.451754,36.605888],[138.451648,36.605821],[138.451556,36.605782],[138.451448,36.60575],[138.451284,36.605713],[138.451117,36.605668],[138.450974,36.605614],[138.450861,36.605548],[138.450755,36.605477],[138.450645,36.605389],[138.450553,36.605323],[138.450496,36.6053],[138.450441,36.605293],[138.450397,36.605298],[138.450367,36.605304],[138.45034,36.605327],[138.450328,36.605364],[138.450322,36.60541],[138.450335,36.605477],[138.45039,36.605558],[138.450484,36.605673],[138.450576,36.605758],[138.450663,36.605815],[138.450762,36.605863],[138.450841,36.605886],[138.450988,36.605928],[138.451102,36.605974],[138.451155,36.606006],[138.45122,36.60607],[138.451245,36.606123],[138.451253,36.606153],[138.451254,36.606187],[138.451245,36.606217],[138.451215,36.606238],[138.451158,36.606247],[138.451093,36.606238],[138.450831,36.606146],[138.45073,36.606098],[138.450645,36.606033],[138.45041,36.605851],[138.450133,36.605665],[138.449866,36.605537],[138.449815,36.605525],[138.449765,36.605523],[138.449724,36.605541],[138.449701,36.605567],[138.449689,36.605603],[138.449696,36.605645],[138.449715,36.605689],[138.449717,36.605693],[138.449774,36.605753],[138.450092,36.606063],[138.45042,36.606334],[138.450537,36.606401],[138.450712,36.606541],[138.450776,36.606628],[138.450813,36.606714],[138.450817,36.606764],[138.450799,36.606803],[138.450771,36.606833],[138.450732,36.606852],[138.450693,36.606859],[138.450629,36.606854],[138.450535,36.606815],[138.450323,36.606666],[138.450231,36.606585],[138.450072,36.60644],[138.44993,36.606291],[138.449795,36.606171],[138.449663,36.606086],[138.449477,36.605987],[138.449352,36.605934],[138.449297,36.605918],[138.449253,36.605911],[138.449223,36.605909],[138.449189,36.605923],[138.449159,36.605955],[138.449138,36.605983],[138.449127,36.606008],[138.449131,36.606047],[138.449143,36.606079],[138.449173,36.606112],[138.449613,36.606478],[138.449858,36.606714],[138.449971,36.606847],[138.450031,36.606953],[138.450058,36.607013],[138.450068,36.607078],[138.450056,36.607122],[138.450028,36.607145],[138.449973,36.60717],[138.449925,36.607177],[138.449868,36.607159],[138.449824,36.60712],[138.449723,36.607006],[138.449606,36.606898],[138.449332,36.606691],[138.449123,36.60656],[138.448986,36.606484],[138.44891,36.606454],[138.448867,36.606449],[138.448835,36.606461],[138.448807,36.606477],[138.448793,36.606516],[138.448798,36.606564],[138.448814,36.60662],[138.448846,36.60667],[138.448906,36.606739],[138.449022,36.606851],[138.449162,36.606943],[138.449277,36.607032],[138.449346,36.607117],[138.449373,36.60718],[138.449369,36.60723],[138.449355,36.607262],[138.449325,36.60729],[138.449268,36.607292],[138.449208,36.607278],[138.449102,36.607207],[138.448777,36.606966],[138.448522,36.606767],[138.44846,36.606742],[138.448416,36.60673],[138.448379,36.606739],[138.448345,36.606771],[138.448322,36.606815],[138.448317,36.60686],[138.448329,36.606899],[138.448354,36.606938],[138.448425,36.607002],[138.448699,36.607205],[138.448757,36.607285],[138.448778,36.607365],[138.448778,36.607432],[138.448767,36.607503],[138.448705,36.607625],[138.448702,36.60763],[138.448585,36.607812],[138.448479,36.60794],[138.448321,36.608078],[138.448211,36.60815],[138.448129,36.608182],[138.447834,36.608249],[138.447572,36.608322],[138.447207,36.608462],[138.44697,36.608599],[138.44691,36.608662],[138.446892,36.608709],[138.446894,36.608767],[138.446908,36.608804],[138.44694,36.608845],[138.446979,36.608872],[138.447083,36.608896],[138.447285,36.608942],[138.447428,36.608992],[138.447526,36.609041],[138.447632,36.609102],[138.447771,36.609184],[138.447886,36.609262],[138.448091,36.609376],[138.448169,36.609409],[138.448227,36.609431],[138.448286,36.609445],[138.448371,36.609472],[138.44847,36.609484],[138.448675,36.609522],[138.448921,36.609582],[138.449105,36.609637],[138.449282,36.609709],[138.449436,36.609771],[138.449535,36.609819],[138.449748,36.609934],[138.449839,36.609981],[138.449915,36.60999],[138.45003,36.609997],[138.450603,36.610007],[138.451184,36.609967],[138.451543,36.609974],[138.4516,36.610001],[138.451637,36.610022],[138.451662,36.610052],[138.451676,36.610082],[138.451676,36.610116],[138.45166,36.610141],[138.451577,36.610197],[138.451441,36.610264],[138.451343,36.610307],[138.451133,36.610332],[138.450681,36.610377],[138.450374,36.610404],[138.450148,36.610412],[138.4499,36.610417],[138.449725,36.610394],[138.449283,36.610367],[138.449099,36.610387],[138.448972,36.610404],[138.448871,36.610431],[138.44875,36.610475],[138.448635,36.610551],[138.4485,36.610672]]}},{"type":"Feature","properties":{"id":183925558,"highway":"secondary"},"geometry":{"type":"LineString","coordinates":[[138.50352,36.638022],[138.503585,36.637691],[138.503539,36.637518],[138.503448,36.637402],[138.503177,36.63726],[138.502917,36.637166],[138.502614,36.637189],[138.502388,36.637282],[138.502222,36.637417],[138.502193,36.637454],[138.502074,36.637867],[138.501959,36.638009],[138.501758,36.638037],[138.501444,36.638031],[138.50102,36.638132],[138.500886,36.638134],[138.500822,36.638054],[138.500554,36.63762],[138.500229,36.63703],[138.500095,36.636875],[138.499899,36.636806],[138.499561,36.636765],[138.499331,36.636797],[138.499218,36.636914],[138.499111,36.637144],[138.49907,36.637404],[138.499145,36.637811],[138.499223,36.637968],[138.499164,36.638136],[138.498979,36.638369],[138.49873,36.638571],[138.498377,36.638698]]}},{"type":"Feature","properties":{"id":183925559,"highway":"secondary"},"geometry":{"type":"LineString","coordinates":[[138.461641,36.635385],[138.461913,36.635575],[138.46236,36.635909],[138.462575,36.636071],[138.462698,36.636149],[138.462797,36.636192],[138.462878,36.636218],[138.463112,36.636257],[138.463434,36.636299],[138.46391,36.636384],[138.464805,36.636494],[138.464936,36.636508],[138.465157,36.636518],[138.465469,36.636505],[138.466315,36.636482],[138.466436,36.63649],[138.46655,36.63651],[138.466655,36.636539],[138.46679,36.636598],[138.46695,36.636676],[138.467073,36.636744],[138.467132,36.636783],[138.467171,36.636799],[138.467226,36.636809],[138.46732,36.636802],[138.467688,36.636734],[138.46784,36.636705],[138.467936,36.636705],[138.468089,36.636715],[138.468175,36.636731],[138.468529,36.636845],[138.468744,36.636936],[138.469185,36.637154],[138.469337,36.637236],[138.469484,36.63732],[138.469545,36.637356],[138.469656,36.637434],[138.469858,36.637593],[138.469966,36.637683],[138.470285,36.637937],[138.470596,36.638164],[138.470634,36.638189],[138.470831,36.638236],[138.471502,36.638419],[138.471899,36.638518],[138.472098,36.638577],[138.472274,36.638629],[138.472407,36.638687],[138.472485,36.638723],[138.472586,36.638804],[138.472646,36.638866],[138.472739,36.638964],[138.472951,36.639231],[138.473292,36.639752],[138.473407,36.639974],[138.473442,36.640071],[138.473474,36.640237],[138.4735,36.640344],[138.473523,36.640416],[138.473549,36.640474],[138.47361,36.640536],[138.474017,36.640866],[138.4742,36.640999],[138.474307,36.641067],[138.474362,36.641103],[138.474562,36.641162],[138.474845,36.641232],[138.474962,36.641248],[138.475017,36.641251],[138.475064,36.641245],[138.475102,36.641221],[138.475125,36.641186],[138.475135,36.641119],[138.475115,36.640816],[138.4751,36.640564],[138.475122,36.640479],[138.475177,36.640353],[138.475217,36.640249],[138.475265,36.640154],[138.475415,36.640001],[138.475542,36.639914],[138.47575,36.639809],[138.475887,36.639754],[138.47601,36.639718],[138.47613,36.639712],[138.476255,36.639715],[138.476372,36.639735],[138.476515,36.639767],[138.476605,36.639803],[138.476743,36.639888],[138.47686,36.639975],[138.476939,36.640028],[138.477043,36.640086],[138.477225,36.640177],[138.477447,36.640265],[138.477649,36.640317],[138.477828,36.640356],[138.478013,36.640385],[138.478196,36.640408],[138.478446,36.640441],[138.478768,36.640499],[138.47899,36.640552],[138.479123,36.640591],[138.479367,36.640685],[138.479904,36.640942],[138.480204,36.641079],[138.480286,36.641134],[138.48034,36.64117],[138.480516,36.641313],[138.480767,36.641567],[138.481153,36.642058],[138.481557,36.642579],[138.481664,36.642719],[138.481733,36.642793],[138.481798,36.642855],[138.481905,36.642914],[138.482087,36.643015],[138.482202,36.643064],[138.482309,36.643087],[138.482416,36.643096],[138.482568,36.64308],[138.482911,36.643018],[138.483248,36.64297],[138.483388,36.64295],[138.483501,36.642943],[138.483589,36.64295],[138.483667,36.642966],[138.483807,36.643015],[138.48398,36.643119],[138.484097,36.643197],[138.484231,36.643282],[138.484315,36.643327],[138.484432,36.64337],[138.484566,36.643389],[138.484706,36.64341],[138.484849,36.643412],[138.485015,36.643392],[138.485214,36.643334],[138.485393,36.643265],[138.485478,36.643213],[138.485562,36.643078],[138.485706,36.642749],[138.485784,36.642632],[138.485937,36.64243],[138.486139,36.642141],[138.486311,36.641903],[138.486406,36.64175],[138.486471,36.641607],[138.486546,36.641404],[138.486611,36.641249],[138.486673,36.641118],[138.486829,36.640877],[138.487099,36.640532],[138.487282,36.64034],[138.487445,36.640223],[138.487598,36.640125],[138.487666,36.64009],[138.487855,36.639992],[138.488187,36.639839],[138.488493,36.639728],[138.488711,36.639669],[138.488913,36.639621],[138.489066,36.639608],[138.489238,36.639608],[138.489414,36.639617],[138.489745,36.63966],[138.490013,36.639689],[138.490159,36.639699],[138.490316,36.639696],[138.490488,36.639673],[138.490719,36.63965],[138.49122,36.63966],[138.491868,36.639676],[138.491969,36.639657],[138.492119,36.639614],[138.492298,36.639575],[138.492474,36.639566],[138.492555,36.639575],[138.492607,36.639598],[138.492672,36.63967],[138.49276,36.639865],[138.492803,36.640005],[138.492806,36.640063],[138.492799,36.640132],[138.492663,36.640382],[138.492533,36.640555],[138.492497,36.640607],[138.492477,36.640656],[138.492467,36.640711],[138.492496,36.640841],[138.492539,36.640955],[138.492555,36.641037],[138.492555,36.641151],[138.492598,36.64131],[138.492679,36.641476],[138.492721,36.64158],[138.49278,36.641659],[138.492868,36.641754],[138.492961,36.641825],[138.493072,36.641871],[138.493199,36.641916],[138.493309,36.641949],[138.493374,36.641971],[138.493524,36.642104],[138.49371,36.642248],[138.49383,36.642326],[138.493895,36.642371],[138.493935,36.642402],[138.494014,36.642426]]}},{"type":"Feature","properties":{"id":183925633,"highway":"residential"},"geometry":{"type":"LineString","coordinates":[[138.455391,36.605532],[138.455479,36.60559],[138.455528,36.60562],[138.455603,36.605654],[138.455665,36.605676],[138.455754,36.605705],[138.455883,36.605725],[138.45596,36.60573],[138.456033,36.605725],[138.456081,36.605714],[138.456143,36.605704],[138.456205,36.605694],[138.456264,36.605667],[138.456331,36.60563]]}},{"type":"Feature","properties":{"id":183925634,"highway":"unclassified"},"geometry":{"type":"LineString","coordinates":[[138.496302,36.626052],[138.496548,36.626093],[138.496669,36.626112],[138.496921,36.626136],[138.497246,36.626219],[138.49754,36.626253],[138.497631,36.626279],[138.497834,36.626324],[138.498126,36.626425],[138.498509,36.626468],[138.498733,36.626444],[138.498887,36.626436],[138.498995,36.626461],[138.499149,36.626432],[138.499245,36.62641],[138.499326,36.626425],[138.499396,36.626447],[138.499441,36.626483],[138.499469,36.626541],[138.499499,36.626811],[138.499471,36.627002],[138.499366,36.627135],[138.499165,36.627253],[138.499135,36.627332],[138.499137,36.627403],[138.49916,36.627424],[138.499247,36.627469],[138.499322,36.627488],[138.499413,36.627469],[138.499455,36.627437],[138.49949,36.627392],[138.499532,36.627325],[138.499614,36.627206],[138.499758,36.627133],[138.499852,36.62709],[138.499868,36.627055],[138.499919,36.626953],[138.500008,36.626912],[138.500137,36.62691],[138.500202,36.626882],[138.500263,36.626826],[138.500312,36.626341],[138.50034,36.626206],[138.500368,36.626149],[138.500452,36.626103],[138.50055,36.62611],[138.500622,36.626146],[138.500667,36.626219],[138.500587,36.626468],[138.500597,36.626612],[138.500702,36.626817],[138.500755,36.626961],[138.500783,36.627075],[138.500863,36.627128],[138.500972,36.627133],[138.501043,36.627094],[138.501092,36.62703],[138.501024,36.626524],[138.501033,36.626477],[138.501101,36.626436],[138.501183,36.62641],[138.501253,36.626436],[138.501369,36.626528],[138.501514,36.626729],[138.501668,36.626955],[138.501671,36.627071],[138.501446,36.627328],[138.501033,36.62778],[138.500982,36.627888],[138.501003,36.62795],[138.501092,36.62799],[138.501243,36.627992],[138.50132,36.627894],[138.501521,36.62769],[138.50172,36.627544],[138.501906,36.627473],[138.502021,36.627386],[138.502044,36.627308],[138.502063,36.627126],[138.502103,36.627057],[138.502222,36.627036],[138.50231,36.627055],[138.502371,36.627109],[138.502404,36.627249],[138.50231,36.627624],[138.501995,36.627958],[138.501974,36.628067],[138.502017,36.628168],[138.502093,36.628247],[138.502804,36.628672],[138.502956,36.628774],[138.503074,36.628943],[138.503194,36.629044],[138.503328,36.629084],[138.503462,36.62907],[138.503585,36.628999],[138.503708,36.628804],[138.503776,36.628742],[138.503836,36.628706],[138.503859,36.628653],[138.50388,36.628508],[138.503953,36.62836],[138.504173,36.628222],[138.504867,36.628213],[138.505036,36.628048],[138.505038,36.628037],[138.505068,36.627844],[138.505271,36.627799],[138.505362,36.627759],[138.505404,36.62772],[138.505473,36.627607],[138.50555,36.627438],[138.50555,36.627281],[138.505522,36.627174],[138.505513,36.627081],[138.50555,36.626937],[138.50555,36.626774],[138.505556,36.626704],[138.505535,36.626599],[138.505525,36.626559],[138.505539,36.626517],[138.50561,36.626476],[138.505824,36.626479],[138.505951,36.626401],[138.506077,36.626272],[138.506197,36.62623],[138.506352,36.626199],[138.506454,36.626221],[138.506546,36.626275],[138.506669,36.626479],[138.506745,36.626588],[138.506763,36.62689],[138.506666,36.627024],[138.506632,36.62724],[138.506651,36.627305],[138.506781,36.627449],[138.506784,36.627945],[138.507016,36.628033]]}},{"type":"Feature","properties":{"id":572225416,"highway":"secondary"},"geometry":{"type":"LineString","coordinates":[[138.453851,36.617711],[138.453776,36.617995],[138.453748,36.618113],[138.453745,36.618166],[138.45376,36.618244],[138.453797,36.618328],[138.453842,36.6184],[138.453915,36.618499],[138.453983,36.618642],[138.454014,36.618725],[138.454037,36.618834],[138.454048,36.618983],[138.454055,36.619091],[138.454015,36.619234],[138.453957,36.619369],[138.453907,36.61946],[138.453731,36.619751],[138.453715,36.619803],[138.453708,36.619865],[138.453713,36.619909],[138.45374,36.619971],[138.453816,36.620111],[138.453925,36.620276],[138.453971,36.620381],[138.454005,36.620458],[138.45403,36.620545],[138.454083,36.620629],[138.454133,36.620678],[138.454207,36.620751],[138.454322,36.620859],[138.454347,36.620908],[138.454347,36.62097],[138.454337,36.621069],[138.454317,36.621206],[138.454282,36.621324],[138.454238,36.621473],[138.454223,36.621603],[138.454213,36.62173],[138.454202,36.621863],[138.454155,36.622006],[138.454115,36.622124],[138.454102,36.622217],[138.454105,36.622319],[138.454127,36.622424],[138.454155,36.622483],[138.45422,36.622561],[138.454238,36.622582],[138.454282,36.622629],[138.454328,36.622658],[138.454397,36.622691],[138.454473,36.622738],[138.454514,36.622775],[138.45456,36.622822],[138.454632,36.622918],[138.454703,36.622983],[138.454775,36.623033],[138.454883,36.623083],[138.454957,36.623104],[138.455118,36.623179],[138.455197,36.623228],[138.455287,36.623287],[138.45533,36.623337],[138.455348,36.623368],[138.455358,36.623387],[138.455358,36.623418],[138.455355,36.623442],[138.45528,36.623473],[138.455135,36.623514],[138.454855,36.623604],[138.454712,36.623666],[138.454555,36.623765],[138.454383,36.623867],[138.45429,36.623911],[138.4542,36.623941],[138.454105,36.623951],[138.453972,36.623963],[138.453782,36.623976],[138.453552,36.624],[138.453422,36.624037],[138.453345,36.624071],[138.453243,36.624127],[138.453168,36.624201],[138.453132,36.624257],[138.453128,36.6243],[138.453143,36.624337],[138.453184,36.624382],[138.45336,36.624562],[138.453438,36.62464],[138.453478,36.62467],[138.453525,36.624705],[138.45359,36.624732],[138.45384,36.624816],[138.453992,36.62489],[138.454105,36.62495],[138.45435,36.625117],[138.454479,36.625207],[138.45453,36.62523],[138.45461,36.625242],[138.4547,36.625245],[138.45478,36.62526],[138.454845,36.6253],[138.454939,36.625369],[138.454985,36.625437],[138.455008,36.625527],[138.45502,36.62575],[138.455014,36.626032],[138.454992,36.626222],[138.454958,36.626359],[138.454878,36.626532],[138.454766,36.626709],[138.454679,36.626817],[138.454583,36.626898],[138.454499,36.626964],[138.454242,36.627112],[138.453865,36.627354],[138.453677,36.627457],[138.4536,36.627482],[138.453515,36.627479],[138.453347,36.627463],[138.453255,36.627457],[138.45315,36.627463],[138.453037,36.6275],[138.452852,36.627609],[138.452687,36.627733],[138.452554,36.627894],[138.452507,36.62799],[138.452495,36.628015],[138.452455,36.628157],[138.452448,36.628281],[138.452462,36.628414],[138.452483,36.628551],[138.45251,36.628647],[138.452552,36.628746],[138.452613,36.628846],[138.452722,36.629007],[138.45293,36.629352],[138.453123,36.62963],[138.453163,36.629714],[138.453163,36.629804],[138.453144,36.629881],[138.453079,36.630028],[138.452943,36.630297],[138.452812,36.630505],[138.452725,36.630591],[138.45265,36.630688],[138.452642,36.630756],[138.452648,36.630793],[138.452675,36.630865],[138.452726,36.630942],[138.452837,36.631097],[138.452964,36.631249],[138.453159,36.631444],[138.453267,36.631572],[138.453448,36.631839],[138.453552,36.632059],[138.45356,36.632113],[138.453547,36.632163],[138.453472,36.632259],[138.45337,36.632374],[138.453224,36.63252],[138.453088,36.632737],[138.452989,36.63292],[138.452871,36.633173],[138.452787,36.633453],[138.452685,36.63381],[138.452657,36.634006],[138.452651,36.634096],[138.452666,36.634194],[138.452697,36.634268],[138.452716,36.634373],[138.452709,36.634509],[138.452697,36.634814],[138.452709,36.634953],[138.45275,36.635098],[138.452803,36.635219],[138.452874,36.635359],[138.452948,36.635548],[138.452979,36.635651],[138.45303,36.635968],[138.453058,36.636105],[138.453103,36.636238]]}},{"type":"Feature","properties":{"id":655092083,"highway":"tertiary"},"geometry":{"type":"LineString","coordinates":[[138.509185,36.633885],[138.509129,36.633889],[138.509057,36.633906],[138.508983,36.633938],[138.508898,36.633986],[138.508807,36.634057],[138.508715,36.634137],[138.508639,36.634202],[138.508517,36.63428],[138.508418,36.634331],[138.508309,36.634355],[138.508184,36.634348],[138.50808,36.634323],[138.507945,36.634226],[138.50773,36.634052],[138.507529,36.633858],[138.507433,36.633713],[138.5074,36.633553],[138.507402,36.633223],[138.507372,36.632881],[138.507304,36.632624],[138.507095,36.632128],[138.506867,36.631549],[138.506768,36.631304],[138.506731,36.631216],[138.506718,36.631127],[138.50674,36.631016],[138.506784,36.630904],[138.507053,36.630633],[138.50724,36.630412],[138.507276,36.630271],[138.507243,36.629931],[138.507245,36.629811],[138.507277,36.629617],[138.507475,36.629131],[138.507479,36.628977],[138.507422,36.628804],[138.507351,36.628673],[138.507082,36.628186],[138.507016,36.628033],[138.507,36.627899],[138.506998,36.627762],[138.507016,36.627639],[138.507065,36.627505],[138.507138,36.627386],[138.507432,36.62707],[138.507682,36.626733],[138.507774,36.626458],[138.507826,36.626351],[138.508005,36.626117],[138.508149,36.625929],[138.508217,36.625789],[138.508258,36.625687],[138.50831,36.625393],[138.508333,36.625249],[138.508336,36.625116],[138.508322,36.624999],[138.508266,36.624863],[138.5082,36.624742],[138.508045,36.6245],[138.50792,36.6244],[138.507733,36.624306],[138.507538,36.624245],[138.507333,36.624165],[138.50722,36.624095],[138.507142,36.623963],[138.507092,36.623818],[138.506785,36.622995],[138.506653,36.622711],[138.506569,36.622517],[138.506546,36.622373],[138.50656,36.622308],[138.506573,36.622246],[138.506633,36.622125],[138.5068,36.622023],[138.506955,36.621966],[138.507236,36.621942],[138.508261,36.621977],[138.508655,36.621931],[138.508885,36.621872],[138.509051,36.621797],[138.509133,36.621713],[138.509179,36.621611],[138.509179,36.621535],[138.509113,36.62142],[138.508957,36.6213],[138.507693,36.620611],[138.507461,36.620472],[138.507275,36.620314],[138.507134,36.620149],[138.506856,36.619777],[138.506643,36.6196],[138.506357,36.619523],[138.504914,36.61928],[138.502234,36.619214],[138.501953,36.619177],[138.500966,36.618919],[138.500044,36.618678],[138.499314,36.618591],[138.49867,36.618505],[138.498392,36.61839],[138.4983,36.618243],[138.498344,36.618036],[138.499185,36.617145],[138.499443,36.61683],[138.499487,36.616678],[138.49948,36.616473],[138.499271,36.616042],[138.498848,36.615398],[138.498664,36.614954],[138.498584,36.614665],[138.498619,36.614464],[138.498659,36.614364],[138.498738,36.614246],[138.498965,36.614041],[138.499332,36.613834],[138.499948,36.613554],[138.500576,36.61331],[138.500868,36.613243],[138.501231,36.613267],[138.501662,36.613357],[138.501781,36.613357],[138.501903,36.613324],[138.501975,36.613188],[138.501942,36.613049],[138.501397,36.61265],[138.500895,36.612178],[138.50076,36.611942],[138.500855,36.611703],[138.501029,36.611554],[138.501475,36.611286],[138.501755,36.611229],[138.502111,36.611248],[138.502523,36.611354],[138.502655,36.611271],[138.502767,36.611166],[138.502755,36.610926],[138.502811,36.610647],[138.50292,36.610554],[138.50312,36.610509],[138.504632,36.610626],[138.504891,36.610631],[138.505017,36.610593],[138.505113,36.610547],[138.505163,36.610468],[138.505167,36.610373],[138.504993,36.610161],[138.504587,36.609901],[138.504147,36.609547],[138.503673,36.609032],[138.503271,36.608563],[138.50298,36.608128],[138.502689,36.607592],[138.502611,36.607353],[138.502629,36.607164],[138.502823,36.606873],[138.502998,36.606725],[138.503202,36.606628],[138.503419,36.606625],[138.503639,36.606685],[138.503903,36.606882],[138.504115,36.607071],[138.504182,36.607132],[138.504228,36.607165],[138.504377,36.607251],[138.504453,36.607274],[138.504529,36.60729],[138.504625,36.607285],[138.50467,36.607277],[138.504987,36.607164],[138.50573,36.606846],[138.505787,36.606798],[138.505825,36.60675],[138.505868,36.606697],[138.505901,36.606644],[138.50592,36.606574],[138.50594,36.606485],[138.505914,36.60635],[138.505796,36.606085],[138.505741,36.605944],[138.505667,36.605748],[138.505625,36.605444],[138.505618,36.60507],[138.505664,36.604714],[138.506282,36.603285],[138.506647,36.602507],[138.507027,36.601899],[138.507221,36.60165],[138.507547,36.601446],[138.507913,36.601334],[138.508214,36.601292],[138.508354,36.601275],[138.508526,36.601287],[138.508752,36.601361],[138.508949,36.601466],[138.509051,36.601554],[138.509142,36.601637],[138.509242,36.60182],[138.509261,36.602061],[138.509295,36.602419],[138.509295,36.602787],[138.5092,36.603361],[138.509172,36.603452],[138.509207,36.603543],[138.509281,36.603594],[138.509326,36.603615],[138.50936,36.603618],[138.509431,36.603613],[138.509495,36.6036],[138.509543,36.603575],[138.509593,36.603529],[138.509708,36.603401],[138.509861,36.603177],[138.510118,36.602805],[138.510364,36.602416],[138.510626,36.601891],[138.511112,36.600841],[138.51132,36.600226],[138.511454,36.599956],[138.511629,36.599771],[138.511822,36.599624],[138.512003,36.599532],[138.512127,36.599465],[138.512193,36.599399],[138.512213,36.599351]]}},{"type":"Feature","properties":{"id":775661180,"highway":"residential"},"geometry":{"type":"LineString","coordinates":[[138.456331,36.60563],[138.456433,36.605601],[138.456627,36.605593],[138.456804,36.605616],[138.456873,36.605626],[138.457025,36.605612],[138.457119,36.605611],[138.457158,36.605679],[138.457167,36.605795],[138.457202,36.605878],[138.457278,36.605923],[138.457308,36.60599],[138.457283,36.606018],[138.457183,36.606034],[138.457115,36.606064],[138.457004,36.606129],[138.456899,36.606167],[138.456836,36.606207],[138.456779,36.606243],[138.456701,36.606256],[138.456634,36.606334],[138.456586,36.606449],[138.456538,36.606524],[138.456537,36.606588],[138.456576,36.606656],[138.456618,36.606719],[138.45662,36.606781],[138.45657,36.606854],[138.456517,36.606881],[138.456466,36.606868]]}},{"type":"Feature","properties":{"id":783778539,"highway":"residential"},"geometry":{"type":"LineString","coordinates":[[138.457119,36.605611],[138.457235,36.605563],[138.457419,36.605457],[138.45757,36.605382],[138.45766,36.605358],[138.457727,36.605307],[138.457808,36.605241],[138.457898,36.605174],[138.458157,36.604994],[138.458301,36.604894],[138.458356,36.604801],[138.458395,36.604728],[138.458444,36.604639],[138.458535,36.604522],[138.458648,36.604498],[138.458733,36.604498],[138.4588,36.604488],[138.458864,36.604463],[138.458913,36.604434],[138.45895,36.60439],[138.459017,36.604243],[138.459026,36.604163],[138.459044,36.604045],[138.459084,36.603955],[138.459099,36.603886]]}},{"type":"Feature","properties":{"id":783778540,"highway":"residential"},"geometry":{"type":"LineString","coordinates":[[138.45766,36.605358],[138.457793,36.605352],[138.457908,36.605349],[138.458009,36.605354],[138.458116,36.605375],[138.458233,36.605389],[138.458345,36.60538],[138.458439,36.605336],[138.458503,36.605276],[138.458541,36.605196]]}},{"type":"Feature","properties":{"id":932019483,"highway":"secondary"},"geometry":{"type":"LineString","coordinates":[[138.4485,36.610672],[138.448465,36.610728],[138.448453,36.610774],[138.448459,36.610822],[138.448489,36.610852],[138.448538,36.610863],[138.448658,36.610898],[138.448802,36.610932],[138.449014,36.610967],[138.449208,36.61099],[138.44941,36.610997],[138.449509,36.610988],[138.449659,36.610974],[138.449781,36.610946],[138.449857,36.61093],[138.44999,36.610903],[138.450077,36.610884],[138.450167,36.610879],[138.450211,36.610891],[138.450273,36.610914],[138.450339,36.610958],[138.450381,36.611008],[138.450413,36.611061],[138.450431,36.611123],[138.450438,36.61118],[138.450452,36.611307],[138.450459,36.611411],[138.450468,36.611473],[138.450484,36.611518],[138.450529,36.611634],[138.450564,36.611748],[138.450555,36.611992],[138.450564,36.612256],[138.450578,36.612323],[138.450594,36.612396],[138.450626,36.612461],[138.450688,36.612558],[138.450787,36.612734],[138.450831,36.612836],[138.45084,36.612911],[138.450843,36.612976],[138.45084,36.613063],[138.450843,36.613176],[138.450863,36.613373],[138.450849,36.613443],[138.450829,36.613519],[138.45078,36.613638],[138.450771,36.613696],[138.45079,36.613728],[138.450819,36.613769],[138.450872,36.613813],[138.450918,36.613833],[138.450994,36.613859],[138.451247,36.613958],[138.451346,36.614016],[138.451403,36.614084],[138.451438,36.614139],[138.451449,36.614211],[138.451461,36.614367],[138.451466,36.614535],[138.451463,36.614933],[138.451468,36.615091],[138.451479,36.615153],[138.4515,36.615222],[138.451532,36.615287],[138.451576,36.615344],[138.451654,36.615411],[138.451744,36.615475],[138.451863,36.615542],[138.45195,36.615574],[138.452015,36.615586],[138.452137,36.61559],[138.452254,36.615586],[138.452362,36.615593],[138.452484,36.615613],[138.452652,36.615657],[138.452789,36.615698],[138.452898,36.615737],[138.453215,36.615886],[138.453491,36.616037],[138.453629,36.616136],[138.453751,36.61625],[138.453861,36.616394],[138.45392,36.616511],[138.453962,36.616645],[138.453985,36.616741],[138.454021,36.616916],[138.45404,36.616992],[138.45407,36.617052],[138.454104,36.617095],[138.454143,36.617125],[138.45429,36.617237],[138.454334,36.617283],[138.454341,36.617311],[138.454334,36.617338],[138.454311,36.617368],[138.454219,36.617428],[138.453996,36.617575],[138.453893,36.617661],[138.453851,36.617711]]}},{"type":"Feature","properties":{"id":1359425735,"highway":"secondary"},"geometry":{"type":"LineString","coordinates":[[138.494014,36.642426],[138.494095,36.642418],[138.494333,36.642398],[138.494463,36.642376],[138.494522,36.642344],[138.49464,36.642253],[138.494727,36.64218],[138.49488,36.642052],[138.494935,36.641944],[138.495027,36.641848],[138.495183,36.641743],[138.49531,36.64163],[138.495428,36.641521],[138.495704,36.641226],[138.495842,36.641084],[138.495862,36.641029],[138.495863,36.640984],[138.495858,36.640928],[138.49583,36.640786],[138.495787,36.640597],[138.495777,36.640496],[138.495804,36.639983],[138.495825,36.639854],[138.495845,36.639791],[138.495898,36.639718],[138.495953,36.639654],[138.49604,36.63957],[138.49615,36.639488],[138.496295,36.639385],[138.496403,36.639332],[138.49656,36.63928],[138.496767,36.639217],[138.496848,36.639183],[138.496975,36.639156],[138.497205,36.639104],[138.497327,36.639074],[138.497502,36.639025],[138.497623,36.638994],[138.4978,36.638926],[138.49806,36.638822],[138.498243,36.638756],[138.498377,36.638698]]}}]}