{"type":"FeatureCollection","features":[{"type":"Feature","properties":{"id":126302322,"highway":"service"},"geometry":{"type":"LineString","coordinates":[[141.294725,24.782553],[141.294221,24.782618],[141.29414,24.782627],[141.294059,24.782615],[141.293953,24.782577],[141.293836,24.782512],[141.293667,24.782413],[141.293527,24.782323],[141.293382,24.78225],[141.293153,24.782165]]}},{"type":"Feature","properties":{"id":126302326,"highway":"tertiary"},"geometry":{"type":"LineString","coordinates":[[141.292219,24.757601],[141.292277,24.757685],[141.292649,24.75843],[141.294979,24.763054],[141.295245,24.763653],[141.295319,24.763862],[141.295359,24.764019],[141.295504,24.764562],[141.295825,24.765735],[141.295917,24.766073]]}},{"type":"Feature","properties":{"id":126302328,"highway":"unclassified"},"geometry":{"type":"LineString","coordinates":[[141.290182,24.754095],[141.290052,24.754112],[141.289878,24.754168],[141.289668,24.754309],[141.289505,24.754486],[141.289408,24.754608],[141.28936,24.754716],[141.289322,24.754823],[141.28931,24.754992],[141.289338,24.755187],[141.289373,24.755297]]}},{"type":"Feature","properties":{"id":126302334,"highway":"residential"},"geometry":{"type":"LineString","coordinates":[[141.290182,24.754095],[141.290175,24.75405],[141.290163,24.753976],[141.29007,24.75375],[141.29004,24.753603],[141.289983,24.753451],[141.28991,24.75331],[141.289828,24.753237],[141.289707,24.753169],[141.289575,24.753112],[141.289392,24.753048]]}},{"type":"Feature","properties":{"id":126302351,"highway":"unclassified"},"geometry":{"type":"LineString","coordinates":[[141.289373,24.755297],[141.28943,24.755423],[141.289508,24.755523],[141.289723,24.75572],[141.289935,24.755862],[141.290058,24.755969],[141.290268,24.75611],[141.290831,24.7565],[141.291585,24.757025],[141.291832,24.757194],[141.291975,24.757318],[141.292067,24.757414],[141.292219,24.757601]]}},{"type":"Feature","properties":{"id":126302364,"highway":"residential"},"geometry":{"type":"LineString","coordinates":[[141.289373,24.755297],[141.289223,24.755272],[141.289142,24.755241],[141.289038,24.75519],[141.28895,24.755178],[141.288827,24.75519],[141.28842,24.755314],[141.288283,24.755353],[141.287863,24.755365],[141.287523,24.755427],[141.287343,24.755421],[141.287202,24.755365],[141.28704,24.755269],[141.28683,24.755105],[141.286728,24.755041],[141.286573,24.754979]]}},{"type":"Feature","properties":{"id":126302382,"highway":"unclassified"},"geometry":{"type":"LineString","coordinates":[[141.296836,24.757262],[141.296599,24.757132],[141.296302,24.756928],[141.295566,24.756584],[141.295146,24.756319],[141.294781,24.756099],[141.294478,24.75589],[141.294379,24.755839],[141.293953,24.75567],[141.293792,24.755591],[141.293545,24.755376],[141.293291,24.755224],[141.292846,24.755015],[141.292698,24.75493],[141.292451,24.754789],[141.292232,24.754677],[141.292074,24.75462]]}},{"type":"Feature","properties":{"id":126302389,"highway":"tertiary"},"geometry":{"type":"LineString","coordinates":[[141.298405,24.77167],[141.299213,24.773127],[141.299282,24.773287],[141.299362,24.773475],[141.299406,24.773594],[141.299628,24.774085],[141.299805,24.774415],[141.300061,24.77487],[141.300246,24.775124],[141.300319,24.775229],[141.30037,24.775327],[141.300667,24.776044],[141.300747,24.776383],[141.300759,24.776467],[141.300871,24.776737],[141.301174,24.777353],[141.301637,24.778504],[141.301937,24.779238],[141.302002,24.779396],[141.302175,24.77985]]}},{"type":"Feature","properties":{"id":126302460,"highway":"unclassified"},"geometry":{"type":"LineString","coordinates":[[141.306816,24.763621],[141.306688,24.763529],[141.306366,24.763309],[141.305927,24.763042],[141.305811,24.762964],[141.305711,24.762885],[141.305365,24.762569],[141.304765,24.762117],[141.304512,24.761959],[141.304314,24.761841],[141.304017,24.761592],[141.303863,24.761496],[141.303677,24.761355],[141.303275,24.761067],[141.302769,24.760683],[141.302329,24.760367],[141.301482,24.759808],[141.301112,24.75957],[141.300586,24.759271],[141.300382,24.759158],[141.29972,24.758808],[141.299194,24.758549],[141.298916,24.758385],[141.298564,24.758204],[141.298192,24.757999]]}},{"type":"Feature","properties":{"id":126302464,"highway":"unclassified"},"geometry":{"type":"LineString","coordinates":[[141.302175,24.77985],[141.298059,24.779837],[141.297066,24.779821],[141.296947,24.779846],[141.296804,24.779961],[141.296736,24.780073],[141.296717,24.780165],[141.296726,24.780277],[141.296789,24.780514],[141.296976,24.780875],[141.297038,24.781045],[141.297038,24.781175],[141.296939,24.781367],[141.296778,24.781559],[141.296624,24.7817],[141.29629,24.781993],[141.296156,24.782081],[141.295982,24.782208],[141.295652,24.782357],[141.295346,24.782445],[141.294725,24.782553]]}},{"type":"Feature","properties":{"id":126302467,"highway":"unclassified"},"geometry":{"type":"LineString","coordinates":[[141.289208,24.751629],[141.289235,24.751606],[141.289588,24.751171],[141.28968,24.751019],[141.289705,24.750946],[141.28973,24.750844],[141.289762,24.750133],[141.289742,24.750075],[141.28961,24.750079],[141.289568,24.750106],[141.289527,24.750443],[141.289383,24.750821],[141.28934,24.750901],[141.28926,24.750963],[141.289093,24.751013],[141.288945,24.75103],[141.288822,24.751064],[141.288648,24.751126],[141.288555,24.751149],[141.288475,24.751143],[141.288429,24.75113],[141.288404,24.751084],[141.288417,24.751049],[141.288507,24.750947],[141.288663,24.750784],[141.288772,24.750684],[141.289036,24.750378],[141.289081,24.750128]]}},{"type":"Feature","properties":{"id":126302499,"highway":"unclassified"},"geometry":{"type":"LineString","coordinates":[[141.292219,24.757601],[141.292443,24.757639],[141.292574,24.757679],[141.292679,24.757725],[141.292921,24.757877],[141.293279,24.758052],[141.293464,24.75817],[141.293823,24.758408],[141.294021,24.758475],[141.29425,24.758526],[141.294373,24.758583],[141.294719,24.758786],[141.294942,24.758972],[141.295066,24.759045],[141.295443,24.75922],[141.295804,24.759439],[141.296296,24.759735],[141.296495,24.759879],[141.296654,24.760014],[141.29678,24.760149],[141.296895,24.760277],[141.297117,24.760592],[141.297321,24.760859],[141.297588,24.761249],[141.297665,24.761359],[141.297884,24.761604],[141.297976,24.761722],[141.298119,24.761965],[141.298304,24.762207],[141.298465,24.762349],[141.298582,24.762427],[141.298693,24.762467],[141.299027,24.762462],[141.299213,24.762472],[141.299423,24.762501],[141.299553,24.762552],[141.299739,24.762687],[141.300067,24.762942],[141.300387,24.763179]]}},{"type":"Feature","properties":{"id":126302513,"highway":"unclassified"},"geometry":{"type":"LineString","coordinates":[[141.298192,24.757999],[141.297828,24.757798],[141.297082,24.757396],[141.296836,24.757262]]}},{"type":"Feature","properties":{"id":126302536,"highway":"unclassified"},"geometry":{"type":"LineString","coordinates":[[141.291003,24.754162],[141.290793,24.754106],[141.290627,24.754089],[141.290382,24.754085],[141.290182,24.754095]]}},{"type":"Feature","properties":{"id":126302549,"highway":"unclassified"},"geometry":{"type":"LineString","coordinates":[[141.291003,24.754162],[141.291239,24.753993],[141.291307,24.753903],[141.291332,24.753824],[141.291346,24.753708],[141.291365,24.753507],[141.29125,24.751307],[141.291213,24.751042],[141.29117,24.750929],[141.291122,24.750867],[141.291055,24.75084],[141.290992,24.750861],[141.290917,24.750979],[141.29085,24.751121],[141.290787,24.751352],[141.290738,24.751464],[141.290688,24.751538],[141.290627,24.751606],[141.290503,24.751691],[141.29032,24.751749],[141.290182,24.751798],[141.290077,24.751849],[141.289663,24.752114],[141.28958,24.752162],[141.289502,24.752188],[141.289187,24.752261],[141.289075,24.752284],[141.28887,24.752346],[141.288748,24.752374],[141.28858,24.752373],[141.28837,24.752328],[141.288128,24.75226],[141.288023,24.75222],[141.28743,24.752018],[141.287343,24.751973],[141.287331,24.751922],[141.28735,24.751891],[141.287391,24.751862],[141.287487,24.751856],[141.287925,24.751928],[141.288135,24.751956],[141.28829,24.751969],[141.288425,24.751962],[141.288895,24.751821],[141.289025,24.751764],[141.289132,24.75169],[141.289208,24.751629]]}},{"type":"Feature","properties":{"id":126302564,"highway":"unclassified"},"geometry":{"type":"LineString","coordinates":[[141.292074,24.75462],[141.291976,24.754586],[141.291808,24.754507],[141.291542,24.754366],[141.291276,24.754258],[141.291003,24.754162]]}},{"type":"Feature","properties":{"id":126302574,"highway":"tertiary"},"geometry":{"type":"LineString","coordinates":[[141.295917,24.766073],[141.296381,24.767778],[141.296468,24.768061],[141.29653,24.768247],[141.296574,24.768336],[141.296821,24.768778],[141.297105,24.769296],[141.298405,24.77167]]}},{"type":"Feature","properties":{"id":401583634,"highway":"service"},"geometry":{"type":"LineString","coordinates":[[141.294725,24.782553],[141.294452,24.782656],[141.294287,24.782725],[141.294234,24.782745],[141.294197,24.782776],[141.294162,24.782841],[141.294154,24.782908],[141.294167,24.78297],[141.294207,24.78302],[141.294273,24.783048],[141.295586,24.783429],[141.295952,24.78354],[141.300555,24.787811],[141.300673,24.787782],[141.302604,24.786623],[141.303852,24.785928],[141.304171,24.785786],[141.304502,24.785644]]}},{"type":"Feature","properties":{"id":1167525532,"highway":"unclassified"},"geometry":{"type":"LineString","coordinates":[[141.301937,24.779238],[141.302018,24.778905],[141.302189,24.778393],[141.302211,24.77809],[141.302174,24.777828],[141.302406,24.777241],[141.302878,24.776413],[141.302887,24.776224],[141.302844,24.775958],[141.302819,24.775794],[141.302885,24.775696],[141.303049,24.775562],[141.303134,24.775264],[141.303197,24.775047],[141.303058,24.774686],[141.301953,24.772544],[141.301396,24.771864],[141.301039,24.771193],[141.300983,24.770947],[141.300906,24.770583],[141.300681,24.770239],[141.300388,24.769873],[141.300243,24.769544],[141.300177,24.769395],[141.300052,24.769295],[141.299915,24.769272],[141.298259,24.769271],[141.297745,24.769305],[141.297467,24.769244],[141.297105,24.769296]]}}]}