{"type":"FeatureCollection","features":[{"type":"Feature","properties":{"id":126302348,"highway":"service"},"geometry":{"type":"LineString","coordinates":[[141.326126,24.80543],[141.32616,24.805681],[141.326168,24.805797],[141.326161,24.806492],[141.326168,24.806744],[141.32631,24.807474],[141.32632,24.807585],[141.326325,24.80772],[141.32631,24.807817],[141.326248,24.808008],[141.326209,24.808065],[141.326105,24.808081],[141.326038,24.808084]]}},{"type":"Feature","properties":{"id":126302354,"highway":"service"},"geometry":{"type":"LineString","coordinates":[[141.325255,24.800235],[141.325466,24.800257],[141.325784,24.800308],[141.325978,24.800346],[141.326071,24.800346],[141.326161,24.800324],[141.326313,24.800267],[141.326483,24.800161],[141.326704,24.799975],[141.327064,24.799571],[141.327393,24.799219],[141.327538,24.79906],[141.327603,24.798975],[141.327653,24.798896]]}},{"type":"Feature","properties":{"id":126302360,"highway":"service"},"geometry":{"type":"LineString","coordinates":[[141.326126,24.80543],[141.325974,24.804555],[141.325933,24.804227],[141.325888,24.804005],[141.325735,24.803429],[141.325628,24.802893],[141.32551,24.802356],[141.325431,24.802051],[141.325376,24.801919],[141.325296,24.801802],[141.325175,24.801679],[141.324968,24.801476],[141.324884,24.801339],[141.324836,24.801258],[141.324678,24.801015],[141.324637,24.800944],[141.324487,24.800688]]}},{"type":"Feature","properties":{"id":126302376,"highway":"tertiary"},"geometry":{"type":"LineString","coordinates":[[141.326126,24.80543],[141.326211,24.805442],[141.326408,24.805409],[141.326723,24.80533],[141.326965,24.805245],[141.327107,24.805183],[141.327301,24.805082],[141.327527,24.804963],[141.327818,24.804777],[141.328201,24.8045],[141.328455,24.804268],[141.328721,24.803959],[141.32908,24.803449],[141.329419,24.802966],[141.330192,24.801848],[141.330328,24.801661],[141.330735,24.801075],[141.331255,24.800324]]}},{"type":"Feature","properties":{"id":126302378,"highway":"tertiary"},"geometry":{"type":"LineString","coordinates":[[141.309154,24.796148],[141.309222,24.796197],[141.309457,24.796344],[141.310076,24.796711],[141.311052,24.797298],[141.311911,24.797806],[141.3129,24.798399],[141.313147,24.798557],[141.313394,24.798732],[141.313548,24.798868],[141.314322,24.799714],[141.315045,24.800538],[141.315547,24.801097],[141.315667,24.801234],[141.315763,24.801334],[141.316814,24.802248],[141.317016,24.802385]]}},{"type":"Feature","properties":{"id":126302384,"highway":"tertiary"},"geometry":{"type":"LineString","coordinates":[[141.317016,24.802385],[141.31703,24.802394],[141.317461,24.802631],[141.317678,24.802729],[141.318251,24.802928],[141.319612,24.803433],[141.320208,24.803642],[141.320797,24.803878],[141.322189,24.804376],[141.323325,24.804813],[141.323979,24.805054],[141.324434,24.805213],[141.324758,24.805317],[141.32504,24.805391],[141.325283,24.805426],[141.325604,24.80546],[141.325956,24.80546],[141.326126,24.80543]]}},{"type":"Feature","properties":{"id":126302473,"highway":"tertiary"},"geometry":{"type":"LineString","coordinates":[[141.331255,24.800324],[141.331812,24.799504],[141.331853,24.799445],[141.332206,24.798937]]}},{"type":"Feature","properties":{"id":995809489,"highway":"service"},"geometry":{"type":"LineString","coordinates":[[141.324487,24.800688],[141.324254,24.800438],[141.323253,24.79967],[141.322838,24.799407],[141.320988,24.798581],[141.320132,24.798154]]}},{"type":"Feature","properties":{"id":1492738127,"highway":"service"},"geometry":{"type":"LineString","coordinates":[[141.324637,24.800944],[141.326429,24.801038],[141.326813,24.801039],[141.326937,24.800974],[141.327012,24.800921],[141.327249,24.800974],[141.327447,24.801031],[141.328315,24.801047],[141.328877,24.801056],[141.330735,24.801075]]}},{"type":"Feature","properties":{"id":1492738128,"highway":"service"},"geometry":{"type":"LineString","coordinates":[[141.326429,24.801038],[141.32652,24.800784],[141.326313,24.800267]]}},{"type":"Feature","properties":{"id":1492738129,"highway":"service"},"geometry":{"type":"LineString","coordinates":[[141.326429,24.801038],[141.326357,24.801454],[141.32623,24.801713],[141.326112,24.801875],[141.325999,24.801974],[141.325889,24.801989],[141.325791,24.801917],[141.3255,24.801554],[141.325227,24.801234],[141.325105,24.801183],[141.324992,24.801213],[141.324884,24.801339]]}}]}