{"type":"FeatureCollection","features":[{"type":"Feature","properties":{"id":126302321,"highway":"service"},"geometry":{"type":"LineString","coordinates":[[141.320132,24.798154],[141.319829,24.797957],[141.319802,24.797868],[141.319806,24.797848],[141.319823,24.797776],[141.320735,24.795856]]}},{"type":"Feature","properties":{"id":126302338,"highway":"service"},"geometry":{"type":"LineString","coordinates":[[141.324273,24.779992],[141.323101,24.780003],[141.323071,24.780009],[141.323061,24.780018],[141.323047,24.780054],[141.323048,24.780086],[141.322577,24.78011],[141.322528,24.780128],[141.322461,24.780161],[141.322418,24.78019],[141.322381,24.78021],[141.321764,24.780242],[141.320895,24.780309],[141.320576,24.780339],[141.319343,24.780395],[141.318672,24.780409],[141.318355,24.780426],[141.318181,24.78048],[141.318086,24.78051],[141.318024,24.780538],[141.317983,24.780542],[141.317935,24.780496]]}},{"type":"Feature","properties":{"id":126302344,"highway":"tertiary"},"geometry":{"type":"LineString","coordinates":[[141.306348,24.790845],[141.306756,24.792323],[141.306854,24.792644],[141.306935,24.792871],[141.307022,24.793063],[141.307111,24.793231],[141.307201,24.793373],[141.307386,24.793667],[141.30845,24.795311],[141.308761,24.795778],[141.308856,24.795899],[141.309031,24.796061],[141.309154,24.796148]]}},{"type":"Feature","properties":{"id":126302353,"highway":"unclassified"},"geometry":{"type":"LineString","coordinates":[[141.308301,24.769363],[141.308554,24.769466],[141.308703,24.769551],[141.308851,24.769658],[141.309263,24.770023],[141.309619,24.770368],[141.310281,24.770803],[141.310651,24.771123],[141.310739,24.771201],[141.310841,24.771229],[141.311068,24.771309],[141.311283,24.771465],[141.311425,24.771606],[141.311591,24.771718],[141.31177,24.771807],[141.311949,24.771914],[141.312103,24.772003],[141.312251,24.772188],[141.312362,24.772322],[141.312836,24.772691],[141.313009,24.772848]]}},{"type":"Feature","properties":{"id":126302354,"highway":"service"},"geometry":{"type":"LineString","coordinates":[[141.325255,24.800235],[141.325466,24.800257],[141.325784,24.800308],[141.325978,24.800346],[141.326071,24.800346],[141.326161,24.800324],[141.326313,24.800267],[141.326483,24.800161],[141.326704,24.799975],[141.327064,24.799571],[141.327393,24.799219],[141.327538,24.79906],[141.327603,24.798975],[141.327653,24.798896]]}},{"type":"Feature","properties":{"id":126302355,"highway":"tertiary"},"geometry":{"type":"LineString","coordinates":[[141.33819,24.791462],[141.338199,24.791445],[141.338315,24.79106],[141.338439,24.790562],[141.33868,24.789586],[141.339175,24.787601],[141.339224,24.787322],[141.339242,24.787164],[141.339252,24.786954],[141.339242,24.786723],[141.339213,24.786565],[141.339193,24.786453],[141.339149,24.786306],[141.338976,24.785905],[141.337481,24.783169]]}},{"type":"Feature","properties":{"id":126302359,"highway":"tertiary"},"geometry":{"type":"LineString","coordinates":[[141.308458,24.778121],[141.307142,24.778907],[141.306312,24.779357],[141.306074,24.779473],[141.305874,24.779551],[141.305693,24.779606],[141.305479,24.779657],[141.305227,24.779691],[141.304003,24.779757],[141.302175,24.77985]]}},{"type":"Feature","properties":{"id":126302361,"highway":"tertiary"},"geometry":{"type":"LineString","coordinates":[[141.325817,24.777275],[141.325081,24.777234],[141.32329,24.77707],[141.323215,24.777064],[141.322717,24.777006],[141.322225,24.776879],[141.321786,24.776769],[141.32098,24.776553],[141.319651,24.776209],[141.319309,24.776112],[141.318661,24.775968],[141.31836,24.775928]]}},{"type":"Feature","properties":{"id":126302372,"highway":"service"},"geometry":{"type":"LineString","coordinates":[[141.31652,24.784283],[141.316412,24.784355],[141.316297,24.784406],[141.316111,24.784446]]}},{"type":"Feature","properties":{"id":126302378,"highway":"tertiary"},"geometry":{"type":"LineString","coordinates":[[141.309154,24.796148],[141.309222,24.796197],[141.309457,24.796344],[141.310076,24.796711],[141.311052,24.797298],[141.311911,24.797806],[141.3129,24.798399],[141.313147,24.798557],[141.313394,24.798732],[141.313548,24.798868],[141.314322,24.799714],[141.315045,24.800538],[141.315547,24.801097],[141.315667,24.801234],[141.315763,24.801334],[141.316814,24.802248],[141.317016,24.802385]]}},{"type":"Feature","properties":{"id":126302385,"highway":"tertiary"},"geometry":{"type":"LineString","coordinates":[[141.332206,24.798937],[141.332498,24.798522],[141.33353,24.797032],[141.33387,24.796495],[141.334229,24.795874],[141.3351,24.794408],[141.335311,24.794035],[141.335416,24.793872],[141.335552,24.793702],[141.335675,24.793578],[141.335867,24.793408],[141.336386,24.792991],[141.336732,24.792725],[141.337493,24.792127],[141.337728,24.791935],[141.338074,24.79163],[141.338148,24.791542],[141.33819,24.791462]]}},{"type":"Feature","properties":{"id":126302388,"highway":"tertiary"},"geometry":{"type":"LineString","coordinates":[[141.337481,24.783169],[141.336251,24.781008],[141.335821,24.780253],[141.335697,24.780031],[141.335564,24.779856],[141.335408,24.779697],[141.335249,24.779562],[141.335076,24.779433],[141.334841,24.779301],[141.33453,24.779184],[141.334214,24.779072],[141.333918,24.778942],[141.332692,24.7785],[141.331854,24.77821],[141.330725,24.777841],[141.330183,24.777728],[141.329443,24.777615],[141.328876,24.777565],[141.327912,24.777476]]}},{"type":"Feature","properties":{"id":126302389,"highway":"tertiary"},"geometry":{"type":"LineString","coordinates":[[141.298405,24.77167],[141.299213,24.773127],[141.299282,24.773287],[141.299362,24.773475],[141.299406,24.773594],[141.299628,24.774085],[141.299805,24.774415],[141.300061,24.77487],[141.300246,24.775124],[141.300319,24.775229],[141.30037,24.775327],[141.300667,24.776044],[141.300747,24.776383],[141.300759,24.776467],[141.300871,24.776737],[141.301174,24.777353],[141.301637,24.778504],[141.301937,24.779238],[141.302002,24.779396],[141.302175,24.77985]]}},{"type":"Feature","properties":{"id":126302425,"highway":"service"},"geometry":{"type":"LineString","coordinates":[[141.30919,24.778052],[141.309264,24.778161],[141.309342,24.778241],[141.309651,24.77842],[141.310083,24.77858],[141.310342,24.778675]]}},{"type":"Feature","properties":{"id":126302452,"highway":"tertiary"},"geometry":{"type":"LineString","coordinates":[[141.315498,24.776721],[141.314695,24.777075],[141.314001,24.77738],[141.313296,24.777663],[141.313029,24.77777],[141.312857,24.777815],[141.312672,24.77786],[141.312535,24.777884],[141.31227,24.777901],[141.312031,24.777888],[141.311803,24.777857],[141.311506,24.777777],[141.311003,24.777655],[141.310755,24.777608],[141.310531,24.777587],[141.310323,24.777576],[141.310086,24.77758],[141.309833,24.777609],[141.309521,24.777672],[141.309193,24.777761]]}},{"type":"Feature","properties":{"id":126302458,"highway":"service"},"geometry":{"type":"LineString","coordinates":[[141.337481,24.783169],[141.337734,24.783033],[141.33842,24.782621],[141.338809,24.782372],[141.339248,24.782135],[141.339428,24.782028],[141.339521,24.781983],[141.340046,24.781723],[141.340176,24.781683],[141.340263,24.781628],[141.340392,24.781886],[141.340457,24.781966],[141.3406,24.782034],[141.340633,24.782056],[141.340732,24.782096],[141.340893,24.782146],[141.341227,24.782304],[141.341366,24.782367],[141.341499,24.782423],[141.341777,24.782513],[141.342024,24.782564],[141.342136,24.782598],[141.342343,24.782699]]}},{"type":"Feature","properties":{"id":126302460,"highway":"unclassified"},"geometry":{"type":"LineString","coordinates":[[141.306816,24.763621],[141.306688,24.763529],[141.306366,24.763309],[141.305927,24.763042],[141.305811,24.762964],[141.305711,24.762885],[141.305365,24.762569],[141.304765,24.762117],[141.304512,24.761959],[141.304314,24.761841],[141.304017,24.761592],[141.303863,24.761496],[141.303677,24.761355],[141.303275,24.761067],[141.302769,24.760683],[141.302329,24.760367],[141.301482,24.759808],[141.301112,24.75957],[141.300586,24.759271],[141.300382,24.759158],[141.29972,24.758808],[141.299194,24.758549],[141.298916,24.758385],[141.298564,24.758204],[141.298192,24.757999]]}},{"type":"Feature","properties":{"id":126302464,"highway":"unclassified"},"geometry":{"type":"LineString","coordinates":[[141.302175,24.77985],[141.298059,24.779837],[141.297066,24.779821],[141.296947,24.779846],[141.296804,24.779961],[141.296736,24.780073],[141.296717,24.780165],[141.296726,24.780277],[141.296789,24.780514],[141.296976,24.780875],[141.297038,24.781045],[141.297038,24.781175],[141.296939,24.781367],[141.296778,24.781559],[141.296624,24.7817],[141.29629,24.781993],[141.296156,24.782081],[141.295982,24.782208],[141.295652,24.782357],[141.295346,24.782445],[141.294725,24.782553]]}},{"type":"Feature","properties":{"id":126302465,"highway":"unclassified"},"geometry":{"type":"LineString","coordinates":[[141.314971,24.769692],[141.314754,24.769443],[141.314669,24.76937],[141.314511,24.769247],[141.314298,24.769116],[141.314131,24.769015],[141.314038,24.768941],[141.313848,24.768755],[141.313769,24.768702],[141.313235,24.768395],[141.313094,24.768309],[141.31295,24.768203],[141.312542,24.76787],[141.312326,24.767667],[141.312073,24.767458],[141.311898,24.767339],[141.311695,24.767214],[141.310805,24.766622],[141.310595,24.766453],[141.31,24.766007],[141.309079,24.765296],[141.308794,24.765091],[141.308386,24.76482],[141.308017,24.764534],[141.307776,24.764352],[141.307368,24.764065],[141.307077,24.763811],[141.306816,24.763621]]}},{"type":"Feature","properties":{"id":126302473,"highway":"tertiary"},"geometry":{"type":"LineString","coordinates":[[141.331255,24.800324],[141.331812,24.799504],[141.331853,24.799445],[141.332206,24.798937]]}},{"type":"Feature","properties":{"id":126302488,"highway":"service"},"geometry":{"type":"LineString","coordinates":[[141.331136,24.795083],[141.331757,24.793851]]}},{"type":"Feature","properties":{"id":126302491,"highway":"unclassified"},"geometry":{"type":"LineString","coordinates":[[141.300387,24.763179],[141.300432,24.763213],[141.300864,24.763523],[141.300982,24.763608],[141.301093,24.763676],[141.301537,24.763924],[141.301666,24.764015],[141.301793,24.764144],[141.301959,24.764364],[141.302057,24.764511],[141.302361,24.764996],[141.302503,24.765183],[141.302676,24.765341],[141.302781,24.765414],[141.303105,24.765619],[141.303214,24.765703],[141.303696,24.766097],[141.304413,24.766604],[141.30471,24.766841],[141.304971,24.767031],[141.30508,24.767095],[141.305377,24.767242],[141.305513,24.767327],[141.305736,24.767513],[141.306064,24.767858],[141.306342,24.768072],[141.307133,24.768608],[141.308109,24.769269],[141.308263,24.769348],[141.308301,24.769363]]}},{"type":"Feature","properties":{"id":126302492,"highway":"service"},"geometry":{"type":"LineString","coordinates":[[141.324312,24.788095],[141.324047,24.788022],[141.323679,24.787879],[141.323302,24.787699],[141.323075,24.787617],[141.322859,24.787542],[141.322497,24.787447],[141.322124,24.787352],[141.321961,24.787287],[141.321834,24.787222],[141.321759,24.787152],[141.321703,24.787067],[141.321565,24.786762],[141.321416,24.786524],[141.3212,24.786259],[141.321005,24.786074],[141.320842,24.785957],[141.32066,24.785815],[141.320585,24.785724],[141.320565,24.785678]]}},{"type":"Feature","properties":{"id":126302494,"highway":"unclassified"},"geometry":{"type":"LineString","coordinates":[[141.309193,24.777761],[141.309056,24.777563],[141.308951,24.777455],[141.308715,24.777263],[141.308318,24.776981],[141.30814,24.776829],[141.307855,24.776603],[141.307725,24.77649],[141.307611,24.776368],[141.307528,24.77625],[141.307453,24.776106],[141.307268,24.775626],[141.30721,24.775493],[141.307128,24.775365],[141.306928,24.775124],[141.306668,24.774819],[141.306242,24.774367],[141.306174,24.77426],[141.306155,24.774198],[141.306147,24.774099],[141.306155,24.773966],[141.306211,24.773763],[141.30626,24.773605],[141.306291,24.773424],[141.306304,24.773311],[141.306353,24.773198],[141.30647,24.773012],[141.306514,24.772921],[141.306526,24.77286],[141.306532,24.772865],[141.306538,24.772791],[141.306483,24.772633]]}},{"type":"Feature","properties":{"id":126302499,"highway":"unclassified"},"geometry":{"type":"LineString","coordinates":[[141.292219,24.757601],[141.292443,24.757639],[141.292574,24.757679],[141.292679,24.757725],[141.292921,24.757877],[141.293279,24.758052],[141.293464,24.75817],[141.293823,24.758408],[141.294021,24.758475],[141.29425,24.758526],[141.294373,24.758583],[141.294719,24.758786],[141.294942,24.758972],[141.295066,24.759045],[141.295443,24.75922],[141.295804,24.759439],[141.296296,24.759735],[141.296495,24.759879],[141.296654,24.760014],[141.29678,24.760149],[141.296895,24.760277],[141.297117,24.760592],[141.297321,24.760859],[141.297588,24.761249],[141.297665,24.761359],[141.297884,24.761604],[141.297976,24.761722],[141.298119,24.761965],[141.298304,24.762207],[141.298465,24.762349],[141.298582,24.762427],[141.298693,24.762467],[141.299027,24.762462],[141.299213,24.762472],[141.299423,24.762501],[141.299553,24.762552],[141.299739,24.762687],[141.300067,24.762942],[141.300387,24.763179]]}},{"type":"Feature","properties":{"id":126302500,"highway":"tertiary"},"geometry":{"type":"LineString","coordinates":[[141.327912,24.777476],[141.327228,24.777407],[141.326464,24.777312],[141.326111,24.777301],[141.325817,24.777275]]}},{"type":"Feature","properties":{"id":126302509,"highway":"service"},"geometry":{"type":"LineString","coordinates":[[141.320735,24.795856],[141.320656,24.795597],[141.320637,24.795247],[141.320648,24.795069]]}},{"type":"Feature","properties":{"id":126302510,"highway":"tertiary"},"geometry":{"type":"LineString","coordinates":[[141.309193,24.777761],[141.308948,24.777872],[141.308458,24.778121]]}},{"type":"Feature","properties":{"id":126302518,"highway":"service"},"geometry":{"type":"LineString","coordinates":[[141.325817,24.777275],[141.325802,24.77749],[141.325789,24.777696],[141.325748,24.778071],[141.325741,24.778358],[141.325745,24.778712],[141.325749,24.779258],[141.325747,24.779315],[141.32581,24.779753],[141.325808,24.779969],[141.325818,24.780289],[141.325822,24.780584]]}},{"type":"Feature","properties":{"id":126302539,"highway":"service"},"geometry":{"type":"LineString","coordinates":[[141.324312,24.788095],[141.324679,24.787208],[141.324931,24.786755],[141.325203,24.786155],[141.325281,24.785968],[141.325412,24.785558]]}},{"type":"Feature","properties":{"id":126302541,"highway":"service"},"geometry":{"type":"LineString","coordinates":[[141.330249,24.796974],[141.330286,24.79686],[141.330297,24.796827],[141.330331,24.796665],[141.330388,24.796495],[141.330463,24.796323],[141.330474,24.796298]]}},{"type":"Feature","properties":{"id":126302544,"highway":"tertiary"},"geometry":{"type":"LineString","coordinates":[[141.305608,24.788351],[141.30568,24.788536],[141.305808,24.788911],[141.305903,24.789213],[141.306348,24.790845]]}},{"type":"Feature","properties":{"id":126302556,"highway":"service"},"geometry":{"type":"LineString","coordinates":[[141.30919,24.778052],[141.309171,24.777963],[141.309179,24.777868],[141.309193,24.777761]]}},{"type":"Feature","properties":{"id":126302572,"highway":"tertiary"},"geometry":{"type":"LineString","coordinates":[[141.302175,24.77985],[141.302787,24.781366],[141.30311,24.782199],[141.303735,24.783752],[141.303927,24.784244],[141.304144,24.78478],[141.304456,24.785512],[141.304502,24.785644],[141.304828,24.786516],[141.30524,24.787396],[141.305395,24.787791],[141.305583,24.788285],[141.305608,24.788351]]}},{"type":"Feature","properties":{"id":126302576,"highway":"residential"},"geometry":{"type":"LineString","coordinates":[[141.306348,24.790845],[141.306197,24.79086],[141.305989,24.790901],[141.305779,24.790912],[141.305724,24.790963],[141.305686,24.791037],[141.30568,24.791178]]}},{"type":"Feature","properties":{"id":126302577,"highway":"service"},"geometry":{"type":"LineString","coordinates":[[141.330474,24.796298],[141.330583,24.795983],[141.330643,24.795903],[141.330739,24.795812],[141.33082,24.795722],[141.330877,24.795618],[141.331136,24.795083]]}},{"type":"Feature","properties":{"id":126302594,"highway":"tertiary"},"geometry":{"type":"LineString","coordinates":[[141.31836,24.775928],[141.318063,24.775919],[141.317788,24.775941],[141.317485,24.775994],[141.317202,24.776057],[141.316929,24.776131],[141.316686,24.776222],[141.315498,24.776721]]}},{"type":"Feature","properties":{"id":126302596,"highway":"unclassified"},"geometry":{"type":"LineString","coordinates":[[141.315498,24.776721],[141.314626,24.775129],[141.314347,24.774637],[141.314303,24.774547],[141.314199,24.77427],[141.314165,24.774172],[141.314107,24.77408],[141.313976,24.773837],[141.313877,24.773664],[141.313803,24.773564],[141.313642,24.773497],[141.3135,24.773392],[141.313283,24.773219],[141.313009,24.772848]]}},{"type":"Feature","properties":{"id":126302597,"highway":"unclassified"},"geometry":{"type":"LineString","coordinates":[[141.317067,24.774056],[141.316925,24.773683],[141.316783,24.77312],[141.316738,24.773002],[141.316666,24.77286],[141.315329,24.770188],[141.315239,24.770049],[141.315077,24.769822],[141.314971,24.769692]]}},{"type":"Feature","properties":{"id":126302603,"highway":"unclassified"},"geometry":{"type":"LineString","coordinates":[[141.332206,24.798937],[141.331274,24.798308],[141.330847,24.798002],[141.330643,24.797827],[141.330519,24.797675],[141.330422,24.797519],[141.330352,24.797379],[141.330297,24.797223],[141.330249,24.796974]]}},{"type":"Feature","properties":{"id":126302605,"highway":"service"},"geometry":{"type":"LineString","coordinates":[[141.327912,24.777476],[141.327928,24.778263],[141.327938,24.778762],[141.327958,24.779194]]}},{"type":"Feature","properties":{"id":126302607,"highway":"service"},"geometry":{"type":"LineString","coordinates":[[141.320735,24.795856],[141.321037,24.795247],[141.321628,24.793967],[141.322162,24.792849],[141.322551,24.792019],[141.323051,24.790909],[141.323586,24.789795],[141.32413,24.788444],[141.324312,24.788095]]}},{"type":"Feature","properties":{"id":126302608,"highway":"unclassified"},"geometry":{"type":"LineString","coordinates":[[141.31836,24.775928],[141.318326,24.77581],[141.317862,24.775449],[141.317692,24.775271],[141.31756,24.775094],[141.317459,24.774962],[141.317331,24.774741],[141.317234,24.774543],[141.31716,24.774305],[141.317067,24.774056]]}},{"type":"Feature","properties":{"id":285820079,"highway":"unclassified"},"geometry":{"type":"LineString","coordinates":[[141.330725,24.777841],[141.330065,24.779314],[141.329212,24.781267],[141.328881,24.781993]]}},{"type":"Feature","properties":{"id":285820080,"highway":"service"},"geometry":{"type":"LineString","coordinates":[[141.32947,24.779169],[141.328863,24.779186],[141.327958,24.779194],[141.327284,24.779218],[141.32668,24.779229],[141.325749,24.779258]]}},{"type":"Feature","properties":{"id":285820081,"highway":"service"},"geometry":{"type":"LineString","coordinates":[[141.325741,24.778358],[141.326307,24.778376],[141.326482,24.778371],[141.327246,24.778357]]}},{"type":"Feature","properties":{"id":285820082,"highway":"service"},"geometry":{"type":"LineString","coordinates":[[141.327254,24.778776],[141.327246,24.778357],[141.327228,24.777407]]}},{"type":"Feature","properties":{"id":285820083,"highway":"service"},"geometry":{"type":"LineString","coordinates":[[141.328868,24.77972],[141.328015,24.779733],[141.327289,24.779744],[141.32581,24.779753]]}},{"type":"Feature","properties":{"id":285820084,"highway":"service"},"geometry":{"type":"LineString","coordinates":[[141.328868,24.77972],[141.328863,24.779186]]}},{"type":"Feature","properties":{"id":285820085,"highway":"service"},"geometry":{"type":"LineString","coordinates":[[141.326464,24.777312],[141.326475,24.777687],[141.326479,24.778056],[141.326482,24.778371],[141.326498,24.778713],[141.3265,24.778911],[141.32651,24.778939],[141.326547,24.778945],[141.326671,24.77894],[141.327259,24.778932],[141.327254,24.778776]]}},{"type":"Feature","properties":{"id":285820086,"highway":"service"},"geometry":{"type":"LineString","coordinates":[[141.327938,24.778762],[141.327254,24.778776]]}},{"type":"Feature","properties":{"id":285820087,"highway":"service"},"geometry":{"type":"LineString","coordinates":[[141.326498,24.778713],[141.325745,24.778712]]}},{"type":"Feature","properties":{"id":285820088,"highway":"service"},"geometry":{"type":"LineString","coordinates":[[141.326475,24.777687],[141.325789,24.777696]]}},{"type":"Feature","properties":{"id":285820089,"highway":"service"},"geometry":{"type":"LineString","coordinates":[[141.325808,24.779969],[141.325083,24.779974],[141.324273,24.779992],[141.324274,24.780315],[141.325086,24.780293],[141.325818,24.780289],[141.327299,24.780275]]}},{"type":"Feature","properties":{"id":285820090,"highway":"service"},"geometry":{"type":"LineString","coordinates":[[141.304502,24.785644],[141.305288,24.785355],[141.306118,24.785075],[141.306139,24.785062],[141.306151,24.785036],[141.306142,24.785005],[141.305956,24.784533],[141.305789,24.784144],[141.305748,24.784047],[141.305263,24.783442],[141.305224,24.783418],[141.305172,24.783413],[141.305124,24.783421],[141.304587,24.783608],[141.303969,24.7838]]}},{"type":"Feature","properties":{"id":285820091,"highway":"service"},"geometry":{"type":"LineString","coordinates":[[141.305748,24.784047],[141.304889,24.784343]]}},{"type":"Feature","properties":{"id":285820092,"highway":"service"},"geometry":{"type":"LineString","coordinates":[[141.305956,24.784533],[141.305083,24.784821]]}},{"type":"Feature","properties":{"id":285820093,"highway":"service"},"geometry":{"type":"LineString","coordinates":[[141.305138,24.784969],[141.304541,24.785173]]}},{"type":"Feature","properties":{"id":285820094,"highway":"service"},"geometry":{"type":"LineString","coordinates":[[141.304456,24.785512],[141.304545,24.785451],[141.30459,24.785368],[141.30457,24.785248],[141.304541,24.785173],[141.304162,24.784269],[141.304129,24.784248],[141.304069,24.78423],[141.303927,24.784244]]}},{"type":"Feature","properties":{"id":285820095,"highway":"service"},"geometry":{"type":"LineString","coordinates":[[141.304162,24.784269],[141.304771,24.784078]]}},{"type":"Feature","properties":{"id":285820096,"highway":"service"},"geometry":{"type":"LineString","coordinates":[[141.304162,24.784269],[141.303969,24.7838],[141.303823,24.78343],[141.303819,24.78339],[141.303826,24.783359],[141.303852,24.783327],[141.304314,24.783164],[141.304347,24.783161],[141.304381,24.783171],[141.304402,24.783187],[141.304416,24.783209],[141.304587,24.783608],[141.304771,24.784078],[141.304889,24.784343],[141.305083,24.784821],[141.305138,24.784969],[141.305288,24.785355]]}},{"type":"Feature","properties":{"id":285820097,"highway":"service"},"geometry":{"type":"LineString","coordinates":[[141.330065,24.779314],[141.332068,24.78006]]}},{"type":"Feature","properties":{"id":288425384,"highway":"service"},"geometry":{"type":"LineString","coordinates":[[141.324679,24.787208],[141.322208,24.786292],[141.321745,24.786233],[141.321329,24.785966],[141.320981,24.785839],[141.320565,24.785678]]}},{"type":"Feature","properties":{"id":401583634,"highway":"service"},"geometry":{"type":"LineString","coordinates":[[141.294725,24.782553],[141.294452,24.782656],[141.294287,24.782725],[141.294234,24.782745],[141.294197,24.782776],[141.294162,24.782841],[141.294154,24.782908],[141.294167,24.78297],[141.294207,24.78302],[141.294273,24.783048],[141.295586,24.783429],[141.295952,24.78354],[141.300555,24.787811],[141.300673,24.787782],[141.302604,24.786623],[141.303852,24.785928],[141.304171,24.785786],[141.304502,24.785644]]}},{"type":"Feature","properties":{"id":686621157,"highway":"service"},"geometry":{"type":"LineString","coordinates":[[141.326671,24.77894],[141.32668,24.779229]]}},{"type":"Feature","properties":{"id":686621161,"highway":"residential"},"geometry":{"type":"LineString","coordinates":[[141.314695,24.777075],[141.314891,24.777453],[141.315224,24.778008],[141.315382,24.77817],[141.315522,24.778272],[141.315929,24.77852],[141.316158,24.77866],[141.316613,24.77894],[141.316777,24.779041],[141.316912,24.779077],[141.317051,24.779128],[141.317156,24.779215],[141.317509,24.779803],[141.317759,24.780202],[141.317835,24.780331],[141.317935,24.780496]]}},{"type":"Feature","properties":{"id":686621167,"highway":"service"},"geometry":{"type":"LineString","coordinates":[[141.314876,24.779085],[141.314994,24.779156],[141.315141,24.779204],[141.31545,24.779248],[141.31559,24.779272],[141.316348,24.779525],[141.316511,24.779602],[141.316751,24.779746],[141.316844,24.779798],[141.316934,24.779916],[141.316986,24.780027],[141.317509,24.779803]]}},{"type":"Feature","properties":{"id":686621168,"highway":"service"},"geometry":{"type":"LineString","coordinates":[[141.31559,24.779272],[141.315568,24.779097],[141.31558,24.778953],[141.315645,24.778834],[141.315929,24.77852]]}},{"type":"Feature","properties":{"id":686621186,"highway":"service"},"geometry":{"type":"LineString","coordinates":[[141.320895,24.780309],[141.3209,24.780036],[141.321756,24.780028]]}},{"type":"Feature","properties":{"id":686621187,"highway":"service"},"geometry":{"type":"LineString","coordinates":[[141.321764,24.780242],[141.321756,24.780028],[141.32176,24.779814],[141.322015,24.779819]]}},{"type":"Feature","properties":{"id":686621218,"highway":"service"},"geometry":{"type":"LineString","coordinates":[[141.327299,24.780176],[141.327671,24.78016],[141.327872,24.780164],[141.327879,24.780348],[141.32818,24.780349],[141.328279,24.780351],[141.328397,24.780352],[141.328445,24.780352],[141.328456,24.780392],[141.32849,24.780446],[141.328494,24.78047],[141.328505,24.780526],[141.328511,24.780613],[141.328527,24.7807],[141.328543,24.780775],[141.328565,24.780819],[141.328588,24.780849],[141.328665,24.780936],[141.3288,24.781083],[141.328844,24.781117],[141.328888,24.781142],[141.329212,24.781267],[141.329557,24.781389],[141.329817,24.781487],[141.330786,24.781846],[141.331261,24.782023],[141.3317,24.782185]]}},{"type":"Feature","properties":{"id":686621219,"highway":"service"},"geometry":{"type":"LineString","coordinates":[[141.327928,24.778263],[141.328842,24.778301],[141.328876,24.777565]]}},{"type":"Feature","properties":{"id":686621220,"highway":"service"},"geometry":{"type":"LineString","coordinates":[[141.320565,24.785678],[141.319104,24.785191],[141.31652,24.784283],[141.315885,24.784111],[141.31497,24.783796],[141.314912,24.783954],[141.31467,24.784174],[141.314458,24.784229],[141.314125,24.784202],[141.313984,24.784184],[141.313898,24.784298],[141.313747,24.784627],[141.313687,24.784792],[141.313429,24.784847],[141.312385,24.784435],[141.31231,24.784243],[141.312779,24.783419],[141.312718,24.783199],[141.311039,24.782539],[141.309827,24.782093],[141.30951,24.781976],[141.309374,24.781798],[141.30948,24.781427],[141.309616,24.781111],[141.309616,24.780905],[141.309314,24.780589],[141.309041,24.780328],[141.308769,24.779874],[141.308603,24.779325],[141.308458,24.778121]]}},{"type":"Feature","properties":{"id":686621243,"highway":"service"},"geometry":{"type":"LineString","coordinates":[[141.329817,24.781487],[141.329904,24.781267],[141.329928,24.781216],[141.329944,24.781191],[141.329963,24.781175],[141.329997,24.781156],[141.330039,24.781146],[141.330073,24.781144],[141.330957,24.781469],[141.331331,24.78161],[141.331363,24.781649],[141.331384,24.781701],[141.331382,24.781751],[141.331335,24.781859],[141.331261,24.782023]]}},{"type":"Feature","properties":{"id":686621244,"highway":"service"},"geometry":{"type":"LineString","coordinates":[[141.330957,24.781469],[141.330786,24.781846],[141.33046,24.782571]]}},{"type":"Feature","properties":{"id":686621253,"highway":"service"},"geometry":{"type":"LineString","coordinates":[[141.322381,24.78021],[141.322422,24.780245],[141.322487,24.780288],[141.322527,24.780302],[141.322576,24.780307],[141.323053,24.780312],[141.323048,24.780086]]}},{"type":"Feature","properties":{"id":686621275,"highway":"service"},"geometry":{"type":"LineString","coordinates":[[141.303735,24.783752],[141.303969,24.7838]]}},{"type":"Feature","properties":{"id":686621580,"highway":"service"},"geometry":{"type":"LineString","coordinates":[[141.326307,24.778376],[141.326304,24.778158],[141.326325,24.778108],[141.326372,24.778063],[141.326425,24.778053],[141.326479,24.778056]]}},{"type":"Feature","properties":{"id":686621581,"highway":"service"},"geometry":{"type":"LineString","coordinates":[[141.32503,24.77932],[141.325747,24.779315]]}},{"type":"Feature","properties":{"id":686621583,"highway":"service"},"geometry":{"type":"LineString","coordinates":[[141.325086,24.780293],[141.325083,24.779974]]}},{"type":"Feature","properties":{"id":995809489,"highway":"service"},"geometry":{"type":"LineString","coordinates":[[141.324487,24.800688],[141.324254,24.800438],[141.323253,24.79967],[141.322838,24.799407],[141.320988,24.798581],[141.320132,24.798154]]}},{"type":"Feature","properties":{"id":995809493,"highway":"service"},"geometry":{"type":"LineString","coordinates":[[141.331239,24.797174],[141.330831,24.796919]]}},{"type":"Feature","properties":{"id":995809496,"highway":"service"},"geometry":{"type":"LineString","coordinates":[[141.330286,24.79686],[141.330587,24.796843],[141.330638,24.796872],[141.330674,24.796819],[141.330702,24.79678],[141.330665,24.796734],[141.330463,24.796323]]}},{"type":"Feature","properties":{"id":995809497,"highway":"service"},"geometry":{"type":"LineString","coordinates":[[141.330726,24.796853],[141.330674,24.796819]]}},{"type":"Feature","properties":{"id":995809501,"highway":"service"},"geometry":{"type":"LineString","coordinates":[[141.330793,24.796895],[141.330726,24.796853]]}},{"type":"Feature","properties":{"id":995809502,"highway":"service"},"geometry":{"type":"LineString","coordinates":[[141.330831,24.796919],[141.330793,24.796895]]}},{"type":"Feature","properties":{"id":996062277,"highway":"service"},"geometry":{"type":"LineString","coordinates":[[141.318344,24.798005],[141.318414,24.798057],[141.318459,24.798125],[141.318528,24.798271],[141.318542,24.79843],[141.3185,24.798585],[141.318408,24.798721],[141.318273,24.798823],[141.31811,24.798881],[141.317934,24.798891],[141.317752,24.798844],[141.317598,24.798745],[141.317489,24.798604],[141.31744,24.798438],[141.317454,24.798267],[141.317532,24.79811],[141.317663,24.797986],[141.317833,24.79791],[141.318021,24.79789],[141.318193,24.797924],[141.318344,24.798005]]}},{"type":"Feature","properties":{"id":996062278,"highway":"service"},"geometry":{"type":"LineString","coordinates":[[141.318128,24.79828],[141.318414,24.798057],[141.318763,24.797814],[141.318874,24.797777],[141.319091,24.797818],[141.319695,24.797911],[141.319806,24.797848]]}},{"type":"Feature","properties":{"id":1167525532,"highway":"unclassified"},"geometry":{"type":"LineString","coordinates":[[141.301937,24.779238],[141.302018,24.778905],[141.302189,24.778393],[141.302211,24.77809],[141.302174,24.777828],[141.302406,24.777241],[141.302878,24.776413],[141.302887,24.776224],[141.302844,24.775958],[141.302819,24.775794],[141.302885,24.775696],[141.303049,24.775562],[141.303134,24.775264],[141.303197,24.775047],[141.303058,24.774686],[141.301953,24.772544],[141.301396,24.771864],[141.301039,24.771193],[141.300983,24.770947],[141.300906,24.770583],[141.300681,24.770239],[141.300388,24.769873],[141.300243,24.769544],[141.300177,24.769395],[141.300052,24.769295],[141.299915,24.769272],[141.298259,24.769271],[141.297745,24.769305],[141.297467,24.769244],[141.297105,24.769296]]}},{"type":"Feature","properties":{"id":1179649873,"highway":"service"},"geometry":{"type":"LineString","coordinates":[[141.327299,24.780275],[141.327299,24.780176],[141.327289,24.779744],[141.327284,24.779218]]}},{"type":"Feature","properties":{"id":1296819304,"highway":"unclassified"},"geometry":{"type":"LineString","coordinates":[[141.330065,24.779314],[141.329782,24.779201],[141.329682,24.779174],[141.32947,24.779169]]}},{"type":"Feature","properties":{"id":1296819305,"highway":"service"},"geometry":{"type":"LineString","coordinates":[[141.328445,24.780352],[141.328401,24.780211],[141.328338,24.780134],[141.328258,24.780086],[141.328164,24.780012],[141.328108,24.77995],[141.328063,24.779883],[141.328015,24.779733]]}},{"type":"Feature","properties":{"id":1296819308,"highway":"service"},"geometry":{"type":"LineString","coordinates":[[141.328699,24.780637],[141.328564,24.78051],[141.328494,24.78047]]}}]}