{"type":"FeatureCollection","features":[{"type":"Feature","properties":{"id":126302589,"highway":"unclassified"},"geometry":{"type":"LineString","coordinates":[[142.19392,27.099913],[142.193867,27.099959],[142.193838,27.1],[142.193747,27.10012],[142.19366,27.100244],[142.193547,27.10034],[142.193475,27.100406],[142.193374,27.100491],[142.193326,27.100566],[142.19332,27.100658],[142.193348,27.100764],[142.193485,27.100857],[142.193691,27.100986],[142.193898,27.101298],[142.193924,27.101372],[142.19393,27.101707],[142.193951,27.101778],[142.194217,27.102215],[142.194289,27.102273],[142.194683,27.102456],[142.194807,27.102499],[142.194901,27.102492],[142.195233,27.102442],[142.195386,27.10239],[142.195512,27.102406],[142.195595,27.102445],[142.195888,27.102705],[142.195931,27.102793],[142.195936,27.102901],[142.19592,27.102982],[142.195858,27.103075],[142.195748,27.103144],[142.195638,27.10318],[142.194954,27.103333],[142.19467,27.103361],[142.193681,27.103295]]}},{"type":"Feature","properties":{"id":331098634,"highway":"secondary"},"geometry":{"type":"LineString","coordinates":[[142.194947,27.101039],[142.194974,27.101222],[142.195028,27.101381],[142.195179,27.101499],[142.195462,27.101579],[142.195927,27.101709],[142.196106,27.101686],[142.196197,27.101607],[142.196325,27.101451],[142.196444,27.10134],[142.196603,27.101277],[142.197046,27.10128],[142.197644,27.101373],[142.197683,27.101288],[142.197745,27.101245],[142.197834,27.101233],[142.197917,27.101259],[142.198185,27.101405],[142.198252,27.101402],[142.198372,27.101354]]}},{"type":"Feature","properties":{"id":360633156,"highway":"service"},"geometry":{"type":"LineString","coordinates":[[142.197347,27.099639],[142.197092,27.099761],[142.196996,27.099868],[142.196936,27.09995],[142.196935,27.100077],[142.196944,27.100275]]}},{"type":"Feature","properties":{"id":373865280,"highway":"unclassified"},"geometry":{"type":"LineString","coordinates":[[142.194947,27.101039],[142.195091,27.101018],[142.195231,27.100989],[142.195398,27.101044],[142.195567,27.101075],[142.195585,27.101073],[142.195612,27.101077],[142.195736,27.10109],[142.195817,27.101072],[142.195907,27.101037],[142.196096,27.100813],[142.196243,27.100745],[142.196271,27.100745],[142.196377,27.100748],[142.196473,27.100751],[142.19657,27.100755],[142.19674,27.100789],[142.197062,27.100828],[142.197182,27.100823],[142.197295,27.100778],[142.197458,27.100682],[142.19778,27.100433],[142.197871,27.100371],[142.197881,27.100364]]}},{"type":"Feature","properties":{"id":373865281,"highway":"secondary"},"geometry":{"type":"LineString","coordinates":[[142.194198,27.099759],[142.194366,27.0998],[142.194637,27.099833],[142.194906,27.099925],[142.19513,27.099986],[142.195344,27.100061],[142.195455,27.100112],[142.19553,27.100223],[142.195471,27.100366],[142.19536,27.100425],[142.195097,27.100508],[142.194956,27.10061],[142.194899,27.100704],[142.194908,27.100845],[142.194947,27.101039]]}},{"type":"Feature","properties":{"id":443594751,"highway":"residential"},"geometry":{"type":"LineString","coordinates":[[142.192825,27.097677],[142.19312,27.097925],[142.193187,27.098161],[142.193245,27.098302],[142.193467,27.098748],[142.193729,27.099613],[142.193383,27.099682],[142.193334,27.099816],[142.193407,27.100045],[142.193867,27.099959]]}},{"type":"Feature","properties":{"id":443594753,"highway":"unclassified"},"geometry":{"type":"LineString","coordinates":[[142.193681,27.103295],[142.193672,27.103249],[142.193634,27.103216],[142.193582,27.10321],[142.193535,27.103232],[142.193513,27.103274],[142.193522,27.10332],[142.19356,27.103353],[142.193612,27.103359],[142.193658,27.103337],[142.193681,27.103295]]}},{"type":"Feature","properties":{"id":443594770,"highway":"service"},"geometry":{"type":"LineString","coordinates":[[142.195723,27.100932],[142.19547,27.100691]]}},{"type":"Feature","properties":{"id":443594772,"highway":"unclassified"},"geometry":{"type":"LineString","coordinates":[[142.198201,27.100709],[142.198239,27.100835],[142.198322,27.101057],[142.198352,27.101281],[142.198372,27.101354],[142.198419,27.101412],[142.198755,27.101589],[142.19887,27.101804],[142.198962,27.101941],[142.199119,27.102136],[142.199257,27.102352],[142.1995,27.102547],[142.199553,27.102546],[142.19992,27.102185],[142.199569,27.101861],[142.199435,27.101728],[142.199319,27.101618],[142.199054,27.101335],[142.198466,27.100887],[142.198201,27.100709],[142.198175,27.100694],[142.198019,27.100565],[142.197881,27.100364],[142.197602,27.100059],[142.197525,27.099889],[142.197515,27.099865],[142.197464,27.099762],[142.197347,27.099639],[142.197225,27.0995],[142.197233,27.099354],[142.197271,27.099182],[142.197265,27.09907],[142.19722,27.098984],[142.197059,27.098791]]}},{"type":"Feature","properties":{"id":443594774,"highway":"unclassified"},"geometry":{"type":"LineString","coordinates":[[142.201707,27.103676],[142.201708,27.103627],[142.201725,27.10358],[142.201773,27.10352],[142.201845,27.103484],[142.202301,27.103462],[142.202517,27.103451],[142.202627,27.103428],[142.20276,27.103356],[142.202884,27.103282],[142.203002,27.103198],[142.203112,27.10312],[142.203139,27.103029],[142.203093,27.102936],[142.202927,27.1028],[142.202841,27.102678],[142.202828,27.102528],[142.202818,27.102422],[142.20277,27.102346],[142.20251,27.102243],[142.202266,27.102145],[142.202155,27.102066],[142.201893,27.10188],[142.201544,27.101639],[142.2013,27.101489],[142.200614,27.101276],[142.200396,27.101262],[142.200094,27.101155],[142.200062,27.101144],[142.199988,27.101118],[142.199702,27.101016],[142.199449,27.100985],[142.199258,27.100916],[142.199087,27.100832],[142.198738,27.100639],[142.198558,27.100589],[142.198384,27.100613],[142.19829,27.100646],[142.198201,27.100709]]}},{"type":"Feature","properties":{"id":443594776,"highway":"service"},"geometry":{"type":"LineString","coordinates":[[142.196105,27.101324],[142.195742,27.10133],[142.195736,27.10109]]}},{"type":"Feature","properties":{"id":443594779,"highway":"service"},"geometry":{"type":"LineString","coordinates":[[142.195654,27.10053],[142.19547,27.100691],[142.194908,27.100845]]}},{"type":"Feature","properties":{"id":443594781,"highway":"service"},"geometry":{"type":"LineString","coordinates":[[142.196634,27.100566],[142.196313,27.100577],[142.196271,27.100745]]}},{"type":"Feature","properties":{"id":443594787,"highway":"service"},"geometry":{"type":"LineString","coordinates":[[142.199057,27.101728],[142.199076,27.101743],[142.199389,27.102011],[142.199569,27.101861]]}},{"type":"Feature","properties":{"id":443594788,"highway":"service"},"geometry":{"type":"LineString","coordinates":[[142.193208,27.101593],[142.193203,27.101301],[142.19316,27.101065],[142.193157,27.100874]]}},{"type":"Feature","properties":{"id":443594789,"highway":"service"},"geometry":{"type":"LineString","coordinates":[[142.196335,27.100235],[142.196456,27.100299],[142.196519,27.100303],[142.196944,27.100275]]}},{"type":"Feature","properties":{"id":443594792,"highway":"service"},"geometry":{"type":"LineString","coordinates":[[142.19332,27.100658],[142.193237,27.100676],[142.193184,27.100814],[142.193157,27.100874],[142.193111,27.100974],[142.193004,27.101084],[142.192883,27.10117],[142.192773,27.101256],[142.192741,27.101342],[142.19269,27.101631],[142.192647,27.101722],[142.192545,27.101779],[142.192344,27.101831],[142.192277,27.101893],[142.192087,27.102132],[142.19206,27.102218],[142.192068,27.102259],[142.19224,27.102512],[142.192229,27.102576],[142.192194,27.102672],[142.192033,27.102834],[142.19191,27.102892],[142.191601,27.103011],[142.191271,27.103164],[142.191014,27.10329],[142.190807,27.103431],[142.190625,27.103522],[142.190354,27.103603],[142.190137,27.103706],[142.190005,27.103708],[142.189823,27.103656],[142.189724,27.103596],[142.189606,27.103515],[142.189525,27.103496],[142.189434,27.10352],[142.189198,27.103591],[142.189072,27.103591],[142.188903,27.103586],[142.188812,27.103598],[142.18867,27.103651],[142.188506,27.103703],[142.188345,27.103734],[142.188208,27.103727],[142.18801,27.103696],[142.187903,27.103622],[142.187833,27.103522],[142.187704,27.103298],[142.187621,27.10308],[142.187601,27.103023],[142.18757,27.102932],[142.18754,27.102763]]}}]}