{"type":"FeatureCollection","features":[{"type":"Feature","properties":{"id":126302113,"highway":"secondary"},"geometry":{"type":"LineString","coordinates":[[142.15962,26.639994],[142.159308,26.639876],[142.159222,26.639883],[142.159131,26.639919],[142.159054,26.63998],[142.15902,26.64005],[142.159001,26.640145],[142.15904,26.640646],[142.159027,26.640742],[142.159006,26.640816],[142.158938,26.640915],[142.158781,26.641026]]}},{"type":"Feature","properties":{"id":126302114,"highway":"secondary"},"geometry":{"type":"LineString","coordinates":[[142.155394,26.644161],[142.155306,26.644201],[142.155211,26.644279],[142.155114,26.644468],[142.154671,26.645388],[142.154628,26.645519],[142.154653,26.645644],[142.155409,26.646687],[142.155458,26.646779],[142.155454,26.646883],[142.155429,26.646974],[142.155371,26.647046],[142.155123,26.647277],[142.15504,26.647315],[142.154974,26.647306],[142.15492,26.647254],[142.154856,26.647148],[142.154742,26.646906],[142.154661,26.646852],[142.154566,26.646834],[142.154445,26.646847],[142.154313,26.646923],[142.153993,26.647138],[142.153406,26.647433],[142.153065,26.647649],[142.152969,26.647741],[142.152877,26.647886],[142.152806,26.647964],[142.152548,26.648131],[142.152469,26.648214],[142.152402,26.648407],[142.152376,26.648526],[142.152292,26.649513],[142.152266,26.649586],[142.152175,26.649703],[142.151998,26.649942],[142.151786,26.650216],[142.151698,26.650417],[142.151692,26.650556],[142.151749,26.650738],[142.152189,26.651634],[142.152205,26.651713],[142.152171,26.651844],[142.151987,26.652171],[142.151959,26.652261],[142.151979,26.652327],[142.152043,26.652394],[142.152244,26.652454],[142.152616,26.652496],[142.152714,26.652516],[142.1534,26.652858],[142.153498,26.652919],[142.153536,26.652987],[142.153519,26.653061],[142.153399,26.653203],[142.153306,26.653318],[142.153276,26.653403],[142.153302,26.653496],[142.153352,26.653549],[142.153488,26.65362],[142.153973,26.653849],[142.154047,26.653924],[142.154125,26.65436],[142.15415,26.654424],[142.15422,26.65451],[142.154319,26.654597],[142.154351,26.654684],[142.154315,26.654755],[142.154239,26.654808],[142.154131,26.654803],[142.153863,26.654729],[142.153758,26.654688],[142.15308,26.654264],[142.152961,26.654233],[142.152846,26.654267],[142.152519,26.654491],[142.15221,26.654723],[142.152155,26.654806],[142.152107,26.654888],[142.15213,26.654986],[142.15226,26.655251],[142.152276,26.655351],[142.15226,26.655469],[142.152141,26.655657],[142.152057,26.655713],[142.151947,26.655748],[142.151858,26.655763],[142.151802,26.655822],[142.151772,26.655893],[142.15179,26.655956],[142.151951,26.65614],[142.1521,26.656285],[142.152353,26.656443],[142.152436,26.656465],[142.152501,26.656467],[142.152574,26.656409],[142.152606,26.656336],[142.152581,26.656268],[142.152492,26.656169],[142.152414,26.656072],[142.152405,26.65598],[142.15243,26.655907],[142.15251,26.655832],[142.152606,26.655787],[142.152757,26.655709],[142.152819,26.655637],[142.152844,26.655536],[142.152885,26.655368],[142.152919,26.655299],[142.153046,26.655147],[142.153123,26.655109],[142.153203,26.655109],[142.153285,26.655153],[142.153326,26.65523],[142.153307,26.655298],[142.15318,26.655481],[142.153132,26.655577],[142.153158,26.655874],[142.153184,26.655986],[142.153303,26.656185],[142.153377,26.656487],[142.153485,26.656806],[142.153487,26.656892],[142.153433,26.656956],[142.153345,26.656999],[142.153054,26.65707],[142.152985,26.657141],[142.152967,26.657222],[142.15299,26.657276],[142.153062,26.65739],[142.153059,26.657484],[142.153014,26.657624],[142.152975,26.657774],[142.15297,26.65792],[142.15299,26.65802],[142.153439,26.6588],[142.153448,26.65891],[142.153425,26.658987],[142.15337,26.659116],[142.153369,26.65918],[142.153397,26.659241],[142.153462,26.659277],[142.153837,26.659331],[142.153935,26.659374],[142.154005,26.65945],[142.154029,26.65954],[142.154007,26.659622],[142.15391,26.659852],[142.153861,26.660036],[142.153861,26.660093],[142.153886,26.660162],[142.154046,26.660342],[142.154047,26.660412],[142.153975,26.660567],[142.153944,26.660638],[142.153947,26.66071],[142.153984,26.660798],[142.154056,26.66088],[142.154426,26.661146],[142.154454,26.6612],[142.154451,26.661251],[142.154295,26.661399],[142.154232,26.661443],[142.154056,26.661408],[142.153966,26.661401],[142.153895,26.661433],[142.15385,26.661492],[142.153815,26.66158],[142.153833,26.661827],[142.153868,26.662153],[142.153876,26.662577],[142.153865,26.662693],[142.153817,26.662783],[142.153761,26.662819],[142.15364,26.662859],[142.153567,26.662893],[142.153535,26.662948],[142.153537,26.663018],[142.153635,26.663151],[142.15363,26.663299],[142.153598,26.663358],[142.153556,26.663405],[142.153514,26.663429],[142.153441,26.663421],[142.153229,26.66333],[142.152726,26.663066],[142.152598,26.663058],[142.152471,26.663093],[142.152403,26.663162],[142.152333,26.663277],[142.15235,26.663397],[142.152812,26.664222],[142.152885,26.664584],[142.152949,26.664673],[142.153394,26.665071],[142.153449,26.665133],[142.153471,26.665219],[142.153461,26.665307],[142.153356,26.665478],[142.153157,26.665786],[142.15307,26.665866],[142.152744,26.666082],[142.152655,26.666156],[142.152627,26.666241],[142.152638,26.666414],[142.152608,26.666514],[142.152527,26.666624],[142.152188,26.66689],[142.152116,26.666995],[142.152098,26.667115]]}},{"type":"Feature","properties":{"id":126302129,"highway":"secondary"},"geometry":{"type":"LineString","coordinates":[[142.179288,26.623477],[142.179451,26.623345],[142.179447,26.62321],[142.179388,26.623172],[142.179331,26.623158],[142.179272,26.623172],[142.17929,26.623246],[142.179297,26.623326],[142.179299,26.623366],[142.179288,26.623477],[142.179262,26.623555],[142.179229,26.623633],[142.179181,26.623712],[142.179138,26.623766],[142.179021,26.623881],[142.178722,26.624167],[142.17864,26.624253],[142.178575,26.624354],[142.178529,26.624447],[142.178496,26.624533],[142.178476,26.624614],[142.178466,26.624697],[142.17846,26.62478],[142.178463,26.624869],[142.178477,26.624957],[142.17851,26.62506],[142.178568,26.625182],[142.178966,26.62585],[142.179017,26.625947],[142.179042,26.626034],[142.179046,26.626113],[142.179029,26.626189],[142.178996,26.626259],[142.178955,26.626316],[142.178887,26.62637],[142.178818,26.626407],[142.178749,26.626434],[142.178683,26.626447],[142.178629,26.626445],[142.178577,26.626432],[142.178366,26.626365],[142.177222,26.625919],[142.177104,26.625882],[142.177,26.62586],[142.176891,26.625854],[142.176799,26.625857],[142.175977,26.625926],[142.175914,26.625957],[142.17584,26.625992],[142.175779,26.626135],[142.175752,26.626224],[142.175721,26.626462],[142.175694,26.626559],[142.175606,26.626769],[142.175529,26.626952],[142.175464,26.627067],[142.175294,26.627328],[142.175257,26.627402],[142.175246,26.627458],[142.175247,26.627512],[142.175261,26.627578],[142.175289,26.627624],[142.175345,26.627683],[142.175408,26.627728],[142.175489,26.627772],[142.175566,26.627819],[142.175622,26.627871],[142.175656,26.627924],[142.175709,26.62803],[142.175758,26.628208],[142.175778,26.628287],[142.175786,26.628355],[142.175814,26.628804],[142.175809,26.629051],[142.175789,26.629116],[142.175756,26.629183],[142.175712,26.629248],[142.175652,26.629304]]}},{"type":"Feature","properties":{"id":126302131,"highway":"secondary"},"geometry":{"type":"LineString","coordinates":[[142.152098,26.667115],[142.152022,26.668314]]}},{"type":"Feature","properties":{"id":126302137,"highway":"secondary"},"geometry":{"type":"LineString","coordinates":[[142.145964,26.67888],[142.145964,26.678967],[142.145959,26.679031]]}},{"type":"Feature","properties":{"id":126302140,"highway":"secondary"},"geometry":{"type":"LineString","coordinates":[[142.175652,26.629304],[142.175248,26.629786]]}},{"type":"Feature","properties":{"id":126302145,"highway":"secondary"},"geometry":{"type":"LineString","coordinates":[[142.146009,26.678449],[142.145964,26.67888]]}},{"type":"Feature","properties":{"id":126302146,"highway":"secondary"},"geometry":{"type":"LineString","coordinates":[[142.160197,26.640137],[142.159909,26.640085],[142.15962,26.639994]]}},{"type":"Feature","properties":{"id":126302169,"highway":"secondary"},"geometry":{"type":"LineString","coordinates":[[142.158781,26.641026],[142.158634,26.641108],[142.158541,26.641159],[142.157802,26.64157],[142.157698,26.641667],[142.15762,26.641793],[142.157587,26.641941],[142.157563,26.642027],[142.157509,26.642093],[142.157432,26.642139],[142.157355,26.642163],[142.157261,26.642149],[142.156896,26.64209],[142.156757,26.642091],[142.156705,26.642158],[142.156363,26.643685],[142.156313,26.643958],[142.156258,26.644063],[142.156191,26.644147],[142.156078,26.644221],[142.155967,26.644245],[142.155737,26.644225],[142.155478,26.644167],[142.155394,26.644161]]}},{"type":"Feature","properties":{"id":126302170,"highway":"secondary"},"geometry":{"type":"LineString","coordinates":[[142.175248,26.629786],[142.175133,26.629936],[142.175017,26.630126],[142.174923,26.630297],[142.174842,26.630412],[142.174701,26.630574],[142.174611,26.630702],[142.174573,26.630784],[142.174559,26.630855],[142.174444,26.631192],[142.174403,26.631269],[142.17423,26.631501],[142.174169,26.631588],[142.174161,26.631638],[142.174186,26.63206],[142.174225,26.632282],[142.17425,26.632392],[142.174302,26.63257],[142.174305,26.632651],[142.174288,26.632693],[142.174257,26.632726],[142.174214,26.63274],[142.17418,26.632744],[142.174133,26.63274],[142.174098,26.632719],[142.174068,26.632692],[142.173725,26.6322],[142.173542,26.631859],[142.173489,26.631797],[142.173439,26.631778],[142.173384,26.631767],[142.173334,26.631758],[142.173293,26.631766],[142.173095,26.631868],[142.172887,26.632001],[142.172839,26.632039],[142.172752,26.63218]]}},{"type":"Feature","properties":{"id":126302174,"highway":"secondary"},"geometry":{"type":"LineString","coordinates":[[142.172752,26.63218],[142.172716,26.632251],[142.172568,26.632621],[142.172504,26.632951],[142.172334,26.633488],[142.172312,26.633522],[142.172237,26.633583],[142.172192,26.633607],[142.172152,26.633609],[142.171764,26.633615],[142.171721,26.633621],[142.171678,26.633629],[142.171634,26.633651],[142.171165,26.633932],[142.17112,26.633939],[142.171,26.633945],[142.170953,26.63394],[142.170903,26.633922],[142.170854,26.633894],[142.170818,26.633869],[142.170792,26.633837],[142.170765,26.633792],[142.170709,26.633674],[142.170691,26.633619],[142.17066,26.633491],[142.170643,26.633443],[142.170572,26.633321],[142.170542,26.633278],[142.170454,26.633204],[142.170382,26.633161],[142.170319,26.633115],[142.170277,26.633075],[142.170255,26.633038],[142.170238,26.632989],[142.170231,26.632942],[142.170232,26.632894],[142.170268,26.632738],[142.170265,26.632691],[142.170244,26.632647],[142.170206,26.632614],[142.170162,26.632592],[142.17012,26.632577],[142.17008,26.632576],[142.170039,26.632586],[142.170009,26.632609],[142.169984,26.632641],[142.16997,26.632681],[142.169952,26.633036],[142.169937,26.633088],[142.169915,26.633131]]}},{"type":"Feature","properties":{"id":126302179,"highway":"secondary"},"geometry":{"type":"LineString","coordinates":[[142.161443,26.63981],[142.16078,26.640095]]}},{"type":"Feature","properties":{"id":126302182,"highway":"secondary"},"geometry":{"type":"LineString","coordinates":[[142.16078,26.640095],[142.160641,26.640139],[142.160456,26.640157],[142.160197,26.640137]]}},{"type":"Feature","properties":{"id":126302184,"highway":"secondary"},"geometry":{"type":"LineString","coordinates":[[142.145959,26.679031],[142.14589,26.67932],[142.145574,26.679599],[142.145272,26.67981],[142.144463,26.680355]]}},{"type":"Feature","properties":{"id":126302342,"highway":"unclassified"},"geometry":{"type":"LineString","coordinates":[[142.15962,26.639994],[142.159694,26.639635],[142.159792,26.63916],[142.159793,26.639121],[142.159762,26.639051],[142.159597,26.638888],[142.159499,26.63879],[142.159437,26.638763],[142.159371,26.6388],[142.159066,26.639017],[142.158938,26.639059],[142.158784,26.63908],[142.158671,26.639067],[142.158552,26.639036],[142.158487,26.638999],[142.158091,26.638785],[142.157863,26.63865],[142.157656,26.638489],[142.157384,26.63818],[142.157298,26.638093],[142.157252,26.638001],[142.157254,26.637693],[142.157121,26.637367],[142.157034,26.637344],[142.156962,26.637237],[142.156905,26.637152],[142.156918,26.6371],[142.156977,26.637049],[142.156655,26.636534],[142.156671,26.636361],[142.156701,26.636155],[142.156771,26.636002],[142.156653,26.635939]]}},{"type":"Feature","properties":{"id":126302347,"highway":"residential"},"geometry":{"type":"LineString","coordinates":[[142.159826,26.641622],[142.159826,26.641511],[142.159827,26.641332],[142.159812,26.641203],[142.159763,26.641106],[142.159746,26.641014],[142.159749,26.64095],[142.159852,26.640563],[142.15989,26.640422],[142.160157,26.640386],[142.160189,26.640347],[142.160197,26.640137]]}},{"type":"Feature","properties":{"id":126302456,"highway":"service"},"geometry":{"type":"LineString","coordinates":[[142.172752,26.63218],[142.172967,26.632073],[142.173021,26.632061],[142.173068,26.632061],[142.173113,26.632097],[142.173286,26.63237],[142.173385,26.632486],[142.17356,26.632672],[142.17363,26.632761],[142.173691,26.632903],[142.173758,26.633222],[142.173793,26.633284],[142.173863,26.633307],[142.173946,26.633324],[142.174165,26.63334],[142.174317,26.63336],[142.174655,26.633474],[142.175126,26.633736],[142.175181,26.633745],[142.175212,26.633741],[142.175472,26.633658],[142.1755,26.63362],[142.175567,26.633419],[142.175625,26.633338],[142.175826,26.633151],[142.175853,26.633113],[142.175852,26.633057],[142.175762,26.632709],[142.175731,26.632666],[142.175633,26.63259]]}},{"type":"Feature","properties":{"id":126302475,"highway":"unclassified"},"geometry":{"type":"LineString","coordinates":[[142.161092,26.641671],[142.160917,26.641664]]}},{"type":"Feature","properties":{"id":126302480,"highway":"unclassified"},"geometry":{"type":"LineString","coordinates":[[142.159826,26.641622],[142.159173,26.64161]]}},{"type":"Feature","properties":{"id":126302546,"highway":"unclassified"},"geometry":{"type":"LineString","coordinates":[[142.16078,26.640095],[142.161063,26.640533],[142.161194,26.640825],[142.161119,26.64141],[142.161092,26.641671],[142.161095,26.64239],[142.160933,26.642565],[142.160846,26.642598],[142.160605,26.642634],[142.160425,26.642671],[142.160143,26.6428],[142.160046,26.642821],[142.160002,26.642825],[142.159571,26.642782],[142.159516,26.642741],[142.159472,26.642656],[142.159361,26.642281],[142.159262,26.641923],[142.159173,26.64161],[142.159057,26.641438],[142.15897,26.641307],[142.15889,26.641188],[142.158781,26.641026]]}},{"type":"Feature","properties":{"id":126302568,"highway":"unclassified"},"geometry":{"type":"LineString","coordinates":[[142.162425,26.636786],[142.162805,26.637298],[142.162806,26.637384],[142.16271,26.637698],[142.162729,26.637737],[142.16277,26.637816],[142.162847,26.637892],[142.163218,26.637933],[142.163429,26.63785],[142.163509,26.637831],[142.163587,26.637837],[142.163646,26.637854],[142.164176,26.638106],[142.16426,26.638179],[142.164349,26.638445],[142.164494,26.638647],[142.164858,26.638829],[142.164901,26.638881],[142.164985,26.638984],[142.165161,26.639404],[142.165255,26.639583],[142.165328,26.63963],[142.165687,26.63983],[142.165898,26.639907],[142.165976,26.639936],[142.166026,26.639987],[142.166051,26.640032],[142.166051,26.640089],[142.166019,26.640156],[142.16559,26.640387],[142.165527,26.640427],[142.165496,26.640484],[142.165485,26.640547],[142.165532,26.640587],[142.16559,26.640607],[142.165923,26.640561],[142.166017,26.640571],[142.166081,26.640601],[142.166421,26.641055],[142.166518,26.641132],[142.166596,26.641134],[142.166939,26.641067],[142.167046,26.641101],[142.167065,26.641168],[142.167148,26.641314],[142.167223,26.641386],[142.167521,26.641458],[142.167601,26.641523],[142.167695,26.641736],[142.16777,26.641815],[142.167867,26.641863],[142.16821,26.642017],[142.168395,26.642168],[142.168546,26.642223],[142.168639,26.642201],[142.168849,26.642113],[142.169395,26.642371],[142.169478,26.642496],[142.169604,26.642784],[142.169789,26.643055],[142.169765,26.64317],[142.169679,26.643203],[142.169604,26.64316],[142.169523,26.643012],[142.169325,26.642942],[142.169174,26.64299],[142.168483,26.643297],[142.168319,26.643541],[142.168271,26.643654],[142.16834,26.643836],[142.168592,26.64422],[142.1686,26.644368],[142.168426,26.644678],[142.168423,26.644814],[142.168475,26.645162],[142.168609,26.645409],[142.168611,26.645579],[142.168635,26.645843],[142.168751,26.645994],[142.169054,26.646183],[142.169271,26.646449],[142.169327,26.646548],[142.16932,26.646612],[142.169212,26.64668],[142.169126,26.646651],[142.169062,26.646569],[142.168981,26.646461],[142.168837,26.646392],[142.168764,26.646418],[142.168748,26.646481],[142.168869,26.646581]]}},{"type":"Feature","properties":{"id":126302593,"highway":"residential"},"geometry":{"type":"LineString","coordinates":[[142.161389,26.641712],[142.161649,26.641569],[142.16167,26.641106],[142.16164,26.640771],[142.161622,26.640706],[142.161544,26.640425],[142.16158,26.640312],[142.161768,26.64035],[142.161861,26.640159],[142.161875,26.640061],[142.161819,26.639843],[142.16174,26.639682]]}},{"type":"Feature","properties":{"id":126302600,"highway":"unclassified"},"geometry":{"type":"LineString","coordinates":[[142.161246,26.642373],[142.161276,26.642383],[142.161425,26.642636],[142.161534,26.642912],[142.161541,26.642987],[142.161522,26.643067],[142.161411,26.643396],[142.161309,26.64346],[142.161263,26.643501],[142.161205,26.643958],[142.16123,26.644099],[142.161323,26.644198],[142.161488,26.644321],[142.161558,26.644463],[142.161567,26.64461],[142.16151,26.644883],[142.161531,26.645029],[142.161726,26.645271],[142.162126,26.64579],[142.162383,26.646027],[142.162453,26.646139],[142.162482,26.646189],[142.162479,26.646311],[142.162453,26.646376],[142.162411,26.646513],[142.16239,26.646617],[142.162389,26.64684]]}},{"type":"Feature","properties":{"id":331199397,"highway":"unclassified"},"geometry":{"type":"LineString","coordinates":[[142.175606,26.626769],[142.176217,26.627007],[142.176634,26.627385],[142.176809,26.627578],[142.176846,26.627619],[142.176941,26.627896],[142.177092,26.627961],[142.177468,26.627683],[142.177702,26.627159],[142.177796,26.627081],[142.178173,26.62706],[142.178576,26.626996],[142.178761,26.627049],[142.178909,26.627161],[142.17896,26.627293],[142.178953,26.627444],[142.17884,26.627557],[142.177971,26.627684],[142.177879,26.627804],[142.177927,26.628092],[142.178063,26.628146],[142.178445,26.628066]]}},{"type":"Feature","properties":{"id":331199400,"highway":"unclassified"},"geometry":{"type":"LineString","coordinates":[[142.155368,26.642257],[142.155344,26.642141],[142.155323,26.642042],[142.155348,26.641777],[142.155284,26.64168],[142.155089,26.641512],[142.154983,26.641313],[142.154925,26.641093],[142.154909,26.640851],[142.155006,26.640566],[142.154999,26.64052],[142.154991,26.640471],[142.154963,26.640295],[142.154854,26.640001],[142.154601,26.639595],[142.154509,26.639097],[142.15459,26.638853],[142.154839,26.638372],[142.154942,26.638172],[142.155029,26.638006],[142.155149,26.63798],[142.155321,26.637981],[142.155581,26.638022],[142.155692,26.63809],[142.155728,26.638175],[142.155713,26.638364],[142.155719,26.638452],[142.155858,26.638469],[142.156093,26.638489],[142.156412,26.638579],[142.156456,26.638592],[142.156574,26.638546],[142.156581,26.638438],[142.156494,26.638373],[142.156357,26.638392],[142.15627,26.638366],[142.156279,26.638261],[142.156373,26.638177],[142.156627,26.638189],[142.156781,26.638224],[142.157135,26.638439],[142.157241,26.638535],[142.157271,26.638562],[142.157343,26.638617],[142.157431,26.638651],[142.157656,26.638489]]}},{"type":"Feature","properties":{"id":331199401,"highway":"unclassified"},"geometry":{"type":"LineString","coordinates":[[142.178953,26.627444],[142.179057,26.627506],[142.179196,26.627487],[142.179282,26.627409],[142.179584,26.626973],[142.179563,26.626768]]}},{"type":"Feature","properties":{"id":361754343,"highway":"residential"},"geometry":{"type":"LineString","coordinates":[[142.15889,26.641188],[142.159044,26.641107],[142.159087,26.641063],[142.159126,26.641001],[142.15917,26.640924],[142.159292,26.640698],[142.159345,26.64062],[142.159378,26.640603],[142.159427,26.640577],[142.159523,26.640553],[142.159852,26.640563]]}},{"type":"Feature","properties":{"id":361754345,"highway":"service"},"geometry":{"type":"LineString","coordinates":[[142.160073,26.643152],[142.160046,26.642821]]}},{"type":"Feature","properties":{"id":361754347,"highway":"service"},"geometry":{"type":"LineString","coordinates":[[142.159965,26.643044],[142.160002,26.642825]]}},{"type":"Feature","properties":{"id":361754348,"highway":"residential"},"geometry":{"type":"LineString","coordinates":[[142.16125,26.643023],[142.161027,26.643069],[142.160933,26.642565]]}},{"type":"Feature","properties":{"id":361754350,"highway":"service"},"geometry":{"type":"LineString","coordinates":[[142.158578,26.641334],[142.158697,26.641362],[142.158818,26.641356],[142.15897,26.641307]]}},{"type":"Feature","properties":{"id":361754351,"highway":"residential"},"geometry":{"type":"LineString","coordinates":[[142.159826,26.641511],[142.16033,26.641527],[142.160351,26.641215],[142.159812,26.641203]]}},{"type":"Feature","properties":{"id":361754353,"highway":"residential"},"geometry":{"type":"LineString","coordinates":[[142.161424,26.640762],[142.161622,26.640706],[142.161989,26.640722],[142.161993,26.640566]]}},{"type":"Feature","properties":{"id":361754354,"highway":"residential"},"geometry":{"type":"LineString","coordinates":[[142.159377,26.641024],[142.159518,26.640818],[142.159523,26.640659],[142.159378,26.640603]]}},{"type":"Feature","properties":{"id":361754356,"highway":"residential"},"geometry":{"type":"LineString","coordinates":[[142.160143,26.6428],[142.160024,26.642623],[142.160448,26.642374],[142.160605,26.642634]]}},{"type":"Feature","properties":{"id":361754357,"highway":"residential"},"geometry":{"type":"LineString","coordinates":[[142.161619,26.642066],[142.161498,26.64217],[142.161456,26.642242],[142.161276,26.642383]]}},{"type":"Feature","properties":{"id":361754359,"highway":"service"},"geometry":{"type":"LineString","coordinates":[[142.158663,26.641509],[142.158715,26.641515],[142.158768,26.641515],[142.158886,26.641493],[142.159057,26.641438]]}},{"type":"Feature","properties":{"id":361754361,"highway":"residential"},"geometry":{"type":"LineString","coordinates":[[142.15897,26.641307],[142.159028,26.641287],[142.159117,26.641236],[142.159174,26.641197],[142.159213,26.641148],[142.159311,26.640987]]}},{"type":"Feature","properties":{"id":361754362,"highway":"residential"},"geometry":{"type":"LineString","coordinates":[[142.15937,26.641272],[142.159377,26.641024],[142.159311,26.640987],[142.159201,26.64093],[142.15917,26.640924],[142.15914,26.640916],[142.159006,26.640816]]}},{"type":"Feature","properties":{"id":361754363,"highway":"residential"},"geometry":{"type":"LineString","coordinates":[[142.161456,26.642242],[142.161796,26.64267],[142.161906,26.642656],[142.161944,26.642617],[142.162132,26.642595],[142.162144,26.642506],[142.162119,26.642379],[142.16193,26.642373],[142.161619,26.642066],[142.161389,26.641712],[142.161206,26.641453],[142.161167,26.641422],[142.161119,26.64141]]}},{"type":"Feature","properties":{"id":361977888,"highway":"service"},"geometry":{"type":"LineString","coordinates":[[142.1574,26.640955],[142.1575,26.64092],[142.157597,26.640934],[142.157746,26.641006],[142.157845,26.641087],[142.157898,26.64113],[142.158209,26.64121],[142.158288,26.641215],[142.158322,26.641198],[142.15833,26.641128],[142.158353,26.640992],[142.158387,26.640959],[142.15853,26.640965]]}},{"type":"Feature","properties":{"id":361977889,"highway":"residential"},"geometry":{"type":"LineString","coordinates":[[142.158537,26.640334],[142.158725,26.640305]]}},{"type":"Feature","properties":{"id":361977890,"highway":"service"},"geometry":{"type":"LineString","coordinates":[[142.160945,26.643962],[142.16096,26.643884],[142.161031,26.643756],[142.161174,26.643543],[142.161263,26.643501]]}},{"type":"Feature","properties":{"id":361977891,"highway":"residential"},"geometry":{"type":"LineString","coordinates":[[142.158541,26.641159],[142.158509,26.641112],[142.15853,26.640965],[142.158544,26.640864],[142.15852,26.640508],[142.158531,26.64048],[142.158565,26.640463],[142.158752,26.640438]]}},{"type":"Feature","properties":{"id":361977892,"highway":"residential"},"geometry":{"type":"LineString","coordinates":[[142.158418,26.640225],[142.158702,26.640187],[142.158725,26.640305],[142.158752,26.640438],[142.158822,26.640814],[142.158809,26.640855],[142.158628,26.64106],[142.158634,26.641108]]}},{"type":"Feature","properties":{"id":362162687,"highway":"service"},"geometry":{"type":"LineString","coordinates":[[142.158678,26.642894],[142.158754,26.642753],[142.158874,26.642462],[142.158888,26.642385],[142.1589,26.6423],[142.158904,26.642241],[142.158895,26.642121],[142.158896,26.64207],[142.158915,26.642032],[142.158943,26.642009],[142.159262,26.641923]]}},{"type":"Feature","properties":{"id":362162688,"highway":"service"},"geometry":{"type":"LineString","coordinates":[[142.158915,26.643371],[142.158892,26.643361],[142.158872,26.643349],[142.158864,26.643328],[142.158936,26.643189],[142.158941,26.64308],[142.158934,26.642985],[142.158934,26.64286],[142.158986,26.642792],[142.159063,26.642641],[142.159082,26.642565],[142.159079,26.642436],[142.158947,26.642397],[142.158888,26.642385]]}},{"type":"Feature","properties":{"id":362162689,"highway":"service"},"geometry":{"type":"LineString","coordinates":[[142.15925,26.642755],[142.15924,26.642659],[142.159252,26.642457],[142.159299,26.642454],[142.159282,26.642291]]}},{"type":"Feature","properties":{"id":362162690,"highway":"service"},"geometry":{"type":"LineString","coordinates":[[142.158904,26.642241],[142.159,26.642222],[142.159061,26.642217],[142.15913,26.642222],[142.159282,26.642291],[142.159361,26.642281]]}},{"type":"Feature","properties":{"id":444081394,"highway":"service"},"geometry":{"type":"LineString","coordinates":[[142.158041,26.640653],[142.158001,26.640605],[142.157736,26.640602],[142.157588,26.640571],[142.157433,26.640504],[142.15721,26.640324],[142.156944,26.640193],[142.156891,26.640165],[142.15688,26.640101],[142.156945,26.640034],[142.156949,26.639965],[142.15687,26.639898],[142.156761,26.639835],[142.156648,26.639807],[142.156531,26.639785],[142.156488,26.639701],[142.156429,26.639539],[142.156325,26.639425],[142.15627,26.639352],[142.156266,26.639273],[142.156352,26.639013],[142.156381,26.638756],[142.156412,26.638579]]}},{"type":"Feature","properties":{"id":444081396,"highway":"residential"},"geometry":{"type":"LineString","coordinates":[[142.157236,26.638806],[142.157512,26.638979],[142.157982,26.639078]]}},{"type":"Feature","properties":{"id":444081398,"highway":"residential"},"geometry":{"type":"LineString","coordinates":[[142.157271,26.638562],[142.157236,26.638806],[142.157219,26.63907],[142.157221,26.639177],[142.157305,26.639212],[142.157454,26.639294],[142.157586,26.639314],[142.157869,26.639361],[142.157982,26.639078],[142.158091,26.638785]]}},{"type":"Feature","properties":{"id":450204221,"highway":"secondary"},"geometry":{"type":"LineString","coordinates":[[142.143129,26.698074],[142.143161,26.697938],[142.143221,26.697747],[142.14348,26.696934],[142.143625,26.696409],[142.143771,26.695902],[142.143884,26.695492],[142.143909,26.695348],[142.143854,26.695128],[142.143843,26.694941],[142.143935,26.694858],[142.144135,26.694832],[142.144273,26.694724],[142.144296,26.694635],[142.144306,26.694544],[142.144296,26.694406]]}},{"type":"Feature","properties":{"id":450204222,"highway":"secondary"},"geometry":{"type":"LineString","coordinates":[[142.146009,26.678449],[142.146079,26.67831],[142.146379,26.678001],[142.146511,26.677865],[142.146695,26.677801],[142.146885,26.677813],[142.14727,26.677877],[142.147573,26.677895],[142.147717,26.67786],[142.147784,26.677743],[142.14778,26.677616],[142.147827,26.677422],[142.14796,26.677213],[142.148077,26.677007],[142.148095,26.676821],[142.148072,26.676662],[142.148094,26.676448],[142.148208,26.676302],[142.148483,26.676131],[142.148638,26.675968],[142.148706,26.67581],[142.148804,26.6756],[142.149013,26.675437],[142.149268,26.675318],[142.149399,26.675201],[142.149442,26.675],[142.149393,26.674786],[142.149437,26.674623],[142.149462,26.674361],[142.149425,26.674202],[142.149452,26.674044],[142.149768,26.673812],[142.150055,26.673536],[142.149953,26.673301],[142.149733,26.673313],[142.149274,26.673481],[142.149065,26.673469],[142.148891,26.673354],[142.148862,26.673165],[142.148808,26.673018],[142.148655,26.672959],[142.148489,26.672997],[142.1484,26.672911],[142.148422,26.6728],[142.148534,26.672515],[142.148545,26.672254],[142.148395,26.67212],[142.148282,26.671568],[142.148365,26.671453],[142.14866,26.671305],[142.148805,26.671249],[142.149068,26.671173],[142.149204,26.670972],[142.149102,26.671019],[142.149168,26.670737],[142.149316,26.670783],[142.149493,26.670799],[142.149621,26.6707],[142.149729,26.670583],[142.149813,26.670547],[142.149945,26.670656],[142.15013,26.670835],[142.150288,26.670811],[142.150447,26.670746],[142.150653,26.670746],[142.150852,26.670799],[142.150999,26.670794],[142.151158,26.670696],[142.1513,26.670506],[142.151436,26.670229],[142.15164,26.670125],[142.151821,26.670123],[142.152101,26.670192],[142.152247,26.670068],[142.151983,26.669759],[142.151961,26.669483],[142.151864,26.66937],[142.151786,26.669238],[142.151701,26.669114],[142.15176,26.668834],[142.151813,26.668639],[142.152022,26.668314]]}},{"type":"Feature","properties":{"id":450204224,"highway":"secondary"},"geometry":{"type":"LineString","coordinates":[[142.144296,26.694406],[142.144228,26.694137],[142.144172,26.694041],[142.144067,26.693892],[142.144099,26.693768],[142.144247,26.693703],[142.144371,26.693647],[142.144401,26.693583],[142.144388,26.693513],[142.144341,26.693445],[142.144263,26.693413],[142.144051,26.693403],[142.143962,26.693344],[142.143879,26.693166],[142.143831,26.693034],[142.143574,26.692884],[142.143461,26.692833],[142.143405,26.692721],[142.143405,26.692591],[142.143525,26.692385],[142.143592,26.692294],[142.143584,26.692174],[142.143453,26.692124],[142.143193,26.692129],[142.143083,26.692045],[142.142989,26.691927],[142.142994,26.691767],[142.14311,26.691602],[142.143071,26.691442],[142.142996,26.691321],[142.142718,26.691244],[142.142345,26.691105],[142.14228,26.691031],[142.142265,26.690923],[142.142718,26.690542],[142.142765,26.690437],[142.142739,26.690315],[142.142423,26.690046],[142.14231,26.689931],[142.142331,26.689818],[142.142472,26.689474],[142.142747,26.689145],[142.14279,26.68892],[142.14267,26.688282],[142.142648,26.688108],[142.142723,26.687952],[142.143405,26.687393],[142.143517,26.687228],[142.143568,26.686926],[142.143934,26.686266],[142.143882,26.686133],[142.143435,26.685773],[142.142899,26.685433],[142.142808,26.685364],[142.14277,26.68527],[142.142934,26.685124],[142.143196,26.685007],[142.14332,26.684894],[142.143387,26.684795],[142.143398,26.684662],[142.143331,26.684524],[142.143091,26.684344],[142.142989,26.684248],[142.142931,26.684142],[142.142971,26.68406],[142.143028,26.683765],[142.14303,26.683578],[142.143028,26.683377],[142.142802,26.682809],[142.142738,26.682586],[142.14274,26.682456],[142.142963,26.682055],[142.143112,26.681477],[142.143148,26.681373],[142.143139,26.681217],[142.14317,26.681072],[142.143228,26.680954],[142.143411,26.680867],[142.143735,26.680805],[142.143931,26.680692],[142.144099,26.680572],[142.144209,26.680455],[142.144314,26.680417],[142.144463,26.680355]]}},{"type":"Feature","properties":{"id":450204234,"highway":"unclassified"},"geometry":{"type":"LineString","coordinates":[[142.147497,26.694499],[142.147376,26.694549],[142.14544,26.694226],[142.144919,26.693914],[142.144758,26.693914],[142.144549,26.694027],[142.144496,26.694161],[142.14445,26.694367],[142.144388,26.6944],[142.144296,26.694406]]}},{"type":"Feature","properties":{"id":450204238,"highway":"service"},"geometry":{"type":"LineString","coordinates":[[142.155813,26.648366],[142.155643,26.64822],[142.155556,26.648146],[142.155538,26.648028],[142.155595,26.647846],[142.155621,26.647732],[142.155584,26.647647],[142.155448,26.647614],[142.15533,26.647633],[142.155256,26.647595],[142.155216,26.647505],[142.155123,26.647277]]}},{"type":"Feature","properties":{"id":450204240,"highway":"service"},"geometry":{"type":"LineString","coordinates":[[142.155344,26.642141],[142.155537,26.641741],[142.155585,26.64164],[142.155684,26.641568],[142.155923,26.641561],[142.156097,26.641669],[142.156173,26.64174],[142.156178,26.641765],[142.156296,26.641794],[142.156535,26.641796],[142.156701,26.642017],[142.156757,26.642091]]}},{"type":"Feature","properties":{"id":450204249,"highway":"service"},"geometry":{"type":"LineString","coordinates":[[142.171721,26.633621],[142.171748,26.633496],[142.171706,26.633399],[142.171529,26.633137],[142.171348,26.633091],[142.171228,26.633099],[142.171098,26.633103],[142.171001,26.633079],[142.170788,26.632974],[142.170635,26.63282],[142.170587,26.632699],[142.170505,26.632436],[142.170516,26.632329],[142.170575,26.632316],[142.17065,26.632337]]}},{"type":"Feature","properties":{"id":450204254,"highway":"service"},"geometry":{"type":"LineString","coordinates":[[142.174611,26.630702],[142.174724,26.630834],[142.174791,26.631007],[142.174831,26.631153],[142.174939,26.631266],[142.175258,26.631223],[142.175384,26.631245],[142.175531,26.631338],[142.175711,26.631422],[142.175735,26.631487],[142.175714,26.631566],[142.175644,26.631595],[142.175376,26.631652],[142.175094,26.631765],[142.174992,26.631875],[142.174906,26.632033],[142.174944,26.632369],[142.174976,26.632568],[142.175094,26.632868],[142.175263,26.632961],[142.175387,26.633009]]}},{"type":"Feature","properties":{"id":450204257,"highway":"service"},"geometry":{"type":"LineString","coordinates":[[142.144314,26.680417],[142.144312,26.680268],[142.144376,26.679999],[142.144442,26.679896],[142.144596,26.67979],[142.144627,26.679668],[142.14458,26.679592],[142.144306,26.679404],[142.144259,26.679301],[142.144237,26.679178],[142.144311,26.679076],[142.144458,26.679014],[142.144643,26.678975],[142.144784,26.678971],[142.145261,26.679077],[142.145336,26.679095],[142.14541,26.679077],[142.145554,26.678983],[142.145618,26.678944],[142.145964,26.678967],[142.146083,26.678888],[142.146187,26.678792],[142.146169,26.678689],[142.146009,26.678449]]}},{"type":"Feature","properties":{"id":450204261,"highway":"unclassified"},"geometry":{"type":"LineString","coordinates":[[142.162818,26.635066],[142.163065,26.634748],[142.163086,26.634707],[142.163128,26.634624],[142.163138,26.634583],[142.163201,26.634322],[142.163193,26.634149],[142.163182,26.634034],[142.163289,26.633796],[142.163329,26.633684],[142.163307,26.633562],[142.163302,26.63354],[142.163147,26.633332],[142.163034,26.633171],[142.163021,26.633015],[142.163101,26.632883],[142.163533,26.63266],[142.16359,26.632566],[142.163632,26.632495],[142.163627,26.632399],[142.163613,26.632354],[142.163642,26.632144],[142.163635,26.632093],[142.163623,26.632008],[142.163575,26.631801],[142.163551,26.63162],[142.163488,26.631536],[142.163437,26.631501],[142.163329,26.631428]]}},{"type":"Feature","properties":{"id":450204263,"highway":"service"},"geometry":{"type":"LineString","coordinates":[[142.163261,26.634944],[142.163385,26.634613]]}},{"type":"Feature","properties":{"id":450204264,"highway":"service"},"geometry":{"type":"LineString","coordinates":[[142.142913,26.697866],[142.143161,26.697938]]}},{"type":"Feature","properties":{"id":450204269,"highway":"service"},"geometry":{"type":"LineString","coordinates":[[142.167351,26.634429],[142.16724,26.634342]]}},{"type":"Feature","properties":{"id":450204271,"highway":"unclassified"},"geometry":{"type":"LineString","coordinates":[[142.155394,26.644161],[142.155397,26.643963],[142.155461,26.643781],[142.155689,26.643553],[142.155745,26.643414],[142.155716,26.643057],[142.155641,26.642808],[142.155627,26.642515],[142.155533,26.642367],[142.155424,26.642259],[142.155368,26.642257],[142.155318,26.642269],[142.155281,26.642333],[142.155309,26.642453],[142.155294,26.642559],[142.155194,26.642623],[142.154943,26.642719],[142.154806,26.642788],[142.154765,26.642915],[142.154792,26.643076],[142.154851,26.643321],[142.154815,26.643351],[142.154503,26.643383],[142.154293,26.643438],[142.154123,26.643438],[142.153916,26.643503],[142.153922,26.64343],[142.153951,26.643332],[142.153953,26.64315],[142.153871,26.642996],[142.153822,26.642798],[142.153854,26.642453],[142.154176,26.642038],[142.154037,26.641705],[142.153999,26.641458],[142.154099,26.641211]]}},{"type":"Feature","properties":{"id":450204275,"highway":"service"},"geometry":{"type":"LineString","coordinates":[[142.162425,26.635455],[142.162531,26.635551],[142.163015,26.635257]]}},{"type":"Feature","properties":{"id":450204276,"highway":"service"},"geometry":{"type":"LineString","coordinates":[[142.166171,26.639632],[142.166002,26.639733],[142.165898,26.639907]]}},{"type":"Feature","properties":{"id":450204279,"highway":"service"},"geometry":{"type":"LineString","coordinates":[[142.143631,26.69783],[142.143547,26.697801],[142.143378,26.69779],[142.143221,26.697747]]}},{"type":"Feature","properties":{"id":450204280,"highway":"service"},"geometry":{"type":"LineString","coordinates":[[142.163826,26.633066],[142.163807,26.632981],[142.163811,26.632861],[142.163827,26.632791],[142.16375,26.632671],[142.16359,26.632566]]}},{"type":"Feature","properties":{"id":450204286,"highway":"service"},"geometry":{"type":"LineString","coordinates":[[142.163138,26.634583],[142.163254,26.634574],[142.163385,26.634613],[142.163498,26.634647]]}},{"type":"Feature","properties":{"id":450204289,"highway":"service"},"geometry":{"type":"LineString","coordinates":[[142.162043,26.636673],[142.162049,26.636625],[142.16224,26.636584],[142.162384,26.636598],[142.162511,26.636714]]}},{"type":"Feature","properties":{"id":450204291,"highway":"service"},"geometry":{"type":"LineString","coordinates":[[142.159183,26.639425],[142.15943,26.639365],[142.159567,26.639483],[142.159556,26.639538],[142.159694,26.639635]]}},{"type":"Feature","properties":{"id":450204292,"highway":"service"},"geometry":{"type":"LineString","coordinates":[[142.162307,26.637758],[142.162336,26.637441],[142.161754,26.637443],[142.161854,26.637301],[142.161873,26.637244]]}},{"type":"Feature","properties":{"id":450204293,"highway":"service"},"geometry":{"type":"LineString","coordinates":[[142.163265,26.635424],[142.163299,26.635085],[142.163261,26.634944],[142.163173,26.634829],[142.163065,26.634748]]}},{"type":"Feature","properties":{"id":450204296,"highway":"service"},"geometry":{"type":"LineString","coordinates":[[142.155669,26.645426],[142.155615,26.645294],[142.155588,26.644807],[142.155538,26.644742],[142.155224,26.644505],[142.155114,26.644468]]}},{"type":"Feature","properties":{"id":450204305,"highway":"unclassified"},"geometry":{"type":"LineString","coordinates":[[142.152333,26.663277],[142.152169,26.662701],[142.152051,26.662514],[142.151983,26.662326],[142.152053,26.662074],[142.15202,26.661801],[142.15189,26.661582],[142.151729,26.661534],[142.15159,26.661517],[142.151484,26.661455],[142.151408,26.6613],[142.151298,26.661182],[142.151048,26.660696],[142.1508,26.66031],[142.150726,26.660248],[142.15065,26.660236],[142.150622,26.660291],[142.150646,26.660596],[142.150607,26.66083],[142.150579,26.660889],[142.150541,26.66091],[142.150485,26.660882],[142.1504,26.660756],[142.150223,26.660535],[142.150096,26.660421],[142.150009,26.660293],[142.149732,26.660133],[142.149628,26.660038],[142.149545,26.659803],[142.149534,26.65954],[142.149509,26.659427],[142.149411,26.659271],[142.149366,26.659167],[142.149374,26.659032],[142.149377,26.658881],[142.149354,26.658765],[142.149354,26.658632],[142.149458,26.658443],[142.149515,26.658109],[142.149574,26.657914],[142.149615,26.65783],[142.149684,26.657758],[142.149774,26.657739],[142.149885,26.657761],[142.149973,26.657819],[142.150018,26.657858],[142.150081,26.657881],[142.150396,26.657874],[142.150462,26.657902],[142.150632,26.658138],[142.150679,26.658266],[142.150661,26.658582],[142.150666,26.658655],[142.150771,26.658799],[142.150847,26.658842],[142.150925,26.65885],[142.151001,26.658829],[142.151174,26.65863],[142.151261,26.658572],[142.151327,26.658559],[142.151477,26.658603],[142.15166,26.658656],[142.151762,26.658672],[142.151882,26.658729],[142.151987,26.658872],[142.151996,26.659244],[142.152015,26.659322],[142.152236,26.659505],[142.152299,26.659509],[142.152342,26.659475],[142.152352,26.659339],[142.152425,26.659105],[142.152428,26.658898],[142.152437,26.658738],[142.152462,26.658575],[142.15247,26.65842],[142.15245,26.658335],[142.152432,26.658245],[142.152287,26.657881],[142.152297,26.657821],[142.152377,26.657704],[142.152476,26.65752],[142.15249,26.65739],[142.152472,26.657317],[142.152348,26.657205],[142.152279,26.657136],[142.152253,26.65708],[142.152258,26.656992],[142.152332,26.656831],[142.152374,26.656725],[142.152387,26.656639],[142.152306,26.656512],[142.152078,26.656337],[142.15194,26.6562],[142.151826,26.656046],[142.15179,26.655956]]}},{"type":"Feature","properties":{"id":450204306,"highway":"unclassified"},"geometry":{"type":"LineString","coordinates":[[142.163383,26.635487],[142.163265,26.635424],[142.163069,26.63531],[142.163015,26.635257],[142.162818,26.635066],[142.162374,26.634588],[142.162375,26.634571]]}},{"type":"Feature","properties":{"id":450204309,"highway":"service"},"geometry":{"type":"LineString","coordinates":[[142.164852,26.639025],[142.164762,26.639043],[142.164576,26.638968],[142.164432,26.639031],[142.164332,26.639045],[142.164226,26.639074],[142.164081,26.639173],[142.164029,26.639263],[142.164071,26.639431],[142.164195,26.639428],[142.164358,26.63943],[142.164495,26.639468],[142.16466,26.639466],[142.164724,26.639435],[142.16477,26.639368],[142.164821,26.639197],[142.164832,26.639069],[142.164852,26.639025],[142.164886,26.638945],[142.164901,26.638881]]}},{"type":"Feature","properties":{"id":450207442,"highway":"service"},"geometry":{"type":"LineString","coordinates":[[142.151154,26.654308],[142.151539,26.654311],[142.151727,26.654375],[142.15193,26.65444],[142.15221,26.654723]]}},{"type":"Feature","properties":{"id":720979120,"highway":"residential"},"geometry":{"type":"LineString","coordinates":[[142.157454,26.639294],[142.15743,26.639347],[142.157389,26.639378],[142.157298,26.639337]]}},{"type":"Feature","properties":{"id":807718812,"highway":"unclassified"},"geometry":{"type":"LineString","coordinates":[[142.175921,26.625741],[142.17584,26.625992]]}},{"type":"Feature","properties":{"id":807718815,"highway":"secondary"},"geometry":{"type":"LineString","coordinates":[[142.169851,26.633226],[142.169747,26.633359],[142.169698,26.633385],[142.169618,26.633385],[142.169317,26.633353],[142.169195,26.63337],[142.169083,26.633428],[142.168796,26.633661],[142.168275,26.634127],[142.167355,26.634795],[142.167162,26.634865],[142.167086,26.634867],[142.166652,26.634861],[142.166263,26.634948],[142.1661,26.635009],[142.165913,26.635117],[142.165746,26.635117],[142.16559,26.635105],[142.165319,26.635074],[142.165104,26.635079],[142.164842,26.634992],[142.164746,26.634982],[142.164553,26.635029],[142.163705,26.635324],[142.163482,26.635389],[142.163421,26.635428],[142.163383,26.635487],[142.16336,26.635598],[142.163335,26.635963],[142.163307,26.636036],[142.163233,26.636126],[142.162511,26.636714],[142.162425,26.636786],[142.161873,26.637244],[142.161672,26.637405],[142.161609,26.637489],[142.161409,26.637878],[142.161386,26.637958],[142.161376,26.638072],[142.161396,26.638198],[142.16184,26.63946],[142.161843,26.639551],[142.161808,26.639627],[142.16174,26.639682]]}},{"type":"Feature","properties":{"id":807718816,"highway":"secondary"},"geometry":{"type":"LineString","coordinates":[[142.169915,26.633131],[142.169851,26.633226]]}},{"type":"Feature","properties":{"id":918441116,"highway":"residential"},"geometry":{"type":"LineString","coordinates":[[142.16137,26.640776],[142.161424,26.640762]]}},{"type":"Feature","properties":{"id":918441117,"highway":"residential"},"geometry":{"type":"LineString","coordinates":[[142.161194,26.640825],[142.16137,26.640776]]}},{"type":"Feature","properties":{"id":918441118,"highway":"unclassified"},"geometry":{"type":"LineString","coordinates":[[142.161196,26.642375],[142.161246,26.642373]]}},{"type":"Feature","properties":{"id":918441119,"highway":"unclassified"},"geometry":{"type":"LineString","coordinates":[[142.161095,26.64239],[142.161196,26.642375]]}},{"type":"Feature","properties":{"id":918441120,"highway":"unclassified"},"geometry":{"type":"LineString","coordinates":[[142.160801,26.641661],[142.159826,26.641622]]}},{"type":"Feature","properties":{"id":918441121,"highway":"unclassified"},"geometry":{"type":"LineString","coordinates":[[142.160917,26.641664],[142.160801,26.641661]]}},{"type":"Feature","properties":{"id":918441122,"highway":"residential"},"geometry":{"type":"LineString","coordinates":[[142.161474,26.642985],[142.16125,26.643023]]}},{"type":"Feature","properties":{"id":918441123,"highway":"residential"},"geometry":{"type":"LineString","coordinates":[[142.161541,26.642987],[142.161474,26.642985]]}},{"type":"Feature","properties":{"id":1156505409,"highway":"secondary"},"geometry":{"type":"LineString","coordinates":[[142.16174,26.639682],[142.161695,26.639702]]}},{"type":"Feature","properties":{"id":1156505410,"highway":"secondary"},"geometry":{"type":"LineString","coordinates":[[142.161695,26.639702],[142.161626,26.639731]]}},{"type":"Feature","properties":{"id":1156505411,"highway":"secondary"},"geometry":{"type":"LineString","coordinates":[[142.161626,26.639731],[142.161533,26.639771]]}},{"type":"Feature","properties":{"id":1156505412,"highway":"secondary"},"geometry":{"type":"LineString","coordinates":[[142.161533,26.639771],[142.161443,26.63981]]}},{"type":"Feature","properties":{"id":1441696635,"highway":"service"},"geometry":{"type":"LineString","coordinates":[[142.162375,26.634571],[142.162379,26.634393],[142.162329,26.634373],[142.161755,26.634363]]}},{"type":"Feature","properties":{"id":1441696636,"highway":"service"},"geometry":{"type":"LineString","coordinates":[[142.162375,26.634571],[142.161716,26.634555]]}},{"type":"Feature","properties":{"id":1441696638,"highway":"service"},"geometry":{"type":"LineString","coordinates":[[142.163086,26.634707],[142.162869,26.634584],[142.16284,26.634547],[142.162839,26.634516],[142.162826,26.634432],[142.162811,26.634397],[142.162625,26.634268]]}},{"type":"Feature","properties":{"id":1492737580,"highway":"service"},"geometry":{"type":"LineString","coordinates":[[142.167086,26.634867],[142.167254,26.634528],[142.167351,26.634429]]}}]}