{"type":"FeatureCollection","features":[{"type":"Feature","properties":{"id":126302195,"highway":"secondary"},"geometry":{"type":"LineString","coordinates":[[142.193792,27.098036],[142.19398,27.098503],[142.194058,27.099166],[142.194065,27.099599],[142.194103,27.099668],[142.194198,27.099759]]}},{"type":"Feature","properties":{"id":126302214,"highway":"secondary"},"geometry":{"type":"LineString","coordinates":[[142.197908,27.09866],[142.198071,27.098743]]}},{"type":"Feature","properties":{"id":126302220,"highway":"secondary"},"geometry":{"type":"LineString","coordinates":[[142.189531,27.094495],[142.189745,27.094573],[142.190056,27.094716],[142.19015,27.09481],[142.190193,27.094915],[142.190156,27.095027],[142.190062,27.095113],[142.189831,27.095261],[142.189657,27.095457],[142.189491,27.095674],[142.189424,27.095944],[142.189466,27.096104],[142.189534,27.09618],[142.189735,27.096256],[142.189941,27.096304],[142.190078,27.096407],[142.190175,27.096517],[142.190303,27.09661],[142.190467,27.096639],[142.190649,27.096596],[142.190813,27.096533],[142.191041,27.09651],[142.191261,27.09661],[142.191668,27.096935],[142.1918,27.097084],[142.191821,27.097109],[142.191859,27.097274],[142.191816,27.097539],[142.191824,27.097663],[142.191923,27.097816],[142.19206,27.097899],[142.192218,27.097895],[142.192379,27.097842],[142.192532,27.097766],[142.192709,27.097699],[142.192825,27.097677],[142.192965,27.097693],[142.193107,27.097725],[142.193309,27.097799],[142.193472,27.097874]]}},{"type":"Feature","properties":{"id":126302240,"highway":"secondary"},"geometry":{"type":"LineString","coordinates":[[142.190774,27.092266],[142.190952,27.092548]]}},{"type":"Feature","properties":{"id":126302243,"highway":"secondary"},"geometry":{"type":"LineString","coordinates":[[142.198014,27.070446],[142.197775,27.070406],[142.196242,27.070396],[142.195648,27.070501],[142.195466,27.070533],[142.195006,27.070575],[142.193891,27.07051],[142.193538,27.070573],[142.193123,27.070707],[142.19306,27.070728],[142.192878,27.070752],[142.192735,27.070747],[142.192462,27.070737],[142.192191,27.070741],[142.191938,27.070801],[142.191818,27.070829],[142.191434,27.070987],[142.190915,27.071052]]}},{"type":"Feature","properties":{"id":126302244,"highway":"secondary"},"geometry":{"type":"LineString","coordinates":[[142.203004,27.072552],[142.20251,27.072584],[142.202339,27.072605],[142.202228,27.072619],[142.201917,27.072643],[142.201665,27.072707],[142.201374,27.072783],[142.201338,27.072792],[142.201082,27.072778],[142.200916,27.072658],[142.200516,27.071568],[142.200393,27.071396],[142.200296,27.07133],[142.200166,27.07129],[142.199266,27.071249],[142.199024,27.071196],[142.198831,27.071045],[142.198216,27.07056],[142.198014,27.070446]]}},{"type":"Feature","properties":{"id":126302256,"highway":"secondary"},"geometry":{"type":"LineString","coordinates":[[142.192287,27.094349],[142.192337,27.094376],[142.192374,27.094395],[142.192394,27.094405],[142.192446,27.094431],[142.192495,27.094452],[142.192763,27.094504],[142.193127,27.094584],[142.193723,27.094715],[142.194238,27.09481],[142.194318,27.094827],[142.195079,27.094975],[142.195667,27.095092],[142.195854,27.09513]]}},{"type":"Feature","properties":{"id":126302257,"highway":"secondary"},"geometry":{"type":"LineString","coordinates":[[142.190952,27.092548],[142.191259,27.092976],[142.191689,27.093561],[142.191911,27.093853],[142.191937,27.093888],[142.19216,27.094196],[142.192214,27.094261],[142.192287,27.094349]]}},{"type":"Feature","properties":{"id":126302260,"highway":"unclassified"},"geometry":{"type":"LineString","coordinates":[[142.19392,27.099913],[142.194013,27.099906],[142.194136,27.099846],[142.194198,27.099759]]}},{"type":"Feature","properties":{"id":126302265,"highway":"secondary"},"geometry":{"type":"LineString","coordinates":[[142.195854,27.09513],[142.195933,27.095146],[142.195994,27.095161],[142.196054,27.095175],[142.196262,27.095268],[142.196471,27.095413],[142.196634,27.095526],[142.196857,27.095682],[142.19726,27.095962],[142.198008,27.096483],[142.198129,27.096646],[142.198206,27.096805],[142.198223,27.096902],[142.19822,27.096964],[142.198182,27.097093],[142.198123,27.097193],[142.197568,27.09786],[142.197519,27.097985]]}},{"type":"Feature","properties":{"id":126302268,"highway":"secondary"},"geometry":{"type":"LineString","coordinates":[[142.203477,27.060153],[142.203353,27.060117],[142.203268,27.060057],[142.203196,27.059979],[142.202964,27.059577],[142.202873,27.059526],[142.202792,27.059533],[142.202147,27.059776],[142.202069,27.059846],[142.202006,27.059978],[142.201953,27.06008],[142.201862,27.060145],[142.201369,27.060249],[142.201163,27.060223],[142.200769,27.060004],[142.199553,27.059521],[142.199305,27.059501],[142.199067,27.059582],[142.19888,27.059814],[142.198685,27.059898],[142.198383,27.060187],[142.198261,27.060333],[142.198152,27.06042],[142.197961,27.06053],[142.197789,27.060623],[142.197698,27.060667],[142.1976,27.060692],[142.19743,27.060625],[142.197129,27.060409],[142.19693,27.060323],[142.196873,27.060234],[142.196815,27.06022],[142.196749,27.060232],[142.196736,27.060271],[142.196747,27.06032],[142.196787,27.060345],[142.19693,27.060323]]}},{"type":"Feature","properties":{"id":126302291,"highway":"secondary"},"geometry":{"type":"LineString","coordinates":[[142.197519,27.097985],[142.197529,27.098174],[142.197518,27.098237],[142.197531,27.098302],[142.197555,27.098355],[142.197592,27.098414],[142.197627,27.09846],[142.197672,27.098512],[142.197758,27.098581],[142.197908,27.09866]]}},{"type":"Feature","properties":{"id":126302357,"highway":"unclassified"},"geometry":{"type":"LineString","coordinates":[[142.193792,27.098036],[142.19393,27.098046],[142.194555,27.098322],[142.194689,27.098396],[142.194807,27.098503],[142.19489,27.098596],[142.195248,27.099087],[142.195349,27.099227],[142.195439,27.099335],[142.195545,27.099358],[142.195632,27.099341],[142.195814,27.099246],[142.196148,27.099046],[142.196347,27.098927],[142.196793,27.098831],[142.197059,27.098791]]}},{"type":"Feature","properties":{"id":126302392,"highway":"unclassified"},"geometry":{"type":"LineString","coordinates":[[142.197436,27.097743],[142.197519,27.097985]]}},{"type":"Feature","properties":{"id":126302393,"highway":"unclassified"},"geometry":{"type":"LineString","coordinates":[[142.194382,27.09429],[142.194365,27.093998],[142.194463,27.093826]]}},{"type":"Feature","properties":{"id":126302397,"highway":"unclassified"},"geometry":{"type":"LineString","coordinates":[[142.195854,27.09513],[142.19589,27.095284]]}},{"type":"Feature","properties":{"id":126302410,"highway":"tertiary"},"geometry":{"type":"LineString","coordinates":[[142.192287,27.094349],[142.192242,27.094398],[142.191932,27.094734],[142.191473,27.095187]]}},{"type":"Feature","properties":{"id":126302415,"highway":"unclassified"},"geometry":{"type":"LineString","coordinates":[[142.194238,27.09481],[142.194327,27.094489],[142.194382,27.09429]]}},{"type":"Feature","properties":{"id":126302439,"highway":"tertiary"},"geometry":{"type":"LineString","coordinates":[[142.197519,27.097985],[142.197367,27.098095],[142.197199,27.098405],[142.197059,27.098791]]}},{"type":"Feature","properties":{"id":126302440,"highway":"unclassified"},"geometry":{"type":"LineString","coordinates":[[142.19589,27.095284],[142.196256,27.095803]]}},{"type":"Feature","properties":{"id":126302447,"highway":"unclassified"},"geometry":{"type":"LineString","coordinates":[[142.196256,27.095803],[142.196458,27.096108]]}},{"type":"Feature","properties":{"id":126302484,"highway":"unclassified"},"geometry":{"type":"LineString","coordinates":[[142.198782,27.097763],[142.198731,27.097835],[142.197982,27.098364],[142.197758,27.098581]]}},{"type":"Feature","properties":{"id":126302490,"highway":"unclassified"},"geometry":{"type":"LineString","coordinates":[[142.19822,27.096964],[142.198295,27.097026],[142.198763,27.097678],[142.198782,27.097763]]}},{"type":"Feature","properties":{"id":126302512,"highway":"unclassified"},"geometry":{"type":"LineString","coordinates":[[142.196458,27.096108],[142.196756,27.096632],[142.197128,27.097233],[142.197436,27.097743]]}},{"type":"Feature","properties":{"id":126302515,"highway":"unclassified"},"geometry":{"type":"LineString","coordinates":[[142.194382,27.09429],[142.195356,27.09481],[142.195413,27.09484],[142.19556,27.094913],[142.195784,27.095023],[142.195819,27.095077],[142.195854,27.09513]]}},{"type":"Feature","properties":{"id":126302553,"highway":"unclassified"},"geometry":{"type":"LineString","coordinates":[[142.198045,27.070351],[142.197748,27.070251],[142.197483,27.070168],[142.197353,27.070083],[142.197246,27.070006],[142.197107,27.069912],[142.197021,27.069782],[142.196823,27.069816],[142.196691,27.069845],[142.196545,27.069909],[142.196408,27.069852],[142.196299,27.069781],[142.196063,27.06962],[142.195925,27.069475],[142.195878,27.069333],[142.195875,27.069133],[142.19572,27.068997],[142.195477,27.068828],[142.195037,27.068684],[142.194715,27.068531],[142.194543,27.068424],[142.194505,27.068328],[142.194484,27.068275],[142.194502,27.068077],[142.194538,27.067856],[142.194567,27.067542],[142.19458,27.067396],[142.1946,27.06718],[142.194604,27.066941],[142.194586,27.066859],[142.194548,27.066781],[142.194254,27.066582],[142.1942,27.066438],[142.193752,27.065931],[142.193757,27.065815],[142.19383,27.065672],[142.193878,27.065591],[142.193887,27.065504],[142.193798,27.065381],[142.193749,27.065223],[142.19367,27.065139],[142.193548,27.065093],[142.193365,27.064998],[142.193157,27.064868]]}},{"type":"Feature","properties":{"id":126302565,"highway":"unclassified"},"geometry":{"type":"LineString","coordinates":[[142.191526,27.095251],[142.191461,27.095342],[142.19145,27.09538],[142.191454,27.09544],[142.191443,27.095484],[142.191285,27.095666],[142.191194,27.09577],[142.191109,27.095876]]}},{"type":"Feature","properties":{"id":126302585,"highway":"unclassified"},"geometry":{"type":"LineString","coordinates":[[142.192384,27.069731],[142.192255,27.069918],[142.191961,27.070044],[142.191507,27.070202],[142.191197,27.070226],[142.190842,27.070132],[142.19067,27.070138],[142.19044,27.070267],[142.190295,27.070543],[142.190394,27.070847],[142.190485,27.070911],[142.190577,27.070975],[142.190723,27.071043],[142.190915,27.071052]]}},{"type":"Feature","properties":{"id":126302589,"highway":"unclassified"},"geometry":{"type":"LineString","coordinates":[[142.19392,27.099913],[142.193867,27.099959],[142.193838,27.1],[142.193747,27.10012],[142.19366,27.100244],[142.193547,27.10034],[142.193475,27.100406],[142.193374,27.100491],[142.193326,27.100566],[142.19332,27.100658],[142.193348,27.100764],[142.193485,27.100857],[142.193691,27.100986],[142.193898,27.101298],[142.193924,27.101372],[142.19393,27.101707],[142.193951,27.101778],[142.194217,27.102215],[142.194289,27.102273],[142.194683,27.102456],[142.194807,27.102499],[142.194901,27.102492],[142.195233,27.102442],[142.195386,27.10239],[142.195512,27.102406],[142.195595,27.102445],[142.195888,27.102705],[142.195931,27.102793],[142.195936,27.102901],[142.19592,27.102982],[142.195858,27.103075],[142.195748,27.103144],[142.195638,27.10318],[142.194954,27.103333],[142.19467,27.103361],[142.193681,27.103295]]}},{"type":"Feature","properties":{"id":331194834,"highway":"unclassified"},"geometry":{"type":"LineString","coordinates":[[142.194065,27.099599],[142.193999,27.099678],[142.193939,27.099806],[142.19392,27.099913]]}},{"type":"Feature","properties":{"id":360633156,"highway":"service"},"geometry":{"type":"LineString","coordinates":[[142.197347,27.099639],[142.197092,27.099761],[142.196996,27.099868],[142.196936,27.09995],[142.196935,27.100077],[142.196944,27.100275]]}},{"type":"Feature","properties":{"id":360633158,"highway":"unclassified"},"geometry":{"type":"LineString","coordinates":[[142.194807,27.098503],[142.194577,27.098684],[142.194452,27.099366],[142.194545,27.099601],[142.194637,27.099833]]}},{"type":"Feature","properties":{"id":360633159,"highway":"unclassified"},"geometry":{"type":"LineString","coordinates":[[142.198107,27.098761],[142.198242,27.098525],[142.199736,27.098854],[142.19994,27.099246],[142.200264,27.099115],[142.20057,27.09964],[142.200727,27.099932]]}},{"type":"Feature","properties":{"id":360633160,"highway":"unclassified"},"geometry":{"type":"LineString","coordinates":[[142.192462,27.070737],[142.192357,27.070566],[142.192126,27.070507],[142.191718,27.070449],[142.19156,27.070372],[142.191507,27.070202]]}},{"type":"Feature","properties":{"id":373865281,"highway":"secondary"},"geometry":{"type":"LineString","coordinates":[[142.194198,27.099759],[142.194366,27.0998],[142.194637,27.099833],[142.194906,27.099925],[142.19513,27.099986],[142.195344,27.100061],[142.195455,27.100112],[142.19553,27.100223],[142.195471,27.100366],[142.19536,27.100425],[142.195097,27.100508],[142.194956,27.10061],[142.194899,27.100704],[142.194908,27.100845],[142.194947,27.101039]]}},{"type":"Feature","properties":{"id":443381091,"highway":"unclassified"},"geometry":{"type":"LineString","coordinates":[[142.1918,27.097084],[142.191875,27.097051],[142.191819,27.096923],[142.19181,27.09685],[142.191853,27.096778],[142.191971,27.096625],[142.192042,27.09667],[142.19211,27.096651],[142.192288,27.096468],[142.192469,27.096311]]}},{"type":"Feature","properties":{"id":443381092,"highway":"service"},"geometry":{"type":"LineString","coordinates":[[142.194807,27.098503],[142.194842,27.098463],[142.194832,27.098412],[142.194759,27.098345],[142.194423,27.098161],[142.194362,27.09809],[142.194328,27.098008],[142.19433,27.097873],[142.194348,27.097789],[142.194454,27.09763],[142.194479,27.097569],[142.19451,27.09751]]}},{"type":"Feature","properties":{"id":443381093,"highway":"service"},"geometry":{"type":"LineString","coordinates":[[142.193954,27.096544],[142.193874,27.096528],[142.193837,27.096486],[142.193833,27.096427],[142.193799,27.096346],[142.193739,27.09628],[142.193656,27.096228],[142.193443,27.096119],[142.193336,27.09604],[142.193239,27.095991],[142.193105,27.095948],[142.192989,27.095909]]}},{"type":"Feature","properties":{"id":443381100,"highway":"service"},"geometry":{"type":"LineString","coordinates":[[142.190419,27.092033],[142.190688,27.092026]]}},{"type":"Feature","properties":{"id":443381101,"highway":"tertiary"},"geometry":{"type":"LineString","coordinates":[[142.193647,27.097962],[142.193631,27.09781],[142.19362,27.097713],[142.193622,27.09748],[142.193568,27.097343],[142.193276,27.096789],[142.193263,27.096764],[142.193184,27.096732],[142.192968,27.09667],[142.192946,27.096664],[142.19252,27.096357],[142.192469,27.096311],[142.192423,27.096269],[142.192175,27.095984],[142.191813,27.095571],[142.191616,27.095346],[142.191526,27.095251],[142.191473,27.095187],[142.191332,27.095035],[142.191031,27.094678],[142.190894,27.094516],[142.190729,27.094184],[142.190605,27.093881],[142.190511,27.093568],[142.190434,27.093501],[142.190404,27.093426],[142.19039,27.09333],[142.190385,27.093241],[142.190384,27.093211],[142.190408,27.093051],[142.190447,27.09286],[142.190467,27.092645]]}},{"type":"Feature","properties":{"id":443381102,"highway":"service"},"geometry":{"type":"LineString","coordinates":[[142.189152,27.093718],[142.189225,27.093552],[142.189252,27.093449],[142.189239,27.093327],[142.189086,27.093031],[142.189011,27.092821],[142.188976,27.092616],[142.188997,27.092501],[142.189099,27.092425],[142.189172,27.092358],[142.189203,27.092226],[142.189194,27.092122],[142.189134,27.092006],[142.18892,27.091797],[142.188794,27.091754],[142.188651,27.091756],[142.188496,27.091756],[142.188346,27.091706],[142.188222,27.091629],[142.188045,27.09157],[142.187855,27.091553],[142.187657,27.091529],[142.18753,27.091443],[142.187434,27.091352],[142.187358,27.091231],[142.187342,27.091064],[142.187369,27.090822],[142.187501,27.090507],[142.187509,27.090335],[142.187455,27.089967],[142.187399,27.089788],[142.187326,27.089628],[142.187348,27.089478],[142.187474,27.089361],[142.187629,27.089294],[142.187788,27.089251]]}},{"type":"Feature","properties":{"id":443381103,"highway":"service"},"geometry":{"type":"LineString","coordinates":[[142.190367,27.090686],[142.190544,27.090951],[142.190662,27.091073]]}},{"type":"Feature","properties":{"id":443381104,"highway":"unclassified"},"geometry":{"type":"LineString","coordinates":[[142.190662,27.091073],[142.190688,27.092026],[142.190774,27.092266]]}},{"type":"Feature","properties":{"id":443381106,"highway":"residential"},"geometry":{"type":"LineString","coordinates":[[142.190729,27.094184],[142.191163,27.093902],[142.191689,27.093561]]}},{"type":"Feature","properties":{"id":443381107,"highway":"service"},"geometry":{"type":"LineString","coordinates":[[142.192341,27.089843],[142.190678,27.09087],[142.190662,27.091073]]}},{"type":"Feature","properties":{"id":443381108,"highway":"residential"},"geometry":{"type":"LineString","coordinates":[[142.194318,27.094827],[142.194218,27.095254],[142.194146,27.095548]]}},{"type":"Feature","properties":{"id":443381109,"highway":"residential"},"geometry":{"type":"LineString","coordinates":[[142.191937,27.093888],[142.191485,27.094282],[142.191031,27.094678]]}},{"type":"Feature","properties":{"id":443381112,"highway":"residential"},"geometry":{"type":"LineString","coordinates":[[142.19073,27.093417],[142.191163,27.093902],[142.191485,27.094282],[142.191932,27.094734]]}},{"type":"Feature","properties":{"id":443381114,"highway":"service"},"geometry":{"type":"LineString","coordinates":[[142.193209,27.095474],[142.193212,27.095554],[142.193264,27.095614],[142.19343,27.095735]]}},{"type":"Feature","properties":{"id":443381115,"highway":"service"},"geometry":{"type":"LineString","coordinates":[[142.189319,27.091917],[142.189276,27.092339],[142.189197,27.092402],[142.189099,27.092425]]}},{"type":"Feature","properties":{"id":443381116,"highway":"service"},"geometry":{"type":"LineString","coordinates":[[142.191911,27.093853],[142.191993,27.093808],[142.192112,27.093646],[142.192028,27.093539]]}},{"type":"Feature","properties":{"id":443381117,"highway":"residential"},"geometry":{"type":"LineString","coordinates":[[142.191259,27.092976],[142.19073,27.093417],[142.190579,27.093545],[142.190511,27.093568]]}},{"type":"Feature","properties":{"id":443381118,"highway":"service"},"geometry":{"type":"LineString","coordinates":[[142.193833,27.096129],[142.193591,27.096005],[142.193263,27.09588],[142.193124,27.095831]]}},{"type":"Feature","properties":{"id":443381119,"highway":"service"},"geometry":{"type":"LineString","coordinates":[[142.19044,27.092212],[142.190443,27.092346],[142.190574,27.092386],[142.190774,27.092266]]}},{"type":"Feature","properties":{"id":443381121,"highway":"service"},"geometry":{"type":"LineString","coordinates":[[142.189884,27.090746],[142.190007,27.090672],[142.190121,27.090822],[142.190313,27.091073],[142.190544,27.090951]]}},{"type":"Feature","properties":{"id":443381122,"highway":"residential"},"geometry":{"type":"LineString","coordinates":[[142.191813,27.095571],[142.191906,27.095494],[142.19215,27.095217],[142.192264,27.094863],[142.192495,27.094452]]}},{"type":"Feature","properties":{"id":443381123,"highway":"residential"},"geometry":{"type":"LineString","coordinates":[[142.190385,27.093241],[142.190308,27.093241],[142.190086,27.093308],[142.189912,27.093361],[142.189848,27.093411],[142.189922,27.093547],[142.190044,27.093666]]}},{"type":"Feature","properties":{"id":443381125,"highway":"service"},"geometry":{"type":"LineString","coordinates":[[142.18654,27.093221],[142.18651,27.093362],[142.186521,27.093534],[142.186368,27.093622],[142.186282,27.093722],[142.186213,27.093853]]}},{"type":"Feature","properties":{"id":443381126,"highway":"residential"},"geometry":{"type":"LineString","coordinates":[[142.189987,27.093725],[142.190044,27.093666],[142.190106,27.093642],[142.190253,27.093623],[142.19039,27.093622],[142.190511,27.093568]]}},{"type":"Feature","properties":{"id":443381127,"highway":"residential"},"geometry":{"type":"LineString","coordinates":[[142.193127,27.094584],[142.193018,27.095017],[142.192897,27.095421],[142.192833,27.09566],[142.192522,27.095648],[142.192175,27.095984]]}},{"type":"Feature","properties":{"id":443381128,"highway":"residential"},"geometry":{"type":"LineString","coordinates":[[142.195079,27.094975],[142.194963,27.095395],[142.194218,27.095254],[142.193592,27.095135],[142.193018,27.095017],[142.192264,27.094863],[142.191932,27.094734]]}},{"type":"Feature","properties":{"id":443381129,"highway":"service"},"geometry":{"type":"LineString","coordinates":[[142.192275,27.097086],[142.192386,27.097123],[142.192579,27.09715],[142.192677,27.097136],[142.192746,27.097065],[142.192887,27.096849],[142.192968,27.09667]]}},{"type":"Feature","properties":{"id":443381130,"highway":"residential"},"geometry":{"type":"LineString","coordinates":[[142.19215,27.095217],[142.192897,27.095421],[142.193209,27.095474],[142.193412,27.095507],[142.193514,27.095447],[142.193592,27.095135],[142.193723,27.094715]]}},{"type":"Feature","properties":{"id":443381131,"highway":"unclassified"},"geometry":{"type":"LineString","coordinates":[[142.189531,27.094495],[142.18937,27.094809],[142.189394,27.094894],[142.189471,27.094938],[142.189547,27.094924],[142.189823,27.094842],[142.189899,27.094873],[142.189916,27.094929],[142.189888,27.094996],[142.189828,27.09502],[142.189026,27.095125],[142.188968,27.095101],[142.188936,27.095073],[142.188839,27.09494],[142.188777,27.094928],[142.18872,27.094965],[142.188701,27.095026],[142.188721,27.095082],[142.188983,27.095258],[142.188995,27.095319],[142.18898,27.095364],[142.188932,27.095395],[142.188867,27.095385],[142.188826,27.095361],[142.188411,27.095068],[142.188316,27.095054],[142.188228,27.095058],[142.188024,27.095099],[142.187978,27.095089],[142.187781,27.095005],[142.187678,27.095012],[142.187424,27.095068],[142.187329,27.095048],[142.187273,27.094999],[142.187259,27.094947],[142.18727,27.094746],[142.187317,27.094688],[142.187381,27.094641],[142.18745,27.09461],[142.187495,27.094543],[142.187495,27.094479],[142.187478,27.094434],[142.187403,27.094293],[142.187334,27.094267],[142.18725,27.094252],[142.186971,27.094237],[142.186894,27.094255],[142.186515,27.094426],[142.186208,27.094526],[142.186142,27.09451],[142.186109,27.094466],[142.186126,27.094411],[142.186156,27.094379],[142.186182,27.094351],[142.186325,27.094241],[142.186355,27.094172],[142.186357,27.09412],[142.186347,27.094048],[142.186318,27.093985],[142.186283,27.093915],[142.186235,27.093861],[142.186213,27.093853],[142.186166,27.093836],[142.186068,27.093811],[142.185957,27.093793],[142.185853,27.093789],[142.185771,27.093789],[142.185696,27.093804],[142.185642,27.093848],[142.185595,27.093916],[142.185571,27.093979],[142.185552,27.094065],[142.185503,27.094156],[142.185451,27.094236],[142.185312,27.094453],[142.185258,27.094584],[142.185284,27.09479],[142.185262,27.094876],[142.185157,27.095134],[142.18506,27.09524],[142.184974,27.095323],[142.184851,27.095496],[142.184763,27.09562]]}},{"type":"Feature","properties":{"id":443381132,"highway":"service"},"geometry":{"type":"LineString","coordinates":[[142.190121,27.090822],[142.190367,27.090686],[142.190455,27.09061],[142.190487,27.090514],[142.190493,27.09034],[142.190533,27.090206],[142.190562,27.089559],[142.190941,27.089595]]}},{"type":"Feature","properties":{"id":443381136,"highway":"service"},"geometry":{"type":"LineString","coordinates":[[142.194068,27.095975],[142.193699,27.095806],[142.193507,27.095737],[142.19343,27.095735],[142.193316,27.095771],[142.193189,27.095802],[142.193124,27.095831],[142.193057,27.09586],[142.192989,27.095909]]}},{"type":"Feature","properties":{"id":443594750,"highway":"secondary"},"geometry":{"type":"LineString","coordinates":[[142.198071,27.098743],[142.198107,27.098761],[142.198284,27.09886],[142.199297,27.09939],[142.200145,27.099958],[142.200406,27.100087],[142.200457,27.100113],[142.200699,27.100199],[142.201094,27.100271],[142.20149,27.100264],[142.20181,27.100204],[142.203282,27.099719],[142.2035,27.099638],[142.203592,27.099583],[142.203845,27.099429],[142.203983,27.099344],[142.204281,27.099163],[142.20459,27.098975],[142.204652,27.098906],[142.2047,27.098854],[142.204764,27.098711],[142.204773,27.098658],[142.204787,27.098566],[142.204784,27.098462],[142.20478,27.098286],[142.204768,27.098203],[142.204763,27.09817],[142.2047,27.098067],[142.20424,27.097404],[142.203934,27.096963],[142.203843,27.096707],[142.203837,27.096492],[142.203921,27.096273],[142.204001,27.096091],[142.204057,27.095962],[142.204127,27.0958],[142.204184,27.095503]]}},{"type":"Feature","properties":{"id":443594751,"highway":"residential"},"geometry":{"type":"LineString","coordinates":[[142.192825,27.097677],[142.19312,27.097925],[142.193187,27.098161],[142.193245,27.098302],[142.193467,27.098748],[142.193729,27.099613],[142.193383,27.099682],[142.193334,27.099816],[142.193407,27.100045],[142.193867,27.099959]]}},{"type":"Feature","properties":{"id":443594772,"highway":"unclassified"},"geometry":{"type":"LineString","coordinates":[[142.198201,27.100709],[142.198239,27.100835],[142.198322,27.101057],[142.198352,27.101281],[142.198372,27.101354],[142.198419,27.101412],[142.198755,27.101589],[142.19887,27.101804],[142.198962,27.101941],[142.199119,27.102136],[142.199257,27.102352],[142.1995,27.102547],[142.199553,27.102546],[142.19992,27.102185],[142.199569,27.101861],[142.199435,27.101728],[142.199319,27.101618],[142.199054,27.101335],[142.198466,27.100887],[142.198201,27.100709],[142.198175,27.100694],[142.198019,27.100565],[142.197881,27.100364],[142.197602,27.100059],[142.197525,27.099889],[142.197515,27.099865],[142.197464,27.099762],[142.197347,27.099639],[142.197225,27.0995],[142.197233,27.099354],[142.197271,27.099182],[142.197265,27.09907],[142.19722,27.098984],[142.197059,27.098791]]}},{"type":"Feature","properties":{"id":443594804,"highway":"service"},"geometry":{"type":"LineString","coordinates":[[142.196868,27.099564],[142.196958,27.09965],[142.196934,27.099724],[142.196829,27.099864],[142.196842,27.099901],[142.196878,27.099931],[142.196936,27.09995]]}},{"type":"Feature","properties":{"id":443594805,"highway":"service"},"geometry":{"type":"LineString","coordinates":[[142.203418,27.09751],[142.202957,27.097731],[142.2028,27.097762],[142.202562,27.09787],[142.202264,27.097354],[142.201355,27.095778],[142.199837,27.095849]]}},{"type":"Feature","properties":{"id":443597111,"highway":"service"},"geometry":{"type":"LineString","coordinates":[[142.197411,27.09582],[142.197758,27.096116]]}},{"type":"Feature","properties":{"id":443597113,"highway":"service"},"geometry":{"type":"LineString","coordinates":[[142.196013,27.094829],[142.195909,27.094849],[142.19556,27.094913]]}},{"type":"Feature","properties":{"id":443597114,"highway":"service"},"geometry":{"type":"LineString","coordinates":[[142.195909,27.094849],[142.19619,27.095047],[142.196638,27.095241]]}},{"type":"Feature","properties":{"id":443597116,"highway":"service"},"geometry":{"type":"LineString","coordinates":[[142.196471,27.095413],[142.196638,27.095241],[142.196683,27.095194]]}},{"type":"Feature","properties":{"id":443597117,"highway":"service"},"geometry":{"type":"LineString","coordinates":[[142.19726,27.095962],[142.197363,27.095865],[142.197411,27.09582],[142.197461,27.095772]]}},{"type":"Feature","properties":{"id":443608736,"highway":"unclassified"},"geometry":{"type":"LineString","coordinates":[[142.195757,27.072286],[142.195752,27.072203],[142.195384,27.072083],[142.195432,27.071978],[142.195682,27.071995],[142.195837,27.071918],[142.196151,27.071911],[142.196344,27.071883],[142.196564,27.07183],[142.196653,27.071749],[142.196747,27.071651],[142.197398,27.071379],[142.197519,27.071321],[142.197613,27.071259],[142.197744,27.071137],[142.197812,27.071018],[142.198014,27.070446]]}},{"type":"Feature","properties":{"id":443608742,"highway":"service"},"geometry":{"type":"LineString","coordinates":[[142.19111,27.073378],[142.191499,27.073442],[142.191606,27.073425],[142.191668,27.073359],[142.191697,27.073261],[142.1917,27.073156],[142.191611,27.072937],[142.19146,27.072564],[142.191418,27.072461],[142.1914,27.072416],[142.191311,27.072198],[142.191247,27.072114],[142.191182,27.072119],[142.190991,27.072188],[142.190948,27.072204],[142.190807,27.072255],[142.190734,27.072305],[142.190689,27.072382],[142.190708,27.072511],[142.190726,27.072556],[142.190772,27.072668],[142.19085,27.072859],[142.190963,27.073135],[142.19104,27.073325],[142.19111,27.073378]]}},{"type":"Feature","properties":{"id":443608748,"highway":"unclassified"},"geometry":{"type":"LineString","coordinates":[[142.198014,27.070446],[142.198045,27.070351],[142.198101,27.07018],[142.198133,27.070116],[142.19816,27.070094],[142.198235,27.070081],[142.198315,27.070072],[142.198387,27.070052],[142.198474,27.070017],[142.198565,27.069954],[142.19863,27.069898],[142.198739,27.069808],[142.198884,27.069698],[142.198951,27.06969],[142.198987,27.069686],[142.199361,27.06965],[142.199545,27.06965],[142.19962,27.069671],[142.199805,27.069783],[142.199873,27.069807],[142.199979,27.069807],[142.200281,27.069745],[142.200384,27.069715],[142.200603,27.06959],[142.200916,27.069368],[142.201213,27.069148],[142.201452,27.068989],[142.201574,27.068935],[142.201752,27.06887],[142.201987,27.068849],[142.202368,27.068846],[142.20291,27.068852],[142.203111,27.068874],[142.203307,27.068932],[142.203523,27.069026],[142.203711,27.069111]]}},{"type":"Feature","properties":{"id":443608749,"highway":"service"},"geometry":{"type":"LineString","coordinates":[[142.190723,27.071043],[142.190832,27.071164],[142.190983,27.071259],[142.191063,27.071328],[142.1912,27.071489],[142.191334,27.071684],[142.19142,27.071932],[142.191479,27.072102],[142.191575,27.072326],[142.191605,27.072396],[142.191707,27.07263],[142.191806,27.072902],[142.191911,27.073129],[142.191921,27.073301],[142.19187,27.073466],[142.191806,27.073645],[142.191779,27.073722],[142.191685,27.073846],[142.191662,27.073882],[142.191602,27.073972],[142.191599,27.074073],[142.191661,27.074218],[142.191779,27.074371],[142.191956,27.074517],[142.192106,27.074636],[142.192163,27.074722],[142.192195,27.074775],[142.192243,27.074773],[142.192369,27.074651],[142.192455,27.07462],[142.192686,27.074593],[142.192785,27.074558],[142.192831,27.074488],[142.192812,27.074414],[142.192723,27.074192],[142.192662,27.074123],[142.192549,27.074025],[142.192471,27.074003],[142.192131,27.07398]]}},{"type":"Feature","properties":{"id":443608751,"highway":"service"},"geometry":{"type":"LineString","coordinates":[[142.190963,27.073135],[142.191277,27.073039],[142.191611,27.072937]]}},{"type":"Feature","properties":{"id":443608752,"highway":"service"},"geometry":{"type":"LineString","coordinates":[[142.190772,27.072668],[142.191093,27.072575],[142.191418,27.072461]]}},{"type":"Feature","properties":{"id":443608754,"highway":"service"},"geometry":{"type":"LineString","coordinates":[[142.19142,27.071932],[142.190989,27.072066],[142.190957,27.072105],[142.190991,27.072188]]}},{"type":"Feature","properties":{"id":443608756,"highway":"service"},"geometry":{"type":"LineString","coordinates":[[142.193248,27.071052],[142.193378,27.071074],[142.193432,27.071121],[142.193509,27.071219],[142.193547,27.071239],[142.193624,27.071229],[142.193655,27.071182],[142.193696,27.071012],[142.193708,27.070924],[142.193763,27.070899],[142.193828,27.070908],[142.193864,27.070954],[142.193919,27.071026],[142.193967,27.071024],[142.194016,27.071005],[142.194042,27.07097],[142.194093,27.07089],[142.194131,27.070883],[142.194187,27.070901],[142.194206,27.07095],[142.194309,27.071258],[142.194301,27.071336],[142.194276,27.071385],[142.194226,27.071418],[142.194091,27.071546],[142.194066,27.071672],[142.194071,27.071786],[142.194101,27.071883],[142.194148,27.072007],[142.194146,27.07208],[142.194092,27.072255],[142.194103,27.072322],[142.194194,27.072478],[142.194203,27.072529],[142.194214,27.072664],[142.194261,27.072701],[142.194336,27.072733],[142.194406,27.072779],[142.194438,27.072845],[142.194494,27.07295],[142.194548,27.072991],[142.194693,27.073052],[142.194789,27.07315],[142.194828,27.073256],[142.194862,27.073417],[142.194913,27.073513],[142.194999,27.073571],[142.195097,27.073553],[142.195151,27.073495],[142.195217,27.073396],[142.1953,27.073195],[142.195296,27.073107],[142.195275,27.072914]]}},{"type":"Feature","properties":{"id":443608765,"highway":"service"},"geometry":{"type":"LineString","coordinates":[[142.191277,27.073039],[142.191221,27.072898],[142.191093,27.072575],[142.191005,27.07235],[142.190948,27.072204]]}},{"type":"Feature","properties":{"id":443608767,"highway":"service"},"geometry":{"type":"LineString","coordinates":[[142.195406,27.071116],[142.195487,27.070949],[142.195484,27.070813],[142.195634,27.070722],[142.195656,27.070617],[142.195648,27.070501]]}},{"type":"Feature","properties":{"id":443608769,"highway":"service"},"geometry":{"type":"LineString","coordinates":[[142.19284,27.071381],[142.193221,27.071159],[142.19325,27.071104],[142.193248,27.071052],[142.193245,27.070985],[142.193123,27.070707]]}},{"type":"Feature","properties":{"id":443608781,"highway":"service"},"geometry":{"type":"LineString","coordinates":[[142.190391,27.071904],[142.190394,27.072074],[142.190415,27.072157],[142.190493,27.072191],[142.190582,27.072217],[142.190641,27.072291],[142.190689,27.072382]]}},{"type":"Feature","properties":{"id":443608789,"highway":"service"},"geometry":{"type":"LineString","coordinates":[[142.1914,27.072416],[142.191274,27.072451],[142.191233,27.07243],[142.19118,27.072303],[142.191005,27.07235],[142.190847,27.072406],[142.190871,27.072511],[142.190726,27.072556]]}},{"type":"Feature","properties":{"id":443608793,"highway":"service"},"geometry":{"type":"LineString","coordinates":[[142.19085,27.072859],[142.190995,27.072812],[142.191067,27.072938],[142.191221,27.072898],[142.191373,27.072848],[142.191384,27.072797],[142.191325,27.072644],[142.191349,27.072594],[142.19146,27.072564]]}},{"type":"Feature","properties":{"id":443772994,"highway":"service"},"geometry":{"type":"LineString","coordinates":[[142.192709,27.069367],[142.193165,27.069326],[142.193253,27.069605],[142.193312,27.069613],[142.194316,27.06918],[142.194434,27.069044],[142.19446,27.068925],[142.194407,27.068832],[142.19434,27.068786],[142.194216,27.068769],[142.194018,27.068789],[142.193849,27.068753],[142.19376,27.068698],[142.193701,27.068629],[142.193739,27.068552],[142.193832,27.068535],[142.193996,27.068552],[142.194243,27.068543],[142.194324,27.068492],[142.194345,27.068426],[142.194348,27.068335],[142.194505,27.068328]]}},{"type":"Feature","properties":{"id":850758840,"highway":"service"},"geometry":{"type":"LineString","coordinates":[[142.187834,27.092043],[142.187763,27.091861],[142.187653,27.091582],[142.187657,27.091529]]}},{"type":"Feature","properties":{"id":850758841,"highway":"service"},"geometry":{"type":"LineString","coordinates":[[142.188775,27.092111],[142.188761,27.092003],[142.18872,27.091933],[142.188672,27.091901],[142.188639,27.091905],[142.188609,27.091938],[142.188574,27.092009],[142.188538,27.092067],[142.188498,27.092068],[142.188463,27.092045],[142.188448,27.092009],[142.188461,27.091893],[142.188433,27.091866],[142.188393,27.091882],[142.188357,27.091949],[142.188328,27.092028],[142.18829,27.09205],[142.188243,27.092044],[142.188216,27.092014],[142.188217,27.091941],[142.188232,27.09185],[142.188196,27.091798],[142.188139,27.09176],[142.188034,27.091747],[142.187961,27.09178],[142.187763,27.091861]]}},{"type":"Feature","properties":{"id":1029425836,"highway":"secondary"},"geometry":{"type":"LineString","coordinates":[[142.190473,27.092645],[142.190467,27.092645],[142.190236,27.092651],[142.190008,27.092713],[142.18977,27.092787],[142.18959,27.092878],[142.189488,27.093002],[142.189464,27.093159],[142.189482,27.093322],[142.18949,27.093374],[142.189501,27.09346],[142.189472,27.093573],[142.189394,27.093651],[142.189303,27.093694],[142.189152,27.093718]]}},{"type":"Feature","properties":{"id":1029425837,"highway":"secondary"},"geometry":{"type":"LineString","coordinates":[[142.188601,27.094089],[142.188565,27.094162]]}},{"type":"Feature","properties":{"id":1029425838,"highway":"secondary"},"geometry":{"type":"LineString","coordinates":[[142.193608,27.097939],[142.193647,27.097962],[142.193792,27.098036]]}},{"type":"Feature","properties":{"id":1029425839,"highway":"secondary"},"geometry":{"type":"LineString","coordinates":[[142.193472,27.097874],[142.193608,27.097939]]}},{"type":"Feature","properties":{"id":1029425840,"highway":"secondary"},"geometry":{"type":"LineString","coordinates":[[142.190952,27.092548],[142.190688,27.092644]]}},{"type":"Feature","properties":{"id":1029425841,"highway":"secondary"},"geometry":{"type":"LineString","coordinates":[[142.190688,27.092644],[142.190473,27.092645]]}},{"type":"Feature","properties":{"id":1147806896,"highway":"secondary"},"geometry":{"type":"LineString","coordinates":[[142.189152,27.093718],[142.188984,27.093771],[142.188772,27.093888],[142.188646,27.094017],[142.188601,27.094089]]}},{"type":"Feature","properties":{"id":1147806897,"highway":"secondary"},"geometry":{"type":"LineString","coordinates":[[142.188565,27.094162],[142.188565,27.09426],[142.188627,27.094358],[142.188734,27.094413],[142.188884,27.09442],[142.18904,27.094413],[142.189228,27.094427],[142.189313,27.094438],[142.18941,27.094449],[142.189531,27.094495]]}},{"type":"Feature","properties":{"id":1486403794,"highway":"service"},"geometry":{"type":"LineString","coordinates":[[142.196148,27.099046],[142.196046,27.098988],[142.196004,27.099003],[142.195742,27.099094],[142.195678,27.098975],[142.195806,27.098907],[142.196004,27.099003]]}}]}