{"type":"FeatureCollection","features":[{"type":"Feature","properties":{"id":170035375,"highway":"secondary"},"geometry":{"type":"LineString","coordinates":[[138.587367,36.159469],[138.587319,36.159477],[138.587271,36.159496],[138.587243,36.159513],[138.586993,36.159682],[138.586715,36.159857],[138.586584,36.159913],[138.586396,36.159969],[138.586357,36.159964],[138.586327,36.159941],[138.586327,36.159885],[138.586389,36.159739],[138.586395,36.159686],[138.586348,36.159654],[138.586285,36.15966],[138.586042,36.159772],[138.585709,36.15993],[138.585626,36.159964],[138.585307,36.160088],[138.585207,36.160131],[138.585137,36.160114],[138.585113,36.160054],[138.585161,36.159975],[138.585397,36.159755],[138.585466,36.15966],[138.585418,36.159558],[138.585369,36.159536],[138.585279,36.159536],[138.585147,36.159609],[138.58487,36.159829],[138.584786,36.159863],[138.584655,36.159874],[138.584495,36.15984],[138.584245,36.159761],[138.584106,36.159767],[138.583559,36.159896],[138.583399,36.159919],[138.582941,36.159953],[138.582618,36.15996],[138.582534,36.159935],[138.582526,36.159899],[138.582553,36.159857],[138.582671,36.159784],[138.582948,36.159693],[138.583038,36.159648],[138.583129,36.159581],[138.583121,36.159536],[138.583066,36.159496],[138.582851,36.159491],[138.58231,36.159586],[138.582114,36.159603],[138.581831,36.159603],[138.581616,36.159558],[138.581297,36.159541],[138.580998,36.159406],[138.580853,36.159316],[138.580672,36.159232],[138.580554,36.159204],[138.580381,36.159198],[138.580181,36.159189],[138.580015,36.159234],[138.579878,36.159284],[138.579747,36.159348],[138.57969,36.159383],[138.579628,36.159429],[138.579553,36.159508],[138.579485,36.159515],[138.579423,36.159485],[138.57939,36.159419],[138.579299,36.159384],[138.57918,36.159389],[138.578889,36.159451],[138.578598,36.159457],[138.578173,36.159389],[138.577813,36.159299],[138.577688,36.159232],[138.577424,36.159034],[138.577372,36.159014],[138.577292,36.159063],[138.577188,36.159187],[138.577133,36.159226],[138.577043,36.159243],[138.577008,36.159226],[138.576925,36.159147],[138.576904,36.159102],[138.5768,36.158668],[138.576723,36.158449],[138.576633,36.158325],[138.576522,36.158241],[138.576398,36.158179],[138.576253,36.158179],[138.576107,36.158252],[138.575982,36.158364],[138.575948,36.158426],[138.575941,36.158843],[138.575913,36.158944],[138.57585,36.159001],[138.575781,36.15904],[138.575684,36.159063],[138.575344,36.159136],[138.575261,36.159214],[138.575226,36.159282],[138.575191,36.159395],[138.575108,36.159564],[138.575101,36.159631],[138.57519,36.159859],[138.575184,36.15993],[138.575087,36.160065],[138.574941,36.160138],[138.574719,36.160189],[138.574629,36.160222],[138.574581,36.160283],[138.574588,36.160357],[138.574629,36.160402],[138.574705,36.160452],[138.575153,36.160675],[138.575166,36.160713],[138.57516,36.160752],[138.575122,36.16079],[138.575059,36.160818],[138.574928,36.160841],[138.574747,36.160875],[138.574553,36.160948],[138.574467,36.16099],[138.574383,36.16107],[138.574331,36.16109],[138.574283,36.16108],[138.574136,36.161016],[138.573796,36.160852],[138.573686,36.160813],[138.573561,36.160825],[138.573443,36.160892],[138.573379,36.160993],[138.573255,36.16119],[138.57317,36.16131],[138.573088,36.161345],[138.573013,36.161337],[138.572825,36.161292],[138.572541,36.161173],[138.572367,36.161173],[138.572211,36.161151],[138.572081,36.161198],[138.571945,36.161271],[138.571826,36.161382],[138.571735,36.161436],[138.571606,36.161533],[138.571296,36.161667],[138.57111,36.161701],[138.57083,36.161716],[138.570747,36.161732],[138.570588,36.161796],[138.570436,36.161862],[138.570331,36.161904],[138.570212,36.161915],[138.570093,36.161904],[138.57001,36.161887],[138.569787,36.161792],[138.569681,36.161751],[138.569576,36.161731],[138.56945,36.161762],[138.569403,36.161828],[138.569416,36.161901],[138.569485,36.161985],[138.569611,36.162079],[138.570582,36.162518],[138.570787,36.162558],[138.570895,36.162602],[138.571182,36.162771],[138.571208,36.162832],[138.571181,36.162912],[138.571138,36.162965],[138.57108,36.162985],[138.570789,36.162905],[138.570612,36.162858],[138.570428,36.162852],[138.570303,36.16282],[138.569942,36.162738],[138.56984,36.162714],[138.569636,36.162708],[138.569334,36.162709],[138.569159,36.162702],[138.569078,36.162689],[138.569012,36.162649],[138.568963,36.162596],[138.568882,36.162557]]}},{"type":"Feature","properties":{"id":170035476,"highway":"unclassified"},"geometry":{"type":"LineString","coordinates":[[138.592507,36.125885],[138.592696,36.126042],[138.592821,36.126104],[138.592967,36.126109],[138.59305,36.126081],[138.593286,36.125929],[138.593563,36.125834],[138.593758,36.125805],[138.593945,36.125817],[138.594049,36.125839],[138.594188,36.125907],[138.594328,36.126014],[138.594535,36.126115],[138.594668,36.126154],[138.594848,36.126177],[138.595021,36.126166],[138.595237,36.126143],[138.595625,36.126126],[138.595743,36.126109],[138.595924,36.126064],[138.596104,36.125997],[138.596381,36.125913],[138.596541,36.125913],[138.596881,36.125986],[138.597089,36.125997],[138.597228,36.126014],[138.597547,36.126154],[138.597811,36.126228],[138.598005,36.126307],[138.598206,36.126363],[138.598463,36.126374],[138.598761,36.126312],[138.598872,36.126301],[138.598949,36.126329],[138.598997,36.126402],[138.598997,36.126504],[138.598969,36.126616],[138.598956,36.12674],[138.599025,36.126802],[138.599073,36.126825],[138.599191,36.126825],[138.599399,36.126757],[138.599524,36.126751],[138.59983,36.126791],[138.600295,36.126802],[138.600392,36.126847],[138.600447,36.126921],[138.60044,36.127056],[138.600364,36.127213],[138.600315,36.127348],[138.600281,36.127585],[138.600225,36.127703],[138.600044,36.127972],[138.600024,36.128091],[138.600072,36.128237],[138.600111,36.128307],[138.600169,36.128412],[138.600246,36.128468],[138.600364,36.128507],[138.600482,36.128519],[138.600787,36.128519],[138.600926,36.128496],[138.601071,36.128445],[138.601287,36.128338],[138.601543,36.128248],[138.601641,36.128198],[138.601828,36.128034],[138.601994,36.127923],[138.602064,36.127894],[138.602091,36.127878],[138.602237,36.127883],[138.602321,36.127894],[138.60239,36.127934],[138.602445,36.128006],[138.602515,36.12817],[138.602556,36.128333],[138.602633,36.128479],[138.602737,36.128614],[138.602778,36.128659],[138.602924,36.128845],[138.602931,36.128959],[138.602896,36.129015],[138.602862,36.12911],[138.60286,36.12914],[138.602855,36.129206],[138.60291,36.129314],[138.603021,36.129359],[138.603326,36.12937],[138.603403,36.12942],[138.603458,36.129477],[138.603486,36.129539],[138.603507,36.129927],[138.603548,36.129972],[138.603625,36.13],[138.604055,36.129995],[138.604166,36.130022],[138.604269,36.130102],[138.604325,36.130175],[138.604373,36.130294],[138.604408,36.130457],[138.604401,36.130692],[138.604373,36.130822],[138.604373,36.131009],[138.604395,36.131092],[138.604498,36.13125],[138.604616,36.131385],[138.604685,36.131447],[138.6049,36.131707],[138.605053,36.131983],[138.605082,36.132084],[138.605082,36.132231],[138.605067,36.13227],[138.60497,36.132422],[138.604928,36.132518],[138.604928,36.132636],[138.604957,36.132698],[138.605075,36.132794],[138.605207,36.132873],[138.605262,36.132906],[138.605358,36.132951],[138.605427,36.132997],[138.605567,36.133103],[138.605677,36.133238],[138.605934,36.133678],[138.60608,36.133922],[138.6061,36.133954],[138.606282,36.134376],[138.60633,36.134461],[138.606434,36.134539],[138.6066,36.134584],[138.607121,36.134601],[138.607205,36.134635],[138.607253,36.134646],[138.607593,36.135058],[138.607704,36.135226],[138.60785,36.13548],[138.607954,36.135711],[138.607968,36.135812],[138.607947,36.135959],[138.607849,36.136178],[138.607732,36.136353],[138.607607,36.136493],[138.607538,36.13655],[138.607417,36.136612],[138.607295,36.136653],[138.607196,36.136653],[138.60696,36.136574],[138.606886,36.136567],[138.606844,36.136567],[138.606338,36.136719],[138.606233,36.136769],[138.606136,36.136837],[138.606108,36.136871],[138.605977,36.137096],[138.605782,36.137214],[138.605713,36.137282],[138.605519,36.13754],[138.605421,36.137636],[138.605186,36.137731],[138.605081,36.137793],[138.604957,36.137889],[138.604776,36.137996],[138.604596,36.138075],[138.604533,36.138086],[138.604318,36.138075],[138.604245,36.138078],[138.60417,36.138095],[138.60409,36.138132],[138.603957,36.138213],[138.603809,36.138279],[138.60363,36.138343],[138.603465,36.138375],[138.603042,36.138433],[138.6029,36.138465],[138.602788,36.138502],[138.60267,36.138559],[138.602533,36.138664],[138.602435,36.138715],[138.602293,36.138753],[138.602208,36.138793],[138.60214,36.138859],[138.602097,36.138918],[138.602072,36.138973],[138.602075,36.139023],[138.602165,36.13913],[138.602253,36.13918],[138.60233,36.139204],[138.602425,36.139209],[138.602633,36.139198],[138.60272,36.139201],[138.603034,36.139289],[138.603153,36.139313],[138.603522,36.139358],[138.603619,36.139373],[138.603682,36.139388],[138.603763,36.139438],[138.60386,36.139554],[138.60395,36.139698],[138.604002,36.139869],[138.603999,36.139948],[138.603975,36.140059],[138.603941,36.140149],[138.603886,36.140264],[138.603864,36.140331],[138.603862,36.140395],[138.603867,36.140649],[138.603867,36.140745],[138.603851,36.140831],[138.603819,36.140906],[138.603711,36.141081],[138.603646,36.141209],[138.603588,36.141366],[138.603516,36.141607],[138.603453,36.141759],[138.603411,36.14181],[138.603302,36.141909],[138.603242,36.141984],[138.603232,36.142025],[138.60324,36.142112],[138.603256,36.14226],[138.603236,36.14239],[138.603194,36.142495],[138.603065,36.142713],[138.60305,36.142763],[138.60305,36.142838],[138.603075,36.143064],[138.603075,36.143165],[138.603055,36.14324],[138.603003,36.143328],[138.602905,36.143412],[138.602683,36.143538],[138.602434,36.143701],[138.602364,36.143744],[138.602232,36.143783],[138.601913,36.143848],[138.601813,36.143878],[138.601694,36.143943],[138.601371,36.144207],[138.601285,36.144291],[138.601152,36.144471],[138.601045,36.144666],[138.601019,36.14476],[138.601019,36.144865],[138.601082,36.145019],[138.601082,36.145127],[138.601049,36.145221],[138.600962,36.145294],[138.600843,36.145323],[138.600706,36.145321],[138.60063,36.145329],[138.600533,36.145375],[138.60038,36.145528],[138.600297,36.145658],[138.600251,36.145779],[138.600231,36.145929],[138.60023,36.146065],[138.600267,36.146327],[138.600267,36.146418],[138.600239,36.146501],[138.600188,36.146587],[138.599948,36.146893],[138.599918,36.147005],[138.599931,36.14709],[138.599984,36.147157],[138.600047,36.14718],[138.600121,36.14719],[138.600197,36.147175],[138.600294,36.147113],[138.600322,36.147062],[138.600377,36.146842],[138.600488,36.146662],[138.600585,36.146527],[138.600717,36.146307],[138.600766,36.146167],[138.600766,36.145831],[138.600786,36.14576],[138.600829,36.145704],[138.600898,36.145672],[138.601002,36.145683],[138.601113,36.14574],[138.601147,36.145824],[138.601133,36.145993],[138.601002,36.146567],[138.600974,36.146718],[138.60096,36.147282],[138.600703,36.147845],[138.600668,36.147985],[138.600634,36.148312],[138.600634,36.148853],[138.600682,36.148982],[138.600751,36.149113],[138.600897,36.149445],[138.601015,36.149924],[138.601064,36.150284],[138.601036,36.150419],[138.600939,36.150566],[138.600738,36.150836],[138.600738,36.151072],[138.600765,36.151253],[138.6008,36.151376],[138.600869,36.151759],[138.600876,36.15194],[138.600837,36.152016]]}},{"type":"Feature","properties":{"id":170393940,"highway":"unclassified"},"geometry":{"type":"LineString","coordinates":[[138.572877,36.167782],[138.572915,36.167808],[138.573026,36.167903],[138.57304,36.167932],[138.57304,36.167978],[138.572993,36.167995],[138.572839,36.16792],[138.572638,36.16787],[138.572582,36.167864],[138.572478,36.16787],[138.572214,36.168016],[138.57184,36.168129],[138.571701,36.168185],[138.571528,36.168314],[138.571431,36.168422],[138.571382,36.1685],[138.571375,36.168619],[138.57141,36.168647],[138.571466,36.168649],[138.571549,36.168619],[138.571611,36.168602],[138.571694,36.168551],[138.571889,36.16841],[138.572055,36.168337],[138.572305,36.168298],[138.572464,36.16823],[138.57261,36.168146],[138.572769,36.168129],[138.572915,36.168213],[138.573214,36.168495],[138.573318,36.168579],[138.573408,36.168619],[138.573588,36.168613],[138.573776,36.168529],[138.573991,36.168365],[138.574253,36.168056],[138.574392,36.16787],[138.574552,36.167718],[138.574614,36.167678],[138.574653,36.16766]]}},{"type":"Feature","properties":{"id":170393945,"highway":"unclassified"},"geometry":{"type":"LineString","coordinates":[[138.567871,36.162292],[138.567856,36.16236],[138.567858,36.162413],[138.567871,36.162531],[138.56792,36.162694],[138.568121,36.1631],[138.568316,36.163426],[138.568433,36.163652],[138.568593,36.163888],[138.56869,36.164001],[138.568863,36.164164],[138.569085,36.164333],[138.569176,36.164384],[138.569634,36.164705],[138.569925,36.164908],[138.570126,36.165026],[138.570577,36.165229],[138.570702,36.165336],[138.570966,36.165781],[138.571063,36.165888],[138.571132,36.165938],[138.571354,36.166034],[138.571875,36.166192],[138.572208,36.166344],[138.57245,36.166513],[138.572686,36.166726],[138.572797,36.166816],[138.57286,36.166856],[138.573179,36.166867],[138.573228,36.166974],[138.573234,36.167104],[138.573207,36.167154],[138.573123,36.167216],[138.572992,36.167256],[138.572881,36.167267],[138.572818,36.167244],[138.572416,36.167014],[138.572263,36.166957],[138.57218,36.166952],[138.572131,36.166986],[138.572117,36.167036],[138.572388,36.167261],[138.572485,36.167363],[138.572645,36.167605],[138.572756,36.167701],[138.572877,36.167782]]}}]}