{"type":"FeatureCollection","features":[{"type":"Feature","properties":{"id":156125289,"highway":"tertiary"},"geometry":{"type":"LineString","coordinates":[[138.599594,36.252246],[138.599844,36.252078],[138.600483,36.25174],[138.600726,36.251604],[138.600962,36.25144],[138.601177,36.251221],[138.60124,36.251131],[138.601254,36.251007],[138.60124,36.25089],[138.601163,36.250725],[138.601003,36.250523],[138.600615,36.25023],[138.60042,36.25005],[138.600255,36.249852],[138.600109,36.249549],[138.600046,36.249335],[138.600039,36.249133],[138.600067,36.249003],[138.600123,36.248862],[138.600213,36.248744],[138.600345,36.248626],[138.600477,36.248541],[138.600783,36.248322],[138.600831,36.248294],[138.600969,36.24819],[138.601037,36.248081],[138.601037,36.247973],[138.600942,36.247732],[138.600951,36.2476],[138.601066,36.247444],[138.601438,36.247157],[138.60186,36.246893],[138.60207,36.246675],[138.602233,36.246442],[138.602377,36.246287],[138.60275,36.246062],[138.60297,36.245922],[138.603062,36.245789],[138.603167,36.245687],[138.603251,36.24567],[138.603342,36.245693],[138.603545,36.245795],[138.603664,36.245818],[138.603804,36.245812],[138.603938,36.245755],[138.604064,36.245738],[138.604218,36.24575],[138.604336,36.245727],[138.604441,36.245676],[138.604494,36.245635],[138.604511,36.245563],[138.604463,36.245406],[138.604474,36.245336],[138.604526,36.245292],[138.604603,36.245264],[138.604825,36.245197],[138.605207,36.245167],[138.605505,36.24514],[138.605658,36.245089],[138.605824,36.245016],[138.605991,36.244897],[138.606158,36.244717],[138.606339,36.244437],[138.606398,36.244333],[138.606689,36.243818],[138.60719,36.243353],[138.607314,36.243272],[138.607352,36.24318],[138.607307,36.243099],[138.607177,36.243056],[138.606971,36.243066],[138.60649,36.243137],[138.606176,36.243155]]}},{"type":"Feature","properties":{"id":156125315,"highway":"unclassified"},"geometry":{"type":"LineString","coordinates":[[138.598379,36.251765],[138.598328,36.251854],[138.598145,36.252068],[138.597838,36.252401],[138.597553,36.252674],[138.59747,36.252744],[138.597329,36.25286],[138.5972,36.252973],[138.597096,36.253052],[138.596971,36.253142],[138.596806,36.253236],[138.596639,36.253319],[138.596433,36.253419],[138.596326,36.253455],[138.596205,36.253485],[138.596108,36.253496],[138.595923,36.253496],[138.595546,36.253488],[138.595423,36.253499],[138.595352,36.253519],[138.595298,36.253549],[138.595243,36.253586],[138.594957,36.253886],[138.594645,36.254198]]}},{"type":"Feature","properties":{"id":156125341,"highway":"unclassified"},"geometry":{"type":"LineString","coordinates":[[138.595143,36.252596],[138.595351,36.252513],[138.59556,36.252489],[138.595796,36.252489],[138.595907,36.252523],[138.596143,36.252629],[138.596386,36.252686],[138.596609,36.252674],[138.596928,36.252579],[138.597032,36.252545],[138.597241,36.252433],[138.597504,36.252247],[138.597727,36.252027],[138.597956,36.2517],[138.598128,36.251578],[138.598192,36.25157],[138.598393,36.251593],[138.598504,36.25161]]}},{"type":"Feature","properties":{"id":156125353,"highway":"unclassified"},"geometry":{"type":"LineString","coordinates":[[138.598504,36.25161],[138.598602,36.251621],[138.598886,36.251615],[138.598998,36.251565],[138.599185,36.251463],[138.599289,36.251423],[138.599519,36.251373],[138.599595,36.251407],[138.599644,36.251475],[138.59963,36.251632],[138.599602,36.251695],[138.599491,36.251795],[138.599317,36.251898],[138.598782,36.252128],[138.598706,36.252174],[138.598629,36.252236],[138.598581,36.252309],[138.598594,36.252478]]}},{"type":"Feature","properties":{"id":156125393,"highway":"unclassified"},"geometry":{"type":"LineString","coordinates":[[138.598379,36.251765],[138.598504,36.25161]]}},{"type":"Feature","properties":{"id":156125427,"highway":"unclassified"},"geometry":{"type":"LineString","coordinates":[[138.596789,36.253823],[138.597317,36.253621],[138.597602,36.253435],[138.597867,36.253226],[138.597965,36.253142],[138.598108,36.253012],[138.598594,36.252478]]}},{"type":"Feature","properties":{"id":156125440,"highway":"unclassified"},"geometry":{"type":"LineString","coordinates":[[138.5989,36.252951],[138.598833,36.253018],[138.598673,36.253142],[138.598604,36.253181],[138.597018,36.254128]]}},{"type":"Feature","properties":{"id":156125499,"highway":"unclassified"},"geometry":{"type":"LineString","coordinates":[[138.599594,36.252246],[138.599227,36.252511],[138.59915,36.252596],[138.59897,36.252889],[138.5989,36.252951]]}},{"type":"Feature","properties":{"id":156125501,"highway":"unclassified"},"geometry":{"type":"LineString","coordinates":[[138.5989,36.252951],[138.598713,36.252799],[138.59865,36.252703],[138.598643,36.252669],[138.598594,36.252478]]}},{"type":"Feature","properties":{"id":156125512,"highway":"unclassified"},"geometry":{"type":"LineString","coordinates":[[138.599058,36.24139],[138.599185,36.24144],[138.599331,36.24158],[138.599332,36.241654],[138.599286,36.241687],[138.599158,36.241687],[138.599053,36.241659],[138.598928,36.241597],[138.598803,36.241558],[138.598706,36.241569],[138.598658,36.24162],[138.59865,36.241714],[138.598706,36.241777],[138.598762,36.241811],[138.598894,36.241867],[138.598984,36.24189],[138.599116,36.241907],[138.599456,36.241963],[138.599568,36.242014],[138.599637,36.242065],[138.599672,36.242139],[138.599658,36.242185],[138.599623,36.242222],[138.59947,36.242222],[138.59931,36.242189],[138.59913,36.242121],[138.598963,36.242065],[138.598824,36.242049],[138.598697,36.242067],[138.598644,36.242115],[138.59863,36.242144],[138.59863,36.242201],[138.598685,36.242251],[138.598817,36.242307],[138.598894,36.24233],[138.599137,36.242409],[138.599192,36.24246],[138.599303,36.242724],[138.599359,36.242792],[138.599422,36.242837],[138.599521,36.242851],[138.599581,36.242831],[138.599658,36.242792],[138.599874,36.242614],[138.599917,36.242589],[138.600005,36.242584],[138.600248,36.242606],[138.600547,36.242662],[138.600977,36.242775],[138.601165,36.242802],[138.601595,36.242826],[138.601672,36.242837],[138.601734,36.242871],[138.601757,36.242916],[138.601757,36.242942],[138.601727,36.242967],[138.601602,36.242989],[138.601102,36.243006],[138.600914,36.243034],[138.600796,36.243079],[138.600763,36.243132],[138.600776,36.243175],[138.600817,36.243202],[138.600894,36.243231],[138.601068,36.243231],[138.601186,36.243214],[138.601359,36.243214],[138.601416,36.243244],[138.601443,36.243314],[138.601429,36.243352],[138.601359,36.243422],[138.600976,36.243727],[138.600935,36.243761],[138.600854,36.243857],[138.600866,36.243912],[138.600921,36.243957],[138.601019,36.243974],[138.601144,36.243969],[138.601338,36.243896],[138.601451,36.243821],[138.601637,36.243699],[138.601943,36.24353],[138.602199,36.243412],[138.602373,36.243344],[138.602512,36.243332],[138.602587,36.24335],[138.602678,36.243389],[138.60271,36.24345],[138.60271,36.243485],[138.602684,36.243511],[138.602628,36.243535],[138.602497,36.243564],[138.602304,36.243637],[138.602137,36.243749],[138.601915,36.243991],[138.601838,36.244097],[138.601783,36.244142],[138.601429,36.244324],[138.601352,36.244386],[138.601331,36.244436],[138.601324,36.244577],[138.60138,36.2446],[138.601505,36.2446],[138.601581,36.244588],[138.601762,36.244532],[138.601984,36.244407],[138.602213,36.244149],[138.602476,36.243896],[138.602573,36.243862],[138.602668,36.243862],[138.602717,36.243897],[138.6029,36.244149],[138.602963,36.244187],[138.602983,36.244194],[138.603122,36.244182],[138.603198,36.244132],[138.603317,36.243986],[138.603511,36.2438],[138.603657,36.243721],[138.603733,36.243692],[138.603879,36.243671],[138.604198,36.243654],[138.604254,36.243642],[138.604337,36.243609],[138.604581,36.243451],[138.604775,36.243366],[138.604964,36.243315],[138.605206,36.243315],[138.605255,36.24332],[138.605387,36.243371],[138.605628,36.243519]]}},{"type":"Feature","properties":{"id":282097290,"highway":"primary"},"geometry":{"type":"LineString","coordinates":[[138.597859,36.248614],[138.597807,36.248696],[138.597628,36.248795],[138.597227,36.248991],[138.597011,36.24907],[138.596845,36.24911],[138.596618,36.249139],[138.595417,36.249067],[138.595273,36.249099],[138.595186,36.249159],[138.595146,36.249249],[138.595092,36.249661],[138.595057,36.249788],[138.594995,36.24986],[138.594885,36.249926],[138.594755,36.249968],[138.594159,36.250037],[138.593991,36.250059],[138.593852,36.250108],[138.593791,36.250203],[138.59375,36.250318],[138.59376,36.250468],[138.593882,36.250748],[138.593923,36.250877],[138.593917,36.251007],[138.593792,36.251236]]}},{"type":"Feature","properties":{"id":282097303,"highway":"primary"},"geometry":{"type":"LineString","coordinates":[[138.606143,36.243014],[138.606176,36.243155],[138.606165,36.243242],[138.60605,36.243348],[138.605881,36.243444],[138.605628,36.243519],[138.604438,36.24391],[138.604155,36.24405],[138.604029,36.244081],[138.603823,36.244087],[138.603656,36.244114],[138.603585,36.244143],[138.603532,36.244183],[138.603508,36.244229],[138.603503,36.24429],[138.603565,36.24452],[138.603557,36.244598],[138.603498,36.244654],[138.603392,36.244698],[138.603276,36.244705],[138.60319,36.244686],[138.602983,36.244563],[138.602872,36.244526],[138.602772,36.24452],[138.602654,36.244551],[138.602561,36.244591],[138.602478,36.244659],[138.602336,36.244892],[138.602233,36.24501],[138.602123,36.245095],[138.60201,36.245136],[138.601883,36.245163],[138.601727,36.24518],[138.601193,36.245191],[138.601074,36.245225],[138.600928,36.245332],[138.60082,36.245509],[138.600662,36.245686],[138.600189,36.246136],[138.600148,36.246205],[138.600147,36.246262],[138.600213,36.24652],[138.600213,36.246576],[138.600175,36.246629],[138.600108,36.246662],[138.600017,36.246676],[138.599546,36.246694],[138.599422,36.246672],[138.599345,36.246649],[138.599021,36.246491],[138.598886,36.24646],[138.598667,36.246484],[138.59852,36.246501],[138.598406,36.246481],[138.598335,36.246457],[138.59757,36.245985],[138.597502,36.245956],[138.597366,36.245968],[138.597178,36.246069],[138.597137,36.246151],[138.597136,36.246244],[138.597199,36.246339],[138.597259,36.24639],[138.597594,36.246651],[138.597741,36.24679],[138.597838,36.246863],[138.597942,36.24701],[138.597957,36.247084],[138.597949,36.247145],[138.597903,36.247335],[138.597908,36.247408],[138.597985,36.247463],[138.598399,36.247602],[138.59848,36.247654],[138.598564,36.247752],[138.598575,36.247822],[138.598543,36.247887],[138.598477,36.247939],[138.598137,36.248046],[138.598035,36.248102],[138.597944,36.248175],[138.597894,36.248273],[138.59788,36.248405],[138.597859,36.248614]]}},{"type":"Feature","properties":{"id":595355909,"highway":"unclassified"},"geometry":{"type":"LineString","coordinates":[[138.600123,36.283059],[138.599995,36.282961],[138.599943,36.28288],[138.599725,36.282656],[138.599687,36.28258],[138.599685,36.282491],[138.599695,36.282425],[138.599786,36.282197],[138.599811,36.282111],[138.599818,36.282042],[138.599803,36.281976],[138.599767,36.281928],[138.599677,36.281856],[138.599628,36.281844],[138.599552,36.281837],[138.599461,36.281844],[138.599295,36.281856],[138.599218,36.281847],[138.59915,36.28183],[138.599019,36.28178],[138.598937,36.281767],[138.598882,36.281763],[138.598842,36.281772],[138.598795,36.281793],[138.598733,36.28184],[138.598603,36.281952],[138.59848,36.282119],[138.598392,36.282269],[138.598374,36.282359],[138.598352,36.282418],[138.598308,36.282451],[138.59827,36.282471],[138.598206,36.282492],[138.598149,36.282496],[138.598094,36.282485],[138.597981,36.28243],[138.59767,36.282169],[138.597613,36.282123],[138.597569,36.282099],[138.597515,36.282088],[138.597454,36.282088],[138.597309,36.282145],[138.597251,36.282167],[138.597196,36.282167],[138.597139,36.282159],[138.597085,36.282139],[138.596942,36.282036],[138.596894,36.282017],[138.596837,36.282011],[138.596791,36.282016],[138.596738,36.282028],[138.596649,36.282072],[138.596594,36.282103],[138.596543,36.282118],[138.596495,36.282126],[138.596355,36.282135],[138.596303,36.28215],[138.596253,36.282182],[138.596207,36.282224],[138.596153,36.282392],[138.596086,36.282704],[138.596072,36.282774],[138.596054,36.282809],[138.596021,36.282843],[138.595961,36.282895],[138.595874,36.282919],[138.595788,36.282917],[138.595679,36.282896],[138.595018,36.282726],[138.594738,36.282627],[138.594681,36.282596],[138.594613,36.282545],[138.594557,36.282463],[138.594507,36.282348],[138.594483,36.282253],[138.594475,36.282112],[138.594496,36.281984],[138.59459,36.281671],[138.594609,36.281562],[138.594616,36.281447],[138.594576,36.281374],[138.594546,36.28134],[138.594392,36.28118],[138.594256,36.280962],[138.594217,36.280882],[138.594169,36.280834],[138.594115,36.280799],[138.594038,36.28078],[138.593972,36.280785],[138.593911,36.280802],[138.59387,36.280825],[138.593824,36.280901],[138.593793,36.28099],[138.593761,36.281205],[138.593749,36.281287],[138.593706,36.281401],[138.59363,36.281483],[138.593507,36.281562],[138.593443,36.281593],[138.593373,36.281595],[138.593323,36.28158],[138.593273,36.281543],[138.593071,36.281299],[138.593024,36.281245],[138.592907,36.28119],[138.592826,36.281173],[138.592759,36.281169],[138.592586,36.281174],[138.592525,36.281187],[138.59248,36.281215],[138.592274,36.281396],[138.592203,36.281464],[138.592119,36.281484],[138.592076,36.281481],[138.59199,36.281461],[138.591824,36.281413],[138.591719,36.281428],[138.591668,36.28147],[138.591629,36.281515],[138.591605,36.281606],[138.591527,36.28194],[138.591494,36.28201],[138.591443,36.282057],[138.591389,36.282072],[138.591279,36.282072],[138.591206,36.282044],[138.591114,36.28195],[138.591039,36.281605],[138.590964,36.281506],[138.590746,36.281325],[138.590671,36.281245],[138.590537,36.281053],[138.590458,36.280985],[138.59039,36.280966],[138.590188,36.280951],[138.589941,36.280986],[138.589241,36.281138],[138.589002,36.281175],[138.588955,36.28117],[138.588549,36.281005],[138.58839,36.280978],[138.588242,36.280994],[138.587907,36.281102],[138.587643,36.281153],[138.587527,36.281287],[138.587344,36.281653],[138.587193,36.281907],[138.587073,36.282058],[138.587031,36.282112],[138.586916,36.282217],[138.586869,36.282257],[138.586686,36.282388],[138.586583,36.282445],[138.586495,36.282475],[138.586403,36.282482],[138.5863,36.282447],[138.586204,36.282345],[138.586167,36.282235],[138.586147,36.282112],[138.586147,36.281737],[138.586095,36.28158],[138.586022,36.281472],[138.585952,36.28141],[138.585843,36.281395],[138.585668,36.28141],[138.585428,36.281458],[138.585192,36.281458],[138.584928,36.28142],[138.584759,36.281365],[138.584729,36.281343],[138.584702,36.281295],[138.584662,36.28114],[138.584651,36.281042],[138.584645,36.280973],[138.584658,36.280832],[138.584675,36.280798],[138.584697,36.28078],[138.584789,36.280742],[138.584848,36.280737],[138.58505,36.280769],[138.585275,36.28084],[138.585479,36.280932],[138.58559,36.280947],[138.58578,36.28091],[138.586058,36.280827],[138.586798,36.280511],[138.587164,36.280406],[138.587259,36.280362],[138.587527,36.280133],[138.587594,36.280064],[138.587732,36.279872],[138.587785,36.279824],[138.588088,36.279618],[138.588179,36.279529],[138.588328,36.279288],[138.588435,36.27919],[138.588592,36.279024],[138.58865,36.278831],[138.588709,36.2787],[138.588773,36.27862],[138.588937,36.278468],[138.58904,36.278337],[138.589185,36.27802],[138.589323,36.277864],[138.589457,36.277712],[138.589476,36.277651],[138.589518,36.277304],[138.589533,36.277243],[138.589559,36.277204],[138.589593,36.277176],[138.589635,36.277166],[138.589778,36.277176],[138.589973,36.277185],[138.590123,36.277134],[138.59036,36.27699],[138.590465,36.276846],[138.59051,36.276741],[138.590553,36.276566],[138.590568,36.276397],[138.590558,36.276156],[138.590643,36.275835],[138.590705,36.275428],[138.590727,36.275397],[138.59081,36.275334],[138.590881,36.275309],[138.590965,36.275312],[138.591025,36.27534],[138.591072,36.275376],[138.591224,36.275489],[138.591346,36.275541],[138.591486,36.275561],[138.591573,36.275483],[138.591648,36.275209],[138.591746,36.274974],[138.591809,36.274893],[138.591919,36.274804],[138.592194,36.274652],[138.592382,36.274593],[138.592594,36.274554],[138.592804,36.274533],[138.592974,36.274533],[138.593189,36.27456],[138.59346,36.274621],[138.593664,36.274668],[138.593859,36.274671],[138.594455,36.274515],[138.594784,36.274389],[138.594866,36.27432],[138.595035,36.274069],[138.595079,36.273963],[138.595108,36.273873],[138.595119,36.273774],[138.595148,36.273651],[138.595204,36.27342],[138.595318,36.273157],[138.595421,36.273048],[138.595462,36.273028],[138.595512,36.273009],[138.595572,36.273],[138.595778,36.273005],[138.59593,36.273026],[138.596191,36.273126],[138.596512,36.273205],[138.596631,36.273262],[138.596819,36.273384],[138.596868,36.273405],[138.596956,36.273405],[138.597229,36.273193],[138.597263,36.273181],[138.597655,36.273127],[138.597789,36.273065],[138.598001,36.272822],[138.598029,36.272534],[138.598063,36.27226],[138.598129,36.272079],[138.598185,36.272003],[138.598253,36.271943],[138.598401,36.271863],[138.598495,36.271826],[138.599071,36.271673],[138.599244,36.271634],[138.599337,36.271573],[138.599624,36.271202],[138.599721,36.27106],[138.599799,36.270889],[138.599825,36.270824],[138.599973,36.270634],[138.600047,36.270488],[138.600088,36.270316],[138.600118,36.270198],[138.600152,36.270135],[138.600259,36.270059],[138.600331,36.270042],[138.600403,36.270049],[138.600489,36.270087],[138.600952,36.270332],[138.601063,36.270367],[138.601223,36.270327],[138.601326,36.270251],[138.60138,36.270133],[138.601387,36.270037],[138.601371,36.269952],[138.601293,36.269734],[138.600907,36.268868],[138.600839,36.26875],[138.600818,36.268642],[138.600837,36.268589],[138.600869,36.268552],[138.600936,36.26852],[138.601011,36.268513],[138.601308,36.268551],[138.601393,36.268576],[138.601511,36.268633],[138.601821,36.268783],[138.601941,36.268806],[138.601996,36.268788],[138.602187,36.268662],[138.602398,36.268583],[138.602478,36.268536],[138.602555,36.26842],[138.60257,36.268322],[138.602538,36.26825],[138.60247,36.268166],[138.60234,36.268054],[138.602162,36.267937],[138.602023,36.26785],[138.601811,36.267694],[138.601718,36.267592],[138.601665,36.267485],[138.601665,36.267406],[138.601689,36.267332],[138.601732,36.267278],[138.601876,36.267176],[138.602394,36.266931],[138.602782,36.266764],[138.602933,36.266674],[138.603097,36.266594],[138.603403,36.266354],[138.603515,36.266233],[138.603643,36.26607],[138.603793,36.265797],[138.603942,36.265604],[138.604113,36.265414],[138.604335,36.265105],[138.604355,36.265034],[138.604355,36.264869],[138.604308,36.2648],[138.60419,36.264724],[138.604076,36.26468],[138.603906,36.26464],[138.603496,36.264582],[138.603409,36.264512],[138.603374,36.264465],[138.603206,36.264339],[138.602845,36.264255],[138.602781,36.264225],[138.602688,36.264152],[138.602608,36.264065],[138.60254,36.263922],[138.602487,36.26371],[138.602454,36.26366],[138.602352,36.263587],[138.602199,36.263542],[138.602089,36.263547],[138.602018,36.263609],[138.601801,36.263804],[138.601684,36.263985],[138.601631,36.264024],[138.601537,36.264035],[138.601414,36.264022],[138.601245,36.263975],[138.601072,36.263887],[138.601045,36.263864],[138.600984,36.263764],[138.601,36.263549],[138.600988,36.26349],[138.60077,36.263352],[138.600752,36.263327],[138.600735,36.26326],[138.600753,36.26316],[138.600782,36.26312],[138.600824,36.263085],[138.601272,36.262937],[138.601431,36.262861],[138.60149,36.262815],[138.601493,36.262757],[138.601462,36.262671],[138.601302,36.262449],[138.601291,36.262394],[138.601296,36.262365],[138.601315,36.262299],[138.601389,36.262194],[138.601529,36.262076],[138.601681,36.261987],[138.602058,36.261828],[138.602437,36.261652],[138.602442,36.26165],[138.602571,36.261612],[138.6028,36.261572],[138.602984,36.261523],[138.603098,36.261459],[138.603176,36.261383],[138.603202,36.261308],[138.603202,36.261189],[138.603226,36.261109],[138.603439,36.260847],[138.603464,36.260755],[138.60345,36.260673],[138.603386,36.260605],[138.603288,36.260578],[138.603096,36.260578],[138.602879,36.260612],[138.602837,36.26061],[138.602775,36.260579],[138.602728,36.260527],[138.602716,36.260494],[138.602723,36.260209],[138.602666,36.260055],[138.602661,36.259987],[138.602705,36.259908],[138.602923,36.259645],[138.602965,36.259259],[138.602996,36.259193],[138.603028,36.259147],[138.603087,36.259097],[138.60317,36.259045],[138.603585,36.258871],[138.603646,36.258815],[138.603737,36.258662],[138.604003,36.258106],[138.604053,36.257953],[138.604002,36.257819],[138.603814,36.25751],[138.603758,36.257343],[138.603716,36.257074],[138.60363,36.256701],[138.603588,36.256215],[138.603523,36.255833],[138.603515,36.25557],[138.603479,36.255418],[138.603405,36.255278],[138.603323,36.255172],[138.603248,36.255111],[138.603132,36.255053],[138.602966,36.255031],[138.602835,36.255038],[138.602557,36.255105],[138.602452,36.25511],[138.602369,36.255089],[138.602163,36.254973],[138.601748,36.254737],[138.601378,36.254578],[138.601055,36.254503],[138.600844,36.254474],[138.600694,36.254474],[138.600537,36.254532],[138.600108,36.254897],[138.599995,36.254976],[138.599905,36.255022],[138.599613,36.255108],[138.599512,36.25515],[138.599459,36.255203],[138.599428,36.255251],[138.599317,36.255518],[138.599259,36.255588],[138.59919,36.255638],[138.599089,36.255675],[138.598681,36.255741],[138.598631,36.255742],[138.598413,36.255713],[138.598317,36.255719],[138.597937,36.255857],[138.597648,36.255934],[138.597216,36.255996],[138.597118,36.256037],[138.59701,36.256144],[138.596873,36.256351],[138.596611,36.256681],[138.596458,36.256843],[138.596358,36.256924],[138.59628,36.256979],[138.596068,36.257075],[138.595755,36.25719],[138.595459,36.257334],[138.595362,36.257345],[138.595282,36.257331],[138.595191,36.257293],[138.595116,36.25724],[138.594898,36.257104],[138.594817,36.257006],[138.594804,36.256966],[138.594804,36.256905],[138.594841,36.256811],[138.594906,36.256733],[138.594937,36.256708],[138.59597,36.255885],[138.596389,36.255532],[138.596783,36.255246],[138.596898,36.255177],[138.597011,36.255132],[138.597074,36.255115],[138.597311,36.255102],[138.597585,36.255081],[138.597717,36.255034],[138.598178,36.254772],[138.598337,36.254669],[138.598551,36.254515],[138.598781,36.254383],[138.599035,36.254277],[138.599186,36.254251],[138.599305,36.254249],[138.599683,36.254294],[138.599848,36.254294],[138.600015,36.254273],[138.600227,36.254202],[138.600341,36.254106],[138.600501,36.254024],[138.60074,36.253984],[138.600988,36.253976],[138.60121,36.253984],[138.601319,36.253995],[138.601439,36.254014],[138.601531,36.254042],[138.601854,36.2542],[138.602039,36.25421],[138.602179,36.254165],[138.602364,36.254066],[138.602455,36.253977],[138.602599,36.253794],[138.602672,36.253739],[138.602809,36.253679],[138.602941,36.253669],[138.603085,36.253684],[138.603159,36.253714],[138.603195,36.253743],[138.603258,36.253814],[138.603362,36.25403],[138.603403,36.254063],[138.603706,36.254233],[138.603823,36.254263],[138.604023,36.254268],[138.604161,36.254293],[138.60442,36.254333],[138.604603,36.254339],[138.604773,36.254321],[138.604844,36.254311],[138.604906,36.254287],[138.60494,36.254246],[138.604965,36.254186],[138.604971,36.25413],[138.604911,36.254003],[138.604722,36.253771],[138.604559,36.253605],[138.604256,36.253348],[138.604202,36.253275],[138.60414,36.253141],[138.604054,36.252956],[138.603994,36.25282],[138.60395,36.252693],[138.603934,36.252565],[138.603964,36.252485],[138.604047,36.252397],[138.604189,36.252328],[138.60439,36.252272],[138.60473,36.252225],[138.60522,36.252138],[138.605405,36.252091],[138.605513,36.252049],[138.605576,36.252001],[138.605627,36.251847],[138.605644,36.251691],[138.605615,36.251578],[138.605561,36.251467],[138.605448,36.251238],[138.605305,36.251051],[138.605319,36.250959],[138.605411,36.250793],[138.605559,36.250588],[138.605617,36.250477],[138.605626,36.250344],[138.605605,36.250147],[138.605643,36.249986],[138.6057,36.249885],[138.605971,36.249566],[138.60621,36.249159],[138.606279,36.249071],[138.606453,36.248874],[138.606546,36.248828],[138.606657,36.248832],[138.606777,36.248874],[138.606908,36.248955],[138.606978,36.249088],[138.607076,36.249199],[138.607121,36.249225],[138.607216,36.249238],[138.607326,36.249192],[138.607409,36.249152],[138.607501,36.249058],[138.607614,36.248783],[138.607697,36.248726],[138.60788,36.248652],[138.607989,36.248592],[138.60806,36.248524],[138.608106,36.248458],[138.608126,36.248386],[138.608106,36.248201],[138.608118,36.248095],[138.608156,36.248037],[138.608333,36.247913],[138.608382,36.247864],[138.608411,36.247781],[138.608419,36.247398],[138.608563,36.247089],[138.608598,36.246974],[138.608579,36.246871],[138.608513,36.246701],[138.608487,36.246536],[138.60861,36.246002],[138.608623,36.245859],[138.608607,36.245754],[138.608531,36.245497],[138.608478,36.245217],[138.608467,36.245084],[138.608478,36.244937],[138.608535,36.244777],[138.608648,36.244667],[138.609064,36.244432],[138.609135,36.24438],[138.609308,36.244251],[138.609751,36.243914],[138.610077,36.24372],[138.610188,36.24363],[138.610225,36.243558],[138.610231,36.24347],[138.610076,36.243122],[138.610061,36.243041],[138.610059,36.242953],[138.610136,36.242847],[138.610205,36.242798],[138.610397,36.242732],[138.610521,36.242719],[138.610942,36.24273],[138.611091,36.242704],[138.611155,36.242679],[138.611202,36.242644],[138.611294,36.242465],[138.611326,36.242397],[138.61135,36.242299],[138.611414,36.242089],[138.611468,36.241947],[138.611524,36.241864],[138.611658,36.241761],[138.611821,36.241699],[138.612061,36.241655],[138.612253,36.241646],[138.613202,36.241691],[138.613505,36.241694],[138.613629,36.241676],[138.613759,36.241632],[138.61382,36.241592],[138.613905,36.241517],[138.613937,36.241446],[138.613946,36.241343],[138.613936,36.241301],[138.613887,36.241217],[138.6137,36.241071],[138.613609,36.24097],[138.613592,36.240848],[138.613596,36.240759],[138.613636,36.240672],[138.613763,36.240508],[138.614118,36.240117],[138.614638,36.239611],[138.615098,36.23925],[138.615245,36.23914],[138.615403,36.239023],[138.615481,36.238929],[138.615512,36.238854],[138.615502,36.238806],[138.615464,36.238751],[138.615363,36.23867],[138.615272,36.238626],[138.615152,36.238603],[138.614646,36.238609],[138.614565,36.238602],[138.614489,36.238567],[138.614436,36.238509],[138.614308,36.23822],[138.614251,36.238098],[138.614176,36.23799],[138.614097,36.23792],[138.614026,36.23789],[138.613954,36.237879],[138.613859,36.237875],[138.613649,36.237898],[138.613394,36.237955],[138.613308,36.237992],[138.613231,36.238058],[138.613123,36.238209],[138.612984,36.238316],[138.61287,36.238394],[138.612386,36.238672],[138.612234,36.238759],[138.612074,36.238837],[138.611845,36.238926],[138.611748,36.238949],[138.611688,36.238945],[138.611306,36.238793],[138.611148,36.238743],[138.611036,36.23874],[138.610788,36.238824],[138.610635,36.238875],[138.610506,36.23885],[138.610399,36.238768],[138.6103,36.238671],[138.610232,36.238529],[138.610262,36.238172],[138.610304,36.238023],[138.61052,36.237662],[138.610567,36.237577],[138.610563,36.237448],[138.610547,36.237254],[138.610534,36.236918],[138.610461,36.236476],[138.610541,36.236367],[138.61061,36.236248],[138.610624,36.236125],[138.61061,36.235983],[138.610585,36.235915],[138.610518,36.235748],[138.610429,36.235672],[138.610184,36.23557],[138.609881,36.2355],[138.60958,36.235453]]}}]}