{"type":"FeatureCollection","features":[{"type":"Feature","properties":{"id":126302443,"highway":"tertiary"},"geometry":{"type":"LineString","coordinates":[[142.200406,27.100087],[142.200727,27.099932],[142.202977,27.09891]]}},{"type":"Feature","properties":{"id":443594750,"highway":"secondary"},"geometry":{"type":"LineString","coordinates":[[142.198071,27.098743],[142.198107,27.098761],[142.198284,27.09886],[142.199297,27.09939],[142.200145,27.099958],[142.200406,27.100087],[142.200457,27.100113],[142.200699,27.100199],[142.201094,27.100271],[142.20149,27.100264],[142.20181,27.100204],[142.203282,27.099719],[142.2035,27.099638],[142.203592,27.099583],[142.203845,27.099429],[142.203983,27.099344],[142.204281,27.099163],[142.20459,27.098975],[142.204652,27.098906],[142.2047,27.098854],[142.204764,27.098711],[142.204773,27.098658],[142.204787,27.098566],[142.204784,27.098462],[142.20478,27.098286],[142.204768,27.098203],[142.204763,27.09817],[142.2047,27.098067],[142.20424,27.097404],[142.203934,27.096963],[142.203843,27.096707],[142.203837,27.096492],[142.203921,27.096273],[142.204001,27.096091],[142.204057,27.095962],[142.204127,27.0958],[142.204184,27.095503]]}},{"type":"Feature","properties":{"id":443594767,"highway":"service"},"geometry":{"type":"LineString","coordinates":[[142.205426,27.100053],[142.205511,27.099968]]}},{"type":"Feature","properties":{"id":443594769,"highway":"residential"},"geometry":{"type":"LineString","coordinates":[[142.200833,27.100914],[142.200614,27.100983],[142.200332,27.101066],[142.200094,27.101155]]}},{"type":"Feature","properties":{"id":443594774,"highway":"unclassified"},"geometry":{"type":"LineString","coordinates":[[142.201707,27.103676],[142.201708,27.103627],[142.201725,27.10358],[142.201773,27.10352],[142.201845,27.103484],[142.202301,27.103462],[142.202517,27.103451],[142.202627,27.103428],[142.20276,27.103356],[142.202884,27.103282],[142.203002,27.103198],[142.203112,27.10312],[142.203139,27.103029],[142.203093,27.102936],[142.202927,27.1028],[142.202841,27.102678],[142.202828,27.102528],[142.202818,27.102422],[142.20277,27.102346],[142.20251,27.102243],[142.202266,27.102145],[142.202155,27.102066],[142.201893,27.10188],[142.201544,27.101639],[142.2013,27.101489],[142.200614,27.101276],[142.200396,27.101262],[142.200094,27.101155],[142.200062,27.101144],[142.199988,27.101118],[142.199702,27.101016],[142.199449,27.100985],[142.199258,27.100916],[142.199087,27.100832],[142.198738,27.100639],[142.198558,27.100589],[142.198384,27.100613],[142.19829,27.100646],[142.198201,27.100709]]}},{"type":"Feature","properties":{"id":443594782,"highway":"service"},"geometry":{"type":"LineString","coordinates":[[142.203067,27.102536],[142.202989,27.102533],[142.202828,27.102528]]}},{"type":"Feature","properties":{"id":443594786,"highway":"residential"},"geometry":{"type":"LineString","coordinates":[[142.203845,27.099429],[142.20414,27.099782],[142.204472,27.100121],[142.204773,27.100497]]}},{"type":"Feature","properties":{"id":443594797,"highway":"residential"},"geometry":{"type":"LineString","coordinates":[[142.204472,27.100121],[142.204701,27.099896],[142.20477,27.099781],[142.204897,27.09957],[142.204977,27.099423]]}}]}