{"type":"FeatureCollection","features":[{"type":"Feature","properties":{"id":126302196,"highway":"secondary"},"geometry":{"type":"LineString","coordinates":[[142.2033,27.06348],[142.20332,27.062306],[142.203427,27.061647],[142.203527,27.061252],[142.20374,27.061025],[142.203869,27.060926],[142.204007,27.060823],[142.204172,27.060666],[142.204202,27.060567]]}},{"type":"Feature","properties":{"id":126302199,"highway":"secondary"},"geometry":{"type":"LineString","coordinates":[[142.204715,27.093548],[142.204759,27.093323],[142.20476,27.093257],[142.204715,27.0932],[142.204552,27.093097],[142.204314,27.093003],[142.204144,27.092913],[142.204063,27.092845],[142.203987,27.092738],[142.203921,27.092585],[142.203957,27.092316],[142.204194,27.091216]]}},{"type":"Feature","properties":{"id":126302209,"highway":"secondary"},"geometry":{"type":"LineString","coordinates":[[142.207367,27.087019],[142.207555,27.087017]]}},{"type":"Feature","properties":{"id":126302216,"highway":"secondary"},"geometry":{"type":"LineString","coordinates":[[142.20366,27.060147],[142.203477,27.060153]]}},{"type":"Feature","properties":{"id":126302222,"highway":"secondary"},"geometry":{"type":"LineString","coordinates":[[142.205587,27.087556],[142.206042,27.086889]]}},{"type":"Feature","properties":{"id":126302223,"highway":"secondary"},"geometry":{"type":"LineString","coordinates":[[142.204184,27.095503],[142.204715,27.093548]]}},{"type":"Feature","properties":{"id":126302226,"highway":"secondary"},"geometry":{"type":"LineString","coordinates":[[142.204194,27.091216],[142.204428,27.090456]]}},{"type":"Feature","properties":{"id":126302227,"highway":"secondary"},"geometry":{"type":"LineString","coordinates":[[142.204428,27.090456],[142.204502,27.090164]]}},{"type":"Feature","properties":{"id":126302230,"highway":"secondary"},"geometry":{"type":"LineString","coordinates":[[142.211171,27.065152],[142.210999,27.065148]]}},{"type":"Feature","properties":{"id":126302232,"highway":"secondary"},"geometry":{"type":"LineString","coordinates":[[142.207173,27.086989],[142.207367,27.087019]]}},{"type":"Feature","properties":{"id":126302236,"highway":"secondary"},"geometry":{"type":"LineString","coordinates":[[142.204204,27.064108],[142.203723,27.063954]]}},{"type":"Feature","properties":{"id":126302239,"highway":"secondary"},"geometry":{"type":"LineString","coordinates":[[142.204749,27.064259],[142.204204,27.064108]]}},{"type":"Feature","properties":{"id":126302241,"highway":"secondary"},"geometry":{"type":"LineString","coordinates":[[142.205295,27.088135],[142.205358,27.08801],[142.205587,27.087556]]}},{"type":"Feature","properties":{"id":126302242,"highway":"secondary"},"geometry":{"type":"LineString","coordinates":[[142.216211,27.07961],[142.216209,27.079412],[142.216175,27.079256],[142.216172,27.079098],[142.216228,27.078925],[142.216316,27.078782],[142.216418,27.078685],[142.216507,27.078633],[142.216586,27.078576],[142.216711,27.078503],[142.216809,27.078426],[142.216966,27.078296],[142.217042,27.0782],[142.217156,27.078104],[142.217324,27.078049],[142.217419,27.077979],[142.21749,27.077852],[142.217495,27.077716],[142.217536,27.077564],[142.217507,27.0774],[142.217468,27.077297],[142.217444,27.07718],[142.217437,27.077048]]}},{"type":"Feature","properties":{"id":126302244,"highway":"secondary"},"geometry":{"type":"LineString","coordinates":[[142.203004,27.072552],[142.20251,27.072584],[142.202339,27.072605],[142.202228,27.072619],[142.201917,27.072643],[142.201665,27.072707],[142.201374,27.072783],[142.201338,27.072792],[142.201082,27.072778],[142.200916,27.072658],[142.200516,27.071568],[142.200393,27.071396],[142.200296,27.07133],[142.200166,27.07129],[142.199266,27.071249],[142.199024,27.071196],[142.198831,27.071045],[142.198216,27.07056],[142.198014,27.070446]]}},{"type":"Feature","properties":{"id":126302247,"highway":"secondary"},"geometry":{"type":"LineString","coordinates":[[142.208594,27.064938],[142.208413,27.064898],[142.208243,27.064874]]}},{"type":"Feature","properties":{"id":126302249,"highway":"secondary"},"geometry":{"type":"LineString","coordinates":[[142.209265,27.080876],[142.208609,27.080598],[142.207956,27.080344]]}},{"type":"Feature","properties":{"id":126302258,"highway":"secondary"},"geometry":{"type":"LineString","coordinates":[[142.207956,27.080344],[142.207754,27.080253],[142.207635,27.080088],[142.207663,27.079891],[142.207665,27.079473],[142.207636,27.079281],[142.207458,27.078097],[142.207398,27.077758],[142.20735,27.077562],[142.207334,27.077497],[142.207272,27.077345],[142.207139,27.077261],[142.206513,27.077085],[142.206364,27.07701],[142.206305,27.076909],[142.206255,27.076761],[142.20621,27.076473],[142.206213,27.076279],[142.206267,27.076141],[142.206437,27.075808],[142.206456,27.0756],[142.206398,27.075342],[142.206341,27.075178],[142.20633,27.075146],[142.206232,27.074972],[142.204857,27.073581],[142.2047,27.073427],[142.20454,27.073287],[142.204444,27.073219],[142.204106,27.073059],[142.203959,27.072989],[142.203653,27.072844],[142.203468,27.072755],[142.203273,27.07267],[142.203004,27.072552]]}},{"type":"Feature","properties":{"id":126302264,"highway":"secondary"},"geometry":{"type":"LineString","coordinates":[[142.204502,27.090164],[142.204715,27.089484],[142.205013,27.088739],[142.205295,27.088135]]}},{"type":"Feature","properties":{"id":126302267,"highway":"secondary"},"geometry":{"type":"LineString","coordinates":[[142.217374,27.085822],[142.21723,27.085563],[142.217187,27.08524],[142.217179,27.085031],[142.217136,27.084805],[142.217082,27.084698],[142.217032,27.0846],[142.216991,27.084507],[142.216947,27.084396],[142.216877,27.084304],[142.216848,27.084147],[142.216839,27.08397],[142.216824,27.083882],[142.21675,27.083786],[142.216633,27.083718],[142.216461,27.083643],[142.216253,27.083547],[142.21619,27.083407],[142.216196,27.083249],[142.21626,27.083058],[142.216283,27.082964],[142.216534,27.082704],[142.216649,27.082539],[142.216742,27.082325],[142.216776,27.082182],[142.216797,27.081913],[142.216806,27.081737],[142.216829,27.081501],[142.216686,27.081258],[142.216564,27.081098],[142.216369,27.080859],[142.216149,27.080643],[142.216027,27.080512],[142.215972,27.080441],[142.215931,27.080345],[142.215967,27.080193],[142.216154,27.079882],[142.216211,27.07961]]}},{"type":"Feature","properties":{"id":126302268,"highway":"secondary"},"geometry":{"type":"LineString","coordinates":[[142.203477,27.060153],[142.203353,27.060117],[142.203268,27.060057],[142.203196,27.059979],[142.202964,27.059577],[142.202873,27.059526],[142.202792,27.059533],[142.202147,27.059776],[142.202069,27.059846],[142.202006,27.059978],[142.201953,27.06008],[142.201862,27.060145],[142.201369,27.060249],[142.201163,27.060223],[142.200769,27.060004],[142.199553,27.059521],[142.199305,27.059501],[142.199067,27.059582],[142.19888,27.059814],[142.198685,27.059898],[142.198383,27.060187],[142.198261,27.060333],[142.198152,27.06042],[142.197961,27.06053],[142.197789,27.060623],[142.197698,27.060667],[142.1976,27.060692],[142.19743,27.060625],[142.197129,27.060409],[142.19693,27.060323],[142.196873,27.060234],[142.196815,27.06022],[142.196749,27.060232],[142.196736,27.060271],[142.196747,27.06032],[142.196787,27.060345],[142.19693,27.060323]]}},{"type":"Feature","properties":{"id":126302271,"highway":"secondary"},"geometry":{"type":"LineString","coordinates":[[142.214504,27.097817],[142.214694,27.097961],[142.214765,27.098123],[142.21478,27.098312],[142.214763,27.098378]]}},{"type":"Feature","properties":{"id":126302274,"highway":"secondary"},"geometry":{"type":"LineString","coordinates":[[142.203004,27.072552],[142.203585,27.071661],[142.204076,27.071033],[142.204158,27.070928],[142.204385,27.070676],[142.204441,27.070518],[142.204437,27.070386],[142.204262,27.070128],[142.203953,27.069772],[142.203817,27.069629],[142.203734,27.06945],[142.203696,27.069243],[142.203711,27.069111],[142.203936,27.068721],[142.204354,27.067854],[142.204652,27.067243],[142.204844,27.066926],[142.20491,27.066817],[142.205022,27.066661],[142.205166,27.066205],[142.205266,27.065816],[142.205299,27.065571],[142.205268,27.065302],[142.205212,27.065007],[142.205182,27.064893]]}},{"type":"Feature","properties":{"id":126302275,"highway":"secondary"},"geometry":{"type":"LineString","coordinates":[[142.21725,27.07135],[142.21711,27.071324],[142.216986,27.07125],[142.21675,27.070977],[142.21666,27.070881],[142.216468,27.070406],[142.216391,27.070319],[142.216275,27.070193],[142.216129,27.070127],[142.215973,27.07011],[142.215768,27.070114],[142.215532,27.070117],[142.215301,27.070123],[142.215147,27.070118],[142.215056,27.070112],[142.214949,27.070078],[142.214818,27.069989],[142.214654,27.069726],[142.214352,27.069416],[142.214289,27.069336],[142.214232,27.069229],[142.214219,27.069179],[142.214215,27.069102],[142.214246,27.069043],[142.214307,27.069003],[142.214404,27.068999],[142.214616,27.069015],[142.214963,27.069015],[142.21502,27.069004],[142.215076,27.068973],[142.215114,27.068919],[142.21524,27.06871],[142.215281,27.06867],[142.215334,27.068649],[142.215788,27.068665],[142.216009,27.068682],[142.21611,27.068654],[142.216173,27.068598],[142.216192,27.068569],[142.216242,27.068406],[142.216261,27.068219],[142.216305,27.068107],[142.216387,27.068028],[142.216595,27.067909],[142.216979,27.067768],[142.217137,27.067729],[142.217282,27.067684],[142.217376,27.067627],[142.217401,27.067591],[142.217391,27.067539],[142.217363,27.067497],[142.217282,27.067448],[142.217188,27.067391]]}},{"type":"Feature","properties":{"id":126302277,"highway":"secondary"},"geometry":{"type":"LineString","coordinates":[[142.217406,27.092802],[142.217537,27.092577],[142.217584,27.09247],[142.217597,27.092409],[142.217569,27.092327],[142.217484,27.092195],[142.217335,27.092015],[142.217167,27.091787],[142.217055,27.091616],[142.216946,27.091459],[142.216928,27.091363],[142.216897,27.091279],[142.216867,27.091184],[142.216562,27.09077],[142.216342,27.090488],[142.216305,27.090403],[142.216284,27.090341],[142.216305,27.090284],[142.216336,27.090259],[142.216422,27.090238],[142.216499,27.090254],[142.216591,27.090304],[142.216762,27.0904],[142.216834,27.090416],[142.216916,27.090402],[142.216966,27.09037],[142.216997,27.090296],[142.21703,27.090228],[142.21706,27.089976],[142.217106,27.089879],[142.217168,27.089807],[142.21725,27.089772],[142.21737,27.089719],[142.217532,27.089645],[142.217587,27.089584],[142.217639,27.089478],[142.217677,27.089347],[142.217756,27.089221],[142.217871,27.08914],[142.21798,27.089086],[142.218112,27.089055],[142.218535,27.088909],[142.218713,27.088758],[142.218761,27.088651],[142.218758,27.088559],[142.218739,27.088418],[142.218707,27.088282],[142.218659,27.088031],[142.218635,27.087926],[142.21861,27.087813],[142.218515,27.087678],[142.218269,27.087368],[142.218025,27.086973],[142.217785,27.086652],[142.217751,27.086578],[142.217645,27.086314],[142.217587,27.086208],[142.217374,27.085822]]}},{"type":"Feature","properties":{"id":126302278,"highway":"secondary"},"geometry":{"type":"LineString","coordinates":[[142.217437,27.077048],[142.217582,27.076938],[142.217727,27.076894],[142.21788,27.076846],[142.218082,27.076812],[142.218424,27.076766],[142.218636,27.076775],[142.218898,27.07686],[142.219042,27.07689],[142.219183,27.07684],[142.219248,27.076775],[142.219318,27.076665],[142.219446,27.076455],[142.219523,27.076366],[142.219682,27.076253],[142.219794,27.076209],[142.21991,27.076177],[142.220107,27.076104],[142.220213,27.075999],[142.220283,27.075847],[142.220284,27.075657],[142.220282,27.075526],[142.220318,27.075342],[142.22035,27.075167],[142.220338,27.074964],[142.22024,27.074777],[142.220164,27.074624],[142.22009,27.074416],[142.220069,27.074206],[142.22009,27.074002],[142.220089,27.073842],[142.220082,27.073715],[142.220077,27.073614],[142.220077,27.073447],[142.220148,27.073195],[142.220192,27.07298],[142.220223,27.072817],[142.220217,27.072721],[142.22004,27.072501],[142.219883,27.072395],[142.219709,27.07228],[142.219541,27.072185],[142.219435,27.072128],[142.219283,27.072101],[142.219145,27.0721],[142.218996,27.072084],[142.218919,27.072051],[142.218805,27.071962],[142.218649,27.071728],[142.218473,27.07161],[142.218347,27.071558],[142.218159,27.071534],[142.217884,27.071476],[142.217536,27.071411],[142.217368,27.071376],[142.21725,27.07135]]}},{"type":"Feature","properties":{"id":126302280,"highway":"secondary"},"geometry":{"type":"LineString","coordinates":[[142.210364,27.098917],[142.21013,27.098902],[142.209864,27.098892],[142.209667,27.098872],[142.20956,27.098799],[142.20951,27.098704],[142.20952,27.098606],[142.209603,27.098531],[142.209741,27.098564],[142.20978,27.098653],[142.209855,27.098737],[142.210006,27.098748],[142.210122,27.098714],[142.210345,27.098653],[142.210603,27.098607],[142.210898,27.09857],[142.211075,27.098543],[142.211235,27.098483],[142.211438,27.098419],[142.211531,27.098422],[142.211719,27.098488],[142.211924,27.098502],[142.212163,27.098365],[142.212298,27.098277],[142.212321,27.09811],[142.212499,27.098026],[142.212592,27.097997],[142.212731,27.097992],[142.212852,27.098043],[142.213022,27.098144],[142.213122,27.098223],[142.213199,27.098326],[142.213252,27.098403],[142.21326,27.098482],[142.21325,27.098553],[142.213222,27.098622],[142.213176,27.098702],[142.213112,27.098775],[142.213033,27.098838],[142.212929,27.0989],[142.212771,27.098994],[142.212606,27.099128],[142.212511,27.099275],[142.21242,27.099387],[142.212272,27.099519],[142.212176,27.099602],[142.212064,27.099698],[142.212047,27.099754],[142.21205,27.099793],[142.2121,27.099836],[142.212165,27.099851],[142.212231,27.099827],[142.212268,27.09974],[142.212314,27.099666],[142.212422,27.099559],[142.212505,27.099499],[142.212687,27.099431],[142.213096,27.099263],[142.21317,27.099227],[142.213306,27.099158],[142.213698,27.098838],[142.213732,27.098797],[142.213778,27.098731]]}},{"type":"Feature","properties":{"id":126302286,"highway":"secondary"},"geometry":{"type":"LineString","coordinates":[[142.204202,27.060567],[142.204193,27.060459],[142.20414,27.06037],[142.204026,27.060261],[142.203792,27.060154],[142.203707,27.06015],[142.20366,27.060147]]}},{"type":"Feature","properties":{"id":126302302,"highway":"secondary"},"geometry":{"type":"LineString","coordinates":[[142.206042,27.086889],[142.20622,27.086793],[142.206367,27.086744],[142.206594,27.086746],[142.206774,27.086794],[142.207013,27.086934],[142.207173,27.086989]]}},{"type":"Feature","properties":{"id":126302306,"highway":"secondary"},"geometry":{"type":"LineString","coordinates":[[142.204652,27.098906],[142.205177,27.098877],[142.205368,27.098883],[142.205485,27.098909],[142.205826,27.09904],[142.205916,27.099076],[142.205988,27.099086],[142.206091,27.099086],[142.206211,27.099041],[142.206406,27.098937],[142.206539,27.098897],[142.20679,27.09886],[142.206947,27.098841],[142.207124,27.098832],[142.207311,27.098826],[142.20759,27.098821],[142.207829,27.098834],[142.208006,27.098908],[142.20802,27.099041],[142.207923,27.099173],[142.207879,27.099284],[142.207896,27.099327],[142.207915,27.099375],[142.208004,27.099431],[142.208194,27.099502],[142.208413,27.099573],[142.208737,27.099671],[142.2089,27.099719],[142.209041,27.099718],[142.209124,27.099644],[142.209093,27.099506],[142.208949,27.099427],[142.208862,27.099358],[142.208827,27.099279],[142.208813,27.09909],[142.208736,27.098863],[142.20867,27.098658],[142.208735,27.098585],[142.208841,27.098588],[142.20891,27.098641],[142.208916,27.098803],[142.209004,27.099013],[142.209111,27.099131],[142.209216,27.099201],[142.209367,27.09927],[142.209618,27.099309],[142.210176,27.099285],[142.210529,27.099176],[142.210741,27.0991],[142.210989,27.099046],[142.211179,27.099053],[142.211395,27.099066],[142.211525,27.099014],[142.211571,27.098908],[142.211523,27.098832],[142.211432,27.098796],[142.211281,27.098822],[142.211093,27.098863],[142.21094,27.098886],[142.210751,27.098907],[142.210554,27.098918],[142.210364,27.098917]]}},{"type":"Feature","properties":{"id":126302311,"highway":"secondary"},"geometry":{"type":"LineString","coordinates":[[142.208594,27.064938],[142.209851,27.065064],[142.210999,27.065148]]}},{"type":"Feature","properties":{"id":126302314,"highway":"secondary"},"geometry":{"type":"LineString","coordinates":[[142.203723,27.063954],[142.203479,27.063863],[142.203358,27.063805],[142.203302,27.063693],[142.2033,27.06348]]}},{"type":"Feature","properties":{"id":126302395,"highway":"tertiary"},"geometry":{"type":"LineString","coordinates":[[142.203941,27.099274],[142.203983,27.099344]]}},{"type":"Feature","properties":{"id":126302399,"highway":"tertiary"},"geometry":{"type":"LineString","coordinates":[[142.203894,27.09916],[142.203941,27.099274]]}},{"type":"Feature","properties":{"id":126302413,"highway":"tertiary"},"geometry":{"type":"LineString","coordinates":[[142.203109,27.098849],[142.203496,27.098655],[142.203621,27.098641],[142.203693,27.098735],[142.203894,27.09916]]}},{"type":"Feature","properties":{"id":126302417,"highway":"tertiary"},"geometry":{"type":"LineString","coordinates":[[142.202977,27.09891],[142.203109,27.098849]]}},{"type":"Feature","properties":{"id":126302443,"highway":"tertiary"},"geometry":{"type":"LineString","coordinates":[[142.200406,27.100087],[142.200727,27.099932],[142.202977,27.09891]]}},{"type":"Feature","properties":{"id":126302471,"highway":"unclassified"},"geometry":{"type":"LineString","coordinates":[[142.216211,27.07961],[142.216064,27.079559],[142.21567,27.079423],[142.215445,27.079315],[142.215102,27.079035],[142.215055,27.078975],[142.215041,27.078918],[142.215057,27.078876],[142.21508,27.078851],[142.215117,27.078836],[142.215166,27.078835],[142.215203,27.078851],[142.215584,27.079085]]}},{"type":"Feature","properties":{"id":360633159,"highway":"unclassified"},"geometry":{"type":"LineString","coordinates":[[142.198107,27.098761],[142.198242,27.098525],[142.199736,27.098854],[142.19994,27.099246],[142.200264,27.099115],[142.20057,27.09964],[142.200727,27.099932]]}},{"type":"Feature","properties":{"id":360962164,"highway":"service"},"geometry":{"type":"LineString","coordinates":[[142.217167,27.091787],[142.216727,27.092009],[142.216361,27.091866],[142.216431,27.091674],[142.216294,27.091615]]}},{"type":"Feature","properties":{"id":443594739,"highway":"secondary"},"geometry":{"type":"LineString","coordinates":[[142.213778,27.098731],[142.213803,27.098645],[142.213775,27.098526],[142.213747,27.098382],[142.213772,27.098295],[142.213835,27.098224],[142.214194,27.097845],[142.214294,27.097777],[142.214409,27.097778],[142.214504,27.097817]]}},{"type":"Feature","properties":{"id":443594740,"highway":"secondary"},"geometry":{"type":"LineString","coordinates":[[142.214763,27.098378],[142.214705,27.098423],[142.214631,27.098457],[142.214482,27.098508],[142.214326,27.098545],[142.214203,27.098554],[142.214104,27.098524],[142.214003,27.098472],[142.21396,27.09842],[142.213944,27.098368],[142.213952,27.098323],[142.213976,27.098271],[142.214245,27.098064],[142.214489,27.09791],[142.214615,27.0978],[142.214647,27.09772],[142.214633,27.097616],[142.21466,27.097529],[142.214755,27.097458],[142.215504,27.09728],[142.2156,27.09723],[142.215666,27.097162],[142.215725,27.097074],[142.215803,27.096934],[142.215924,27.096839],[142.216291,27.096679],[142.216347,27.096577],[142.216346,27.096495],[142.216294,27.096404],[142.216198,27.096362],[142.215557,27.096341],[142.215075,27.096452],[142.214974,27.096457],[142.214497,27.096249],[142.214436,27.096151],[142.214434,27.096066],[142.214455,27.095989],[142.214521,27.095912],[142.214671,27.095808],[142.214809,27.095712],[142.214881,27.09563],[142.214914,27.095554],[142.214924,27.095443],[142.214957,27.095354],[142.215012,27.095305],[142.215071,27.095302],[142.215222,27.095328],[142.215237,27.095389],[142.21523,27.095469],[142.215183,27.095522],[142.215071,27.095639],[142.215053,27.095719],[142.215069,27.095788],[142.215118,27.095858],[142.215212,27.095891],[142.215316,27.095891],[142.215427,27.095884],[142.215858,27.095818],[142.215974,27.095759],[142.216158,27.095646],[142.216266,27.095616],[142.216544,27.095559],[142.216632,27.095508],[142.216672,27.095425],[142.216888,27.094823],[142.216896,27.094691],[142.216913,27.093684],[142.216946,27.093529],[142.217026,27.093393],[142.217406,27.092802]]}},{"type":"Feature","properties":{"id":443594750,"highway":"secondary"},"geometry":{"type":"LineString","coordinates":[[142.198071,27.098743],[142.198107,27.098761],[142.198284,27.09886],[142.199297,27.09939],[142.200145,27.099958],[142.200406,27.100087],[142.200457,27.100113],[142.200699,27.100199],[142.201094,27.100271],[142.20149,27.100264],[142.20181,27.100204],[142.203282,27.099719],[142.2035,27.099638],[142.203592,27.099583],[142.203845,27.099429],[142.203983,27.099344],[142.204281,27.099163],[142.20459,27.098975],[142.204652,27.098906],[142.2047,27.098854],[142.204764,27.098711],[142.204773,27.098658],[142.204787,27.098566],[142.204784,27.098462],[142.20478,27.098286],[142.204768,27.098203],[142.204763,27.09817],[142.2047,27.098067],[142.20424,27.097404],[142.203934,27.096963],[142.203843,27.096707],[142.203837,27.096492],[142.203921,27.096273],[142.204001,27.096091],[142.204057,27.095962],[142.204127,27.0958],[142.204184,27.095503]]}},{"type":"Feature","properties":{"id":443594758,"highway":"service"},"geometry":{"type":"LineString","coordinates":[[142.203621,27.098641],[142.203721,27.09845],[142.203606,27.098074],[142.20352,27.097792],[142.203458,27.097588],[142.203418,27.09751],[142.203366,27.097409],[142.203108,27.096959],[142.202763,27.09636],[142.202465,27.095842],[142.202471,27.095768],[142.202594,27.095666],[142.203074,27.095276],[142.20331,27.094967],[142.20356,27.094639],[142.203605,27.094524],[142.203659,27.094271]]}},{"type":"Feature","properties":{"id":443594761,"highway":"service"},"geometry":{"type":"LineString","coordinates":[[142.203496,27.098655],[142.202957,27.097731]]}},{"type":"Feature","properties":{"id":443594762,"highway":"service"},"geometry":{"type":"LineString","coordinates":[[142.203923,27.099996],[142.203592,27.099583]]}},{"type":"Feature","properties":{"id":443594763,"highway":"service"},"geometry":{"type":"LineString","coordinates":[[142.203318,27.097858],[142.20352,27.097792]]}},{"type":"Feature","properties":{"id":443594764,"highway":"service"},"geometry":{"type":"LineString","coordinates":[[142.201981,27.096345],[142.202356,27.096178]]}},{"type":"Feature","properties":{"id":443594765,"highway":"service"},"geometry":{"type":"LineString","coordinates":[[142.204539,27.099636],[142.20477,27.099781]]}},{"type":"Feature","properties":{"id":443594766,"highway":"service"},"geometry":{"type":"LineString","coordinates":[[142.201906,27.099055],[142.20057,27.09964]]}},{"type":"Feature","properties":{"id":443594767,"highway":"service"},"geometry":{"type":"LineString","coordinates":[[142.205426,27.100053],[142.205511,27.099968]]}},{"type":"Feature","properties":{"id":443594768,"highway":"service"},"geometry":{"type":"LineString","coordinates":[[142.203436,27.098128],[142.203606,27.098074]]}},{"type":"Feature","properties":{"id":443594771,"highway":"service"},"geometry":{"type":"LineString","coordinates":[[142.204164,27.098679],[142.203693,27.098735]]}},{"type":"Feature","properties":{"id":443594777,"highway":"service"},"geometry":{"type":"LineString","coordinates":[[142.202763,27.09636],[142.202516,27.096452],[142.202142,27.096623]]}},{"type":"Feature","properties":{"id":443594780,"highway":"service"},"geometry":{"type":"LineString","coordinates":[[142.204773,27.098658],[142.205402,27.098621],[142.205387,27.098426]]}},{"type":"Feature","properties":{"id":443594786,"highway":"residential"},"geometry":{"type":"LineString","coordinates":[[142.203845,27.099429],[142.20414,27.099782],[142.204472,27.100121],[142.204773,27.100497]]}},{"type":"Feature","properties":{"id":443594790,"highway":"service"},"geometry":{"type":"LineString","coordinates":[[142.203268,27.096894],[142.203108,27.096959],[142.202506,27.097252],[142.202264,27.097354]]}},{"type":"Feature","properties":{"id":443594794,"highway":"residential"},"geometry":{"type":"LineString","coordinates":[[142.205276,27.099991],[142.205381,27.099884],[142.20566,27.099578],[142.205711,27.099472],[142.205916,27.099076]]}},{"type":"Feature","properties":{"id":443594795,"highway":"residential"},"geometry":{"type":"LineString","coordinates":[[142.204281,27.099163],[142.204897,27.09957],[142.205381,27.099884],[142.205511,27.099968],[142.205542,27.099988]]}},{"type":"Feature","properties":{"id":443594796,"highway":"service"},"geometry":{"type":"LineString","coordinates":[[142.203721,27.09845],[142.204139,27.098304],[142.204257,27.098302],[142.204616,27.098292],[142.204768,27.098203]]}},{"type":"Feature","properties":{"id":443594797,"highway":"residential"},"geometry":{"type":"LineString","coordinates":[[142.204472,27.100121],[142.204701,27.099896],[142.20477,27.099781],[142.204897,27.09957],[142.204977,27.099423]]}},{"type":"Feature","properties":{"id":443594799,"highway":"service"},"geometry":{"type":"LineString","coordinates":[[142.205011,27.09783],[142.204933,27.09783],[142.204737,27.097737],[142.204311,27.097405],[142.20424,27.097404]]}},{"type":"Feature","properties":{"id":443594802,"highway":"residential"},"geometry":{"type":"LineString","coordinates":[[142.205826,27.09904],[142.205843,27.098962],[142.20577,27.098741],[142.205628,27.098495],[142.205539,27.098418],[142.205387,27.098426],[142.204784,27.098462]]}},{"type":"Feature","properties":{"id":443594803,"highway":"service"},"geometry":{"type":"LineString","coordinates":[[142.204001,27.096091],[142.203954,27.096026],[142.203774,27.095229],[142.203721,27.095136],[142.203654,27.095095],[142.203482,27.095059],[142.20331,27.094967]]}},{"type":"Feature","properties":{"id":443594805,"highway":"service"},"geometry":{"type":"LineString","coordinates":[[142.203418,27.09751],[142.202957,27.097731],[142.2028,27.097762],[142.202562,27.09787],[142.202264,27.097354],[142.201355,27.095778],[142.199837,27.095849]]}},{"type":"Feature","properties":{"id":443594806,"highway":"service"},"geometry":{"type":"LineString","coordinates":[[142.202516,27.096452],[142.202356,27.096178],[142.202137,27.095804],[142.201674,27.095814],[142.201981,27.096345],[142.202142,27.096623],[142.202506,27.097252],[142.2028,27.097762]]}},{"type":"Feature","properties":{"id":443608722,"highway":"secondary"},"geometry":{"type":"LineString","coordinates":[[142.207555,27.087017],[142.207656,27.087008],[142.207805,27.086972],[142.207985,27.086879],[142.208213,27.086719],[142.208414,27.08653],[142.208573,27.086301],[142.208664,27.08605],[142.208684,27.08595],[142.208717,27.08579],[142.208742,27.085628],[142.208725,27.084178],[142.208771,27.084006],[142.208884,27.083849],[142.209261,27.083531]]}},{"type":"Feature","properties":{"id":443608728,"highway":"service"},"geometry":{"type":"LineString","coordinates":[[142.207062,27.086123],[142.206692,27.086307],[142.206598,27.086417],[142.20641,27.086539],[142.20641,27.086596],[142.206466,27.086608],[142.206692,27.086603],[142.206799,27.086668],[142.207209,27.086933],[142.207173,27.086989]]}},{"type":"Feature","properties":{"id":443608732,"highway":"service"},"geometry":{"type":"LineString","coordinates":[[142.201374,27.072783],[142.201571,27.073145],[142.201542,27.07325],[142.201386,27.073357],[142.201182,27.073427],[142.200929,27.073475],[142.200906,27.073479],[142.200807,27.073544],[142.20074,27.073689],[142.200694,27.073792],[142.200697,27.073945]]}},{"type":"Feature","properties":{"id":443608741,"highway":"service"},"geometry":{"type":"LineString","coordinates":[[142.20291,27.068852],[142.202954,27.069092],[142.203008,27.069288],[142.203102,27.069455],[142.203198,27.06951],[142.203209,27.069577],[142.203182,27.069665],[142.203115,27.069679],[142.202831,27.069694],[142.202774,27.069717],[142.202737,27.06977],[142.202723,27.069899],[142.202691,27.06994],[142.202608,27.069949],[142.202538,27.069937],[142.202444,27.069925],[142.202208,27.069964],[142.202144,27.069944],[142.202176,27.069832],[142.202313,27.069476],[142.20235,27.069309],[142.202368,27.068846]]}},{"type":"Feature","properties":{"id":443608743,"highway":"service"},"geometry":{"type":"LineString","coordinates":[[142.20412,27.072703],[142.203959,27.072989]]}},{"type":"Feature","properties":{"id":443608744,"highway":"service"},"geometry":{"type":"LineString","coordinates":[[142.202507,27.070926],[142.202392,27.070763]]}},{"type":"Feature","properties":{"id":443608746,"highway":"service"},"geometry":{"type":"LineString","coordinates":[[142.202339,27.072605],[142.202309,27.07206],[142.202328,27.071977],[142.202247,27.071831],[142.20185,27.071647],[142.201802,27.071506],[142.202108,27.071299],[142.202188,27.071287],[142.202274,27.07132],[142.20239,27.071382],[142.202612,27.071499],[142.2027,27.071525],[142.202789,27.071525],[142.20288,27.071487],[142.20317,27.071303],[142.203309,27.071215],[142.203374,27.071124],[142.203435,27.070967],[142.203425,27.070854],[142.20336,27.070776],[142.203264,27.070757],[142.203052,27.070759],[142.202892,27.070703],[142.202746,27.070651],[142.20265,27.070642],[142.202515,27.070697],[142.202392,27.070763],[142.202213,27.070858],[142.20214,27.070897],[142.202086,27.07096],[142.202067,27.071096],[142.202108,27.071299]]}},{"type":"Feature","properties":{"id":443608748,"highway":"unclassified"},"geometry":{"type":"LineString","coordinates":[[142.198014,27.070446],[142.198045,27.070351],[142.198101,27.07018],[142.198133,27.070116],[142.19816,27.070094],[142.198235,27.070081],[142.198315,27.070072],[142.198387,27.070052],[142.198474,27.070017],[142.198565,27.069954],[142.19863,27.069898],[142.198739,27.069808],[142.198884,27.069698],[142.198951,27.06969],[142.198987,27.069686],[142.199361,27.06965],[142.199545,27.06965],[142.19962,27.069671],[142.199805,27.069783],[142.199873,27.069807],[142.199979,27.069807],[142.200281,27.069745],[142.200384,27.069715],[142.200603,27.06959],[142.200916,27.069368],[142.201213,27.069148],[142.201452,27.068989],[142.201574,27.068935],[142.201752,27.06887],[142.201987,27.068849],[142.202368,27.068846],[142.20291,27.068852],[142.203111,27.068874],[142.203307,27.068932],[142.203523,27.069026],[142.203711,27.069111]]}},{"type":"Feature","properties":{"id":443608750,"highway":"service"},"geometry":{"type":"LineString","coordinates":[[142.208208,27.088495],[142.208068,27.088521],[142.207945,27.08859],[142.20762,27.088831],[142.207556,27.088867],[142.207497,27.088827],[142.207438,27.088674],[142.207344,27.088585],[142.207095,27.088394],[142.206888,27.088296],[142.206784,27.088203],[142.206663,27.088034],[142.206647,27.087876],[142.206631,27.087623],[142.206566,27.08758],[142.206464,27.087587],[142.206392,27.087635],[142.206108,27.087981],[142.206041,27.08812],[142.205995,27.088191],[142.205933,27.088151],[142.205912,27.088093],[142.20596,27.087976],[142.205987,27.087828],[142.205971,27.087652],[142.205901,27.087504],[142.205818,27.08737],[142.205625,27.087179],[142.205518,27.087121],[142.205458,27.087153],[142.205437,27.087224],[142.205493,27.087322],[142.205507,27.087427],[142.205453,27.087513],[142.205397,27.087575],[142.205365,27.087657],[142.205327,27.087781],[142.20533,27.087929],[142.205358,27.08801]]}},{"type":"Feature","properties":{"id":443608763,"highway":"service"},"geometry":{"type":"LineString","coordinates":[[142.207603,27.077171],[142.207649,27.077289],[142.207643,27.077377],[142.207523,27.077482],[142.20735,27.077562]]}},{"type":"Feature","properties":{"id":443608771,"highway":"service"},"geometry":{"type":"LineString","coordinates":[[142.204195,27.072311],[142.20419,27.072416],[142.204214,27.072541],[142.204268,27.072651],[142.204268,27.072768],[142.204106,27.073059]]}},{"type":"Feature","properties":{"id":443608773,"highway":"service"},"geometry":{"type":"LineString","coordinates":[[142.209969,27.084002],[142.209886,27.083997],[142.209703,27.083925],[142.20929,27.083825],[142.209049,27.083806],[142.208884,27.083849]]}},{"type":"Feature","properties":{"id":443608775,"highway":"service"},"geometry":{"type":"LineString","coordinates":[[142.204444,27.073219],[142.204512,27.073085],[142.204595,27.073018],[142.204893,27.072954],[142.205118,27.072939],[142.205271,27.072978],[142.205845,27.073204],[142.206121,27.073279],[142.20633,27.073305],[142.206987,27.073295],[142.207119,27.073322],[142.207215,27.073376],[142.207398,27.073575],[142.207575,27.073821],[142.207835,27.074286],[142.207956,27.074733],[142.207976,27.074786],[142.208028,27.074919],[142.208122,27.075003],[142.208288,27.075125],[142.208527,27.075273],[142.208664,27.075313],[142.208849,27.07533],[142.209007,27.075344],[142.209061,27.075383],[142.209039,27.075433],[142.208959,27.075447],[142.208784,27.075454],[142.208736,27.075512],[142.208747,27.075576],[142.208811,27.075622],[142.209275,27.075717],[142.209358,27.075758],[142.209361,27.075834],[142.209345,27.075899],[142.209337,27.076008],[142.209401,27.076094],[142.209522,27.076123],[142.209911,27.076128],[142.209986,27.076178],[142.209991,27.076269],[142.210007,27.076622],[142.210053,27.076718],[142.21015,27.076813],[142.210225,27.076825],[142.210281,27.076775],[142.210305,27.076706],[142.210353,27.076546],[142.210423,27.076508],[142.210493,27.076522],[142.210525,27.07657],[142.210488,27.076663],[142.210412,27.076842],[142.210415,27.076911],[142.210447,27.07698],[142.210608,27.077327],[142.210657,27.077367],[142.21074,27.077394],[142.21082,27.077375],[142.210954,27.077286],[142.211051,27.077269],[142.211239,27.077167],[142.211287,27.077114],[142.2113,27.077059],[142.2113,27.076995],[142.211306,27.076897],[142.211332,27.076839],[142.21155,27.076711],[142.211662,27.076687],[142.211748,27.076691],[142.211861,27.076701],[142.211955,27.076651],[142.211992,27.076589],[142.212006,27.076527],[142.211984,27.076293]]}},{"type":"Feature","properties":{"id":443608791,"highway":"service"},"geometry":{"type":"LineString","coordinates":[[142.203585,27.071661],[142.203422,27.071635],[142.203315,27.071595],[142.203245,27.07153],[142.20317,27.071303],[142.203124,27.07116],[142.203033,27.071091],[142.202752,27.07089],[142.202892,27.070703]]}},{"type":"Feature","properties":{"id":443772977,"highway":"service"},"geometry":{"type":"LineString","coordinates":[[142.202713,27.065093],[142.202644,27.065545],[142.202622,27.065688],[142.20266,27.065786],[142.202888,27.066173],[142.203137,27.066435],[142.203253,27.066546],[142.203333,27.066622],[142.203392,27.066734],[142.203413,27.066911],[142.203436,27.067125]]}},{"type":"Feature","properties":{"id":443772981,"highway":"service"},"geometry":{"type":"LineString","coordinates":[[142.205593,27.058285],[142.205604,27.058531],[142.205574,27.058572],[142.205277,27.058725],[142.205191,27.058805],[142.205042,27.058909],[142.204975,27.059003],[142.204939,27.059135],[142.204924,27.059249],[142.204927,27.059358],[142.204904,27.059433]]}},{"type":"Feature","properties":{"id":443772982,"highway":"unclassified"},"geometry":{"type":"LineString","coordinates":[[142.203792,27.060154],[142.203864,27.060077],[142.204476,27.059801],[142.204769,27.059629],[142.204865,27.059583],[142.204951,27.059556],[142.205159,27.059492],[142.205686,27.05945],[142.205848,27.059461],[142.206126,27.059507],[142.206365,27.059525],[142.206428,27.059542]]}},{"type":"Feature","properties":{"id":443772983,"highway":"service"},"geometry":{"type":"LineString","coordinates":[[142.205845,27.057819],[142.206066,27.058071],[142.206098,27.058124],[142.20614,27.058322],[142.206141,27.058457],[142.205991,27.058736],[142.205925,27.058966],[142.205826,27.059243],[142.205802,27.059301],[142.205768,27.05932],[142.205686,27.059325]]}},{"type":"Feature","properties":{"id":443772991,"highway":"service"},"geometry":{"type":"LineString","coordinates":[[142.214761,27.066623],[142.214798,27.066605],[142.214852,27.066535],[142.214856,27.06646],[142.214834,27.066423],[142.214719,27.066249],[142.214645,27.066205],[142.214491,27.066142],[142.214306,27.066082],[142.214181,27.066002],[142.213993,27.065848],[142.21382,27.065765],[142.213697,27.065676],[142.213541,27.065582],[142.21354,27.065542],[142.213562,27.065496]]}},{"type":"Feature","properties":{"id":443772993,"highway":"unclassified"},"geometry":{"type":"LineString","coordinates":[[142.209614,27.061771],[142.209418,27.061713],[142.209193,27.061742],[142.209072,27.061723],[142.208936,27.061637],[142.208836,27.061572],[142.20837,27.06147],[142.208195,27.061403],[142.208029,27.061248],[142.207895,27.060961],[142.207841,27.060856],[142.207053,27.060089],[142.206672,27.059838],[142.206414,27.059688],[142.206173,27.059645],[142.20583,27.05969],[142.20565,27.059736],[142.204561,27.060416],[142.204451,27.06054],[142.204352,27.060588],[142.204202,27.060567]]}},{"type":"Feature","properties":{"id":443772995,"highway":"unclassified"},"geometry":{"type":"LineString","coordinates":[[142.204844,27.066926],[142.204599,27.066965],[142.204376,27.066986],[142.20424,27.066991],[142.204199,27.066986],[142.204057,27.06697],[142.203794,27.066915],[142.203666,27.066922],[142.203542,27.066991],[142.203436,27.067125],[142.203371,27.067206],[142.203261,27.067361],[142.203164,27.067481],[142.203089,27.067543],[142.202869,27.067648],[142.202738,27.067765],[142.202622,27.067942],[142.202559,27.06806],[142.202526,27.068121],[142.202424,27.06831],[142.202338,27.068489],[142.202343,27.068634],[142.202368,27.068846]]}},{"type":"Feature","properties":{"id":443773007,"highway":"service"},"geometry":{"type":"LineString","coordinates":[[142.206935,27.059003],[142.20667,27.059239],[142.206416,27.059442]]}},{"type":"Feature","properties":{"id":443775447,"highway":"secondary"},"geometry":{"type":"LineString","coordinates":[[142.208243,27.064874],[142.208034,27.064848],[142.207903,27.064854],[142.207476,27.064901],[142.207347,27.064926],[142.207239,27.064991],[142.207054,27.065196],[142.206981,27.065278],[142.206871,27.065324],[142.206659,27.065328],[142.206561,27.065348],[142.206435,27.065416],[142.206307,27.065581],[142.206175,27.065724],[142.205925,27.06593],[142.205742,27.066088],[142.205684,27.066212],[142.205632,27.066437],[142.205622,27.066455],[142.205597,27.066501]]}},{"type":"Feature","properties":{"id":443775448,"highway":"secondary"},"geometry":{"type":"LineString","coordinates":[[142.217188,27.067391],[142.217023,27.067303],[142.216928,27.067213],[142.216891,27.067113],[142.21686,27.066683],[142.216837,27.06658],[142.216785,27.066488],[142.216361,27.066205],[142.216256,27.066156],[142.216145,27.066147],[142.21594,27.066188],[142.215716,27.066263],[142.215551,27.06629],[142.215434,27.066288],[142.215346,27.066253],[142.215077,27.065956],[142.214989,27.06587],[142.214856,27.065815],[142.214538,27.065825],[142.214045,27.065737],[142.213904,27.065694],[142.213672,27.065558],[142.213562,27.065496],[142.213432,27.065421],[142.213051,27.065262],[142.212653,27.065187],[142.212397,27.06517],[142.212223,27.065195]]}},{"type":"Feature","properties":{"id":443775449,"highway":"secondary"},"geometry":{"type":"LineString","coordinates":[[142.218004,27.065658],[142.218071,27.065565],[142.218297,27.06529],[142.218463,27.065121],[142.218656,27.064963],[142.218688,27.064858],[142.218707,27.064724],[142.218865,27.064641],[142.219032,27.064505],[142.219474,27.064366],[142.21959,27.064297],[142.219649,27.064208],[142.219789,27.063997],[142.2199,27.06393],[142.220003,27.06391],[142.220188,27.063922],[142.220282,27.063903],[142.220322,27.063831],[142.220328,27.06367],[142.220368,27.06356],[142.220449,27.063491],[142.220554,27.063469],[142.220776,27.063454],[142.220894,27.063407],[142.221038,27.063278],[142.221359,27.06298]]}},{"type":"Feature","properties":{"id":443775450,"highway":"secondary"},"geometry":{"type":"LineString","coordinates":[[142.211171,27.065152],[142.211094,27.065045],[142.210748,27.064833],[142.210486,27.064618],[142.210268,27.064477],[142.210099,27.064411],[142.209947,27.064334],[142.209826,27.064434],[142.209659,27.064501],[142.20949,27.064508],[142.209212,27.064516],[142.209096,27.064573],[142.208903,27.064661],[142.208758,27.064685],[142.208568,27.064731],[142.208436,27.064781],[142.208254,27.064802],[142.208243,27.064874]]}},{"type":"Feature","properties":{"id":443775451,"highway":"unclassified"},"geometry":{"type":"LineString","coordinates":[[142.221359,27.06298],[142.221401,27.062883],[142.221397,27.062809],[142.221374,27.062754],[142.221241,27.062542],[142.221198,27.062491],[142.221088,27.062379],[142.221076,27.06232],[142.221099,27.062264],[142.221157,27.0622],[142.221433,27.061972],[142.221517,27.061843],[142.22161,27.061792],[142.221743,27.061747],[142.221831,27.061684],[142.221854,27.061618],[142.221906,27.061502],[142.222007,27.061451],[142.222134,27.061407],[142.222219,27.061308],[142.222334,27.061164],[142.222355,27.061076]]}},{"type":"Feature","properties":{"id":444210085,"highway":"service"},"geometry":{"type":"LineString","coordinates":[[142.205622,27.066455],[142.205511,27.066402],[142.205487,27.066351],[142.205529,27.065798],[142.205551,27.065761],[142.205707,27.065706],[142.205769,27.06566],[142.205793,27.065577],[142.20586,27.065268],[142.20588,27.065205],[142.205983,27.065086]]}},{"type":"Feature","properties":{"id":444210090,"highway":"service"},"geometry":{"type":"LineString","coordinates":[[142.205941,27.067172],[142.205863,27.067289],[142.205767,27.067334],[142.205665,27.067308],[142.205571,27.067214],[142.205431,27.067014],[142.205313,27.066634]]}},{"type":"Feature","properties":{"id":848322687,"highway":"service"},"geometry":{"type":"LineString","coordinates":[[142.215823,27.079724],[142.215962,27.079769],[142.216064,27.079559]]}},{"type":"Feature","properties":{"id":848322693,"highway":"secondary"},"geometry":{"type":"LineString","coordinates":[[142.209451,27.083369],[142.210447,27.082435],[142.210509,27.082241],[142.21048,27.082137],[142.210092,27.081403],[142.210042,27.08131],[142.209849,27.081121],[142.209756,27.081082]]}},{"type":"Feature","properties":{"id":848322694,"highway":"secondary"},"geometry":{"type":"LineString","coordinates":[[142.209261,27.083531],[142.209451,27.083369]]}},{"type":"Feature","properties":{"id":918870751,"highway":"secondary"},"geometry":{"type":"LineString","coordinates":[[142.205526,27.066575],[142.205452,27.06661],[142.205313,27.066634],[142.205022,27.066661]]}},{"type":"Feature","properties":{"id":918870752,"highway":"secondary"},"geometry":{"type":"LineString","coordinates":[[142.205597,27.066501],[142.205526,27.066575]]}},{"type":"Feature","properties":{"id":918870753,"highway":"secondary"},"geometry":{"type":"LineString","coordinates":[[142.205148,27.064708],[142.205142,27.064579],[142.20509,27.064444],[142.205038,27.064387],[142.204953,27.064324],[142.204749,27.064259]]}},{"type":"Feature","properties":{"id":918870754,"highway":"secondary"},"geometry":{"type":"LineString","coordinates":[[142.205182,27.064893],[142.205148,27.064708]]}},{"type":"Feature","properties":{"id":922701885,"highway":"service"},"geometry":{"type":"LineString","coordinates":[[142.205686,27.059325],[142.205686,27.05945]]}},{"type":"Feature","properties":{"id":922701886,"highway":"service"},"geometry":{"type":"LineString","coordinates":[[142.206416,27.059442],[142.206365,27.059525]]}},{"type":"Feature","properties":{"id":922701887,"highway":"service"},"geometry":{"type":"LineString","coordinates":[[142.204904,27.059433],[142.204951,27.059556]]}},{"type":"Feature","properties":{"id":930075199,"highway":"secondary"},"geometry":{"type":"LineString","coordinates":[[142.209673,27.081048],[142.20939,27.080929],[142.209265,27.080876]]}},{"type":"Feature","properties":{"id":930075200,"highway":"secondary"},"geometry":{"type":"LineString","coordinates":[[142.209756,27.081082],[142.209751,27.08108],[142.209678,27.08105],[142.209673,27.081048]]}},{"type":"Feature","properties":{"id":942918671,"highway":"secondary"},"geometry":{"type":"LineString","coordinates":[[142.212066,27.065203],[142.211884,27.065212],[142.211642,27.065195],[142.211171,27.065152]]}},{"type":"Feature","properties":{"id":942918672,"highway":"secondary"},"geometry":{"type":"LineString","coordinates":[[142.212223,27.065195],[142.212066,27.065203]]}},{"type":"Feature","properties":{"id":942919922,"highway":"secondary"},"geometry":{"type":"LineString","coordinates":[[142.217881,27.065684],[142.218004,27.065658]]}},{"type":"Feature","properties":{"id":942919923,"highway":"secondary"},"geometry":{"type":"LineString","coordinates":[[142.217188,27.067391],[142.217247,27.067261],[142.217065,27.066845],[142.217079,27.066752],[142.217154,27.06663],[142.217165,27.066509],[142.217146,27.066392],[142.217068,27.06616],[142.217063,27.066033],[142.217151,27.065854],[142.217234,27.065775],[142.217535,27.065622],[142.217707,27.06563],[142.217881,27.065684]]}},{"type":"Feature","properties":{"id":942919924,"highway":"service"},"geometry":{"type":"LineString","coordinates":[[142.214728,27.066639],[142.214761,27.066623]]}},{"type":"Feature","properties":{"id":942919925,"highway":"service"},"geometry":{"type":"LineString","coordinates":[[142.214896,27.06693],[142.214663,27.066739],[142.214665,27.066684],[142.214693,27.066654],[142.214728,27.066639]]}}]}