{"type":"FeatureCollection","features":[{"type":"Feature","properties":{"id":112949306,"highway":"unclassified"},"geometry":{"type":"LineString","coordinates":[[138.71203,35.979354],[138.71186,35.979433],[138.711831,35.979452],[138.711801,35.979482],[138.711788,35.979503],[138.71177,35.979557],[138.711771,35.979618],[138.711937,35.980228],[138.711916,35.980323],[138.711819,35.980527],[138.711785,35.980628],[138.711764,35.980972],[138.711729,35.981123],[138.711639,35.981333],[138.711549,35.981479],[138.711431,35.981569],[138.711321,35.98162],[138.710947,35.981733],[138.710905,35.981806],[138.710905,35.98189],[138.710898,35.981896],[138.711141,35.982223],[138.711196,35.982375],[138.711196,35.982504],[138.711136,35.982777],[138.711085,35.982932],[138.711044,35.983112],[138.710995,35.983214],[138.710905,35.983309],[138.710781,35.983366],[138.710545,35.983371],[138.710385,35.983349],[138.710276,35.983325],[138.710168,35.983346],[138.710095,35.983405],[138.710063,35.983507],[138.710068,35.983602],[138.710137,35.984019],[138.710144,35.984211],[138.710102,35.984278],[138.710061,35.984318],[138.70995,35.984363],[138.709853,35.984358],[138.709818,35.984346],[138.709777,35.984323],[138.709732,35.984281],[138.709742,35.98416],[138.70977,35.984036],[138.709777,35.983828],[138.709617,35.983383],[138.709623,35.983331],[138.709638,35.983237],[138.709672,35.983198],[138.7097,35.983157],[138.709971,35.982904],[138.710019,35.982848],[138.710081,35.982741],[138.710081,35.982617],[138.710054,35.98256],[138.710005,35.982504],[138.709839,35.982419],[138.709597,35.982374],[138.709493,35.982358],[138.709306,35.982318],[138.709174,35.982245],[138.709098,35.982155],[138.709043,35.982042],[138.709008,35.981918],[138.709013,35.98191],[138.709146,35.981682],[138.709306,35.98153],[138.709541,35.981355],[138.709943,35.981108],[138.710012,35.981046],[138.710068,35.980967],[138.710061,35.980927],[138.710026,35.98087],[138.709874,35.980876],[138.709638,35.980933],[138.70943,35.981017],[138.709229,35.981136],[138.709001,35.981282],[138.708828,35.981423],[138.708641,35.981643],[138.708579,35.981738],[138.708434,35.982098],[138.708357,35.982301],[138.708302,35.982374],[138.70815,35.982403],[138.707513,35.982419],[138.70709,35.982498],[138.706986,35.982493],[138.706876,35.982464],[138.706689,35.982369],[138.706245,35.98211],[138.706168,35.982059],[138.706071,35.981974],[138.705988,35.981643],[138.705953,35.981564],[138.705815,35.981524],[138.70567,35.981513],[138.705206,35.981513],[138.704964,35.98149],[138.704821,35.98145],[138.70477,35.981417],[138.704749,35.981378],[138.704652,35.981113],[138.704548,35.98104],[138.704479,35.981006],[138.704333,35.981012],[138.703787,35.981124],[138.703627,35.981124],[138.703503,35.981079],[138.703423,35.981038],[138.703396,35.981017],[138.703338,35.980955],[138.703171,35.980605],[138.703109,35.980533],[138.703071,35.980505],[138.703033,35.980477],[138.702957,35.980448],[138.702673,35.980488],[138.702527,35.980488],[138.702437,35.980465],[138.70243,35.980453],[138.702278,35.980408],[138.702188,35.980408],[138.702084,35.980453],[138.702029,35.9806],[138.702015,35.98073],[138.702015,35.981068],[138.702029,35.981192],[138.702029,35.981344],[138.701966,35.981445],[138.701897,35.981552],[138.701856,35.981676],[138.701849,35.981823],[138.701918,35.982189],[138.701918,35.982267],[138.701876,35.982369],[138.701696,35.9826],[138.701589,35.982724],[138.701511,35.982798],[138.701385,35.98287],[138.701267,35.982898],[138.701094,35.982926],[138.700893,35.982943],[138.700815,35.982934],[138.700698,35.982897],[138.700574,35.982825],[138.700408,35.982752],[138.700146,35.982752],[138.699952,35.982786],[138.699744,35.982842],[138.699612,35.982926],[138.699391,35.983208],[138.699321,35.983247],[138.699086,35.98327],[138.698968,35.983366],[138.698844,35.983523],[138.698698,35.983726],[138.698477,35.984024],[138.698401,35.984092],[138.69829,35.984149],[138.698103,35.98416],[138.698048,35.984149],[138.697985,35.984103],[138.697958,35.98403],[138.698117,35.983523],[138.698117,35.983444],[138.698054,35.983293],[138.697999,35.983242],[138.69793,35.983219],[138.697643,35.98314],[138.697611,35.983094],[138.697606,35.983051],[138.697854,35.982842],[138.697902,35.98278],[138.697944,35.982701],[138.697944,35.982571],[138.697895,35.982476],[138.697857,35.982433],[138.697808,35.982376],[138.69775,35.982279],[138.697756,35.982185],[138.697868,35.982104],[138.69811,35.982003],[138.698207,35.98193],[138.698234,35.981885],[138.698435,35.98149],[138.698442,35.981338],[138.698373,35.981214],[138.698283,35.981153],[138.698054,35.981045],[138.697819,35.980888],[138.697494,35.980668],[138.697265,35.980522],[138.697044,35.980357],[138.696926,35.98024],[138.696497,35.979867],[138.696372,35.979805],[138.695977,35.979687],[138.695751,35.979655],[138.695642,35.979637],[138.695437,35.979632],[138.695347,35.979648],[138.694967,35.979772],[138.694672,35.979862],[138.694584,35.97985],[138.69451,35.979793],[138.694496,35.979727],[138.694532,35.979635],[138.694579,35.979542],[138.694724,35.979327],[138.694925,35.97899],[138.695154,35.978522],[138.695257,35.978257],[138.695257,35.978009],[138.695216,35.977789],[138.695132,35.97752],[138.69505,35.977351],[138.694786,35.977019],[138.694585,35.976873],[138.694068,35.976522],[138.694003,35.976478],[138.693582,35.976163],[138.693471,35.976067],[138.693229,35.975763],[138.692993,35.97551],[138.692876,35.975425],[138.692676,35.975329],[138.692169,35.975138],[138.692052,35.975082],[138.692019,35.975007],[138.692045,35.974806],[138.692045,35.974626],[138.691997,35.974536],[138.69192,35.974474],[138.691637,35.974303],[138.691457,35.974207],[138.691379,35.974159],[138.691347,35.974125],[138.691342,35.974057]]}}]}