{"type":"FeatureCollection","features":[{"type":"Feature","properties":{"id":127709273,"highway":"trunk"},"geometry":{"type":"LineString","coordinates":[[138.66954,36.097875],[138.669531,36.097907],[138.669511,36.097944],[138.66947,36.097993],[138.669398,36.098032],[138.669317,36.098042],[138.668784,36.098064],[138.668584,36.098077],[138.668378,36.098109],[138.668212,36.098141],[138.668052,36.098195],[138.667976,36.098232],[138.667902,36.09828],[138.667829,36.098326],[138.667731,36.098351],[138.667625,36.098366],[138.667503,36.098375],[138.667318,36.098354],[138.667013,36.098328],[138.666785,36.098292],[138.666556,36.098264],[138.666446,36.098272],[138.666325,36.098305],[138.666196,36.098342],[138.666069,36.09841],[138.666013,36.09847],[138.665965,36.098535],[138.665917,36.0986],[138.665856,36.098665],[138.665731,36.098716],[138.665563,36.098769],[138.665417,36.098825],[138.665238,36.098872],[138.664917,36.098938],[138.664688,36.09897],[138.664272,36.098979],[138.663851,36.098992],[138.663458,36.098975],[138.663338,36.098955],[138.663191,36.098916],[138.663057,36.098886],[138.662921,36.098877],[138.662797,36.098886],[138.662652,36.098937],[138.662476,36.09901],[138.662293,36.099097],[138.662216,36.099148],[138.662139,36.099214],[138.662046,36.099267],[138.661971,36.099278],[138.661875,36.099298],[138.661796,36.099337],[138.661753,36.099396],[138.661739,36.099455],[138.661753,36.099515],[138.661794,36.099576],[138.661876,36.099669],[138.661962,36.099746],[138.662017,36.099815],[138.662055,36.099924],[138.662139,36.100197],[138.66219,36.100319],[138.662228,36.100445],[138.662295,36.100736],[138.662324,36.100813],[138.662387,36.10087],[138.662482,36.100904],[138.662659,36.100943],[138.662746,36.100975],[138.662809,36.101014],[138.662993,36.101132],[138.663151,36.101274],[138.663179,36.101325],[138.6632,36.101385],[138.663193,36.101441],[138.663169,36.101497],[138.663075,36.101588],[138.662918,36.101707],[138.662872,36.101797],[138.662855,36.101914],[138.66288,36.102042],[138.662931,36.102168],[138.662982,36.102255],[138.663053,36.10236],[138.663204,36.102539],[138.663305,36.102644],[138.663335,36.102726],[138.663306,36.102805],[138.663182,36.102917],[138.663107,36.102961],[138.662879,36.103026],[138.662624,36.103082],[138.662534,36.103102],[138.662459,36.103132],[138.662367,36.103196],[138.662065,36.103436],[138.66195,36.103516],[138.661864,36.10354],[138.661773,36.103542],[138.661675,36.103521],[138.661519,36.10346],[138.661162,36.103227],[138.660983,36.103088],[138.660794,36.102966],[138.660468,36.102736],[138.660333,36.102672],[138.660196,36.102615],[138.660038,36.102588],[138.659906,36.102614],[138.659826,36.102659],[138.659796,36.102725],[138.659786,36.102807],[138.659828,36.102892],[138.659869,36.102983],[138.659888,36.10308],[138.659855,36.103301],[138.659848,36.103448],[138.659823,36.10361],[138.659742,36.103738],[138.659657,36.103875],[138.659643,36.103963],[138.659655,36.104059],[138.659683,36.104154],[138.659767,36.104353],[138.659765,36.104601],[138.659774,36.104923],[138.659759,36.105261],[138.659682,36.10558],[138.659616,36.105775],[138.65956,36.105869],[138.659507,36.105924],[138.65942,36.105947],[138.659342,36.105937],[138.659229,36.105881],[138.658744,36.105514],[138.658603,36.105457],[138.658481,36.105452],[138.658411,36.105459],[138.658348,36.105486],[138.658294,36.105547],[138.658267,36.105609],[138.658286,36.105704],[138.658329,36.105817],[138.658373,36.105995],[138.658363,36.106127],[138.658304,36.10621],[138.658279,36.106267],[138.658293,36.106337],[138.658343,36.106408],[138.658385,36.106465],[138.658399,36.106538],[138.658359,36.106712],[138.658379,36.106847],[138.658397,36.106958],[138.65844,36.107062],[138.658504,36.107162],[138.658736,36.107417],[138.658827,36.107528],[138.658867,36.107593],[138.658889,36.107673],[138.658866,36.107748],[138.65882,36.107825],[138.658725,36.107968],[138.658597,36.108129],[138.658448,36.108241],[138.658294,36.108302],[138.658137,36.108339],[138.657929,36.108324],[138.65772,36.108289],[138.657516,36.10825],[138.657428,36.108215],[138.657349,36.10817],[138.657229,36.108085],[138.657039,36.107995],[138.656913,36.10789],[138.656781,36.107749],[138.656659,36.107633],[138.656501,36.107524],[138.656334,36.107385],[138.65627,36.107327],[138.656197,36.107255],[138.656128,36.107198],[138.656053,36.107164],[138.65589,36.107118],[138.655771,36.107112],[138.655658,36.107139],[138.655594,36.107219],[138.655554,36.107302],[138.65548,36.107386],[138.655386,36.10747],[138.655362,36.107577],[138.65537,36.10768],[138.655433,36.107746],[138.655507,36.107785],[138.655593,36.107813],[138.655703,36.107859],[138.655852,36.107954],[138.65604,36.108105],[138.656144,36.108188],[138.656229,36.108272],[138.656325,36.108397],[138.656419,36.108538],[138.656485,36.108633],[138.656534,36.108722],[138.656561,36.108856],[138.656552,36.108982],[138.656501,36.109073],[138.656423,36.109168],[138.656385,36.10923],[138.656382,36.109307],[138.656427,36.10935],[138.656499,36.10938],[138.656568,36.109391],[138.656645,36.109366],[138.656811,36.109291],[138.656907,36.109251],[138.657003,36.109243],[138.657139,36.109262],[138.65737,36.109353],[138.657548,36.109444],[138.657766,36.109506],[138.657948,36.109563],[138.658108,36.109638],[138.658201,36.109729],[138.658296,36.109775],[138.658412,36.109767],[138.658545,36.109716],[138.658748,36.109604],[138.658945,36.109534],[138.659315,36.109422],[138.659565,36.109333],[138.659751,36.109282],[138.659931,36.10922],[138.660051,36.109164],[138.660167,36.109091],[138.660245,36.108995],[138.660323,36.108829],[138.660388,36.108768],[138.660459,36.108725],[138.660718,36.108659],[138.661003,36.108594],[138.661292,36.108518],[138.66146,36.108459],[138.661601,36.108395],[138.661729,36.108329],[138.661792,36.108256],[138.661835,36.10815],[138.661865,36.108029],[138.661882,36.107918],[138.661877,36.107798],[138.661893,36.107732],[138.661953,36.107655],[138.662063,36.107601],[138.662166,36.107544],[138.662336,36.107413],[138.662408,36.107365],[138.662487,36.107333],[138.662576,36.107348],[138.662734,36.107366],[138.662863,36.107349],[138.663074,36.107272],[138.663191,36.107255],[138.663534,36.107265],[138.663679,36.107245],[138.663906,36.107189],[138.664078,36.107152],[138.664297,36.107135],[138.664566,36.107128],[138.664899,36.107096],[138.665423,36.107069],[138.665613,36.107087],[138.665788,36.107121],[138.665972,36.10717],[138.666061,36.107209],[138.666113,36.10727],[138.666111,36.107346],[138.666075,36.107422],[138.66599,36.107599],[138.665946,36.107866],[138.665827,36.108157],[138.665721,36.108428],[138.665681,36.108762],[138.665685,36.108841],[138.665741,36.108882],[138.66581,36.108862],[138.66588,36.108809],[138.666077,36.108616],[138.666311,36.108466],[138.666483,36.108318],[138.666616,36.108169],[138.666739,36.10801],[138.66702,36.10776],[138.667282,36.107547],[138.667523,36.107407],[138.667736,36.107323]]}},{"type":"Feature","properties":{"id":127709325,"highway":"secondary"},"geometry":{"type":"LineString","coordinates":[[138.64853,36.069688],[138.648487,36.069727],[138.648467,36.069786],[138.648487,36.069834],[138.64853,36.06985]]}},{"type":"Feature","properties":{"id":127709341,"highway":"secondary"},"geometry":{"type":"LineString","coordinates":[[138.703094,36.071714],[138.703012,36.071686],[138.702761,36.071595],[138.702262,36.071319],[138.701874,36.071156],[138.701729,36.071082],[138.701631,36.071009],[138.701458,36.070812],[138.701424,36.070739],[138.701361,36.070542],[138.701313,36.070243],[138.701306,36.069968],[138.701264,36.069866],[138.701202,36.069804],[138.701119,36.069753],[138.700918,36.06968],[138.700688,36.069624],[138.700618,36.069596],[138.700515,36.069517],[138.700417,36.069325],[138.700417,36.069101],[138.700467,36.068752],[138.700467,36.068414],[138.700438,36.068329],[138.700358,36.068204],[138.700263,36.0681],[138.700202,36.068078],[138.700043,36.068104],[138.699787,36.068155],[138.69953,36.068155],[138.699232,36.068088],[138.699102,36.068042],[138.698997,36.06798],[138.698935,36.067924],[138.698845,36.067794],[138.69881,36.067648],[138.69883,36.067507],[138.69883,36.067358],[138.698793,36.067285],[138.698667,36.067186],[138.698547,36.067119],[138.698442,36.067085],[138.698165,36.067057],[138.698068,36.067023],[138.697902,36.066933],[138.69785,36.066891],[138.69768,36.066753],[138.697576,36.06664],[138.6975,36.066511],[138.697479,36.066421],[138.697446,36.06623],[138.697431,36.066144],[138.697369,36.066049],[138.697216,36.065919],[138.697071,36.065869],[138.696807,36.065869],[138.696482,36.065908],[138.696108,36.065908],[138.696084,36.065903],[138.695928,36.065882],[138.695786,36.065865],[138.695632,36.065842],[138.695471,36.065819],[138.695357,36.065788],[138.695225,36.06575],[138.695096,36.065705],[138.694888,36.065621],[138.694562,36.065458],[138.694423,36.065474],[138.694298,36.065519],[138.694243,36.065548],[138.693986,36.065677],[138.693695,36.065824],[138.693564,36.065874],[138.693446,36.065914],[138.693224,36.065947],[138.692753,36.065981],[138.692586,36.065981],[138.692483,36.065953],[138.692261,36.065795],[138.692101,36.065795],[138.692053,36.065812],[138.692025,36.065812],[138.691907,36.065902],[138.691826,36.066016],[138.691776,36.066088],[138.691644,36.066212],[138.691512,36.066285],[138.691471,36.066318],[138.691418,36.066332],[138.691333,36.066331],[138.691289,36.06633],[138.691166,36.066313],[138.691028,36.066281],[138.690902,36.066245],[138.690779,36.066204],[138.690679,36.066151],[138.690597,36.066094],[138.69032,36.065936],[138.690174,36.065874],[138.689987,36.065874],[138.689842,36.065919],[138.68937,36.066116],[138.688912,36.066128],[138.688676,36.066133],[138.688392,36.066043],[138.688288,36.06602],[138.688032,36.06602],[138.687789,36.066077],[138.687443,36.066195],[138.686971,36.066245],[138.68686,36.066295],[138.686702,36.066414],[138.686487,36.066594],[138.686328,36.066667],[138.685953,36.066774],[138.685538,36.066926],[138.685316,36.067033],[138.685128,36.067151],[138.684962,36.067298],[138.684692,36.067596],[138.684428,36.067901],[138.684338,36.067958],[138.684255,36.06798],[138.683631,36.067974],[138.683528,36.067929],[138.683153,36.067642],[138.683028,36.067591],[138.682876,36.067552],[138.682231,36.067529],[138.682065,36.067496],[138.681906,36.067439],[138.681781,36.067383],[138.681663,36.067299],[138.681545,36.067135],[138.681462,36.066961],[138.681421,36.066775],[138.681425,36.066645],[138.681428,36.066565],[138.681476,36.066363],[138.681545,36.06625],[138.681642,36.066149],[138.681823,36.066019],[138.681927,36.065968],[138.682328,36.065867],[138.682446,36.065845],[138.682557,36.065794],[138.682606,36.065743],[138.68264,36.065473],[138.682661,36.065118],[138.682626,36.064933],[138.682474,36.064567],[138.682419,36.064483],[138.682301,36.064398],[138.682211,36.064342],[138.682107,36.064252],[138.682107,36.064184],[138.682134,36.064106],[138.68228,36.063892],[138.682356,36.063768],[138.682368,36.063737],[138.682378,36.063704],[138.682375,36.063678],[138.682369,36.063656],[138.682363,36.063644],[138.682343,36.063622],[138.682322,36.06361],[138.682289,36.063605],[138.682254,36.063607],[138.682231,36.063612],[138.682213,36.06363],[138.682148,36.063739],[138.682112,36.063791],[138.682079,36.063829],[138.682021,36.063872],[138.681961,36.063903],[138.681712,36.063976],[138.68142,36.064027],[138.681324,36.064089],[138.680998,36.064421],[138.68074,36.0646],[138.680547,36.064707],[138.680352,36.06478],[138.680277,36.064814],[138.68022,36.065033],[138.680172,36.065287],[138.68009,36.065467],[138.679832,36.065833],[138.679799,36.065923],[138.67975,36.06612],[138.679707,36.066229],[138.679684,36.066273],[138.679652,36.066306],[138.6796,36.066348],[138.679555,36.066369],[138.679492,36.066394],[138.679444,36.066403],[138.679405,36.066407],[138.679372,36.066403],[138.679345,36.066389],[138.67933,36.066374],[138.679322,36.066353],[138.679319,36.066329],[138.67933,36.066305],[138.679395,36.066223],[138.679487,36.066093],[138.679549,36.065929],[138.679549,36.065692],[138.679667,36.065507],[138.679735,36.065326],[138.679735,36.065265],[138.679735,36.06514],[138.679639,36.064825],[138.679514,36.064561],[138.679497,36.064522],[138.679497,36.064485],[138.679507,36.064418],[138.6795,36.064378],[138.679481,36.064348],[138.679443,36.064329],[138.679376,36.06432],[138.6793,36.064324],[138.679254,36.06434],[138.679218,36.064367],[138.679207,36.064403],[138.679215,36.064446],[138.679307,36.064724],[138.67939,36.06514],[138.679395,36.065411],[138.679375,36.065518],[138.679305,36.065664],[138.679215,36.065788],[138.679064,36.065924],[138.678904,36.066036],[138.67873,36.066105],[138.678579,36.066144],[138.678287,36.066144],[138.678107,36.06611],[138.677677,36.066009],[138.67751,36.065986],[138.677226,36.065986],[138.677087,36.066008],[138.67697,36.066026],[138.676789,36.066082],[138.676222,36.066307],[138.675896,36.066386],[138.675661,36.066386],[138.675508,36.066363],[138.675203,36.066296],[138.674961,36.066296],[138.674656,36.066386],[138.674496,36.066425],[138.674254,36.066425],[138.674136,36.066403],[138.673845,36.066403],[138.673616,36.066476],[138.673339,36.066555],[138.673152,36.066572],[138.672972,36.066555],[138.672313,36.066425],[138.672091,36.066425],[138.671773,36.066493],[138.671592,36.066527],[138.671412,36.066527],[138.671218,36.06647],[138.671065,36.066476],[138.670906,36.066527],[138.670739,36.066561],[138.670525,36.066561],[138.670317,36.066521],[138.670164,36.066521],[138.670054,36.066555],[138.669936,36.066583],[138.669679,36.066662],[138.66934,36.066713],[138.66882,36.066724],[138.668738,36.066721],[138.668673,36.066712],[138.668472,36.066656],[138.668422,36.066647],[138.668382,36.066656],[138.668354,36.066669],[138.668327,36.066699],[138.668322,36.066728],[138.668331,36.06676],[138.66841,36.066893],[138.668429,36.066956],[138.668417,36.067022],[138.668354,36.067152],[138.668264,36.067399],[138.66823,36.067574],[138.668223,36.067811],[138.668202,36.067889],[138.668091,36.068115],[138.66805,36.068272],[138.668028,36.068357],[138.668022,36.068379],[138.66801,36.068403],[138.667993,36.068432],[138.66797,36.068452],[138.667941,36.068466],[138.667907,36.068467],[138.667878,36.068461],[138.667858,36.068453],[138.667845,36.068448],[138.667828,36.068424],[138.667823,36.068346],[138.667828,36.068256],[138.66787,36.068041],[138.667952,36.067828],[138.66796,36.067416],[138.668035,36.067157],[138.668035,36.067056],[138.668015,36.06696],[138.66798,36.066893],[138.667814,36.066656],[138.667758,36.066527],[138.667752,36.066403],[138.667772,36.066234],[138.667745,36.066059],[138.667758,36.065828],[138.667758,36.065783],[138.667745,36.065727],[138.66773,36.065696],[138.667698,36.065684],[138.667658,36.065684],[138.667613,36.065693],[138.667583,36.065716],[138.667557,36.065744],[138.66753,36.065823],[138.66756,36.065952],[138.667565,36.066082],[138.667543,36.066251],[138.667453,36.066482],[138.667495,36.066633],[138.667613,36.066819],[138.66771,36.066994],[138.667703,36.06709],[138.66764,36.067276],[138.667592,36.067597],[138.667475,36.067861],[138.667405,36.068199],[138.667377,36.068278],[138.66735,36.068312],[138.667287,36.068357],[138.667045,36.068419],[138.666726,36.068458],[138.666303,36.068503],[138.665991,36.068509],[138.6657,36.068464],[138.665672,36.068452],[138.665236,36.068452],[138.665028,36.068419],[138.664813,36.068368],[138.664661,36.068368],[138.664363,36.068458],[138.664093,36.06852],[138.663885,36.068526],[138.663703,36.068519],[138.663587,36.068514],[138.663561,36.068523],[138.663531,36.068534],[138.663483,36.068565],[138.663213,36.068744],[138.663129,36.068778],[138.662963,36.068823],[138.662686,36.068879],[138.662533,36.068868],[138.662201,36.068823],[138.661972,36.068767],[138.661918,36.068749],[138.661864,36.068721],[138.661788,36.068665],[138.661715,36.068607],[138.661598,36.068525],[138.661486,36.068436],[138.661189,36.068255],[138.661036,36.068204],[138.660731,36.068154],[138.660669,36.068131],[138.660461,36.06803],[138.660336,36.068036],[138.66026,36.068047],[138.660128,36.068047],[138.659906,36.067979],[138.659525,36.067855],[138.659337,36.06781],[138.65895,36.067748],[138.658465,36.067748],[138.658207,36.067816],[138.658042,36.067883],[138.657994,36.067911],[138.657979,36.06797],[138.658009,36.068026],[138.658104,36.068091],[138.658332,36.068209],[138.658409,36.06826],[138.658429,36.068304],[138.658407,36.068336],[138.658347,36.068373],[138.658229,36.068378],[138.657591,36.068158],[138.657369,36.068097],[138.657224,36.068075],[138.656967,36.068063],[138.656495,36.068057],[138.656384,36.068085],[138.656253,36.068137],[138.655837,36.068373],[138.655697,36.068465],[138.65566,36.068485],[138.65564,36.068487],[138.655615,36.068482],[138.655565,36.068452],[138.655495,36.068392],[138.655427,36.068325],[138.6554,36.068288],[138.655407,36.068237],[138.655483,36.068085],[138.655553,36.06799],[138.65567,36.067866],[138.655775,36.067785],[138.655962,36.06764],[138.65619,36.0675],[138.656287,36.067421],[138.656308,36.067353],[138.656294,36.067247],[138.656093,36.066864],[138.65601,36.066616],[138.655976,36.066554],[138.655595,36.066098],[138.655346,36.065873],[138.655145,36.065546],[138.655034,36.065451],[138.654791,36.065288],[138.654521,36.065028],[138.654459,36.064989],[138.65414,36.064814],[138.653814,36.064561],[138.653593,36.064454],[138.653128,36.064138],[138.652948,36.064059],[138.652844,36.064037],[138.65258,36.064031],[138.652528,36.06405],[138.652487,36.064085],[138.652482,36.064122],[138.652493,36.064164],[138.652519,36.064187],[138.652532,36.064195],[138.652629,36.064229],[138.65283,36.064257],[138.652948,36.064285],[138.653024,36.064319],[138.653149,36.064414],[138.653288,36.064578],[138.653419,36.064685],[138.653599,36.064781],[138.653821,36.064916],[138.653904,36.065017],[138.65398,36.06513],[138.653994,36.06518],[138.654008,36.065479],[138.654063,36.065535],[138.654264,36.065614],[138.654403,36.065693],[138.654514,36.065806],[138.654576,36.065907],[138.654701,36.066183],[138.654805,36.06629],[138.654999,36.066425],[138.655041,36.066509],[138.655046,36.066679],[138.655048,36.066729],[138.655117,36.066948],[138.655117,36.06701],[138.655089,36.067049],[138.65484,36.06724],[138.654729,36.06736],[138.654706,36.067378],[138.654674,36.067395],[138.654611,36.067415],[138.654531,36.067428],[138.654445,36.067421],[138.654292,36.067405],[138.654077,36.067387],[138.654023,36.067385],[138.653963,36.067394],[138.653889,36.067413],[138.653827,36.06747],[138.653786,36.067533],[138.653745,36.06764],[138.653689,36.067928],[138.653634,36.068035],[138.653571,36.06808],[138.653426,36.068085],[138.653356,36.068063],[138.653155,36.067978],[138.652996,36.067922],[138.65283,36.067888],[138.652518,36.067872],[138.652421,36.067848],[138.652282,36.067798],[138.652158,36.06772],[138.652095,36.067668],[138.651644,36.06719],[138.651548,36.067112],[138.651388,36.067038],[138.651236,36.066993],[138.651028,36.06696],[138.65075,36.066948],[138.650705,36.066968],[138.650697,36.066987],[138.650695,36.067022],[138.650709,36.067072],[138.650875,36.06728],[138.650979,36.067455],[138.651034,36.06759],[138.651041,36.067742],[138.651,36.067832],[138.650903,36.067933],[138.650813,36.068007],[138.650667,36.068085],[138.650424,36.068165],[138.649988,36.068265],[138.649905,36.0683],[138.649874,36.068314],[138.649842,36.068345],[138.649821,36.06838],[138.649824,36.068417],[138.649974,36.068638],[138.650023,36.068728],[138.650022,36.068744],[138.65001,36.068766],[138.649987,36.068787],[138.649946,36.068818],[138.6496,36.069027],[138.648983,36.069421],[138.648671,36.069584],[138.648585,36.069639],[138.64853,36.069688]]}},{"type":"Feature","properties":{"id":127709588,"highway":"unclassified"},"geometry":{"type":"LineString","coordinates":[[138.672125,36.02037],[138.672095,36.02037],[138.672065,36.020359],[138.672052,36.020333],[138.672033,36.020275],[138.671985,36.020207],[138.671907,36.020149]]}},{"type":"Feature","properties":{"id":127709724,"highway":"unclassified"},"geometry":{"type":"LineString","coordinates":[[138.682386,36.091261],[138.682248,36.091126],[138.682174,36.0911],[138.682089,36.091101],[138.682003,36.091136],[138.681827,36.091278],[138.681465,36.091535],[138.681407,36.091611],[138.68136,36.091696],[138.681214,36.091899],[138.681081,36.09205],[138.680981,36.092155],[138.680882,36.092214],[138.680794,36.092247],[138.680669,36.092292],[138.680601,36.092346],[138.680551,36.092433],[138.680591,36.092567],[138.680646,36.092645],[138.68077,36.092705],[138.680964,36.092738],[138.681173,36.092818],[138.681327,36.092938],[138.681405,36.093053],[138.681468,36.093171],[138.681525,36.093354],[138.681523,36.093579],[138.681502,36.093812],[138.681562,36.094056],[138.68167,36.09425],[138.681737,36.094401],[138.681746,36.094544],[138.681822,36.094748],[138.681896,36.094917],[138.681968,36.095072],[138.681983,36.095165],[138.68198,36.09527],[138.681882,36.095467],[138.681777,36.09568],[138.681756,36.095822],[138.681749,36.09592],[138.681735,36.096006],[138.681696,36.096094],[138.681643,36.096156],[138.681541,36.096211],[138.681317,36.096247],[138.681061,36.096301],[138.680909,36.096321],[138.680699,36.096337],[138.680331,36.096306],[138.67985,36.096336],[138.679665,36.096307],[138.679468,36.096323],[138.67936,36.096367],[138.67925,36.096429],[138.679016,36.096544],[138.678871,36.096604],[138.67861,36.09667],[138.678451,36.096671],[138.678276,36.096632],[138.678122,36.096593],[138.678064,36.096614],[138.67801,36.096666],[138.677957,36.096756],[138.677878,36.096917],[138.677778,36.09704],[138.677647,36.097192],[138.677521,36.097312],[138.677421,36.09737],[138.677315,36.097424],[138.676963,36.097525],[138.676606,36.097621],[138.676437,36.09766],[138.676342,36.097653],[138.676096,36.097599],[138.675869,36.097527],[138.675588,36.097406],[138.675389,36.097312],[138.675307,36.097245],[138.675201,36.097117],[138.675132,36.097074],[138.675032,36.097054],[138.67491,36.097091],[138.674774,36.09718],[138.674576,36.097299],[138.674426,36.097385],[138.674291,36.097442],[138.674039,36.097523],[138.673519,36.097738],[138.67319,36.09784],[138.672891,36.097902],[138.672544,36.097967],[138.672365,36.098002],[138.67189,36.098146],[138.671803,36.098162],[138.671694,36.098178],[138.671524,36.098185],[138.671456,36.098197],[138.671404,36.09821],[138.671333,36.098255],[138.671189,36.098402],[138.671104,36.098445],[138.671017,36.09848],[138.670957,36.098513],[138.6708,36.098646],[138.670721,36.098698],[138.670662,36.098706],[138.670611,36.098675],[138.670575,36.098617],[138.670581,36.098557],[138.670628,36.098476],[138.670736,36.098368],[138.670765,36.098283],[138.670752,36.098225],[138.670692,36.098158],[138.670541,36.098096],[138.669654,36.097888],[138.66954,36.097875]]}},{"type":"Feature","properties":{"id":127837181,"highway":"secondary"},"geometry":{"type":"LineString","coordinates":[[138.617454,36.070447],[138.617653,36.07049],[138.618034,36.070479],[138.61827,36.070462],[138.618485,36.070456],[138.619032,36.070417],[138.619455,36.070422],[138.619629,36.070434],[138.619759,36.070434],[138.621015,36.070292],[138.621272,36.070184],[138.621399,36.070094],[138.62186,36.069775],[138.622047,36.069612],[138.622242,36.069492],[138.622352,36.06943],[138.622707,36.069295],[138.622786,36.069277],[138.622873,36.069256],[138.623025,36.069233],[138.623462,36.069222],[138.623615,36.069188],[138.623754,36.069149],[138.624079,36.068985],[138.624481,36.06876],[138.624814,36.068598],[138.625091,36.068482],[138.62534,36.068413],[138.625521,36.068412],[138.625586,36.068444],[138.625618,36.068491],[138.625618,36.068604],[138.625583,36.068688],[138.625472,36.068879],[138.625126,36.069312],[138.625022,36.069413],[138.624793,36.069593],[138.624662,36.069667],[138.624259,36.069842],[138.624058,36.069948],[138.624016,36.069985],[138.623982,36.070038],[138.623987,36.070099],[138.624017,36.070123],[138.624086,36.070154],[138.624169,36.070162],[138.624468,36.070033],[138.624648,36.069937],[138.624814,36.06987],[138.624897,36.069858],[138.625396,36.069813],[138.625861,36.069808],[138.626013,36.069836],[138.626186,36.069909],[138.626796,36.070286],[138.626907,36.07032],[138.627129,36.07032],[138.627268,36.070292],[138.627281,36.070281],[138.627372,36.070202],[138.627413,36.070112],[138.62751,36.069825],[138.627559,36.069729],[138.627621,36.069701],[138.627711,36.069673],[138.627864,36.069662],[138.628072,36.069617],[138.628127,36.069583],[138.62821,36.069465],[138.62828,36.069302],[138.628328,36.069116],[138.628439,36.068834],[138.628491,36.068801],[138.628548,36.068794],[138.628619,36.068808],[138.628869,36.068913],[138.629111,36.069049],[138.629264,36.069178],[138.629354,36.069319],[138.62952,36.069724],[138.629652,36.06996],[138.629728,36.07005],[138.62984,36.070122],[138.62986,36.070134],[138.629929,36.070157],[138.630303,36.070174],[138.63047,36.070191],[138.630656,36.07023],[138.63076,36.070275],[138.63094,36.070399],[138.631155,36.070534],[138.631229,36.070538],[138.631305,36.070523],[138.63137,36.070495],[138.63139,36.070468],[138.631437,36.070384],[138.631467,36.070292],[138.631503,36.070189],[138.631528,36.070129],[138.631553,36.070079],[138.631611,36.070043],[138.631654,36.070031],[138.63173,36.070023],[138.631903,36.07004],[138.632104,36.070079],[138.632576,36.070209],[138.632791,36.070209],[138.633394,36.070085],[138.633581,36.070085],[138.633685,36.070113],[138.633796,36.070175],[138.634026,36.070344],[138.634095,36.070406],[138.634129,36.070485],[138.634143,36.070878],[138.634154,36.07091],[138.634166,36.070939],[138.634179,36.07096],[138.634198,36.07098],[138.634223,36.070993],[138.634247,36.071001],[138.634281,36.071011],[138.634324,36.071018],[138.634538,36.071058],[138.634719,36.07108],[138.634777,36.071091],[138.634816,36.071103],[138.634853,36.071123],[138.634864,36.071131],[138.634888,36.071147],[138.634899,36.071159],[138.634907,36.071188],[138.634911,36.071214],[138.634909,36.071234],[138.634903,36.071256],[138.634892,36.071271],[138.634875,36.071285],[138.634841,36.071304],[138.63476,36.071328],[138.63467,36.071339],[138.634556,36.071345],[138.634425,36.071343],[138.634327,36.071349],[138.634293,36.071358],[138.634259,36.071371],[138.634229,36.071392],[138.634206,36.071424],[138.634205,36.07146],[138.634221,36.071497],[138.63426,36.071522],[138.634299,36.071547],[138.634349,36.071578],[138.634393,36.071593],[138.634431,36.071601],[138.634469,36.071593],[138.634649,36.071559],[138.634871,36.071542],[138.634982,36.071553],[138.63519,36.071604],[138.635252,36.071604],[138.635301,36.071537],[138.635314,36.071424],[138.635321,36.071097],[138.63564,36.070536],[138.635786,36.070338],[138.635876,36.070288],[138.635973,36.070243],[138.636284,36.070203],[138.636389,36.070192],[138.636514,36.070147],[138.636598,36.070113],[138.637553,36.06973],[138.637789,36.069629],[138.637983,36.069499],[138.638108,36.069398],[138.638149,36.069319],[138.638143,36.06924],[138.638087,36.069167],[138.637942,36.069049],[138.637789,36.068953],[138.637637,36.068891],[138.637193,36.06879],[138.637034,36.068716],[138.636722,36.068458],[138.63659,36.068362],[138.636271,36.068164],[138.636104,36.068074],[138.636029,36.068033],[138.635975,36.067998],[138.635942,36.067972],[138.635924,36.067947],[138.635926,36.067909],[138.635962,36.06787],[138.635998,36.067847],[138.636024,36.067842],[138.636265,36.067839],[138.636422,36.067854],[138.636632,36.067849],[138.636805,36.06781],[138.636943,36.067799],[138.637623,36.067906],[138.637983,36.067894],[138.638212,36.067849],[138.638441,36.067861],[138.638552,36.067877],[138.639002,36.067872],[138.639162,36.067855],[138.639238,36.067821],[138.639501,36.067663],[138.639598,36.067618],[138.639799,36.067556],[138.639966,36.067528],[138.640236,36.067506],[138.640638,36.067494],[138.640721,36.067444],[138.640853,36.067185],[138.640915,36.06701],[138.640908,36.066926],[138.640832,36.066808],[138.640563,36.066499],[138.64034,36.066244],[138.640208,36.066092],[138.640206,36.066078],[138.640208,36.066064],[138.64023,36.066049],[138.64025,36.06604],[138.640301,36.066038],[138.640437,36.066053],[138.640521,36.066069],[138.640984,36.066115],[138.641262,36.06612],[138.641345,36.066098],[138.641393,36.06607],[138.641518,36.065957],[138.641588,36.065872],[138.641636,36.065777],[138.641671,36.065613],[138.641678,36.064953],[138.641719,36.064875],[138.641809,36.06479],[138.64208,36.064582],[138.642135,36.06451],[138.642253,36.064177],[138.642308,36.064053],[138.642324,36.064032],[138.642336,36.06402],[138.642426,36.063996],[138.642504,36.063995],[138.642695,36.063998],[138.642823,36.064],[138.642832,36.064092],[138.642845,36.064212],[138.642964,36.064348],[138.643051,36.064495],[138.643059,36.064639],[138.64304,36.064741],[138.643024,36.064867],[138.643008,36.064999],[138.643092,36.065168],[138.643286,36.065472],[138.643424,36.065642],[138.643514,36.065725],[138.643771,36.065872],[138.644034,36.06607],[138.644152,36.066115],[138.644303,36.066115],[138.644484,36.066087],[138.64474,36.066012],[138.644941,36.06595],[138.64506,36.065942],[138.645108,36.065945],[138.645135,36.06595],[138.64517,36.065968],[138.6452,36.065985],[138.645225,36.066013],[138.64525,36.066053],[138.645275,36.066093],[138.645288,36.06612],[138.645306,36.066147],[138.645338,36.066184],[138.645365,36.066207],[138.645395,36.066232],[138.645413,36.066247],[138.645442,36.066267],[138.645467,36.06628],[138.645483,36.066288],[138.645527,36.066307],[138.645573,36.066322],[138.645625,36.066333],[138.645767,36.066367],[138.64596,36.066447],[138.646099,36.06653],[138.646162,36.066605],[138.646335,36.06697],[138.646403,36.06715],[138.646403,36.067219],[138.646237,36.067433],[138.646133,36.06751],[138.645932,36.06754],[138.64569,36.067557],[138.645587,36.067579],[138.6454,36.067658],[138.645322,36.067703],[138.645218,36.067793],[138.645142,36.067883],[138.645052,36.068092],[138.64501,36.06821],[138.644995,36.068302],[138.645007,36.068357],[138.645032,36.068418],[138.645163,36.068497],[138.64539,36.068601],[138.64543,36.068624],[138.64546,36.068647],[138.645482,36.068669],[138.645503,36.068704],[138.64551,36.068722],[138.645523,36.068772],[138.645527,36.068839],[138.645533,36.068902],[138.645542,36.06896],[138.645548,36.06899],[138.645565,36.069031],[138.645587,36.069057],[138.645738,36.069235],[138.64576,36.069297],[138.645745,36.069347],[138.645468,36.069533],[138.645407,36.069601],[138.645322,36.06977],[138.645298,36.069798],[138.645288,36.069809],[138.645192,36.069877],[138.645045,36.069956],[138.645017,36.069971],[138.644995,36.070019],[138.644995,36.070057],[138.645007,36.070089],[138.645069,36.070272],[138.645142,36.070383],[138.645224,36.070477],[138.645334,36.070538],[138.645465,36.070584],[138.645653,36.07063],[138.645912,36.070608],[138.646477,36.070589],[138.646708,36.070537],[138.646827,36.07054],[138.646963,36.070556],[138.647026,36.070566],[138.647062,36.07059],[138.647094,36.070622],[138.647095,36.070674],[138.647048,36.070713],[138.646614,36.070765],[138.646509,36.070782],[138.646413,36.070797],[138.646341,36.070814],[138.64628,36.070839],[138.646208,36.070884],[138.646154,36.070931],[138.646127,36.071005],[138.646147,36.071094],[138.646168,36.0712],[138.646173,36.071253],[138.646173,36.071309],[138.646173,36.071334],[138.646162,36.071346],[138.646098,36.071386],[138.645835,36.071493],[138.64571,36.071499],[138.645385,36.071408],[138.64528,36.071391],[138.645107,36.071408],[138.645038,36.071425],[138.644927,36.071583],[138.644797,36.071927],[138.644705,36.072096],[138.644615,36.072219],[138.644213,36.072613],[138.6442,36.072653],[138.644207,36.072688],[138.644248,36.072723],[138.64429,36.072737],[138.64474,36.072742],[138.644878,36.072759],[138.645073,36.072804],[138.645212,36.07286],[138.645488,36.073018],[138.645558,36.073047],[138.64567,36.073041],[138.64596,36.072962],[138.64614,36.072923],[138.646349,36.072929],[138.646522,36.072963],[138.646834,36.072974],[138.646931,36.072991],[138.64707,36.073048],[138.647074,36.073053],[138.647118,36.073104],[138.647229,36.073328],[138.647326,36.073446],[138.647416,36.073508],[138.647555,36.07352],[138.647964,36.073514],[138.648227,36.073475],[138.648532,36.073397],[138.648714,36.073366],[138.648752,36.07336],[138.648785,36.073351],[138.648809,36.073342],[138.648837,36.073324],[138.648858,36.073309],[138.648872,36.073295],[138.648886,36.073281],[138.648894,36.073265],[138.648899,36.073251],[138.648904,36.073237],[138.648908,36.073218],[138.64891,36.073197],[138.648909,36.073174],[138.648902,36.073148],[138.648891,36.07312],[138.648851,36.073093],[138.648685,36.073081],[138.648525,36.073109],[138.648361,36.073161],[138.64831,36.073177],[138.647971,36.073228],[138.647832,36.073233],[138.647759,36.073228],[138.647721,36.073222],[138.647618,36.073171],[138.647562,36.073081],[138.647541,36.072704],[138.647486,36.072664],[138.647347,36.072648],[138.646931,36.072631],[138.646608,36.072583],[138.64631,36.072516],[138.646238,36.072487],[138.646202,36.072463],[138.646177,36.072429],[138.64616,36.072406],[138.64615,36.072376],[138.646145,36.072343],[138.646145,36.07231],[138.646157,36.072283],[138.646163,36.072272],[138.646172,36.072263],[138.646188,36.072248],[138.646265,36.072197],[138.6465,36.072101],[138.646674,36.071989],[138.64684,36.071848],[138.647049,36.071639],[138.647104,36.071594],[138.647183,36.071562],[138.647421,36.071537],[138.647597,36.071527],[138.647805,36.071476],[138.648567,36.071353],[138.648796,36.07129],[138.648906,36.07124],[138.649014,36.071174],[138.649152,36.071111],[138.649451,36.071103],[138.649567,36.071046],[138.649715,36.070922],[138.649962,36.070673],[138.650037,36.070579],[138.650076,36.070465],[138.650085,36.070237],[138.650074,36.07017],[138.650056,36.070129],[138.650003,36.070094],[138.649865,36.070063],[138.649718,36.07003],[138.649312,36.070002],[138.648971,36.069975],[138.648811,36.069915],[138.648697,36.069896],[138.648612,36.069866],[138.64853,36.06985]]}},{"type":"Feature","properties":{"id":127839570,"highway":"unclassified"},"geometry":{"type":"LineString","coordinates":[[138.671907,36.020149],[138.669777,36.018693],[138.669479,36.01851],[138.669073,36.018296],[138.668658,36.018124],[138.653087,36.012856],[138.652724,36.012692],[138.652413,36.012519],[138.652156,36.012325],[138.651953,36.012128],[138.651565,36.011684]]}},{"type":"Feature","properties":{"id":220725573,"highway":"unclassified"},"geometry":{"type":"LineString","coordinates":[[138.68422,36.09389],[138.684237,36.093803],[138.684199,36.093698],[138.684151,36.093601],[138.684144,36.093494],[138.684179,36.093401],[138.684228,36.09318],[138.68421,36.093066],[138.684149,36.092957],[138.684107,36.092838],[138.684127,36.092761],[138.684195,36.092684],[138.684292,36.092641],[138.684418,36.092595],[138.684488,36.092544],[138.684528,36.09247],[138.684591,36.09228],[138.684618,36.09211],[138.684583,36.091919],[138.684514,36.091644],[138.684459,36.091377],[138.684448,36.091189],[138.684465,36.091],[138.684452,36.090887],[138.684397,36.090804],[138.684334,36.090731],[138.684322,36.090668],[138.684346,36.090611],[138.684421,36.090573],[138.684512,36.090585],[138.684556,36.09062],[138.684596,36.090676],[138.684627,36.090773],[138.684644,36.090849],[138.684673,36.090936],[138.684711,36.090983],[138.684769,36.091009],[138.684827,36.091002],[138.684897,36.090978],[138.684954,36.090946],[138.685051,36.090888],[138.685144,36.090832],[138.685191,36.090782],[138.685212,36.090731],[138.685191,36.090626],[138.685119,36.090489],[138.685108,36.090416],[138.685147,36.090361],[138.685189,36.090331],[138.685269,36.090335],[138.685331,36.090359],[138.685363,36.090408],[138.685404,36.090522],[138.685472,36.090745],[138.685509,36.09086],[138.685514,36.090998],[138.685487,36.091055],[138.685444,36.091115],[138.685357,36.091225],[138.685324,36.091295],[138.685311,36.091379],[138.685311,36.09148],[138.685335,36.091549],[138.68538,36.091586],[138.685445,36.0916],[138.6855,36.091598],[138.685559,36.091571],[138.685672,36.091468],[138.685727,36.091439],[138.685781,36.09144],[138.685842,36.091454],[138.685882,36.091489],[138.685875,36.091545],[138.685834,36.091622],[138.685691,36.091825],[138.685666,36.091893],[138.685668,36.091969],[138.685701,36.092019],[138.685761,36.092043],[138.685842,36.092052],[138.686054,36.092022],[138.686311,36.091986],[138.686437,36.091962],[138.68665,36.091877],[138.686833,36.091835],[138.686983,36.091828],[138.687135,36.091844],[138.687258,36.091863],[138.687389,36.091911],[138.68749,36.091937],[138.687565,36.091923],[138.68762,36.09189],[138.687633,36.091841],[138.687609,36.091781],[138.687535,36.091738],[138.68745,36.091698],[138.687306,36.091645],[138.687149,36.091609],[138.687023,36.091601],[138.686931,36.091589],[138.686826,36.091543],[138.686791,36.091509],[138.686776,36.091455],[138.686779,36.091392],[138.686821,36.091327],[138.68705,36.091131],[138.687298,36.090921],[138.687396,36.090851],[138.687481,36.090805],[138.687568,36.090784],[138.687772,36.090761],[138.687882,36.090744],[138.687959,36.090711],[138.688018,36.09066],[138.688048,36.090585],[138.688031,36.090512],[138.687988,36.090432],[138.68794,36.09038],[138.687865,36.09034],[138.687837,36.090286],[138.68786,36.090233],[138.687911,36.090195],[138.687974,36.090185],[138.688072,36.090199],[138.688248,36.090216],[138.688411,36.090228],[138.688506,36.090201],[138.688583,36.090162],[138.68867,36.090106],[138.688691,36.090044],[138.688707,36.08987],[138.688739,36.089808],[138.688778,36.089776],[138.688846,36.089788],[138.688883,36.089813],[138.688914,36.089843],[138.68898,36.089906],[138.689076,36.090028],[138.689207,36.090205],[138.689254,36.090279],[138.689288,36.090404],[138.689344,36.090596],[138.689397,36.090718],[138.689453,36.090786],[138.689511,36.090835],[138.689592,36.090869],[138.689691,36.090888],[138.689822,36.090888],[138.690108,36.090897],[138.690214,36.090916],[138.690348,36.090959],[138.690473,36.091021],[138.690557,36.091046],[138.690631,36.091065],[138.691098,36.091065],[138.691204,36.091065],[138.691279,36.091093],[138.69136,36.091149],[138.691425,36.091211],[138.691465,36.091248],[138.691537,36.091267],[138.691677,36.09127],[138.691914,36.091251],[138.692082,36.09123],[138.692221,36.09118],[138.692316,36.091107],[138.692425,36.091025],[138.692526,36.090962],[138.692662,36.090907],[138.692827,36.090875],[138.693068,36.090857],[138.693355,36.09088],[138.69351,36.090907],[138.693638,36.090916],[138.693774,36.090893],[138.693888,36.090839],[138.693975,36.090752],[138.694043,36.090648],[138.694134,36.090524],[138.694193,36.09047],[138.694257,36.090424],[138.694358,36.090415],[138.69444,36.09042],[138.694503,36.09047],[138.694532,36.090556],[138.69453,36.090907],[138.694485,36.091098],[138.694485,36.091166],[138.694508,36.091212],[138.694577,36.091248],[138.694658,36.091248],[138.694708,36.091208],[138.694754,36.091121],[138.69479,36.091066],[138.694854,36.090984],[138.694977,36.090875],[138.695077,36.090752],[138.695132,36.090661],[138.695159,36.090534],[138.695173,36.090334],[138.69521,36.09022],[138.69525,36.090083],[138.695249,36.089926],[138.695227,36.089789],[138.695185,36.089639],[138.695167,36.089529],[138.695177,36.089407],[138.695222,36.089348],[138.6953,36.08932],[138.695445,36.089311],[138.695532,36.089338],[138.695672,36.089419],[138.695675,36.089421],[138.695842,36.08952],[138.695978,36.089603],[138.696102,36.089666],[138.696225,36.089698],[138.69638,36.089734],[138.696498,36.089762],[138.696649,36.089848],[138.696804,36.089939],[138.696977,36.090026],[138.69725,36.090131],[138.697401,36.090203],[138.697523,36.090288],[138.697614,36.090369],[138.697723,36.090492],[138.697796,36.09057],[138.697873,36.090638],[138.697996,36.090706],[138.698119,36.090752],[138.698324,36.090816],[138.698488,36.090848],[138.698616,36.090848],[138.698762,36.090816],[138.698971,36.090743],[138.699103,36.09072],[138.699281,36.090706],[138.699436,36.090706],[138.699546,36.090738],[138.69965,36.090788],[138.699778,36.090829],[138.699855,36.090852],[138.699983,36.090852],[138.700092,36.090825],[138.700238,36.090747],[138.700388,36.090611],[138.700489,36.090482],[138.700566,36.090419],[138.700676,36.090356],[138.70098,36.090235],[138.701299,36.090085],[138.701563,36.089952],[138.701759,36.08983],[138.701896,36.08973],[138.701973,36.089685],[138.702155,36.089621],[138.70241,36.089539],[138.702816,36.089425],[138.703044,36.089342],[138.703194,36.089302],[138.70339,36.089271],[138.703636,36.089251],[138.703933,36.089197],[138.704142,36.089151],[138.704301,36.089087],[138.704452,36.089001],[138.704566,36.088905],[138.704629,36.08882],[138.704702,36.088651],[138.704784,36.08846],[138.704861,36.088373],[138.704921,36.088328],[138.704962,36.088307],[138.705065,36.088255],[138.705371,36.088109],[138.705498,36.088027],[138.705658,36.087873],[138.705822,36.087669],[138.706054,36.087346],[138.706159,36.087154],[138.706187,36.087057],[138.706219,36.086866],[138.706247,36.086779],[138.706297,36.086698],[138.706497,36.086497],[138.70655,36.086449],[138.70657,36.086416],[138.706579,36.086396],[138.706641,36.086114],[138.706696,36.086003],[138.70673,36.085967],[138.706762,36.085941],[138.706806,36.085913],[138.706861,36.08589],[138.7069,36.085881],[138.706993,36.085869],[138.707265,36.085861],[138.707542,36.085827],[138.707764,36.085782],[138.708007,36.085698],[138.708152,36.085619],[138.708277,36.085512],[138.708347,36.085405],[138.708424,36.085224],[138.708452,36.084995],[138.708451,36.084779],[138.708431,36.084678],[138.708347,36.084492],[138.708076,36.084143],[138.707773,36.083803],[138.707763,36.083782],[138.70775,36.083586],[138.707737,36.083529],[138.70766,36.08327],[138.707651,36.083231],[138.707651,36.08318],[138.707655,36.083112],[138.70766,36.083051],[138.70773,36.082837],[138.707743,36.082763],[138.707764,36.082375],[138.707799,36.082302],[138.707854,36.082233],[138.708029,36.082092],[138.708291,36.08193],[138.708514,36.081867],[138.708659,36.08185],[138.708916,36.08184],[138.708977,36.08182],[138.709016,36.081792],[138.709041,36.081768],[138.709052,36.081733],[138.709049,36.081699],[138.709037,36.081675],[138.70902,36.081663],[138.709007,36.081662],[138.708991,36.081658],[138.708952,36.081657],[138.708922,36.08166],[138.708646,36.081692],[138.708415,36.081702],[138.708367,36.081697],[138.708325,36.081673],[138.708297,36.081648],[138.708287,36.081613],[138.708289,36.081593],[138.708312,36.08157],[138.708354,36.081543],[138.708396,36.081527],[138.708555,36.081485],[138.708812,36.081437],[138.708869,36.081432],[138.708911,36.081437],[138.709011,36.081452],[138.709089,36.081485],[138.709332,36.081608],[138.709437,36.081672],[138.709466,36.081687],[138.709532,36.081745],[138.7096,36.08181],[138.709672,36.081873]]}},{"type":"Feature","properties":{"id":891482546,"highway":"unclassified"},"geometry":{"type":"LineString","coordinates":[[138.682386,36.091261],[138.682507,36.091406],[138.682612,36.091493],[138.682778,36.091566],[138.682957,36.091626],[138.683158,36.091709],[138.683293,36.091776],[138.683447,36.091853],[138.683719,36.092048],[138.683893,36.092199],[138.683925,36.092263],[138.683923,36.092345],[138.683882,36.092414],[138.683792,36.092519],[138.68374,36.092596],[138.683706,36.092675],[138.683702,36.092789],[138.683764,36.092931],[138.683943,36.0931],[138.684007,36.09317],[138.684027,36.093274],[138.683997,36.093397],[138.683986,36.093519],[138.684012,36.093759],[138.684041,36.093868],[138.684082,36.093899],[138.684148,36.093908],[138.68422,36.09389]]}},{"type":"Feature","properties":{"id":1316089745,"highway":"trunk"},"geometry":{"type":"LineString","coordinates":[[138.647608,36.106382],[138.647718,36.106345],[138.647882,36.106281],[138.647964,36.106238],[138.648099,36.106115],[138.648151,36.106053],[138.648185,36.106004],[138.648196,36.105943],[138.648172,36.105877],[138.648033,36.105746],[138.647875,36.105583],[138.64784,36.105501],[138.647826,36.105387],[138.647851,36.105285],[138.647926,36.10515],[138.647952,36.105008],[138.647992,36.104669],[138.648015,36.104426],[138.648041,36.104264],[138.648036,36.104223],[138.648024,36.104183],[138.648004,36.104148],[138.647963,36.104115],[138.647818,36.104031],[138.647661,36.103951],[138.647611,36.103927],[138.647534,36.10392],[138.647459,36.103926],[138.647427,36.103946],[138.64738,36.103988],[138.647337,36.104068],[138.647295,36.104106],[138.647237,36.104113],[138.64717,36.104103],[138.647099,36.104053],[138.647055,36.103996],[138.646999,36.103943],[138.646841,36.103837],[138.646773,36.103773],[138.646719,36.103711],[138.646697,36.103642],[138.646675,36.103518],[138.646644,36.103461],[138.646593,36.103406],[138.646369,36.103096],[138.64632,36.103013],[138.646311,36.102952],[138.646317,36.102909],[138.646352,36.102871],[138.646397,36.10286],[138.646473,36.102862],[138.646548,36.102861],[138.646611,36.102843],[138.646666,36.102803],[138.646694,36.102753],[138.646711,36.102683],[138.646721,36.102608],[138.646749,36.102559],[138.646812,36.102536],[138.646885,36.102533],[138.646989,36.102551],[138.647094,36.102574],[138.64719,36.102595],[138.647295,36.102603],[138.647384,36.102595],[138.647483,36.102568],[138.647586,36.102534],[138.647689,36.102523],[138.647903,36.102541],[138.648119,36.102549],[138.648328,36.102541],[138.648553,36.102516],[138.64896,36.102502],[138.649176,36.102505],[138.649397,36.102536],[138.649549,36.102517],[138.649693,36.102471],[138.649829,36.102408],[138.649874,36.102362],[138.649902,36.102315],[138.649919,36.102256],[138.649934,36.102123],[138.649978,36.102031],[138.650048,36.101914],[138.650169,36.101734],[138.650247,36.101645],[138.650345,36.10156],[138.650453,36.101476],[138.650569,36.101394],[138.650644,36.101332],[138.650676,36.101283],[138.650681,36.101222],[138.650687,36.101077],[138.650721,36.100993],[138.650773,36.100935],[138.650863,36.100912],[138.650955,36.100899],[138.651138,36.100896],[138.651237,36.100886],[138.651338,36.100874],[138.651595,36.100793],[138.651724,36.100751],[138.651841,36.100736],[138.651944,36.10071],[138.652053,36.100644],[138.652144,36.100559],[138.652309,36.100414],[138.652415,36.100326],[138.652515,36.100285],[138.652683,36.100244],[138.652774,36.100203],[138.652868,36.100131],[138.652953,36.100068],[138.653045,36.100018],[138.653169,36.099966],[138.653305,36.09993],[138.653392,36.099897],[138.653495,36.099837],[138.653574,36.099797],[138.65369,36.099777],[138.653847,36.099795],[138.653998,36.099779],[138.654262,36.099733],[138.654361,36.099705],[138.65446,36.09966],[138.654555,36.099623],[138.654649,36.099602],[138.654724,36.099614],[138.654799,36.099634],[138.654864,36.099662],[138.654915,36.099705],[138.654988,36.099796],[138.655056,36.099879],[138.655109,36.099914],[138.655164,36.099938],[138.655238,36.099957],[138.655316,36.099964],[138.655411,36.099951],[138.655502,36.099926],[138.655569,36.099896],[138.655628,36.099853],[138.655692,36.099785],[138.655745,36.099709],[138.655786,36.0996],[138.655876,36.099281],[138.655944,36.099112],[138.656077,36.098813],[138.656121,36.098736],[138.656176,36.098659],[138.656241,36.098599],[138.656313,36.098538],[138.656411,36.098482],[138.656512,36.09842],[138.656621,36.098379],[138.65673,36.09836],[138.656852,36.098337],[138.656961,36.098305],[138.657039,36.098272],[138.657109,36.098236],[138.657275,36.098125],[138.657439,36.098044],[138.657608,36.097993],[138.657813,36.097946],[138.657973,36.09789],[138.658452,36.097687],[138.658561,36.097632],[138.658666,36.097558],[138.658836,36.097414],[138.658922,36.09736],[138.659011,36.097321],[138.659118,36.097302],[138.659322,36.097278],[138.659528,36.097245],[138.659777,36.097166],[138.659962,36.097118],[138.660129,36.097093],[138.6603,36.097085],[138.660476,36.097099],[138.660574,36.097135],[138.660647,36.097175],[138.660697,36.097243],[138.660747,36.09735],[138.660788,36.097427],[138.660836,36.097466],[138.660913,36.097484],[138.66102,36.097477],[138.661241,36.09741],[138.661433,36.097343],[138.661559,36.097312],[138.661685,36.097294],[138.661921,36.097293],[138.662151,36.097315],[138.662438,36.097326],[138.662641,36.097354],[138.662745,36.097402],[138.66285,36.097489],[138.663114,36.097727],[138.66325,36.097798],[138.663405,36.097826],[138.663636,36.097845],[138.66391,36.097852],[138.664165,36.097872],[138.664416,36.097917],[138.664901,36.097974],[138.665403,36.098023],[138.665712,36.098027],[138.665858,36.098019],[138.666009,36.097977],[138.666143,36.097926],[138.666276,36.097874],[138.666404,36.097851],[138.66658,36.09784],[138.666851,36.097808],[138.667082,36.097791],[138.667299,36.097804],[138.667437,36.097825],[138.667719,36.097879],[138.668009,36.097896],[138.66826,36.097873],[138.668544,36.097822],[138.668753,36.097796],[138.668973,36.097769],[138.669319,36.097747],[138.66941,36.097758],[138.669473,36.097793],[138.669517,36.097828],[138.66954,36.097875]]}},{"type":"Feature","properties":{"id":1507717115,"highway":"service"},"geometry":{"type":"LineString","coordinates":[[138.699451,36.001366],[138.699519,36.001294],[138.699801,36.001464],[138.69998,36.001534]]}}]}