{"type":"FeatureCollection","features":[{"type":"Feature","properties":{"id":38093397,"highway":"unclassified"},"geometry":{"type":"LineString","coordinates":[[138.639195,36.716593],[138.639492,36.716725],[138.639676,36.716844],[138.639859,36.716978],[138.640005,36.717103],[138.640211,36.717326],[138.640461,36.71761],[138.640603,36.717795],[138.640701,36.717937],[138.640749,36.718018],[138.640772,36.718075],[138.640774,36.718135],[138.640773,36.718217],[138.640766,36.718293],[138.640784,36.718333],[138.641866,36.71907],[138.641895,36.719107],[138.641907,36.719148],[138.641908,36.719216],[138.641915,36.719358],[138.641945,36.719427],[138.641981,36.719477],[138.642023,36.719537],[138.642065,36.719595],[138.642091,36.719646],[138.642104,36.719797],[138.642125,36.719841],[138.642147,36.71988],[138.642197,36.719937],[138.642249,36.719986],[138.642306,36.720023],[138.642354,36.720039],[138.642405,36.720047],[138.642466,36.720032],[138.642517,36.720006],[138.642646,36.719903],[138.642866,36.719678],[138.64308,36.719461],[138.643152,36.719387],[138.643289,36.719318],[138.643435,36.719311],[138.64353,36.719332],[138.643575,36.719384],[138.643597,36.719482],[138.643611,36.719724],[138.64362,36.719869],[138.643656,36.719938],[138.643692,36.719965],[138.643749,36.719967]]}},{"type":"Feature","properties":{"id":187551653,"highway":"unclassified"},"geometry":{"type":"LineString","coordinates":[[138.644839,36.717995],[138.644871,36.717953],[138.644916,36.717826],[138.64503,36.717618],[138.645156,36.717477],[138.645218,36.717421],[138.64533,36.717348],[138.645421,36.717285],[138.645582,36.717201],[138.645625,36.717139],[138.645615,36.7169],[138.645644,36.716845],[138.645687,36.716783],[138.645848,36.71662],[138.64599,36.716496],[138.64601,36.716462],[138.646005,36.716407],[138.645992,36.716373],[138.645948,36.716331],[138.645915,36.716322],[138.645554,36.71644],[138.645449,36.716502],[138.645282,36.716659],[138.645184,36.716728],[138.645126,36.716748],[138.645094,36.716755],[138.644961,36.716795],[138.644828,36.716835],[138.644653,36.716874],[138.644515,36.716883],[138.644388,36.716873],[138.644332,36.716839],[138.644314,36.716809],[138.644299,36.71676],[138.644351,36.716655],[138.644436,36.716377],[138.644462,36.716258],[138.644507,36.71608],[138.644549,36.716],[138.644639,36.71591],[138.644772,36.715826],[138.644933,36.715742]]}},{"type":"Feature","properties":{"id":187551805,"highway":"service"},"geometry":{"type":"LineString","coordinates":[[138.639195,36.716593],[138.63904,36.716626],[138.638675,36.716762],[138.638285,36.71703],[138.637974,36.717234],[138.637853,36.717266],[138.637785,36.717264],[138.63775,36.71726],[138.637657,36.717234],[138.63719,36.716961],[138.637159,36.716944],[138.637074,36.716933],[138.63701,36.716976],[138.636982,36.717004],[138.636975,36.71705],[138.636984,36.717099],[138.636998,36.717144],[138.637029,36.717187],[138.637252,36.717322],[138.637704,36.717481],[138.63789,36.717505],[138.638299,36.717498],[138.638399,36.717524],[138.638441,36.717556],[138.638456,36.717589],[138.638452,36.71765],[138.63842,36.717698],[138.638349,36.717725],[138.638285,36.717737],[138.638224,36.717737],[138.638175,36.71773],[138.638034,36.717698],[138.637858,36.717687],[138.637435,36.717721],[138.637211,36.717702],[138.636935,36.717627],[138.636625,36.717427],[138.636513,36.717337],[138.636468,36.717329],[138.636429,36.717337],[138.636408,36.717352],[138.636389,36.717385],[138.636388,36.717417],[138.636396,36.717445],[138.636587,36.71759],[138.636835,36.717792],[138.636996,36.717872],[138.637213,36.717895],[138.637365,36.7179],[138.637463,36.717922],[138.637534,36.717957],[138.637582,36.718011],[138.637596,36.718029],[138.637587,36.718052],[138.637554,36.718074]]}},{"type":"Feature","properties":{"id":187873931,"highway":"trunk"},"geometry":{"type":"LineString","coordinates":[[138.657183,36.655465],[138.657597,36.655618],[138.657855,36.655728],[138.657966,36.655824],[138.658069,36.655941],[138.658182,36.656048],[138.658275,36.656113],[138.65837,36.656148],[138.658524,36.656134],[138.658679,36.656079],[138.658922,36.65594],[138.659177,36.655817],[138.659313,36.655785],[138.659391,36.655783],[138.6595,36.655813],[138.659594,36.655881],[138.659706,36.65602],[138.659742,36.656067],[138.659806,36.656083],[138.659875,36.656064],[138.659926,36.656],[138.660008,36.655811],[138.660054,36.655651],[138.660009,36.655459],[138.659941,36.655246],[138.65982,36.654991],[138.659692,36.654709],[138.659623,36.654426],[138.659571,36.654123],[138.659537,36.653869],[138.659614,36.653731],[138.659735,36.653669],[138.659906,36.653697],[138.660044,36.653765],[138.660052,36.653834],[138.660026,36.653917],[138.659966,36.654082],[138.659872,36.654268],[138.659855,36.654426],[138.659872,36.654557],[138.659949,36.654702],[138.660069,36.654881],[138.660189,36.655115],[138.660344,36.655342],[138.660576,36.65559],[138.660936,36.655893],[138.661262,36.656251],[138.661357,36.656389],[138.6614,36.656513],[138.661546,36.656588],[138.661717,36.65665],[138.662129,36.656768],[138.66255,36.656919],[138.662704,36.657002],[138.662927,36.657112],[138.663099,36.657174],[138.663279,36.657222],[138.663502,36.65727],[138.663726,36.657367],[138.663906,36.657456],[138.664095,36.65758],[138.664223,36.657731],[138.664309,36.657842],[138.664447,36.657917],[138.664558,36.658034],[138.664738,36.658248],[138.66485,36.658392],[138.665005,36.658675],[138.665123,36.658864],[138.665159,36.658999],[138.665159,36.659095],[138.665133,36.659212],[138.665151,36.65935],[138.665279,36.659549],[138.665382,36.659687],[138.665477,36.65977],[138.665597,36.659818],[138.665726,36.659859],[138.665966,36.659942],[138.666103,36.660011],[138.666223,36.660128],[138.666309,36.660265],[138.666352,36.660382],[138.666326,36.660472],[138.666266,36.660568],[138.666146,36.660706],[138.666017,36.660857],[138.66594,36.660988],[138.665923,36.661092],[138.666,36.661229],[138.666198,36.661408],[138.666807,36.661849],[138.666953,36.661973],[138.66703,36.662035],[138.66703,36.662152],[138.666996,36.662269],[138.666944,36.662379],[138.666884,36.662475],[138.666893,36.662565],[138.66697,36.662606],[138.667073,36.66262],[138.667228,36.662627],[138.667313,36.662682],[138.667373,36.662751],[138.667373,36.662854],[138.667382,36.662937],[138.667399,36.663026],[138.667442,36.663116],[138.667485,36.663212],[138.667511,36.663281],[138.667545,36.663377],[138.667597,36.663488],[138.667683,36.663618],[138.667777,36.663694],[138.667889,36.663749],[138.668026,36.663852],[138.668112,36.663921],[138.668206,36.664004],[138.668258,36.664142],[138.668258,36.664348],[138.668266,36.664589],[138.668275,36.664761],[138.668369,36.664871],[138.668481,36.664885],[138.668601,36.66483],[138.668721,36.664741],[138.668807,36.664637],[138.66891,36.6645],[138.668979,36.664321],[138.669039,36.664183],[138.66915,36.6641],[138.669313,36.664073],[138.669511,36.664107],[138.669639,36.664217],[138.669665,36.664314],[138.669631,36.6645],[138.669605,36.664651],[138.669665,36.664761],[138.669777,36.665023],[138.66982,36.66514],[138.669794,36.665223],[138.6697,36.665278],[138.669622,36.665381],[138.669622,36.665498],[138.669631,36.665615],[138.669674,36.665801],[138.669717,36.665945],[138.669751,36.666118],[138.669725,36.666365],[138.669648,36.666496],[138.669562,36.666599],[138.669416,36.666668],[138.66933,36.666772],[138.669348,36.666896],[138.669416,36.666999],[138.669554,36.667061],[138.669648,36.66715],[138.669657,36.667219],[138.669648,36.667357],[138.669622,36.667481],[138.669588,36.667625],[138.669588,36.667694],[138.669605,36.667797],[138.669674,36.667921],[138.669742,36.668011],[138.669803,36.668107],[138.669794,36.668162],[138.66976,36.668266],[138.669691,36.668417],[138.669614,36.668478],[138.669519,36.668582],[138.669382,36.668624],[138.669159,36.668672],[138.668952,36.668766],[138.668858,36.668866],[138.668798,36.66897],[138.668805,36.669059],[138.668932,36.66914],[138.669037,36.669119],[138.669246,36.669114],[138.669509,36.669122],[138.669827,36.669186],[138.670028,36.669206],[138.670196,36.669216],[138.670336,36.669165],[138.670515,36.669092],[138.670712,36.66892],[138.67085,36.668782],[138.670987,36.668727],[138.671133,36.668727],[138.671176,36.668782],[138.671107,36.668858],[138.670987,36.669002],[138.670875,36.669236],[138.670798,36.669436],[138.67079,36.669587],[138.670815,36.669643],[138.670935,36.669656],[138.671116,36.669677],[138.671339,36.669732],[138.671425,36.669801],[138.671442,36.669897],[138.671468,36.670083],[138.671485,36.670338],[138.671511,36.670517],[138.671485,36.67073],[138.67145,36.67093],[138.671347,36.671226],[138.671133,36.671715],[138.670983,36.671926],[138.670832,36.672155],[138.670752,36.672303],[138.670654,36.672474],[138.670511,36.672602],[138.67037,36.672668],[138.670193,36.672694],[138.669919,36.672702],[138.669597,36.672685],[138.669373,36.672665],[138.669133,36.672685],[138.668961,36.672775],[138.668815,36.672864],[138.668712,36.672961],[138.668635,36.673085],[138.668618,36.673305],[138.668558,36.673546],[138.668489,36.673677],[138.668369,36.67369],[138.6683,36.673663],[138.668155,36.673511],[138.668086,36.673333],[138.668017,36.673112],[138.668043,36.672961],[138.668146,36.672878],[138.668318,36.672809],[138.668481,36.672754],[138.668558,36.672672],[138.668601,36.672582],[138.668601,36.672465],[138.668661,36.672403],[138.66879,36.672334],[138.669133,36.67219],[138.669588,36.672031],[138.669751,36.671928],[138.669785,36.671859],[138.669725,36.671804],[138.669579,36.671818],[138.669356,36.67188],[138.668618,36.672204],[138.667966,36.672568],[138.667751,36.672699],[138.667562,36.672809],[138.667425,36.672975],[138.667253,36.673147],[138.667099,36.67325],[138.666944,36.673291],[138.666601,36.673264],[138.666215,36.673236],[138.665949,36.673284],[138.665786,36.673339],[138.665674,36.673415],[138.665502,36.673601],[138.665425,36.673759],[138.665408,36.67389],[138.665451,36.673973],[138.665665,36.674083],[138.666043,36.674241],[138.666232,36.674317],[138.666335,36.674406],[138.666378,36.674558],[138.666352,36.674661],[138.666301,36.674764],[138.666146,36.674854],[138.665923,36.674971],[138.6657,36.675053],[138.665528,36.675074],[138.665296,36.675088],[138.664979,36.675157],[138.664747,36.67526],[138.664644,36.67535],[138.664636,36.675453],[138.664713,36.675604],[138.66491,36.675811],[138.665065,36.675955],[138.665082,36.676065],[138.665047,36.676134],[138.664884,36.676162],[138.664567,36.676244],[138.664301,36.676334],[138.66406,36.676368],[138.663812,36.676382],[138.663588,36.67643],[138.663485,36.67652],[138.663374,36.676637],[138.663309,36.676805],[138.663271,36.676898],[138.663247,36.676976],[138.663211,36.677105],[138.663205,36.677176],[138.66322,36.67725],[138.663277,36.677325],[138.663375,36.677407],[138.66352,36.67747],[138.663837,36.677552],[138.663966,36.677635],[138.664095,36.677745],[138.664172,36.677897],[138.664215,36.678027],[138.664223,36.678186],[138.664189,36.678323],[138.663975,36.678482],[138.663829,36.678606],[138.663726,36.678736],[138.66364,36.678874],[138.663417,36.679431],[138.663314,36.679762],[138.663194,36.680044],[138.662996,36.680306],[138.662799,36.680478],[138.662713,36.680581],[138.662619,36.680698],[138.66261,36.680822],[138.66261,36.680939],[138.662678,36.68107],[138.662781,36.68118],[138.662936,36.681283],[138.663228,36.681331],[138.663468,36.681359],[138.66376,36.681379],[138.663956,36.681393],[138.664069,36.681435],[138.664107,36.681505],[138.664052,36.681579],[138.663949,36.681614],[138.663726,36.681648],[138.663528,36.681662],[138.663297,36.681696],[138.663039,36.681737],[138.662678,36.681834],[138.662309,36.68191],[138.661898,36.681978],[138.66158,36.682006],[138.661391,36.682006],[138.66128,36.681978],[138.661168,36.681937],[138.661056,36.681882],[138.660945,36.681868],[138.66079,36.681882],[138.66067,36.68191],[138.660507,36.681923],[138.660404,36.681923],[138.66031,36.681889],[138.660207,36.681834],[138.660044,36.681772],[138.659932,36.681799],[138.659855,36.681841],[138.65976,36.681937],[138.659666,36.682061],[138.659597,36.682233],[138.659563,36.682426],[138.65958,36.682584],[138.659597,36.682825],[138.659571,36.683121],[138.659514,36.683335],[138.659417,36.683513],[138.659296,36.683706],[138.659159,36.683933],[138.659117,36.684071],[138.659039,36.684381],[138.658962,36.684628],[138.658928,36.684959],[138.658911,36.685317],[138.658902,36.685413],[138.658833,36.685516],[138.658756,36.685564],[138.658645,36.685585],[138.658464,36.685613],[138.658318,36.685654],[138.65825,36.685709],[138.658207,36.685812],[138.658121,36.685971],[138.658035,36.686088],[138.657975,36.686149],[138.657803,36.686205],[138.657666,36.686267],[138.657503,36.686363],[138.657374,36.686397],[138.657237,36.68639],[138.657099,36.686363],[138.656962,36.686329],[138.656808,36.686342],[138.65667,36.686377],[138.656516,36.686494],[138.656404,36.686604],[138.65619,36.686686],[138.656061,36.686721],[138.655881,36.686741],[138.65564,36.686721],[138.655417,36.686762],[138.655237,36.686831],[138.65516,36.686907],[138.655143,36.687017],[138.655125,36.687141],[138.6551,36.687272],[138.655057,36.687382],[138.654911,36.687602],[138.654816,36.687767],[138.654636,36.687967],[138.654413,36.688153],[138.65425,36.688269],[138.653958,36.688387],[138.653795,36.688421],[138.653598,36.688442],[138.653323,36.688517],[138.652928,36.68871],[138.652533,36.688923],[138.652336,36.688999],[138.652121,36.688992],[138.651967,36.68893],[138.651804,36.688792],[138.651538,36.688421],[138.651315,36.688146],[138.651031,36.687925],[138.650808,36.68785],[138.650721,36.687835],[138.650624,36.687854],[138.650553,36.687903],[138.650514,36.687974],[138.650503,36.688039],[138.650549,36.68814],[138.650679,36.688297],[138.650877,36.68862],[138.651023,36.688937],[138.651083,36.689137],[138.651143,36.689311],[138.651168,36.68961],[138.651177,36.689837],[138.651188,36.689966],[138.651212,36.690056],[138.651264,36.690099],[138.651326,36.690134],[138.651501,36.690189],[138.651734,36.690228],[138.65197,36.690222],[138.652139,36.690204],[138.65231,36.690135],[138.652568,36.690011],[138.652757,36.689928],[138.65292,36.689894],[138.653168,36.689894],[138.65334,36.689942],[138.653478,36.690004],[138.653641,36.690093],[138.653778,36.69019],[138.65395,36.690362],[138.654164,36.690692],[138.654332,36.690999],[138.654404,36.691133],[138.654712,36.691597],[138.654825,36.691764],[138.655179,36.692361],[138.655286,36.692601],[138.65531,36.692649],[138.655421,36.692786],[138.655623,36.692998],[138.655855,36.693259],[138.655941,36.693452],[138.655992,36.693631],[138.656027,36.693727],[138.656044,36.69383],[138.656052,36.694051],[138.656061,36.694202],[138.656113,36.694285],[138.656181,36.69436],[138.656258,36.694443],[138.656456,36.694574],[138.65655,36.694684],[138.656636,36.694849],[138.656679,36.694959],[138.656696,36.695076],[138.656696,36.695221],[138.656636,36.69542],[138.656516,36.695682],[138.65637,36.695971],[138.65631,36.696191],[138.656276,36.696398],[138.656241,36.69657],[138.65613,36.696755],[138.655967,36.697161],[138.655915,36.697299],[138.655889,36.697451],[138.655872,36.698208],[138.655855,36.698531],[138.655798,36.698848],[138.65564,36.699267],[138.65558,36.699439],[138.655469,36.699632],[138.655374,36.699825],[138.655143,36.7003],[138.654868,36.700713],[138.654439,36.701538],[138.654181,36.701992],[138.654113,36.702165],[138.65413,36.702364],[138.65413,36.702543],[138.654104,36.702756],[138.654121,36.70308],[138.65413,36.703541],[138.654001,36.704449],[138.653984,36.704628],[138.653992,36.704793],[138.653958,36.704958],[138.653898,36.705096],[138.653495,36.705454],[138.653108,36.705791],[138.652997,36.705922],[138.652945,36.706087],[138.652937,36.70628],[138.652971,36.706417],[138.653091,36.706582],[138.653349,36.706844],[138.653692,36.707091],[138.654253,36.707346],[138.654525,36.707497],[138.654765,36.70769],[138.654885,36.707903],[138.654962,36.708062],[138.654971,36.708185],[138.654911,36.708316],[138.654739,36.708468],[138.653512,36.709128],[138.653074,36.709355],[138.652611,36.709589],[138.652413,36.709713],[138.652267,36.709885],[138.652259,36.709968],[138.652267,36.710071],[138.652284,36.710195],[138.652276,36.710277],[138.652242,36.710429],[138.65219,36.710656],[138.65213,36.710793],[138.652061,36.710958],[138.651984,36.711069],[138.65189,36.711179],[138.651787,36.711323],[138.651761,36.711447],[138.651761,36.71153],[138.651821,36.711633],[138.652001,36.711709],[138.652233,36.71175],[138.652447,36.711784],[138.652576,36.711839],[138.652636,36.711887],[138.652654,36.711991],[138.652619,36.712142],[138.65255,36.712348],[138.652465,36.712417],[138.652362,36.712493],[138.65219,36.712582],[138.652036,36.712644],[138.651932,36.712727],[138.651838,36.712878],[138.651744,36.713043],[138.651675,36.713222],[138.651581,36.713415],[138.651486,36.713552],[138.651418,36.713676],[138.651366,36.71389],[138.651315,36.714048],[138.651237,36.714151],[138.651117,36.714309],[138.65104,36.714475],[138.650997,36.71466],[138.651014,36.714798],[138.651057,36.715011],[138.651057,36.715156],[138.651057,36.715314],[138.651006,36.715534],[138.650971,36.715637],[138.650782,36.715899],[138.650636,36.716105],[138.650473,36.71625],[138.650319,36.716339],[138.650104,36.716401],[138.649907,36.716484],[138.649821,36.716559],[138.64977,36.716635],[138.649675,36.716786],[138.649575,36.716929],[138.649424,36.717121],[138.649356,36.717221],[138.649202,36.717366],[138.649111,36.717443],[138.649011,36.717492],[138.648901,36.717529],[138.648743,36.717535],[138.648396,36.717529],[138.648187,36.717506],[138.647982,36.717502],[138.647868,36.717507],[138.647778,36.717488],[138.64756,36.717433],[138.647476,36.717438],[138.647393,36.717455],[138.647229,36.717505],[138.647088,36.717558],[138.646761,36.717711],[138.646537,36.717797],[138.646327,36.717837],[138.646111,36.717869],[138.645976,36.717938],[138.645672,36.718128]]}},{"type":"Feature","properties":{"id":414184641,"highway":"trunk"},"geometry":{"type":"LineString","coordinates":[[138.645672,36.718128],[138.645447,36.718299],[138.645354,36.718418],[138.645243,36.71864],[138.645116,36.718922],[138.645029,36.719054],[138.644912,36.719091],[138.644826,36.71905],[138.644714,36.718947],[138.64468,36.718747],[138.644723,36.718493],[138.644779,36.718308],[138.644866,36.718116],[138.644883,36.718064],[138.644874,36.718025],[138.644839,36.717995],[138.644768,36.717999],[138.644706,36.718045],[138.644594,36.71821],[138.644521,36.718303],[138.644409,36.718429],[138.644274,36.718594],[138.64406,36.718901],[138.644019,36.719057],[138.64401,36.719298],[138.643977,36.719441],[138.643883,36.719676],[138.643832,36.71986],[138.643812,36.719923],[138.64379,36.71995],[138.643749,36.719967]]}},{"type":"Feature","properties":{"id":755776794,"highway":"service"},"geometry":{"type":"LineString","coordinates":[[138.638839,36.71634],[138.638726,36.716308],[138.638554,36.716194],[138.638541,36.716165],[138.638542,36.716112],[138.638545,36.716081],[138.638568,36.716072],[138.638587,36.716072],[138.638893,36.716287],[138.639041,36.716357],[138.639127,36.716386],[138.639207,36.716409],[138.639507,36.716623],[138.639511,36.716648],[138.639492,36.716725]]}},{"type":"Feature","properties":{"id":790628156,"highway":"service"},"geometry":{"type":"LineString","coordinates":[[138.654289,36.707773],[138.654038,36.707651],[138.654063,36.707606],[138.654203,36.707421],[138.654253,36.707346]]}},{"type":"Feature","properties":{"id":1555095435,"highway":"service"},"geometry":{"type":"LineString","coordinates":[[138.638839,36.71634],[138.639094,36.716517],[138.639139,36.716552],[138.639195,36.716593]]}},{"type":"Feature","properties":{"id":1555095436,"highway":"service"},"geometry":{"type":"LineString","coordinates":[[138.639158,36.717922],[138.639145,36.717971],[138.639107,36.717992],[138.639082,36.717994],[138.639034,36.717987],[138.638579,36.717607],[138.638542,36.717584],[138.638456,36.717589]]}},{"type":"Feature","properties":{"id":1555095437,"highway":"service"},"geometry":{"type":"LineString","coordinates":[[138.638839,36.71634],[138.638893,36.716287]]}},{"type":"Feature","properties":{"id":1555095438,"highway":"service"},"geometry":{"type":"LineString","coordinates":[[138.6391,36.715945],[138.638963,36.715792],[138.638934,36.715791],[138.638912,36.715818],[138.638933,36.715856],[138.639019,36.71596],[138.639055,36.716034],[138.639084,36.716107],[138.639126,36.716201],[138.639129,36.716254],[138.639123,36.716292],[138.639127,36.716386]]}}]}