{"type":"FeatureCollection","features":[{"type":"Feature","properties":{"id":43251581,"highway":"trunk"},"geometry":{"type":"LineString","coordinates":[[138.817488,35.906339],[138.816467,35.906077],[138.815627,35.905815],[138.814804,35.905505],[138.814062,35.905193],[138.813282,35.90482],[138.81248,35.904388],[138.811585,35.903834],[138.810722,35.903217],[138.810016,35.902654],[138.766861,35.865437],[138.765825,35.864516]]}},{"type":"Feature","properties":{"id":1259309449,"highway":"service"},"geometry":{"type":"LineString","coordinates":[[138.765779,35.864832],[138.809915,35.902694],[138.810646,35.903273],[138.811523,35.9039],[138.81243,35.904469],[138.813208,35.904886],[138.814016,35.905273],[138.814752,35.905591],[138.815592,35.9059],[138.816441,35.906176],[138.817433,35.90645]]}}]}