{"type":"FeatureCollection","features":[{"type":"Feature","properties":{"id":112949306,"highway":"unclassified"},"geometry":{"type":"LineString","coordinates":[[138.71203,35.979354],[138.71186,35.979433],[138.711831,35.979452],[138.711801,35.979482],[138.711788,35.979503],[138.71177,35.979557],[138.711771,35.979618],[138.711937,35.980228],[138.711916,35.980323],[138.711819,35.980527],[138.711785,35.980628],[138.711764,35.980972],[138.711729,35.981123],[138.711639,35.981333],[138.711549,35.981479],[138.711431,35.981569],[138.711321,35.98162],[138.710947,35.981733],[138.710905,35.981806],[138.710905,35.98189],[138.710898,35.981896],[138.711141,35.982223],[138.711196,35.982375],[138.711196,35.982504],[138.711136,35.982777],[138.711085,35.982932],[138.711044,35.983112],[138.710995,35.983214],[138.710905,35.983309],[138.710781,35.983366],[138.710545,35.983371],[138.710385,35.983349],[138.710276,35.983325],[138.710168,35.983346],[138.710095,35.983405],[138.710063,35.983507],[138.710068,35.983602],[138.710137,35.984019],[138.710144,35.984211],[138.710102,35.984278],[138.710061,35.984318],[138.70995,35.984363],[138.709853,35.984358],[138.709818,35.984346],[138.709777,35.984323],[138.709732,35.984281],[138.709742,35.98416],[138.70977,35.984036],[138.709777,35.983828],[138.709617,35.983383],[138.709623,35.983331],[138.709638,35.983237],[138.709672,35.983198],[138.7097,35.983157],[138.709971,35.982904],[138.710019,35.982848],[138.710081,35.982741],[138.710081,35.982617],[138.710054,35.98256],[138.710005,35.982504],[138.709839,35.982419],[138.709597,35.982374],[138.709493,35.982358],[138.709306,35.982318],[138.709174,35.982245],[138.709098,35.982155],[138.709043,35.982042],[138.709008,35.981918],[138.709013,35.98191],[138.709146,35.981682],[138.709306,35.98153],[138.709541,35.981355],[138.709943,35.981108],[138.710012,35.981046],[138.710068,35.980967],[138.710061,35.980927],[138.710026,35.98087],[138.709874,35.980876],[138.709638,35.980933],[138.70943,35.981017],[138.709229,35.981136],[138.709001,35.981282],[138.708828,35.981423],[138.708641,35.981643],[138.708579,35.981738],[138.708434,35.982098],[138.708357,35.982301],[138.708302,35.982374],[138.70815,35.982403],[138.707513,35.982419],[138.70709,35.982498],[138.706986,35.982493],[138.706876,35.982464],[138.706689,35.982369],[138.706245,35.98211],[138.706168,35.982059],[138.706071,35.981974],[138.705988,35.981643],[138.705953,35.981564],[138.705815,35.981524],[138.70567,35.981513],[138.705206,35.981513],[138.704964,35.98149],[138.704821,35.98145],[138.70477,35.981417],[138.704749,35.981378],[138.704652,35.981113],[138.704548,35.98104],[138.704479,35.981006],[138.704333,35.981012],[138.703787,35.981124],[138.703627,35.981124],[138.703503,35.981079],[138.703423,35.981038],[138.703396,35.981017],[138.703338,35.980955],[138.703171,35.980605],[138.703109,35.980533],[138.703071,35.980505],[138.703033,35.980477],[138.702957,35.980448],[138.702673,35.980488],[138.702527,35.980488],[138.702437,35.980465],[138.70243,35.980453],[138.702278,35.980408],[138.702188,35.980408],[138.702084,35.980453],[138.702029,35.9806],[138.702015,35.98073],[138.702015,35.981068],[138.702029,35.981192],[138.702029,35.981344],[138.701966,35.981445],[138.701897,35.981552],[138.701856,35.981676],[138.701849,35.981823],[138.701918,35.982189],[138.701918,35.982267],[138.701876,35.982369],[138.701696,35.9826],[138.701589,35.982724],[138.701511,35.982798],[138.701385,35.98287],[138.701267,35.982898],[138.701094,35.982926],[138.700893,35.982943],[138.700815,35.982934],[138.700698,35.982897],[138.700574,35.982825],[138.700408,35.982752],[138.700146,35.982752],[138.699952,35.982786],[138.699744,35.982842],[138.699612,35.982926],[138.699391,35.983208],[138.699321,35.983247],[138.699086,35.98327],[138.698968,35.983366],[138.698844,35.983523],[138.698698,35.983726],[138.698477,35.984024],[138.698401,35.984092],[138.69829,35.984149],[138.698103,35.98416],[138.698048,35.984149],[138.697985,35.984103],[138.697958,35.98403],[138.698117,35.983523],[138.698117,35.983444],[138.698054,35.983293],[138.697999,35.983242],[138.69793,35.983219],[138.697643,35.98314],[138.697611,35.983094],[138.697606,35.983051],[138.697854,35.982842],[138.697902,35.98278],[138.697944,35.982701],[138.697944,35.982571],[138.697895,35.982476],[138.697857,35.982433],[138.697808,35.982376],[138.69775,35.982279],[138.697756,35.982185],[138.697868,35.982104],[138.69811,35.982003],[138.698207,35.98193],[138.698234,35.981885],[138.698435,35.98149],[138.698442,35.981338],[138.698373,35.981214],[138.698283,35.981153],[138.698054,35.981045],[138.697819,35.980888],[138.697494,35.980668],[138.697265,35.980522],[138.697044,35.980357],[138.696926,35.98024],[138.696497,35.979867],[138.696372,35.979805],[138.695977,35.979687],[138.695751,35.979655],[138.695642,35.979637],[138.695437,35.979632],[138.695347,35.979648],[138.694967,35.979772],[138.694672,35.979862],[138.694584,35.97985],[138.69451,35.979793],[138.694496,35.979727],[138.694532,35.979635],[138.694579,35.979542],[138.694724,35.979327],[138.694925,35.97899],[138.695154,35.978522],[138.695257,35.978257],[138.695257,35.978009],[138.695216,35.977789],[138.695132,35.97752],[138.69505,35.977351],[138.694786,35.977019],[138.694585,35.976873],[138.694068,35.976522],[138.694003,35.976478],[138.693582,35.976163],[138.693471,35.976067],[138.693229,35.975763],[138.692993,35.97551],[138.692876,35.975425],[138.692676,35.975329],[138.692169,35.975138],[138.692052,35.975082],[138.692019,35.975007],[138.692045,35.974806],[138.692045,35.974626],[138.691997,35.974536],[138.69192,35.974474],[138.691637,35.974303],[138.691457,35.974207],[138.691379,35.974159],[138.691347,35.974125],[138.691342,35.974057]]}},{"type":"Feature","properties":{"id":112949361,"highway":"service"},"geometry":{"type":"LineString","coordinates":[[138.71194,35.975309],[138.711909,35.975284],[138.711854,35.975265],[138.711811,35.975258],[138.711761,35.975271],[138.71172,35.975288],[138.7117,35.975324],[138.711677,35.975401],[138.711658,35.975478],[138.711659,35.975549],[138.711671,35.975603],[138.711671,35.975664],[138.711634,35.975791],[138.711587,35.975853],[138.711543,35.975889],[138.711498,35.975917],[138.711421,35.975951],[138.711379,35.975975],[138.711363,35.976002],[138.71137,35.976028],[138.711382,35.976043],[138.711404,35.976055],[138.711495,35.976077],[138.711579,35.976107],[138.711653,35.976149],[138.711687,35.976185],[138.711717,35.976242],[138.711752,35.976382],[138.711769,35.976449],[138.711799,35.976496],[138.711856,35.976587],[138.711876,35.976653],[138.711882,35.976718],[138.711877,35.976782],[138.711862,35.976868],[138.71183,35.977009],[138.711702,35.977236],[138.711667,35.977313],[138.711655,35.97738],[138.711659,35.977455],[138.711667,35.977564],[138.711662,35.977661],[138.711648,35.977729],[138.71162,35.977798],[138.711572,35.977885],[138.7115,35.977963],[138.711449,35.978004],[138.711335,35.97808],[138.71117,35.978161],[138.710938,35.978275],[138.710916,35.9783],[138.710912,35.978327],[138.710923,35.978348],[138.710948,35.978371],[138.711249,35.978492],[138.711395,35.978537],[138.711526,35.978584],[138.711613,35.978634],[138.71167,35.978721],[138.711712,35.978847],[138.71175,35.978927],[138.711809,35.979133],[138.71183,35.979227],[138.711829,35.979304],[138.711821,35.979376]]}},{"type":"Feature","properties":{"id":138337568,"highway":"unclassified"},"geometry":{"type":"LineString","coordinates":[[138.790353,35.99387],[138.7906,35.993731],[138.790774,35.993626],[138.791025,35.993356]]}},{"type":"Feature","properties":{"id":138337717,"highway":"unclassified"},"geometry":{"type":"LineString","coordinates":[[138.773996,35.994846],[138.774567,35.995045],[138.77467,35.995087],[138.774755,35.995116],[138.774846,35.995142],[138.774938,35.995165],[138.775031,35.99518],[138.77513,35.995187],[138.775225,35.995192],[138.775311,35.995185],[138.775379,35.995177],[138.775438,35.995164],[138.775627,35.995117],[138.775756,35.995097],[138.776171,35.995018],[138.776503,35.994939],[138.776685,35.994841],[138.77669,35.994838],[138.77678,35.994714],[138.776814,35.99459],[138.776856,35.994494],[138.776911,35.994415],[138.777029,35.994342],[138.77714,35.994319],[138.777424,35.994308],[138.777805,35.994353],[138.7781,35.994353],[138.778214,35.994353],[138.778394,35.994331],[138.778444,35.994323],[138.778489,35.994314],[138.778532,35.994308],[138.778615,35.994291],[138.778657,35.994286],[138.778844,35.994256]]}},{"type":"Feature","properties":{"id":138337897,"highway":"unclassified"},"geometry":{"type":"LineString","coordinates":[[138.788792,35.992858],[138.788932,35.992922],[138.789147,35.993086],[138.789251,35.993221],[138.789465,35.993666],[138.78959,35.993846],[138.789714,35.99396],[138.789836,35.994003],[138.789931,35.994027],[138.790029,35.994032],[138.790073,35.99402]]}},{"type":"Feature","properties":{"id":138338648,"highway":"unclassified"},"geometry":{"type":"LineString","coordinates":[[138.748943,35.988177],[138.748976,35.988239],[138.749093,35.988357],[138.749215,35.98841],[138.749391,35.988448],[138.749605,35.988453],[138.749856,35.988475],[138.750043,35.988507],[138.750181,35.988549],[138.750299,35.988613],[138.7504,35.988677],[138.750448,35.988703],[138.750538,35.988788],[138.750787,35.98894],[138.750946,35.988985],[138.751411,35.989042],[138.751521,35.989075],[138.75175,35.989188],[138.751909,35.989223],[138.752179,35.98925],[138.752546,35.989238],[138.752754,35.989217],[138.753017,35.989177],[138.753104,35.989153],[138.753238,35.989115],[138.753917,35.988867],[138.754146,35.988817],[138.754298,35.988799],[138.754445,35.988818],[138.754598,35.988878],[138.754697,35.988933],[138.754821,35.988995],[138.754944,35.989078],[138.755059,35.989183],[138.755166,35.989284],[138.75527,35.989394],[138.755378,35.989523],[138.755479,35.989643],[138.755572,35.989772],[138.755666,35.989926],[138.755767,35.990143],[138.755888,35.990441],[138.755968,35.990655],[138.756025,35.990781],[138.75614,35.99096],[138.756279,35.991081],[138.75654,35.991284],[138.756715,35.991451],[138.756858,35.991605],[138.757063,35.991835],[138.757223,35.991958],[138.757427,35.992033],[138.757877,35.9921],[138.758134,35.992157],[138.758285,35.992202],[138.758459,35.992292],[138.758663,35.992548],[138.758784,35.992688],[138.758887,35.992725],[138.758972,35.99273],[138.759235,35.99273],[138.759311,35.992765],[138.75936,35.992866],[138.759361,35.992922],[138.759343,35.992968],[138.759288,35.993014],[138.759234,35.993074],[138.759219,35.993145],[138.759232,35.993234],[138.759288,35.993307],[138.75947,35.993446],[138.75956,35.993519],[138.759671,35.993553],[138.75992,35.993559],[138.759996,35.993548],[138.760307,35.993542],[138.760452,35.993553],[138.760557,35.993587],[138.760585,35.993604],[138.760647,35.993655],[138.760661,35.993807],[138.760564,35.993998],[138.760412,35.994122],[138.760322,35.994207],[138.760277,35.994292]]}},{"type":"Feature","properties":{"id":138339188,"highway":"unclassified"},"geometry":{"type":"LineString","coordinates":[[138.790073,35.99402],[138.790353,35.99387]]}},{"type":"Feature","properties":{"id":138339315,"highway":"unclassified"},"geometry":{"type":"LineString","coordinates":[[138.790851,35.992905],[138.791115,35.993185]]}},{"type":"Feature","properties":{"id":138339674,"highway":"unclassified"},"geometry":{"type":"LineString","coordinates":[[138.750236,35.986386],[138.750113,35.986507],[138.749873,35.986743],[138.749672,35.986895],[138.749541,35.986946],[138.749236,35.986969],[138.749146,35.987002],[138.749091,35.987048],[138.749035,35.987138],[138.749056,35.987285],[138.749146,35.987567],[138.749146,35.987657],[138.749059,35.98777],[138.749001,35.987823],[138.748926,35.987892]]}},{"type":"Feature","properties":{"id":138339708,"highway":"unclassified"},"geometry":{"type":"LineString","coordinates":[[138.791115,35.993185],[138.791142,35.993216]]}},{"type":"Feature","properties":{"id":138340322,"highway":"unclassified"},"geometry":{"type":"LineString","coordinates":[[138.760223,35.994576],[138.760209,35.994672],[138.760227,35.994738],[138.760301,35.994781],[138.760446,35.994832],[138.760482,35.99484],[138.76064,35.994877],[138.760765,35.994888],[138.760911,35.994871],[138.761008,35.99484],[138.761194,35.994781],[138.761541,35.994623],[138.761797,35.994516],[138.76206,35.994454],[138.76227,35.99444],[138.762461,35.994415],[138.762828,35.994303],[138.763078,35.994303],[138.763265,35.994336],[138.763438,35.994398],[138.76377,35.994561],[138.763992,35.994652],[138.764317,35.994702],[138.764636,35.994747],[138.764823,35.994809],[138.764889,35.99484],[138.764998,35.994896],[138.765065,35.994928],[138.765217,35.994973],[138.765349,35.994989],[138.765529,35.995001],[138.765632,35.995001],[138.765778,35.995007],[138.765937,35.995018],[138.766097,35.995046],[138.766533,35.995113],[138.766885,35.995113],[138.767107,35.995085],[138.767598,35.995097],[138.768194,35.995204],[138.768491,35.995204],[138.768748,35.995164],[138.768948,35.99508],[138.769135,35.994973],[138.769302,35.994843],[138.769305,35.99484],[138.769565,35.994612],[138.769939,35.994229],[138.770023,35.994171],[138.770085,35.994144],[138.770158,35.99414],[138.770195,35.994143],[138.770216,35.994144],[138.770255,35.994154],[138.770341,35.994193],[138.770373,35.994216],[138.770404,35.99424],[138.770563,35.994415],[138.770736,35.994623],[138.770757,35.994646],[138.770902,35.994708],[138.771034,35.994725],[138.771241,35.994719],[138.771428,35.994674],[138.771511,35.994635],[138.771636,35.994544],[138.771837,35.994336],[138.771852,35.994328],[138.771927,35.994286],[138.772176,35.994291],[138.772404,35.994342],[138.772501,35.994364],[138.772571,35.994398],[138.773159,35.994578],[138.773399,35.994654]]}},{"type":"Feature","properties":{"id":138340474,"highway":"unclassified"},"geometry":{"type":"LineString","coordinates":[[138.778844,35.994256],[138.779068,35.994216]]}},{"type":"Feature","properties":{"id":138340639,"highway":"unclassified"},"geometry":{"type":"LineString","coordinates":[[138.760277,35.994292],[138.760223,35.994576]]}},{"type":"Feature","properties":{"id":138340793,"highway":"unclassified"},"geometry":{"type":"LineString","coordinates":[[138.748926,35.987892],[138.748933,35.988018],[138.748943,35.988177]]}},{"type":"Feature","properties":{"id":138340893,"highway":"unclassified"},"geometry":{"type":"LineString","coordinates":[[138.788229,35.992748],[138.788531,35.992777],[138.788792,35.992858]]}},{"type":"Feature","properties":{"id":138341898,"highway":"unclassified"},"geometry":{"type":"LineString","coordinates":[[138.773923,35.994822],[138.773996,35.994846]]}},{"type":"Feature","properties":{"id":138342076,"highway":"unclassified"},"geometry":{"type":"LineString","coordinates":[[138.779068,35.994216],[138.779199,35.99419],[138.779529,35.994123],[138.77982,35.994072],[138.780097,35.994044],[138.780727,35.994033],[138.781184,35.993988],[138.781461,35.99392],[138.781766,35.993757],[138.781884,35.993717],[138.781932,35.993711],[138.782018,35.993737],[138.782072,35.993784],[138.782105,35.993841],[138.782174,35.993971],[138.782202,35.994348],[138.782306,35.994781],[138.78233,35.994841],[138.782389,35.994984],[138.782486,35.995125],[138.782603,35.995221],[138.782756,35.995288],[138.782832,35.9953],[138.783012,35.995288],[138.783178,35.995238],[138.783538,35.995108],[138.783864,35.995041],[138.784223,35.994984],[138.784341,35.994979],[138.78435,35.994978],[138.784708,35.994917],[138.784867,35.994844],[138.784871,35.994841],[138.784991,35.994759],[138.785282,35.994483],[138.785469,35.994252],[138.785663,35.994039]]}},{"type":"Feature","properties":{"id":138342084,"highway":"unclassified"},"geometry":{"type":"LineString","coordinates":[[138.78818,35.989044],[138.788392,35.989223],[138.788475,35.989279],[138.788697,35.989443],[138.788745,35.989484],[138.788778,35.98953],[138.78881,35.989576],[138.788948,35.989763],[138.789098,35.989972],[138.789186,35.990103],[138.789313,35.990321],[138.789453,35.990672],[138.789523,35.990796],[138.789543,35.990877],[138.789531,35.990954],[138.789476,35.991112],[138.789472,35.991176],[138.789483,35.991241],[138.789523,35.991329],[138.789552,35.99141],[138.789575,35.991591],[138.789615,35.991709],[138.789699,35.99179],[138.789831,35.991857],[138.79001,35.991921],[138.790163,35.991983],[138.790249,35.992034],[138.790305,35.992087],[138.790343,35.992128],[138.790418,35.99224],[138.790517,35.992462],[138.790612,35.992616],[138.790705,35.992733],[138.790851,35.992905]]}},{"type":"Feature","properties":{"id":138342727,"highway":"unclassified"},"geometry":{"type":"LineString","coordinates":[[138.716547,35.970269],[138.716529,35.970229],[138.716532,35.970171],[138.716537,35.970163],[138.7166,35.970058],[138.716658,35.969972],[138.716673,35.969952],[138.716695,35.969889],[138.716691,35.969841],[138.71668,35.969801],[138.71659,35.969698],[138.716445,35.969569],[138.716393,35.969524],[138.716383,35.969491],[138.716384,35.969461],[138.716415,35.969427],[138.716465,35.969399],[138.716576,35.969343],[138.716743,35.969236],[138.716826,35.969169],[138.716943,35.969129],[138.717428,35.969141],[138.717657,35.969113],[138.717934,35.969039],[138.718293,35.969011],[138.718473,35.968966],[138.718554,35.968941],[138.718613,35.968909],[138.718662,35.968881],[138.718702,35.968839],[138.718718,35.968808],[138.71872,35.968754],[138.718718,35.968714],[138.718688,35.968668],[138.718536,35.968538],[138.718398,35.968403],[138.718308,35.96824],[138.718301,35.968026],[138.718349,35.967766],[138.718321,35.967615],[138.718238,35.967367],[138.718224,35.967187],[138.718245,35.967119],[138.718295,35.967058],[138.718337,35.967026],[138.718404,35.967],[138.718457,35.966993],[138.718564,35.967],[138.718737,35.967039],[138.718896,35.967113],[138.719273,35.967337],[138.719371,35.967406],[138.719623,35.96757],[138.719775,35.967643],[138.719955,35.967649],[138.720031,35.96762],[138.720094,35.96757],[138.720163,35.967457],[138.720301,35.96718],[138.720343,35.967112],[138.720495,35.966984],[138.720689,35.966882],[138.720758,35.966854],[138.720869,35.966805],[138.720943,35.966809],[138.721022,35.966854],[138.721125,35.966947],[138.721204,35.967102],[138.721354,35.96727],[138.721437,35.9674],[138.721527,35.967694],[138.721638,35.96784],[138.721815,35.967984],[138.721824,35.967992],[138.721894,35.968082],[138.721949,35.968217],[138.722052,35.968651],[138.722107,35.968702],[138.722277,35.968791],[138.722412,35.968865],[138.722482,35.96889],[138.722547,35.968903],[138.722623,35.968909],[138.722724,35.968893],[138.722947,35.968843],[138.723105,35.968792],[138.723202,35.968747],[138.723361,35.968702],[138.723672,35.968662],[138.723957,35.968567],[138.72413,35.968567],[138.724255,35.9686],[138.724359,35.968645],[138.724439,35.96867],[138.7246,35.96874],[138.72487,35.968814],[138.725099,35.968892],[138.725285,35.968989],[138.725515,35.969107],[138.725625,35.96918],[138.725777,35.969259],[138.726055,35.969338],[138.726263,35.969365],[138.726658,35.969377],[138.726962,35.969417],[138.727101,35.969455],[138.72744,35.969614],[138.727613,35.969675],[138.727731,35.969682],[138.727779,35.96967],[138.727874,35.969605],[138.727938,35.96953],[138.727987,35.969427],[138.728008,35.969327],[138.727994,35.969124],[138.727911,35.968949],[138.727662,35.968617],[138.727599,35.968499],[138.727475,35.968004],[138.727433,35.96793],[138.727329,35.967811],[138.727295,35.967779],[138.72721,35.967715],[138.727045,35.967614],[138.72694,35.967507],[138.726892,35.9674],[138.726885,35.967192],[138.727039,35.966761],[138.727052,35.966725],[138.727052,35.966551],[138.72701,35.966444],[138.726837,35.96619],[138.726505,35.965824],[138.72647,35.965751],[138.726462,35.965682],[138.726477,35.96558],[138.726527,35.965526],[138.726592,35.965495],[138.72667,35.965492],[138.726727,35.965508],[138.726767,35.965548],[138.726837,35.965655],[138.726872,35.965836],[138.726947,35.965948],[138.72712,35.966094],[138.727287,35.966275],[138.727335,35.966371],[138.727405,35.966528],[138.727468,35.966764],[138.72748,35.966949],[138.727515,35.967057],[138.727578,35.967135],[138.727669,35.967208],[138.727814,35.967253],[138.727925,35.96731],[138.728084,35.967468],[138.728174,35.967535],[138.728292,35.967597],[138.728375,35.967659],[138.728423,35.967721],[138.728506,35.967856],[138.728555,35.968031],[138.728561,35.9682],[138.728589,35.968301],[138.728651,35.968442],[138.728831,35.968707],[138.728866,35.96887],[138.728852,35.969085],[138.728818,35.969164],[138.728654,35.96943],[138.728661,35.969502],[138.728687,35.969535],[138.728737,35.969574],[138.728838,35.969595],[138.728892,35.969589],[138.728963,35.96954],[138.728998,35.969479],[138.72906,35.969304],[138.729102,35.969152],[138.729109,35.968977],[138.72915,35.968769],[138.729192,35.968499],[138.729185,35.968404],[138.729053,35.968166],[138.728998,35.968003],[138.728984,35.96785],[138.728942,35.967704],[138.72888,35.967586],[138.728735,35.967361],[138.728564,35.967147],[138.728457,35.967011],[138.728448,35.966961],[138.728472,35.966903],[138.72853,35.966878],[138.728652,35.966874],[138.728894,35.966893],[138.729186,35.966922],[138.729385,35.966936],[138.729529,35.96695],[138.729669,35.966968],[138.729753,35.966996],[138.729946,35.967074],[138.730092,35.967103],[138.730394,35.967105],[138.730469,35.967063],[138.730583,35.966906],[138.730715,35.966782],[138.730791,35.966787],[138.730846,35.96681],[138.730964,35.966934],[138.731117,35.967187],[138.731158,35.967463],[138.731214,35.967672],[138.731262,35.967796],[138.731338,35.967902],[138.731435,35.967992],[138.731511,35.968021],[138.731934,35.968026],[138.732356,35.968032],[138.732529,35.968054],[138.732647,35.968094],[138.732903,35.968212],[138.733353,35.96837],[138.733464,35.968426],[138.73354,35.968488],[138.733588,35.968567],[138.733664,35.968966],[138.733692,35.969017],[138.73381,35.969129],[138.734065,35.969225],[138.734363,35.969298],[138.734439,35.969337],[138.734661,35.969484],[138.734751,35.969563],[138.734965,35.969749],[138.735041,35.969827],[138.735103,35.969946],[138.7352,35.970336],[138.735616,35.970155],[138.73563,35.970107],[138.735654,35.970029],[138.735662,35.969953],[138.735669,35.969814],[138.735865,35.969484],[138.736059,35.969315],[138.73617,35.969236],[138.73635,35.969191],[138.736828,35.969191],[138.73698,35.96909],[138.737042,35.969022],[138.73707,35.96895],[138.737056,35.968882],[138.737022,35.968837],[138.736938,35.968809],[138.736849,35.968793],[138.736805,35.968771],[138.736754,35.96872],[138.736744,35.96864],[138.736786,35.968567],[138.737022,35.968359],[138.737091,35.968257],[138.737092,35.967992],[138.737125,35.967953],[138.737222,35.967897],[138.737998,35.967863],[138.738233,35.967787],[138.738289,35.967745],[138.7383,35.967621],[138.738254,35.967559],[138.737922,35.967199],[138.737853,35.96699],[138.737797,35.966894],[138.737656,35.966725],[138.73766,35.966687],[138.737698,35.966631],[138.737734,35.966604],[138.738289,35.966602],[138.738358,35.966591],[138.738476,35.966546],[138.738517,35.966512],[138.738566,35.966444],[138.738614,35.966303],[138.738663,35.966129],[138.738683,35.965982],[138.738677,35.965701],[138.738614,35.965504],[138.738358,35.965002],[138.738352,35.964959],[138.738372,35.964901],[138.738427,35.964833],[138.738531,35.964738],[138.738704,35.964614],[138.738815,35.96458],[138.738947,35.964574],[138.739127,35.964631],[138.739237,35.964659],[138.739688,35.964799],[138.739798,35.964805],[138.739869,35.964794],[138.739979,35.964749],[138.740008,35.96472],[138.740055,35.96467],[138.740104,35.96458],[138.740194,35.964355],[138.740194,35.964236],[138.740103,35.96396],[138.740088,35.963855],[138.740124,35.963783],[138.740182,35.963695],[138.740333,35.963515],[138.740373,35.963436],[138.740428,35.963306],[138.740456,35.963081],[138.740525,35.962975],[138.740671,35.962845],[138.740761,35.962795],[138.740865,35.96276],[138.741115,35.96266],[138.741253,35.96254],[138.741356,35.962388],[138.741511,35.962016],[138.741549,35.961993],[138.741628,35.962007],[138.741679,35.96217],[138.741683,35.96258],[138.741634,35.962681],[138.741544,35.962777],[138.741309,35.962991],[138.741135,35.963182],[138.741086,35.963272],[138.741065,35.963351],[138.741039,35.963683],[138.740955,35.964023],[138.740963,35.964174],[138.741088,35.96445],[138.741211,35.964736],[138.741182,35.964909],[138.741087,35.965087],[138.741066,35.965199],[138.741053,35.965487],[138.741018,35.965566],[138.740623,35.965971],[138.740596,35.966044],[138.740596,35.966213],[138.740614,35.966272]]}},{"type":"Feature","properties":{"id":138344569,"highway":"unclassified"},"geometry":{"type":"LineString","coordinates":[[138.750229,35.986154],[138.750252,35.986186],[138.750268,35.986223],[138.750274,35.986266],[138.750277,35.986309],[138.750267,35.986346],[138.750236,35.986386]]}},{"type":"Feature","properties":{"id":603923006,"highway":"unclassified"},"geometry":{"type":"LineString","coordinates":[[138.712458,35.978937],[138.712484,35.97886],[138.712595,35.978707],[138.712666,35.97863],[138.71274,35.978522],[138.712775,35.978398],[138.712768,35.978313],[138.712719,35.978179],[138.712422,35.977683],[138.712415,35.977548],[138.71247,35.97743],[138.712456,35.977334],[138.712353,35.977104],[138.712311,35.976963],[138.712325,35.976873],[138.712352,35.976802],[138.712462,35.976724],[138.712567,35.976647],[138.712616,35.97658],[138.712671,35.976405],[138.712761,35.976293],[138.71283,35.97618],[138.712893,35.975988],[138.712948,35.975921],[138.71301,35.97589],[138.713104,35.975861],[138.713211,35.975831],[138.713384,35.975718],[138.713502,35.975588],[138.713627,35.975549],[138.713786,35.975538],[138.714174,35.975526],[138.714271,35.975487],[138.714333,35.975419],[138.714506,35.975183],[138.7147,35.975026],[138.714908,35.974924],[138.715074,35.974902],[138.715254,35.974919],[138.715544,35.974992],[138.715704,35.974992],[138.715787,35.974947],[138.715821,35.97487],[138.715829,35.974801],[138.715805,35.974738],[138.715738,35.974659],[138.715634,35.974558],[138.715517,35.974485],[138.715295,35.974378],[138.715074,35.974293],[138.714839,35.974243],[138.714575,35.974186],[138.714291,35.974153],[138.714146,35.974108],[138.714066,35.974019],[138.71405,35.973894],[138.714118,35.973764],[138.714356,35.973506],[138.714347,35.973419],[138.714021,35.973178],[138.713987,35.973139],[138.713994,35.973071],[138.714125,35.972874],[138.71416,35.972789],[138.714181,35.972593],[138.714194,35.972542],[138.714271,35.972474],[138.714347,35.972434],[138.714471,35.972441],[138.714679,35.972508],[138.714956,35.972621],[138.715309,35.972638],[138.715468,35.972677],[138.715618,35.972679],[138.715685,35.972634],[138.715724,35.972566],[138.71575,35.972511],[138.715841,35.972428],[138.715967,35.972406],[138.716556,35.972379],[138.716687,35.97235],[138.717012,35.972248],[138.717172,35.972226],[138.717469,35.972231],[138.717795,35.972276],[138.71821,35.972367],[138.718279,35.972378],[138.718411,35.972381],[138.718563,35.972372],[138.718626,35.972362],[138.718698,35.972345],[138.718772,35.972309],[138.718823,35.97227],[138.718847,35.972242],[138.718872,35.972191],[138.718878,35.972141],[138.718857,35.972087],[138.718822,35.972027],[138.718747,35.971927],[138.718639,35.971854],[138.718293,35.971646],[138.718113,35.971511],[138.718037,35.97142],[138.717829,35.971201],[138.717733,35.971139],[138.717464,35.970992],[138.717124,35.970685],[138.716794,35.970468],[138.716732,35.970424]]}},{"type":"Feature","properties":{"id":722580710,"highway":"service"},"geometry":{"type":"LineString","coordinates":[[138.711821,35.979376],[138.711801,35.979482]]}},{"type":"Feature","properties":{"id":729338159,"highway":"unclassified"},"geometry":{"type":"LineString","coordinates":[[138.716732,35.970424],[138.716547,35.970269]]}},{"type":"Feature","properties":{"id":801833972,"highway":"unclassified"},"geometry":{"type":"LineString","coordinates":[[138.796354,35.995243],[138.796419,35.995176]]}},{"type":"Feature","properties":{"id":801833973,"highway":"unclassified"},"geometry":{"type":"LineString","coordinates":[[138.796419,35.995176],[138.796736,35.994856],[138.796809,35.994779],[138.796891,35.994688],[138.797011,35.99459],[138.797132,35.9945],[138.797313,35.994386],[138.797498,35.994267],[138.79756,35.994225],[138.797674,35.994148],[138.797757,35.994112],[138.797844,35.994082],[138.798215,35.994041],[138.798822,35.993998],[138.799318,35.99398],[138.799526,35.993986]]}},{"type":"Feature","properties":{"id":801833974,"highway":"unclassified"},"geometry":{"type":"LineString","coordinates":[[138.791025,35.993356],[138.791142,35.993216],[138.791621,35.993027],[138.791971,35.992952],[138.792306,35.992929],[138.792594,35.992918],[138.792843,35.992957],[138.792947,35.993003],[138.793023,35.993076],[138.793078,35.993194],[138.7931,35.993566],[138.79317,35.993774],[138.793232,35.99387],[138.793418,35.994027],[138.79348,35.994123],[138.793577,35.994337],[138.793618,35.994467],[138.793623,35.994841],[138.793625,35.995006],[138.793612,35.995322],[138.793585,35.995496],[138.793592,35.995677],[138.793653,35.995772],[138.793743,35.995845],[138.793868,35.995902],[138.794048,35.995958],[138.794208,35.99601],[138.794485,35.996105],[138.794693,35.996138],[138.794887,35.996127],[138.795108,35.996093],[138.795196,35.996077],[138.795399,35.996056],[138.795598,35.996015],[138.795704,35.995981],[138.795786,35.995945],[138.795865,35.995888],[138.795997,35.99573],[138.796158,35.99548],[138.796354,35.995243]]}},{"type":"Feature","properties":{"id":801833980,"highway":"unclassified"},"geometry":{"type":"LineString","coordinates":[[138.740614,35.966272],[138.740657,35.966437]]}},{"type":"Feature","properties":{"id":801833981,"highway":"unclassified"},"geometry":{"type":"LineString","coordinates":[[138.740657,35.966437],[138.740748,35.966737],[138.740748,35.966878],[138.740713,35.966945],[138.74063,35.967013],[138.740492,35.967091],[138.740402,35.967153],[138.740355,35.967199],[138.740349,35.967231],[138.740339,35.967277],[138.740374,35.967441],[138.74051,35.967732],[138.740571,35.967902],[138.740561,35.967979],[138.740552,35.968019],[138.740524,35.968069],[138.740457,35.968148],[138.740289,35.96827],[138.740099,35.968382],[138.739855,35.968573],[138.739758,35.968663],[138.739564,35.968888],[138.738954,35.969433],[138.738678,35.969748],[138.738629,35.969844],[138.738477,35.970357],[138.738463,35.970644],[138.738504,35.971027],[138.738539,35.971259],[138.738684,35.971614],[138.738691,35.971877],[138.738664,35.972029],[138.738574,35.97226],[138.73829,35.972746],[138.738158,35.972909],[138.738034,35.972999],[138.73768,35.973139],[138.73744,35.973206],[138.737327,35.973235],[138.737119,35.973303],[138.737008,35.973394],[138.736937,35.973593],[138.736948,35.973662],[138.736999,35.973682],[138.73748,35.973624],[138.737861,35.973624],[138.738289,35.973708],[138.738434,35.973729],[138.738483,35.973737],[138.738518,35.973748],[138.738968,35.973787],[138.739391,35.973883],[138.739529,35.973951],[138.739626,35.974029],[138.739758,35.974159],[138.739792,35.974249],[138.739841,35.974458],[138.739848,35.974711],[138.739896,35.974795],[138.740021,35.974914],[138.740311,35.975133],[138.740401,35.975212],[138.740443,35.975269],[138.740483,35.975413],[138.740491,35.975724],[138.740533,35.97591],[138.740637,35.975989],[138.740796,35.976023],[138.741308,35.976046],[138.741419,35.976079],[138.741481,35.976147],[138.741488,35.976226],[138.74144,35.9764],[138.741461,35.976485],[138.741537,35.976659],[138.741558,35.976947],[138.741668,35.977189],[138.741765,35.977458],[138.741883,35.977624],[138.742014,35.9777],[138.742139,35.977706],[138.742305,35.977695],[138.742603,35.977622],[138.742975,35.977512],[138.743181,35.97754],[138.743247,35.977593],[138.743427,35.977751],[138.743787,35.97805],[138.743849,35.978134],[138.74387,35.978427],[138.743974,35.978658],[138.744009,35.978765],[138.744064,35.979069],[138.744085,35.979395],[138.744119,35.979491],[138.744203,35.979605],[138.744224,35.979619],[138.744306,35.979671],[138.744473,35.979756],[138.744576,35.97979],[138.744915,35.979909],[138.744998,35.979954],[138.745164,35.980123],[138.745247,35.980236],[138.745302,35.980393],[138.745309,35.980573],[138.745143,35.980973],[138.745095,35.981181],[138.745095,35.981373],[138.745115,35.981458],[138.74515,35.981514],[138.745323,35.981638],[138.745455,35.981677],[138.745655,35.981699],[138.745898,35.981711],[138.746342,35.981744],[138.74655,35.981773],[138.746853,35.981854],[138.747055,35.981895],[138.747223,35.981981],[138.747305,35.982072],[138.747348,35.982176],[138.74735,35.982303],[138.747322,35.982431],[138.747207,35.982664],[138.747178,35.982761],[138.747167,35.982901],[138.747155,35.98305],[138.747082,35.983584],[138.747077,35.983652],[138.747092,35.983735],[138.747203,35.983959],[138.747275,35.984138],[138.747307,35.984256],[138.747355,35.98446],[138.747373,35.984525],[138.74743,35.98459],[138.747547,35.984717],[138.747618,35.984829],[138.747754,35.985201],[138.747886,35.985398],[138.74799,35.985523],[138.748156,35.985652],[138.748329,35.985759],[138.748509,35.985832],[138.748662,35.985849],[138.748752,35.985849],[138.748953,35.98581],[138.749174,35.985815],[138.749423,35.985877],[138.750143,35.986114],[138.750229,35.986154]]}},{"type":"Feature","properties":{"id":975163279,"highway":"unclassified"},"geometry":{"type":"LineString","coordinates":[[138.773399,35.994654],[138.773923,35.994822]]}},{"type":"Feature","properties":{"id":1226979713,"highway":"unclassified"},"geometry":{"type":"LineString","coordinates":[[138.785759,35.993934],[138.785968,35.993705],[138.7863,35.993395],[138.786543,35.99321],[138.786736,35.993092],[138.786931,35.993025],[138.787395,35.992967],[138.787539,35.992918],[138.787561,35.992911],[138.787817,35.99281],[138.788046,35.992753],[138.788229,35.992748]]}},{"type":"Feature","properties":{"id":1226979714,"highway":"unclassified"},"geometry":{"type":"LineString","coordinates":[[138.785663,35.994039],[138.785759,35.993934]]}},{"type":"Feature","properties":{"id":1252668093,"highway":"unclassified"},"geometry":{"type":"LineString","coordinates":[[138.71203,35.979354],[138.712345,35.979199],[138.712384,35.979176],[138.712441,35.979131],[138.712453,35.979116],[138.712457,35.979098],[138.712458,35.978937]]}},{"type":"Feature","properties":{"id":1252668094,"highway":"unclassified"},"geometry":{"type":"LineString","coordinates":[[138.799526,35.993986],[138.799657,35.994015],[138.799793,35.994082],[138.799959,35.99422],[138.800217,35.994423],[138.800397,35.994538],[138.800531,35.994676],[138.801003,35.995235],[138.801077,35.995322]]}}]}