{"type":"FeatureCollection","features":[{"type":"Feature","properties":{"id":38095591,"highway":"unclassified"},"geometry":{"type":"LineString","coordinates":[[138.789807,36.705436],[138.789378,36.705381],[138.788974,36.705361],[138.788717,36.705374],[138.788536,36.705429],[138.788331,36.705469]]}},{"type":"Feature","properties":{"id":38095658,"highway":"unclassified"},"geometry":{"type":"LineString","coordinates":[[138.782837,36.695393],[138.783062,36.695654],[138.783361,36.69594],[138.783513,36.696103],[138.783586,36.696147],[138.783652,36.696171],[138.783754,36.696182],[138.783898,36.696184],[138.783996,36.696192],[138.784081,36.696233],[138.784131,36.696287],[138.784156,36.696351],[138.784153,36.696413],[138.784121,36.696494],[138.783728,36.697262],[138.783717,36.697331],[138.783727,36.697393],[138.783798,36.697473],[138.783949,36.697622],[138.783997,36.697662],[138.784063,36.69769],[138.784132,36.697689],[138.784208,36.697663],[138.7843,36.697608],[138.784371,36.697558],[138.784477,36.697495],[138.784595,36.697455],[138.78476,36.697406],[138.784829,36.697388],[138.784926,36.697375],[138.784978,36.69739],[138.785019,36.697409],[138.78506,36.697439],[138.785084,36.69747],[138.785083,36.697513],[138.785071,36.697566],[138.785048,36.697618],[138.784526,36.698402],[138.784444,36.69853],[138.784397,36.698608],[138.784362,36.69869],[138.784362,36.698749],[138.784372,36.698788],[138.784411,36.698822],[138.784494,36.69886],[138.784585,36.698876],[138.7847,36.698882],[138.784811,36.698908],[138.784934,36.698961],[138.785027,36.699036],[138.785141,36.699166],[138.785199,36.699261],[138.785465,36.699546],[138.785512,36.699583],[138.785591,36.699603],[138.78574,36.699609],[138.785841,36.699615],[138.78591,36.699631],[138.785957,36.699667],[138.785987,36.699718],[138.785994,36.699759],[138.785981,36.6998],[138.785944,36.699842],[138.785823,36.699939],[138.785773,36.700014],[138.785759,36.700072],[138.785773,36.700342],[138.785763,36.700423],[138.785778,36.700502],[138.785816,36.700585],[138.785927,36.700683],[138.785968,36.700725],[138.785983,36.700771],[138.785992,36.700814],[138.785981,36.700859],[138.785887,36.701011],[138.785867,36.70107],[138.78587,36.70113],[138.785906,36.701185],[138.786001,36.701242],[138.786104,36.701279],[138.786215,36.701293],[138.786306,36.701281],[138.78639,36.701244],[138.786524,36.701173],[138.786845,36.70097],[138.786977,36.70091],[138.787097,36.700891],[138.787202,36.700913],[138.787248,36.700949],[138.787279,36.700998],[138.787294,36.701065],[138.787283,36.701139],[138.787247,36.701203],[138.786839,36.701668],[138.786788,36.70174],[138.786773,36.701806],[138.786774,36.701863],[138.786781,36.701886],[138.786806,36.701933],[138.786843,36.701976],[138.786928,36.702022],[138.787061,36.702055],[138.787218,36.702095],[138.787299,36.702125],[138.787361,36.702163],[138.787411,36.702187],[138.787443,36.702188],[138.787473,36.70218],[138.787519,36.702165],[138.787555,36.702161],[138.78759,36.702163],[138.787647,36.702171],[138.787704,36.702195],[138.78779,36.702241],[138.787854,36.702286],[138.7879,36.702313],[138.787946,36.702329],[138.788,36.70234],[138.788072,36.702348],[138.788121,36.702361],[138.788214,36.702405],[138.78828,36.702444],[138.788337,36.702504],[138.788376,36.702563],[138.788409,36.70261],[138.788451,36.702643],[138.78851,36.702676],[138.788675,36.702753],[138.788771,36.702804],[138.788843,36.702854],[138.788888,36.702903],[138.788924,36.702955],[138.788997,36.703132],[138.789037,36.703227],[138.789068,36.703286],[138.789106,36.703325],[138.789162,36.703359],[138.789251,36.703392],[138.789339,36.703421],[138.789412,36.703432],[138.789497,36.703425],[138.789578,36.703417],[138.789676,36.703421],[138.789738,36.703432],[138.789813,36.703456],[138.78988,36.703492],[138.789945,36.703541],[138.790159,36.703707]]}},{"type":"Feature","properties":{"id":188148683,"highway":"unclassified"},"geometry":{"type":"LineString","coordinates":[[138.788264,36.705222],[138.788331,36.705469]]}},{"type":"Feature","properties":{"id":188148688,"highway":"unclassified"},"geometry":{"type":"LineString","coordinates":[[138.790159,36.703707],[138.790711,36.704294]]}},{"type":"Feature","properties":{"id":188148696,"highway":"unclassified"},"geometry":{"type":"LineString","coordinates":[[138.787132,36.706115],[138.788221,36.705545]]}},{"type":"Feature","properties":{"id":188148699,"highway":"unclassified"},"geometry":{"type":"LineString","coordinates":[[138.790783,36.704372],[138.791069,36.704197],[138.791175,36.704125],[138.791277,36.704072],[138.791366,36.704044],[138.791471,36.704024],[138.791571,36.704014]]}},{"type":"Feature","properties":{"id":188148706,"highway":"unclassified"},"geometry":{"type":"LineString","coordinates":[[138.790711,36.704294],[138.790783,36.704372],[138.790326,36.70459],[138.79021,36.704636],[138.790069,36.704655],[138.789948,36.704646],[138.789802,36.704614],[138.78967,36.704554],[138.789588,36.704524],[138.789503,36.704516],[138.789432,36.704535],[138.789253,36.704621],[138.789165,36.704645],[138.789084,36.704656],[138.788993,36.704658],[138.788881,36.704645],[138.788769,36.704609],[138.788677,36.704551],[138.788554,36.704439],[138.788424,36.704331],[138.788344,36.704289],[138.788268,36.704272],[138.788194,36.704279],[138.78814,36.704301],[138.788091,36.704347],[138.788062,36.704403],[138.788052,36.704461],[138.788073,36.704521]]}},{"type":"Feature","properties":{"id":188148722,"highway":"unclassified"},"geometry":{"type":"LineString","coordinates":[[138.788073,36.704521],[138.788142,36.704673],[138.788184,36.704795],[138.788264,36.705222]]}},{"type":"Feature","properties":{"id":188148724,"highway":"unclassified"},"geometry":{"type":"LineString","coordinates":[[138.786956,36.706177],[138.787015,36.706165],[138.787074,36.706144],[138.787132,36.706115]]}},{"type":"Feature","properties":{"id":188148735,"highway":"unclassified"},"geometry":{"type":"LineString","coordinates":[[138.788331,36.705469],[138.788284,36.705508],[138.788221,36.705545]]}},{"type":"Feature","properties":{"id":188148764,"highway":"unclassified"},"geometry":{"type":"LineString","coordinates":[[138.785256,36.705695],[138.785181,36.705621],[138.785069,36.7055],[138.785012,36.705434],[138.784968,36.70537],[138.784924,36.70527],[138.784889,36.705226],[138.784844,36.70519],[138.784795,36.705171],[138.784547,36.705088],[138.784495,36.705061],[138.784468,36.705031],[138.78445,36.704995],[138.784451,36.704952],[138.784466,36.704919],[138.784487,36.704891],[138.78454,36.704838],[138.784668,36.704718],[138.784769,36.70462],[138.784828,36.704549],[138.784889,36.704452],[138.784935,36.704354],[138.784974,36.704245],[138.785008,36.704125],[138.785032,36.70398],[138.785033,36.703903],[138.785016,36.70386],[138.784976,36.703822],[138.784925,36.703798],[138.784859,36.703789],[138.784762,36.703785],[138.784643,36.703777],[138.784574,36.703763],[138.784526,36.703743],[138.784455,36.703685],[138.784392,36.70361],[138.784326,36.703519],[138.784218,36.70336],[138.784173,36.703302],[138.784115,36.703253],[138.784049,36.70322],[138.783819,36.70314],[138.783605,36.703072],[138.783517,36.703055],[138.783424,36.703043],[138.783341,36.703023],[138.783289,36.702996],[138.783241,36.702954],[138.783174,36.702879],[138.782946,36.702618],[138.782871,36.702557],[138.782805,36.702528],[138.782722,36.702509],[138.782653,36.702505],[138.782301,36.702496],[138.782238,36.702487],[138.782175,36.702466],[138.782126,36.70244],[138.782086,36.702406],[138.78206,36.702369],[138.782039,36.702304],[138.782033,36.702231],[138.78203,36.702061],[138.782033,36.701851],[138.782034,36.701688],[138.78205,36.701575],[138.782068,36.701465],[138.782066,36.701391],[138.782046,36.701287],[138.781995,36.701071],[138.781969,36.700964],[138.781913,36.70077],[138.781878,36.700676],[138.781831,36.700615],[138.781775,36.700572],[138.781686,36.700537],[138.781608,36.700514],[138.781512,36.700471],[138.781442,36.700419],[138.781393,36.700362],[138.781361,36.700291],[138.78135,36.700227],[138.781354,36.70017],[138.781381,36.700088],[138.78143,36.699956],[138.781457,36.699809],[138.78146,36.699721],[138.781444,36.699619],[138.78142,36.699531],[138.781291,36.699265],[138.781165,36.69905],[138.781126,36.698966],[138.781105,36.698861],[138.781103,36.698768],[138.781094,36.698703],[138.78105,36.698595],[138.780993,36.69847],[138.780934,36.698229],[138.780906,36.698161],[138.780904,36.698156],[138.780882,36.698105],[138.780842,36.698053],[138.780796,36.698005],[138.780428,36.697698],[138.780356,36.697654],[138.780273,36.697618],[138.780149,36.69759],[138.780048,36.697564],[138.779976,36.697515],[138.78006,36.697465],[138.782979,36.695704],[138.783062,36.695654]]}},{"type":"Feature","properties":{"id":188148785,"highway":"unclassified"},"geometry":{"type":"LineString","coordinates":[[138.785256,36.705695],[138.78539,36.705822],[138.785463,36.705885],[138.785523,36.705909],[138.785611,36.705932],[138.785818,36.705984],[138.78622,36.706071],[138.786693,36.706162],[138.786816,36.706177],[138.786956,36.706177]]}},{"type":"Feature","properties":{"id":1215249754,"highway":"service"},"geometry":{"type":"LineString","coordinates":[[138.786781,36.701886],[138.786722,36.7019],[138.786707,36.701849],[138.7867,36.701803],[138.786703,36.701754],[138.786736,36.70165],[138.786766,36.701541],[138.786756,36.701493],[138.786731,36.701453],[138.786683,36.701414],[138.786614,36.701383],[138.786556,36.701369],[138.786503,36.701369],[138.786451,36.701382],[138.786438,36.70139],[138.786379,36.701428],[138.786165,36.70161],[138.786104,36.701641],[138.78604,36.701658],[138.785979,36.701653],[138.785898,36.701626],[138.785816,36.701599],[138.785736,36.701573]]}},{"type":"Feature","properties":{"id":1215249755,"highway":"service"},"geometry":{"type":"LineString","coordinates":[[138.785736,36.701573],[138.78584,36.701374],[138.786002,36.701428],[138.785898,36.701626]]}},{"type":"Feature","properties":{"id":1215249758,"highway":"service"},"geometry":{"type":"LineString","coordinates":[[138.786722,36.7019],[138.786747,36.701949],[138.786776,36.701981]]}},{"type":"Feature","properties":{"id":1215249801,"highway":"unclassified"},"geometry":{"type":"LineString","coordinates":[[138.801903,36.704724],[138.801648,36.704819],[138.801525,36.704887],[138.80134,36.705002],[138.80123,36.705051],[138.80112,36.705085],[138.801002,36.705119],[138.800634,36.705199],[138.799734,36.705385],[138.799632,36.70541],[138.799544,36.705424],[138.799447,36.705428],[138.799254,36.705398],[138.799111,36.705374],[138.798739,36.705309],[138.798592,36.705273],[138.798478,36.705236],[138.798308,36.705163],[138.798045,36.705027],[138.797971,36.704999],[138.797901,36.704992],[138.797823,36.704992],[138.797724,36.705005],[138.797543,36.705036],[138.797007,36.705118],[138.79683,36.705147],[138.79668,36.705154],[138.796562,36.705144],[138.796481,36.705118],[138.796355,36.705053],[138.796204,36.704985],[138.796121,36.704954],[138.79602,36.704952],[138.795918,36.704971],[138.795815,36.704992],[138.795683,36.705003],[138.795563,36.704994],[138.795414,36.704967],[138.795239,36.704921],[138.795064,36.704864],[138.794933,36.704807],[138.794856,36.704764],[138.794786,36.70471],[138.794736,36.704661],[138.794699,36.704608],[138.794671,36.704549],[138.79464,36.704474],[138.794601,36.70441],[138.794565,36.704373],[138.794508,36.704343],[138.794447,36.704326],[138.794386,36.704324],[138.7943,36.704334],[138.794193,36.704355],[138.794018,36.704381],[138.793915,36.704391],[138.793853,36.704387],[138.793786,36.704365],[138.793696,36.704323],[138.793496,36.704195],[138.79335,36.704087],[138.793217,36.704011],[138.793107,36.703977],[138.792875,36.703925],[138.792591,36.703866],[138.792484,36.703848],[138.792407,36.703847],[138.792343,36.703863],[138.792092,36.703969],[138.791998,36.703999],[138.7919,36.704012],[138.791784,36.70401],[138.791571,36.704014]]}}]}