{"type":"FeatureCollection","features":[{"type":"Feature","properties":{"id":28686894,"highway":"trunk"},"geometry":{"type":"LineString","coordinates":[[138.990303,35.761295],[138.990377,35.761331],[138.990456,35.761379],[138.990541,35.761464],[138.990619,35.761566],[138.990669,35.761647],[138.990712,35.761739],[138.990727,35.761854],[138.99074,35.761921],[138.990766,35.761979],[138.990808,35.762047],[138.990857,35.762092],[138.990965,35.762191],[138.991055,35.762289],[138.991094,35.762325],[138.99115,35.762362],[138.991213,35.76238],[138.991344,35.762406],[138.991595,35.762458],[138.991693,35.762462],[138.991775,35.762457],[138.991955,35.762436],[138.992039,35.76244],[138.992142,35.762461],[138.992232,35.762491],[138.99231,35.762537],[138.992384,35.762585],[138.992456,35.76261],[138.992553,35.762632],[138.992809,35.762655],[138.992923,35.762665],[138.992997,35.762692],[138.993054,35.762724],[138.99309,35.76276],[138.993105,35.762782],[138.993121,35.762817],[138.993124,35.762876],[138.993118,35.762947],[138.993096,35.763046],[138.993042,35.763201],[138.992979,35.763368],[138.992919,35.763533],[138.992886,35.763611],[138.992829,35.763708],[138.992719,35.763863],[138.992648,35.763973],[138.9926,35.764075],[138.992568,35.764177],[138.992523,35.764405],[138.992485,35.764532],[138.992444,35.764657],[138.992381,35.764777],[138.992319,35.764876],[138.992299,35.764939],[138.992296,35.764993],[138.992316,35.765073],[138.992356,35.765129],[138.992403,35.765171],[138.992501,35.765216],[138.992698,35.765292],[138.992784,35.765326],[138.992846,35.765371],[138.992899,35.765419],[138.992929,35.765452],[138.992971,35.765521],[138.993087,35.765776],[138.99313,35.76586],[138.993172,35.765936]]}},{"type":"Feature","properties":{"id":28688609,"highway":"secondary"},"geometry":{"type":"LineString","coordinates":[[138.997506,35.773251],[138.997699,35.773173]]}},{"type":"Feature","properties":{"id":28688610,"highway":"secondary"},"geometry":{"type":"LineString","coordinates":[[138.997699,35.773173],[138.999096,35.772582]]}},{"type":"Feature","properties":{"id":28688640,"highway":"secondary"},"geometry":{"type":"LineString","coordinates":[[138.999096,35.772582],[138.999195,35.77254],[138.999771,35.772288],[138.999897,35.772236],[139.000032,35.772194],[139.000123,35.772173],[139.000214,35.772159],[139.000527,35.772126],[139.000819,35.7721],[139.000969,35.772081],[139.001088,35.772064],[139.001228,35.772041],[139.001332,35.772015],[139.001432,35.771985],[139.001528,35.771951],[139.001778,35.771868],[139.00191,35.771832],[139.002029,35.771809],[139.002192,35.771791],[139.002308,35.771782],[139.002384,35.771782],[139.002458,35.771788],[139.002564,35.771811],[139.002651,35.77184],[139.002767,35.771884],[139.002889,35.771942],[139.003006,35.772002],[139.00316,35.772093],[139.00355,35.772326],[139.003738,35.77244],[139.00391,35.77256],[139.004056,35.772666],[139.004139,35.772724],[139.004206,35.772786],[139.004312,35.772891],[139.00441,35.77299],[139.004498,35.773065],[139.004601,35.773128],[139.004672,35.773166]]}},{"type":"Feature","properties":{"id":28688648,"highway":"trunk"},"geometry":{"type":"LineString","coordinates":[[138.998798,35.774246],[139.000294,35.775488]]}},{"type":"Feature","properties":{"id":34282255,"highway":"unclassified"},"geometry":{"type":"LineString","coordinates":[[138.99866,35.801677],[138.998762,35.801554],[138.998842,35.801446],[138.998885,35.8013],[138.998963,35.801196],[138.99897,35.801015],[138.998903,35.800864],[138.998789,35.800609],[138.998772,35.800462],[138.998818,35.800317],[138.998868,35.800249],[138.998914,35.800162],[138.998928,35.800012],[138.998912,35.799883],[138.998913,35.799727],[138.999019,35.799566],[138.999083,35.799483],[138.999057,35.799372],[138.998997,35.799309],[138.998903,35.799191],[138.998692,35.798911],[138.998525,35.798771],[138.998491,35.798725],[138.998473,35.798599],[138.998482,35.798502],[138.998482,35.798349],[138.998439,35.798203],[138.998388,35.798035],[138.998327,35.797868],[138.998285,35.797757],[138.998276,35.797639],[138.99831,35.797458],[138.998369,35.797321],[138.998632,35.797135],[138.9989,35.796979],[138.999151,35.796921],[138.999315,35.796845],[138.999437,35.796835],[138.999543,35.79685],[138.999657,35.796851],[138.99976,35.796791],[138.99984,35.796697],[138.999974,35.796569],[139.00002,35.796501],[139.000027,35.796476],[139.000038,35.796315],[139.000054,35.79618],[139.000078,35.796037],[139.000077,35.795916],[139.000026,35.7958],[139.000023,35.795716],[139.00006,35.795652],[139.000122,35.795609],[139.000219,35.79554],[139.000302,35.795434],[139.000389,35.79531],[139.000481,35.795199],[139.000651,35.795065],[139.000784,35.794961],[139.000964,35.794894],[139.001168,35.794847],[139.001421,35.794804],[139.001647,35.794746],[139.001934,35.794687]]}},{"type":"Feature","properties":{"id":34282355,"highway":"unclassified"},"geometry":{"type":"LineString","coordinates":[[138.991844,35.798586],[138.991847,35.798478],[138.99181,35.798413],[138.991766,35.798352],[138.991625,35.798218],[138.991481,35.798085],[138.991399,35.797993],[138.991377,35.797949],[138.991359,35.797905],[138.991325,35.797813],[138.991295,35.79771],[138.991275,35.797589],[138.991256,35.79747],[138.991237,35.797328],[138.991232,35.797281],[138.991219,35.797242],[138.991203,35.797214],[138.991179,35.797182],[138.991115,35.797131],[138.991021,35.797073],[138.99097,35.797043],[138.990951,35.797021],[138.990939,35.797001],[138.99093,35.796978],[138.990928,35.796954],[138.990931,35.79693],[138.990949,35.796901],[138.990977,35.796872],[138.991091,35.796798],[138.991199,35.79673],[138.991231,35.796701],[138.991256,35.796672],[138.991265,35.796653],[138.991272,35.796635],[138.991276,35.796613],[138.991274,35.796595],[138.991263,35.796562],[138.991246,35.796528],[138.991176,35.796419],[138.991134,35.796353],[138.991107,35.796311],[138.991085,35.796266],[138.991075,35.796228],[138.991064,35.796183],[138.991058,35.79614],[138.991055,35.796085],[138.991054,35.796021],[138.991054,35.795972],[138.991065,35.795944],[138.991078,35.795925],[138.991096,35.795909],[138.991111,35.795903],[138.991132,35.795902],[138.991155,35.79591],[138.991178,35.79592],[138.991204,35.795949],[138.991216,35.795973],[138.991222,35.796001],[138.991231,35.796086],[138.991238,35.796129],[138.991245,35.796155],[138.99126,35.796185],[138.991284,35.79622],[138.991314,35.796252],[138.991399,35.796361],[138.991448,35.796428],[138.991499,35.796528],[138.991545,35.796625],[138.991588,35.796721],[138.991602,35.796754],[138.991621,35.796777],[138.991653,35.796793],[138.991688,35.796793],[138.991718,35.796782],[138.991738,35.796765],[138.991743,35.796743],[138.991732,35.796682],[138.991711,35.796563],[138.991703,35.796498],[138.991703,35.796421],[138.99171,35.796303],[138.991719,35.796206],[138.991725,35.796139],[138.991731,35.796085],[138.991745,35.796026],[138.991757,35.795995],[138.991772,35.795965],[138.991805,35.795909],[138.991851,35.795852],[138.991901,35.795801],[138.991961,35.795747],[138.992004,35.795723],[138.992056,35.7957],[138.992233,35.795621],[138.992366,35.795567],[138.992514,35.79552],[138.99268,35.795475],[138.992824,35.795436],[138.992977,35.795401],[138.993093,35.795376],[138.993176,35.79536],[138.993204,35.79536],[138.993222,35.795367],[138.99324,35.79539],[138.993242,35.795407],[138.993233,35.795428],[138.993208,35.795465],[138.993156,35.795502],[138.992985,35.795612],[138.992926,35.795666],[138.992876,35.795718],[138.992766,35.795829],[138.99269,35.795906],[138.992631,35.79594],[138.99259,35.795968],[138.99256,35.795994],[138.992532,35.796045],[138.992524,35.796086],[138.99254,35.796133],[138.992548,35.796168],[138.992551,35.796207],[138.992549,35.796338],[138.992557,35.796371],[138.992591,35.796398],[138.992624,35.796415],[138.992665,35.796421],[138.992695,35.796419],[138.992729,35.796407],[138.992756,35.796386],[138.992778,35.796337],[138.992789,35.796295],[138.992817,35.796172],[138.992838,35.796132],[138.992874,35.796092],[138.992967,35.796029],[138.99308,35.795962],[138.993185,35.795901],[138.99332,35.795822],[138.993469,35.795741],[138.993638,35.795665],[138.993767,35.795614],[138.993858,35.795585],[138.99401,35.795556],[138.994163,35.795528],[138.994242,35.795506],[138.994354,35.79547],[138.994447,35.795439],[138.994505,35.795412],[138.994582,35.795368],[138.994691,35.795308],[138.994748,35.795272],[138.994837,35.795203],[138.994862,35.795184],[138.994896,35.795175],[138.994928,35.795173],[138.99496,35.795184],[138.994981,35.795198],[138.994996,35.795214],[138.995006,35.795233],[138.995006,35.795259],[138.995002,35.795276],[138.994991,35.795296],[138.994911,35.795392],[138.994787,35.795562],[138.994747,35.795609],[138.994722,35.795638],[138.99469,35.795665],[138.994616,35.795705],[138.994545,35.79575],[138.994521,35.795772],[138.994513,35.795787],[138.99451,35.795801],[138.994513,35.795817],[138.994523,35.795834],[138.994535,35.795843],[138.994552,35.795853],[138.99458,35.79586],[138.994612,35.79586],[138.994719,35.795837],[138.994832,35.795814],[138.99488,35.795809],[138.99495,35.795804],[138.995008,35.795795],[138.995045,35.795784],[138.99507,35.795772],[138.995091,35.795759],[138.995117,35.795736],[138.995138,35.795712],[138.995202,35.795617],[138.995242,35.795551],[138.995268,35.795509],[138.995298,35.795465],[138.995339,35.795411],[138.995363,35.795384],[138.995389,35.795356],[138.995438,35.795314],[138.995496,35.795267],[138.995536,35.795241],[138.995568,35.795219],[138.995643,35.795181],[138.995685,35.795164],[138.995739,35.795152],[138.995829,35.795137],[138.995988,35.795106],[138.996065,35.795091],[138.996145,35.795081],[138.996236,35.795058],[138.996351,35.795037],[138.996524,35.795012],[138.9966,35.794999],[138.996686,35.794975],[138.996721,35.794956],[138.996743,35.794934],[138.996764,35.794904],[138.996785,35.794859],[138.996809,35.794821],[138.996831,35.794793],[138.996872,35.794776],[138.996915,35.794767],[138.996954,35.794752],[138.996984,35.794736],[138.997012,35.794705],[138.997026,35.794676],[138.997026,35.794629],[138.997013,35.79458],[138.996991,35.794517],[138.996976,35.79446],[138.996973,35.794407],[138.996982,35.794292],[138.996987,35.794232],[138.997009,35.794118],[138.997035,35.793998],[138.997046,35.793952],[138.997058,35.793907],[138.997073,35.793866],[138.997099,35.793818],[138.997134,35.793774],[138.997157,35.793751],[138.997186,35.793725],[138.997222,35.793698],[138.997273,35.793663],[138.99742,35.793572],[138.997484,35.793518],[138.997526,35.793481],[138.997583,35.793456],[138.997622,35.793446],[138.997689,35.793429],[138.997757,35.793415],[138.997816,35.793409],[138.99791,35.793395],[138.997963,35.79338],[138.998005,35.793365],[138.998047,35.793342],[138.998093,35.793321],[138.998163,35.793288],[138.998252,35.793256],[138.998297,35.793248],[138.998338,35.793246],[138.998375,35.793261],[138.998396,35.793276],[138.998417,35.793307],[138.998425,35.793339],[138.998413,35.793371],[138.99839,35.793392],[138.998351,35.793412],[138.998301,35.793428],[138.998231,35.793444],[138.998164,35.793457],[138.998076,35.793474],[138.997968,35.793499],[138.997863,35.793528],[138.997789,35.793551],[138.997733,35.793573],[138.997691,35.793597],[138.997647,35.793634],[138.997608,35.793669],[138.99756,35.793723],[138.99752,35.793777],[138.997462,35.793863],[138.997427,35.793917],[138.997398,35.793971],[138.997374,35.794029],[138.99736,35.794077],[138.997353,35.794129],[138.997361,35.794209],[138.997377,35.794272],[138.997393,35.794328],[138.997411,35.794401],[138.997423,35.794482],[138.997443,35.794614],[138.997454,35.794675],[138.997474,35.794729],[138.997497,35.794761],[138.997528,35.794806],[138.997551,35.794848],[138.997567,35.794891],[138.997576,35.79492],[138.997581,35.794952],[138.997584,35.794999],[138.99758,35.795047],[138.997568,35.795088],[138.997554,35.795131],[138.997535,35.79517],[138.997522,35.795195],[138.997498,35.795221],[138.997474,35.79524],[138.997445,35.795258],[138.99741,35.795275],[138.997358,35.795293],[138.997321,35.795308],[138.997296,35.79533],[138.997288,35.795352],[138.997294,35.795376],[138.997311,35.795402],[138.997355,35.795453],[138.997385,35.795485],[138.997447,35.795531],[138.997515,35.795576],[138.997561,35.795597],[138.997618,35.795618],[138.997719,35.795653],[138.997799,35.795677],[138.997895,35.7957],[138.997971,35.795708],[138.998051,35.795714],[138.998149,35.795727],[138.998187,35.795744],[138.998238,35.795768],[138.998275,35.795788],[138.998356,35.79583],[138.998391,35.795842],[138.99843,35.795845],[138.998461,35.795841],[138.998493,35.795818],[138.998507,35.795795],[138.99851,35.795766],[138.99851,35.795741],[138.9985,35.795716],[138.998483,35.795694],[138.998458,35.795682],[138.998371,35.79566],[138.998273,35.795636],[138.998211,35.795618],[138.998151,35.795595],[138.998086,35.795568],[138.998025,35.795541],[138.997986,35.79552],[138.997967,35.795505],[138.997947,35.795479],[138.997936,35.795456],[138.997928,35.795429],[138.997921,35.795384],[138.997928,35.795347],[138.997954,35.795262],[138.997982,35.795181],[138.997998,35.795126],[138.998014,35.795081],[138.998035,35.795038],[138.998065,35.794988],[138.998096,35.794948],[138.998123,35.794923],[138.998144,35.794908],[138.998181,35.794883],[138.998281,35.794842],[138.998355,35.794812],[138.998454,35.794771],[138.998487,35.794751],[138.998513,35.794727],[138.998532,35.794697],[138.998555,35.794653],[138.998578,35.794609],[138.998614,35.794555],[138.998653,35.794519],[138.998686,35.794494],[138.998729,35.794469],[138.998792,35.794451],[138.998837,35.794449],[138.998894,35.794449],[138.998969,35.794453],[138.999043,35.794465],[138.999159,35.794488],[138.999223,35.794495],[138.999291,35.794499],[138.999365,35.794496],[138.999544,35.794485],[138.999674,35.794468],[138.999747,35.794454],[138.999837,35.79444],[138.999897,35.794414],[138.999967,35.794372],[139.000059,35.794309],[139.000148,35.794228],[139.000245,35.794141],[139.000368,35.794019],[139.000406,35.793975],[139.000425,35.793944],[139.00044,35.793917],[139.00045,35.793873],[139.000451,35.793834],[139.000445,35.793798],[139.000425,35.793719],[139.000414,35.793676],[139.000416,35.793634],[139.00043,35.793596],[139.000484,35.793486],[139.000547,35.793385],[139.00059,35.793313],[139.000617,35.793278],[139.000637,35.793256],[139.000661,35.793243],[139.000694,35.793241],[139.000726,35.793247],[139.000754,35.793263],[139.000782,35.793289],[139.000822,35.793346],[139.000893,35.793468],[139.000913,35.793496],[139.000933,35.793516],[139.000983,35.793559],[139.001004,35.793573],[139.001024,35.793583],[139.001049,35.793592],[139.001078,35.793598],[139.001118,35.793603],[139.001167,35.793607],[139.001277,35.793614],[139.001415,35.793626],[139.001481,35.793644],[139.001561,35.79367],[139.001627,35.793694],[139.001685,35.793717],[139.001741,35.793744],[139.001802,35.793777],[139.001916,35.793843],[139.002032,35.793904],[139.002076,35.793928],[139.002156,35.793959],[139.002221,35.793981],[139.002286,35.793996],[139.002428,35.794019],[139.002563,35.794034],[139.002659,35.794036],[139.002712,35.794034],[139.002774,35.794027],[139.002813,35.794019],[139.00286,35.794006],[139.00299,35.793968],[139.003052,35.793956],[139.003095,35.793956],[139.003131,35.793965],[139.003144,35.793973],[139.003155,35.793984],[139.003164,35.794005],[139.003164,35.794017],[139.003157,35.794033],[139.003147,35.794044],[139.003132,35.794055],[139.003106,35.794064],[139.003031,35.794081],[139.002891,35.794104],[139.002791,35.794123],[139.002704,35.794142],[139.002608,35.794158],[139.002506,35.794169],[139.002372,35.794177],[139.002192,35.794186],[139.002104,35.794176],[139.002038,35.794173],[139.002001,35.79417],[139.001974,35.794175],[139.001965,35.794193],[139.001966,35.794211],[139.001992,35.794234],[139.002037,35.794248],[139.002082,35.794254],[139.002154,35.794272],[139.002234,35.794293],[139.002419,35.794337],[139.002552,35.79436],[139.002682,35.794362],[139.003106,35.794366],[139.003328,35.794385],[139.003386,35.794382],[139.0035,35.794395],[139.003532,35.794421]]}},{"type":"Feature","properties":{"id":146029761,"highway":"trunk"},"geometry":{"type":"LineString","coordinates":[[138.993429,35.766219],[138.993373,35.766154],[138.99323,35.766011],[138.993172,35.765936]]}},{"type":"Feature","properties":{"id":146029886,"highway":"trunk"},"geometry":{"type":"LineString","coordinates":[[138.987081,35.78096],[138.986468,35.781002]]}},{"type":"Feature","properties":{"id":146032923,"highway":"residential"},"geometry":{"type":"LineString","coordinates":[[138.99895,35.77854],[138.998918,35.778454],[138.998798,35.778151],[138.998784,35.778015],[138.998657,35.77784]]}},{"type":"Feature","properties":{"id":146035168,"highway":"unclassified"},"geometry":{"type":"LineString","coordinates":[[138.990573,35.77768],[138.990656,35.777781],[138.990695,35.777871],[138.990687,35.77796],[138.990627,35.778044],[138.990522,35.778147]]}},{"type":"Feature","properties":{"id":146042284,"highway":"trunk"},"geometry":{"type":"LineString","coordinates":[[138.991943,35.775714],[138.99137,35.775936]]}},{"type":"Feature","properties":{"id":146042484,"highway":"trunk"},"geometry":{"type":"LineString","coordinates":[[138.999225,35.776924],[138.9988,35.777697]]}},{"type":"Feature","properties":{"id":146051195,"highway":"unclassified"},"geometry":{"type":"LineString","coordinates":[[138.98855,35.779556],[138.988654,35.779555],[138.988762,35.779464],[138.988973,35.779299],[138.989125,35.77919],[138.989303,35.779051],[138.989474,35.778933]]}},{"type":"Feature","properties":{"id":146051572,"highway":"unclassified"},"geometry":{"type":"LineString","coordinates":[[138.990522,35.778147],[138.990424,35.778226],[138.990326,35.778306],[138.990012,35.778528],[138.989474,35.778933]]}},{"type":"Feature","properties":{"id":146069977,"highway":"trunk"},"geometry":{"type":"LineString","coordinates":[[138.99137,35.775936],[138.991214,35.776006],[138.991126,35.776081],[138.991042,35.776178],[138.990899,35.776376],[138.990853,35.77648],[138.990819,35.776595],[138.990744,35.777039],[138.99069,35.777351],[138.990652,35.777513],[138.990614,35.777603],[138.990573,35.77768],[138.990483,35.777769],[138.990291,35.777908],[138.989983,35.778133],[138.989836,35.778233],[138.989772,35.778281],[138.989589,35.778418],[138.989411,35.778581],[138.989224,35.778757],[138.989037,35.778943],[138.988901,35.779095],[138.988809,35.779226],[138.988682,35.779412],[138.988631,35.779484],[138.98855,35.779556],[138.988477,35.779598],[138.988359,35.779643],[138.988283,35.779691],[138.98818,35.779779],[138.988125,35.779858],[138.988072,35.779946],[138.98801,35.7801],[138.987961,35.780213],[138.98789,35.780315],[138.987795,35.78042],[138.987688,35.780514],[138.987527,35.780661],[138.987335,35.780837],[138.987245,35.780904],[138.98716,35.78094],[138.987081,35.78096]]}},{"type":"Feature","properties":{"id":146069978,"highway":"trunk"},"geometry":{"type":"LineString","coordinates":[[139.000473,35.775612],[138.999903,35.776051],[138.999629,35.776263],[138.999454,35.776409],[138.999375,35.776526],[138.999291,35.776761],[138.999225,35.776924]]}},{"type":"Feature","properties":{"id":146071512,"highway":"trunk"},"geometry":{"type":"LineString","coordinates":[[138.9988,35.777697],[138.998748,35.777785],[138.998657,35.77784],[138.998548,35.777875],[138.998451,35.777871],[138.998318,35.777839],[138.99808,35.777723],[138.997681,35.777512],[138.997511,35.777426],[138.997416,35.777397],[138.997315,35.777375],[138.997115,35.77736],[138.996676,35.777326],[138.99621,35.7773],[138.995909,35.777287],[138.99579,35.777275],[138.995671,35.77725],[138.995467,35.777173],[138.995191,35.777065],[138.995002,35.77697],[138.994847,35.776875],[138.994648,35.77672],[138.994443,35.776562],[138.994224,35.776384],[138.993981,35.77611],[138.993854,35.775976],[138.993776,35.77592],[138.993699,35.775887],[138.993575,35.775858],[138.99276,35.775706],[138.992342,35.775659],[138.992131,35.775661],[138.992037,35.775681],[138.991943,35.775714]]}},{"type":"Feature","properties":{"id":146478154,"highway":"unclassified"},"geometry":{"type":"LineString","coordinates":[[138.978623,35.779229],[138.97944,35.77986]]}},{"type":"Feature","properties":{"id":146478165,"highway":"unclassified"},"geometry":{"type":"LineString","coordinates":[[138.978623,35.779229],[138.978598,35.779207],[138.978597,35.779171]]}},{"type":"Feature","properties":{"id":146478193,"highway":"unclassified"},"geometry":{"type":"LineString","coordinates":[[138.97944,35.77986],[138.979508,35.779908]]}},{"type":"Feature","properties":{"id":146478252,"highway":"unclassified"},"geometry":{"type":"LineString","coordinates":[[138.978597,35.779171],[138.978618,35.779095],[138.978747,35.778669],[138.978788,35.778551],[138.978815,35.778406],[138.978828,35.778365],[138.978857,35.778352],[138.978955,35.778354],[138.979121,35.778429],[138.979263,35.77843],[138.9794,35.778394],[138.979524,35.778315],[138.979732,35.778152],[138.980047,35.777938],[138.980333,35.777839],[138.980664,35.777779],[138.980964,35.777779],[138.981228,35.777803],[138.981469,35.777776],[138.981648,35.777714],[138.981784,35.777689],[138.98198,35.777675]]}},{"type":"Feature","properties":{"id":146478709,"highway":"unclassified"},"geometry":{"type":"LineString","coordinates":[[138.966508,35.790282],[138.966451,35.789976],[138.966476,35.789715],[138.96663,35.78964],[138.966875,35.789583],[138.96707,35.789582],[138.967218,35.78956],[138.967278,35.789515],[138.96728,35.789411],[138.967255,35.789283],[138.967279,35.78915],[138.967385,35.78902],[138.967468,35.788818],[138.967425,35.788703],[138.967421,35.788583],[138.967515,35.788417],[138.967629,35.78828],[138.967699,35.788152],[138.967826,35.788148],[138.967976,35.788167],[138.968132,35.788176],[138.968302,35.788195],[138.968515,35.788131],[138.968696,35.788022],[138.968782,35.78793],[138.968831,35.787851],[138.968946,35.787675],[138.969247,35.787536],[138.969528,35.787549],[138.96981,35.787581],[138.970026,35.787646],[138.970221,35.787648],[138.970336,35.787538],[138.970517,35.787247],[138.97053,35.787082],[138.970631,35.786983],[138.970969,35.786905],[138.971149,35.786837],[138.971339,35.786692],[138.971479,35.78648],[138.971844,35.786196],[138.97201,35.786156],[138.97226,35.786303],[138.972652,35.786575],[138.972756,35.786596],[138.972962,35.786612],[138.973049,35.786633],[138.973413,35.786783],[138.973586,35.786872],[138.97384,35.786935],[138.974128,35.78694],[138.974254,35.786898],[138.974493,35.786789],[138.974671,35.78675],[138.9748,35.78674],[138.974993,35.786759],[138.975344,35.786749],[138.97566,35.786808],[138.976072,35.786807],[138.97636,35.786731],[138.976435,35.786739]]}},{"type":"Feature","properties":{"id":146478766,"highway":"unclassified"},"geometry":{"type":"LineString","coordinates":[[138.985954,35.781025],[138.985881,35.78108],[138.985786,35.781123],[138.985686,35.78112],[138.9855,35.781096]]}},{"type":"Feature","properties":{"id":146478773,"highway":"residential"},"geometry":{"type":"LineString","coordinates":[[138.9855,35.781096],[138.985475,35.781084],[138.985401,35.781065],[138.985319,35.781041],[138.985118,35.780915],[138.984879,35.780736],[138.984679,35.780569],[138.984579,35.780491]]}},{"type":"Feature","properties":{"id":146478800,"highway":"residential"},"geometry":{"type":"LineString","coordinates":[[138.984579,35.780491],[138.984489,35.780386],[138.984417,35.780231],[138.984358,35.780036],[138.98423,35.779753],[138.984256,35.779686]]}},{"type":"Feature","properties":{"id":146485160,"highway":"unclassified"},"geometry":{"type":"LineString","coordinates":[[138.981428,35.765376],[138.981366,35.765414],[138.981289,35.765434],[138.98114,35.765459],[138.980985,35.765465],[138.980929,35.765446],[138.980882,35.765386],[138.980858,35.765317],[138.980838,35.765037],[138.980823,35.764924],[138.980846,35.764877],[138.980845,35.764838],[138.980824,35.764798],[138.980776,35.76475],[138.980675,35.764675],[138.980581,35.764653],[138.980513,35.764655],[138.980423,35.764679],[138.980302,35.764738],[138.980231,35.764771],[138.980036,35.764808],[138.97995,35.764837],[138.979873,35.76487],[138.979793,35.764876],[138.979749,35.764857],[138.979518,35.764674],[138.979426,35.764618],[138.979362,35.7646],[138.979278,35.764603],[138.979207,35.764627],[138.978873,35.764713],[138.978714,35.764729],[138.97835,35.764902],[138.978264,35.764939],[138.978164,35.764933],[138.978098,35.764905],[138.978068,35.764859],[138.978067,35.76481],[138.978081,35.76475],[138.978106,35.764705],[138.978137,35.764656],[138.978461,35.764335],[138.978641,35.764188],[138.979228,35.763743],[138.979367,35.763653],[138.979638,35.763383],[138.979913,35.763154],[138.979977,35.763092],[138.979994,35.76303],[138.980025,35.762932],[138.979997,35.762729],[138.979944,35.762681],[138.97994,35.762536],[138.979879,35.762441],[138.97989,35.76236],[138.979959,35.762275],[138.97997,35.762218],[138.979927,35.762066],[138.9798,35.761907],[138.979461,35.761488],[138.979375,35.761412],[138.979181,35.761361],[138.979069,35.761327],[138.978935,35.761214],[138.978746,35.761006],[138.978642,35.76082],[138.978528,35.760786],[138.978306,35.760813],[138.978146,35.760836],[138.977936,35.760866],[138.977791,35.760885],[138.97753,35.760894],[138.977171,35.760913],[138.976999,35.760966],[138.976802,35.760992],[138.976537,35.760991],[138.976375,35.760994],[138.976129,35.76098],[138.975817,35.760932],[138.975545,35.760924],[138.975149,35.760944],[138.974956,35.760942],[138.974701,35.760943],[138.974461,35.760941],[138.974331,35.760935],[138.974076,35.760906],[138.973965,35.76088],[138.973848,35.760847],[138.97372,35.760803],[138.973534,35.760767],[138.973322,35.760735],[138.973032,35.760678],[138.972958,35.760643]]}},{"type":"Feature","properties":{"id":166090681,"highway":"trunk"},"geometry":{"type":"LineString","coordinates":[[138.993429,35.766219],[138.993508,35.766318],[138.993529,35.76636],[138.993542,35.766415],[138.993519,35.766634],[138.993528,35.766717],[138.993552,35.766789],[138.993581,35.766842],[138.993628,35.766906],[138.993682,35.766968],[138.994039,35.767382],[138.994089,35.767415],[138.994138,35.767441],[138.994191,35.767455],[138.994303,35.76746],[138.994372,35.76745],[138.994448,35.767431],[138.994546,35.767403],[138.994613,35.767396],[138.994691,35.767401],[138.994769,35.76743],[138.995089,35.767593],[138.995168,35.767624],[138.995258,35.767645],[138.995362,35.767661],[138.995515,35.767677],[138.995629,35.767694],[138.99583,35.767745],[138.995934,35.76778],[138.996019,35.767803],[138.9961,35.76781],[138.996188,35.767807],[138.996373,35.767791],[138.996583,35.767771],[138.996697,35.767772],[138.996987,35.767805],[138.997067,35.767801],[138.997142,35.767793],[138.997201,35.767776],[138.997266,35.767742],[138.997377,35.767663],[138.997427,35.76763],[138.997484,35.767614],[138.99755,35.767606],[138.99763,35.767606],[138.998045,35.767642],[138.998135,35.767654],[138.998198,35.767677],[138.998253,35.767711],[138.998303,35.767757],[138.998523,35.768071],[138.998556,35.76814],[138.998569,35.768182],[138.998564,35.768233],[138.998554,35.768301],[138.998522,35.76839],[138.998365,35.768733],[138.998308,35.768835],[138.99799,35.769345],[138.997737,35.769746],[138.997671,35.769834],[138.997639,35.769898],[138.997605,35.769978],[138.99758,35.770066],[138.997506,35.770444],[138.997489,35.770511],[138.997455,35.770594],[138.997392,35.770745],[138.997328,35.77087],[138.997246,35.771],[138.997042,35.771267],[138.997,35.771334],[138.996967,35.771396],[138.996959,35.77147],[138.996971,35.771562],[138.99732,35.772849],[138.997368,35.77301],[138.99742,35.773134],[138.997506,35.773251],[138.997638,35.773451],[138.997718,35.773547],[138.997872,35.773766],[138.997936,35.773828],[138.998001,35.773886],[138.998091,35.773944],[138.998605,35.774132],[138.998707,35.774174],[138.998798,35.774246]]}},{"type":"Feature","properties":{"id":306807527,"highway":"service"},"geometry":{"type":"LineString","coordinates":[[138.977403,35.782361],[138.977337,35.782362],[138.977298,35.782378],[138.977193,35.78243]]}},{"type":"Feature","properties":{"id":306807531,"highway":"trunk"},"geometry":{"type":"LineString","coordinates":[[138.977403,35.782361],[138.977267,35.782677]]}},{"type":"Feature","properties":{"id":306807532,"highway":"trunk"},"geometry":{"type":"LineString","coordinates":[[138.986468,35.781002],[138.986233,35.781024],[138.986029,35.781032],[138.985954,35.781025],[138.985841,35.780997],[138.985735,35.780948],[138.985625,35.780888],[138.985525,35.780818],[138.985347,35.780667],[138.984997,35.780363],[138.984732,35.780132],[138.984256,35.779686],[138.98393,35.779388],[138.983777,35.779275],[138.983649,35.779212],[138.983478,35.779146],[138.9833,35.779099],[138.983072,35.779056],[138.982738,35.779003],[138.982491,35.778967],[138.982282,35.778941],[138.982125,35.778948],[138.982035,35.778967],[138.981914,35.778994],[138.981745,35.779029],[138.981643,35.779034],[138.981456,35.77901],[138.981223,35.778979],[138.981123,35.778987],[138.981007,35.779025],[138.980433,35.779317],[138.979984,35.779552],[138.979825,35.779639],[138.979667,35.779742],[138.97958,35.77982],[138.979508,35.779908],[138.979395,35.7801],[138.979198,35.78049],[138.979138,35.78058],[138.979066,35.780663],[138.978974,35.780743],[138.978757,35.7809],[138.978488,35.781075],[138.978285,35.781263],[138.977968,35.781613],[138.977662,35.781964],[138.977505,35.78218],[138.977403,35.782361]]}},{"type":"Feature","properties":{"id":611772509,"highway":"service"},"geometry":{"type":"LineString","coordinates":[[138.977193,35.78243],[138.977184,35.78251],[138.977203,35.782581],[138.977267,35.782677]]}},{"type":"Feature","properties":{"id":611772524,"highway":"residential"},"geometry":{"type":"LineString","coordinates":[[138.9911,35.778094],[138.991097,35.778064],[138.991106,35.778042],[138.991118,35.778027],[138.991144,35.778028],[138.991156,35.778042],[138.991174,35.778069],[138.991191,35.77809],[138.991239,35.778126],[138.991251,35.778144],[138.991263,35.778162],[138.991289,35.778265],[138.991315,35.778433],[138.991336,35.778517],[138.991384,35.778616],[138.99139,35.778686],[138.99138,35.77871],[138.99135,35.778736],[138.991317,35.778762]]}},{"type":"Feature","properties":{"id":611772527,"highway":"residential"},"geometry":{"type":"LineString","coordinates":[[138.990267,35.778882],[138.990348,35.77885],[138.990426,35.778796],[138.990663,35.778646],[138.990773,35.778576],[138.990872,35.778517],[138.990948,35.778438],[138.991017,35.778353],[138.991083,35.778257],[138.991096,35.778192],[138.9911,35.778094]]}},{"type":"Feature","properties":{"id":611772528,"highway":"residential"},"geometry":{"type":"LineString","coordinates":[[138.990718,35.778215],[138.990769,35.778097],[138.990853,35.778102],[138.990925,35.778108],[138.9911,35.778094]]}},{"type":"Feature","properties":{"id":611772529,"highway":"residential"},"geometry":{"type":"LineString","coordinates":[[138.990522,35.778147],[138.990664,35.778199],[138.990718,35.778215],[138.990739,35.77825],[138.990735,35.778303],[138.990725,35.778353],[138.990659,35.778437],[138.990581,35.778516]]}},{"type":"Feature","properties":{"id":624129020,"highway":"residential"},"geometry":{"type":"LineString","coordinates":[[138.99895,35.77854],[138.998983,35.778592],[138.999034,35.778635],[138.999234,35.77876],[138.999321,35.778949],[138.99947,35.779078],[138.999552,35.779187]]}},{"type":"Feature","properties":{"id":624129021,"highway":"residential"},"geometry":{"type":"LineString","coordinates":[[138.991317,35.778762],[138.991297,35.778861],[138.991279,35.778961],[138.99124,35.77905],[138.991159,35.779162]]}},{"type":"Feature","properties":{"id":624168863,"highway":"trunk"},"geometry":{"type":"LineString","coordinates":[[138.977267,35.782677],[138.977123,35.783096],[138.976849,35.783859],[138.976747,35.784137],[138.976709,35.784218],[138.976658,35.784286],[138.976599,35.784352],[138.97651,35.784427],[138.976387,35.784493],[138.976257,35.78454],[138.976128,35.784564],[138.975948,35.78459],[138.975675,35.784607],[138.975455,35.784591],[138.975226,35.784567],[138.975008,35.784518],[138.97449,35.784386],[138.974214,35.784312],[138.974086,35.784275],[138.973991,35.784245]]}},{"type":"Feature","properties":{"id":624172395,"highway":"unclassified"},"geometry":{"type":"LineString","coordinates":[[138.976673,35.786474],[138.976935,35.786305],[138.97719,35.786136],[138.977526,35.785989],[138.977604,35.786009],[138.977652,35.786062],[138.977655,35.786132],[138.977567,35.786265],[138.976983,35.786938],[138.976838,35.787107],[138.9767,35.787231],[138.976644,35.787298],[138.976636,35.787333],[138.976638,35.787366],[138.976645,35.787392],[138.976665,35.787416],[138.976709,35.78744],[138.976738,35.787437],[138.976781,35.787415],[138.976866,35.787343],[138.977142,35.78709],[138.977556,35.786758],[138.977755,35.786617],[138.977922,35.786499],[138.978102,35.786386],[138.978654,35.786087],[138.979257,35.785782],[138.979464,35.785716],[138.979546,35.785711],[138.979622,35.785721],[138.979767,35.785766],[138.980079,35.785896],[138.980341,35.785997],[138.980521,35.786059],[138.980601,35.786065],[138.980687,35.786059],[138.980907,35.786009],[138.981052,35.785952],[138.981114,35.785945],[138.981159,35.785949],[138.981191,35.785972],[138.981208,35.786001],[138.981208,35.786034],[138.981191,35.786067],[138.981116,35.786112],[138.981031,35.786132],[138.980769,35.786224],[138.980729,35.786247],[138.980712,35.786272],[138.980702,35.786314],[138.980714,35.786352],[138.980737,35.786372],[138.980795,35.786384],[138.980922,35.786362],[138.981142,35.786296],[138.98133,35.786222],[138.981461,35.786127],[138.981668,35.785912],[138.981878,35.78566],[138.982111,35.785395],[138.98238,35.785136],[138.982451,35.785074],[138.982566,35.784971],[138.982698,35.78487],[138.982739,35.78486],[138.982799,35.784854],[138.982843,35.784865],[138.982891,35.784905],[138.982896,35.784945],[138.982884,35.784989],[138.982843,35.785034],[138.982643,35.785175],[138.982463,35.785316],[138.982228,35.785575],[138.982055,35.785817],[138.982029,35.785877],[138.982024,35.785934],[138.982041,35.785986],[138.982067,35.786007],[138.982108,35.786021],[138.982156,35.786021],[138.982218,35.786002],[138.982274,35.785972],[138.982333,35.785887],[138.982472,35.785647],[138.982518,35.785606],[138.982551,35.785587],[138.982632,35.785546],[138.982707,35.785522],[138.982872,35.785447],[138.983005,35.785391],[138.983176,35.785317],[138.983333,35.785264],[138.983421,35.785242],[138.9835,35.785232],[138.983644,35.785224],[138.983765,35.785209],[138.983884,35.785201],[138.983981,35.785182],[138.984141,35.785118],[138.984165,35.785051],[138.984154,35.784971],[138.98407,35.784715],[138.983948,35.784096],[138.983937,35.783824],[138.983978,35.783712],[138.984038,35.783583],[138.98425,35.783363],[138.985489,35.782411],[138.985544,35.782349],[138.98558,35.782268],[138.985589,35.78208],[138.985586,35.781985],[138.985544,35.781603],[138.985534,35.781486],[138.985527,35.781416],[138.985534,35.781343],[138.985584,35.781219],[138.985594,35.781187],[138.985581,35.781158],[138.9855,35.781096]]}},{"type":"Feature","properties":{"id":624172396,"highway":"residential"},"geometry":{"type":"LineString","coordinates":[[138.972847,35.794735],[138.972964,35.794628],[138.973148,35.794468],[138.973566,35.794223],[138.973671,35.794169],[138.973811,35.794113],[138.973863,35.794058],[138.973928,35.793984],[138.974,35.793894],[138.974019,35.793816],[138.974109,35.793764],[138.974228,35.793778],[138.9743,35.793748],[138.974362,35.793699],[138.974454,35.793533],[138.974654,35.793302],[138.974966,35.793071],[138.975009,35.793039],[138.975044,35.79299],[138.975051,35.792928],[138.975034,35.792886],[138.974993,35.792835],[138.974703,35.792638],[138.97444,35.792384],[138.974371,35.792321],[138.974191,35.792215],[138.973791,35.792017],[138.973687,35.79195],[138.973611,35.791887],[138.973563,35.791763],[138.973569,35.791572],[138.973618,35.791471],[138.973756,35.791285],[138.973825,35.791217],[138.974121,35.790941],[138.974304,35.790758],[138.974383,35.790639],[138.974403,35.79044],[138.974302,35.790159],[138.974295,35.789985],[138.974371,35.78972],[138.974768,35.789091],[138.974881,35.789001],[138.975062,35.78851],[138.97578,35.787898],[138.97591,35.787739],[138.976075,35.787415],[138.976359,35.78705],[138.976428,35.786961],[138.976452,35.786886],[138.976435,35.786739],[138.976581,35.786549],[138.976673,35.786474]]}},{"type":"Feature","properties":{"id":696277154,"highway":"service"},"geometry":{"type":"LineString","coordinates":[[139.000442,35.79663],[139.000491,35.796649],[139.00051,35.796731],[139.000427,35.796861],[139.000312,35.797],[139.000167,35.797083],[138.999937,35.797288],[138.999813,35.797372],[138.99935,35.797645],[138.999226,35.79776]]}},{"type":"Feature","properties":{"id":832645946,"highway":"residential"},"geometry":{"type":"LineString","coordinates":[[138.996145,35.795081],[138.9961,35.795117],[138.996046,35.795138],[138.995986,35.795159],[138.995928,35.795187],[138.995894,35.79521],[138.995873,35.795231],[138.995855,35.795268],[138.9958,35.795391],[138.995772,35.795455],[138.995764,35.795502],[138.995769,35.795544],[138.995779,35.795582],[138.995801,35.795623],[138.995901,35.795744],[138.995918,35.795758],[138.995941,35.795769],[138.996,35.795761],[138.996044,35.795758],[138.996066,35.795763],[138.996084,35.795771],[138.996158,35.79587],[138.996194,35.795875],[138.996227,35.795871],[138.996291,35.79584],[138.996351,35.7958],[138.996375,35.795778],[138.996382,35.795758],[138.996373,35.79572],[138.996244,35.795495],[138.996222,35.79545],[138.996208,35.795398],[138.99621,35.795346],[138.996219,35.795316],[138.996248,35.795286],[138.9963,35.795238],[138.996347,35.795203],[138.9964,35.795169],[138.996545,35.795105],[138.996662,35.795059],[138.996722,35.795034],[138.996773,35.79501],[138.996782,35.794983],[138.996743,35.794934]]}},{"type":"Feature","properties":{"id":973506692,"highway":"trunk"},"geometry":{"type":"LineString","coordinates":[[138.981519,35.762381],[138.981665,35.762421],[138.981766,35.762461],[138.981857,35.762516],[138.981951,35.762598],[138.982222,35.762862],[138.982312,35.762954],[138.982379,35.762996],[138.982448,35.763033],[138.982544,35.763074],[138.98289,35.763188],[138.982996,35.76321],[138.983097,35.763223],[138.983179,35.763225],[138.983262,35.763217],[138.983355,35.7632],[138.983728,35.763124],[138.983827,35.763095],[138.983914,35.763067],[138.984019,35.763025],[138.984106,35.76298],[138.984173,35.762936],[138.984554,35.762616],[138.984684,35.762495],[138.984749,35.762443],[138.984834,35.762388],[138.984982,35.762312],[138.98508,35.76228],[138.985227,35.762237],[138.986098,35.762008],[138.986324,35.761948],[138.986513,35.76192],[138.986714,35.761897],[138.987092,35.761877],[138.987653,35.761887],[138.987857,35.761893],[138.987967,35.761875],[138.988075,35.761835],[138.988186,35.761775],[138.988331,35.761701],[138.988503,35.761612],[138.988641,35.761549],[138.98876,35.761506],[138.988902,35.761459],[138.98909,35.76141],[138.989325,35.761351],[138.989487,35.761316],[138.989655,35.761296],[138.989811,35.761279],[138.989971,35.76127],[138.990096,35.761267],[138.990212,35.761272],[138.990303,35.761295]]}},{"type":"Feature","properties":{"id":973513011,"highway":"service"},"geometry":{"type":"LineString","coordinates":[[138.984982,35.762312],[138.984872,35.762077],[138.984818,35.762043],[138.984697,35.762024],[138.984508,35.761995],[138.984416,35.761958],[138.984309,35.761875],[138.984262,35.761778],[138.984318,35.761695],[138.984568,35.76155],[138.984653,35.761531],[138.984811,35.761539],[138.985186,35.761586]]}},{"type":"Feature","properties":{"id":1009580044,"highway":"unclassified"},"geometry":{"type":"LineString","coordinates":[[138.974355,35.785553],[138.974425,35.78553],[138.974853,35.785534]]}},{"type":"Feature","properties":{"id":1009580051,"highway":"unclassified"},"geometry":{"type":"LineString","coordinates":[[138.977755,35.786617],[138.97768,35.786819],[138.977599,35.787058],[138.977583,35.787209],[138.977615,35.787236],[138.977689,35.787248],[138.977815,35.787249],[138.977839,35.787269],[138.977838,35.78738],[138.97783,35.787425],[138.977842,35.787452],[138.978022,35.787477],[138.978123,35.787485]]}},{"type":"Feature","properties":{"id":1009797367,"highway":"residential"},"geometry":{"type":"LineString","coordinates":[[138.974454,35.793533],[138.974416,35.793759],[138.974429,35.793823],[138.974371,35.793867],[138.9743,35.793861],[138.974141,35.793871],[138.974062,35.794011],[138.97389,35.794195],[138.973729,35.794347],[138.973494,35.794724],[138.973502,35.794858],[138.97353,35.794937]]}},{"type":"Feature","properties":{"id":1009797370,"highway":"residential"},"geometry":{"type":"LineString","coordinates":[[138.973729,35.794347],[138.973507,35.794439],[138.973416,35.794643],[138.973373,35.79475]]}}]}