{"type":"FeatureCollection","features":[{"type":"Feature","properties":{"id":34282255,"highway":"unclassified"},"geometry":{"type":"LineString","coordinates":[[138.99866,35.801677],[138.998762,35.801554],[138.998842,35.801446],[138.998885,35.8013],[138.998963,35.801196],[138.99897,35.801015],[138.998903,35.800864],[138.998789,35.800609],[138.998772,35.800462],[138.998818,35.800317],[138.998868,35.800249],[138.998914,35.800162],[138.998928,35.800012],[138.998912,35.799883],[138.998913,35.799727],[138.999019,35.799566],[138.999083,35.799483],[138.999057,35.799372],[138.998997,35.799309],[138.998903,35.799191],[138.998692,35.798911],[138.998525,35.798771],[138.998491,35.798725],[138.998473,35.798599],[138.998482,35.798502],[138.998482,35.798349],[138.998439,35.798203],[138.998388,35.798035],[138.998327,35.797868],[138.998285,35.797757],[138.998276,35.797639],[138.99831,35.797458],[138.998369,35.797321],[138.998632,35.797135],[138.9989,35.796979],[138.999151,35.796921],[138.999315,35.796845],[138.999437,35.796835],[138.999543,35.79685],[138.999657,35.796851],[138.99976,35.796791],[138.99984,35.796697],[138.999974,35.796569],[139.00002,35.796501],[139.000027,35.796476],[139.000038,35.796315],[139.000054,35.79618],[139.000078,35.796037],[139.000077,35.795916],[139.000026,35.7958],[139.000023,35.795716],[139.00006,35.795652],[139.000122,35.795609],[139.000219,35.79554],[139.000302,35.795434],[139.000389,35.79531],[139.000481,35.795199],[139.000651,35.795065],[139.000784,35.794961],[139.000964,35.794894],[139.001168,35.794847],[139.001421,35.794804],[139.001647,35.794746],[139.001934,35.794687]]}},{"type":"Feature","properties":{"id":34282282,"highway":"unclassified"},"geometry":{"type":"LineString","coordinates":[[139.003722,35.80791],[139.003892,35.807969],[139.003935,35.807976],[139.004019,35.80793],[139.00401,35.807877],[139.003963,35.807818],[139.003822,35.807787],[139.003597,35.807781],[139.00352,35.80783],[139.003426,35.807879],[139.003331,35.807906],[139.003219,35.807869],[139.003108,35.80783],[139.002981,35.807744],[139.00292,35.80769],[139.002917,35.807615],[139.002994,35.807595],[139.003136,35.80766],[139.003201,35.807685],[139.003283,35.807706],[139.003331,35.807704],[139.003426,35.807635],[139.003597,35.807503],[139.00376,35.807356],[139.003872,35.807231],[139.003949,35.807169],[139.004018,35.807113],[139.004078,35.807099],[139.004147,35.807106],[139.004215,35.807127],[139.004284,35.807161],[139.004353,35.807217],[139.004456,35.807301],[139.004559,35.807349],[139.004636,35.807379],[139.004871,35.807412],[139.004979,35.807455],[139.005032,35.80751],[139.005114,35.807618],[139.005325,35.80778],[139.005443,35.807775],[139.005557,35.807724],[139.005813,35.807786],[139.005952,35.807826],[139.00625,35.807969],[139.006387,35.808011],[139.006507,35.808045],[139.006679,35.80808],[139.006842,35.808101],[139.006936,35.808122],[139.007074,35.808178],[139.007166,35.808199],[139.007245,35.808192],[139.007288,35.808143],[139.007225,35.808079],[139.007074,35.808066],[139.006868,35.808004],[139.006713,35.807948],[139.006584,35.807844],[139.006481,35.807732],[139.006404,35.8076],[139.006367,35.807556],[139.006155,35.807461],[139.006018,35.807412],[139.005824,35.807317],[139.005689,35.807268],[139.005657,35.807203],[139.00567,35.807032],[139.005743,35.806779],[139.005752,35.806598],[139.005752,35.806479],[139.005735,35.80641],[139.005681,35.806307],[139.005606,35.806278],[139.005486,35.806257],[139.005323,35.806194],[139.005177,35.806159],[139.005048,35.806138],[139.004919,35.806131],[139.004782,35.806097],[139.004679,35.806055],[139.004576,35.80602],[139.00449,35.805992],[139.004447,35.805964],[139.004419,35.805892],[139.004464,35.805846],[139.004559,35.805832],[139.00467,35.805909],[139.004765,35.80595],[139.004902,35.805964],[139.004988,35.805964],[139.005091,35.805923],[139.00522,35.805867],[139.005323,35.805853],[139.0054,35.805867],[139.00552,35.805902],[139.005649,35.805943],[139.00588,35.805936],[139.006009,35.805971],[139.006121,35.806006],[139.00625,35.806089],[139.006301,35.80618],[139.006293,35.806264],[139.006275,35.806354],[139.006293,35.806493],[139.006318,35.806612],[139.00642,35.806803],[139.006501,35.806833],[139.006619,35.806793],[139.006773,35.806709],[139.006902,35.806632],[139.007048,35.806612],[139.007185,35.806632],[139.007288,35.806709],[139.00734,35.806799],[139.007374,35.806911],[139.007374,35.80705],[139.007383,35.807182],[139.007443,35.807294],[139.007554,35.807377],[139.007692,35.807461],[139.007872,35.807516],[139.007938,35.807513],[139.008041,35.807478],[139.008049,35.807415],[139.007981,35.807353],[139.007847,35.807323],[139.007698,35.807304],[139.007606,35.807212],[139.007606,35.80705],[139.007597,35.806932],[139.007606,35.806779],[139.007632,35.806674],[139.007589,35.80657],[139.007503,35.806479],[139.007417,35.806403],[139.007331,35.80634],[139.007245,35.806264],[139.007125,35.806215],[139.007039,35.806173],[139.006962,35.806089],[139.006902,35.805992],[139.006911,35.805874],[139.006911,35.805721],[139.006911,35.805609],[139.006859,35.80554],[139.006773,35.805449],[139.006644,35.805373],[139.006498,35.805338],[139.006327,35.805296],[139.006198,35.805282],[139.006078,35.805254],[139.005958,35.805192],[139.005846,35.805129],[139.005717,35.805108],[139.005469,35.80508],[139.005305,35.805059],[139.005151,35.805038],[139.004945,35.804976],[139.004713,35.804885],[139.004533,35.804809],[139.004104,35.804649],[139.003906,35.804544],[139.003779,35.804393],[139.003617,35.804193],[139.003287,35.803859],[139.003152,35.803714],[139.003065,35.803618],[139.002988,35.803514],[139.002911,35.80343],[139.002842,35.80337],[139.002708,35.803317],[139.002431,35.803227],[139.00227,35.803164],[139.002094,35.803087],[139.001872,35.80295],[139.001761,35.80286],[139.001694,35.802769],[139.001629,35.802579],[139.001549,35.802421],[139.001505,35.802354],[139.001418,35.802284],[139.001269,35.802219],[139.001023,35.802163],[139.000756,35.802143],[139.000585,35.802143],[139.000482,35.802108],[139.000413,35.802038],[139.000397,35.801982],[139.00037,35.801808],[139.000344,35.801725],[139.000323,35.801645],[139.000236,35.80164],[139.000146,35.801686],[139.000059,35.80179],[138.999959,35.801887],[138.999806,35.801952],[138.999611,35.802028],[138.999496,35.802036],[138.999297,35.801975],[138.999203,35.801934],[138.999057,35.801934],[138.998911,35.801962],[138.998864,35.801961]]}},{"type":"Feature","properties":{"id":678397729,"highway":"unclassified"},"geometry":{"type":"LineString","coordinates":[[138.97455,35.906908],[138.974446,35.906846],[138.974377,35.906829],[138.973105,35.906812],[138.972974,35.9068],[138.972814,35.906767],[138.972745,35.906733],[138.972683,35.906682],[138.972607,35.906581],[138.972614,35.906463],[138.972663,35.906344],[138.972718,35.906238],[138.972884,35.906035],[138.972974,35.905883],[138.973029,35.905736],[138.973064,35.905567],[138.973076,35.90517],[138.973079,35.905044],[138.973055,35.904995],[138.973012,35.904963],[138.972961,35.904949],[138.972893,35.904963],[138.97283,35.904994],[138.97277,35.905069],[138.972728,35.905164],[138.97269,35.90526],[138.972649,35.905398],[138.972608,35.905535],[138.972569,35.905639],[138.972538,35.905733],[138.972489,35.905854],[138.972459,35.905921],[138.972412,35.905963],[138.972354,35.905988],[138.972261,35.90598],[138.97219,35.905958],[138.972137,35.905917],[138.972089,35.90587],[138.972082,35.905838],[138.972099,35.905781],[138.972149,35.905701],[138.972235,35.905566],[138.972352,35.905394],[138.972377,35.905338],[138.972396,35.90524],[138.972425,35.905119],[138.972437,35.905032],[138.972453,35.904853],[138.972463,35.904735],[138.972468,35.904617],[138.972462,35.904552],[138.972434,35.90449],[138.972386,35.90444],[138.972323,35.904412],[138.971998,35.904367],[138.971881,35.904339],[138.971687,35.90422],[138.971535,35.904097],[138.971424,35.903967],[138.971307,35.903792],[138.971085,35.903579],[138.970996,35.903465],[138.970989,35.903427],[138.970968,35.903202],[138.970982,35.902992],[138.971044,35.902672],[138.971161,35.902181],[138.971251,35.901922],[138.971331,35.90175],[138.971369,35.901668],[138.971424,35.901539],[138.971424,35.901398],[138.971328,35.901235],[138.970524,35.89996],[138.970497,35.899916],[138.970478,35.899853],[138.970468,35.899718],[138.970445,35.899664],[138.970404,35.89963],[138.970352,35.899615],[138.970304,35.899619],[138.970249,35.899642],[138.970212,35.899682],[138.970194,35.899726],[138.9702,35.899777],[138.970217,35.899833],[138.970682,35.90063],[138.970742,35.90073],[138.970752,35.900766],[138.970753,35.900803],[138.970752,35.900917],[138.970767,35.900993],[138.970811,35.901055],[138.97086,35.901101],[138.970938,35.901176],[138.970987,35.901279],[138.971005,35.90135],[138.970986,35.901425],[138.970923,35.901497],[138.970661,35.901672],[138.970576,35.901757],[138.970483,35.901897],[138.970431,35.901946],[138.970243,35.9021],[138.970193,35.902151],[138.970074,35.902335],[138.969985,35.902442],[138.969859,35.902557],[138.969592,35.902884],[138.96946,35.90302],[138.969409,35.903098],[138.969395,35.903166],[138.969396,35.903235],[138.969426,35.903322],[138.969475,35.903401],[138.969628,35.903537],[138.969717,35.903627],[138.969792,35.903758],[138.969848,35.903897],[138.969871,35.904116],[138.969961,35.904377],[138.970079,35.904781],[138.970104,35.904967],[138.970107,35.905312],[138.970109,35.905381],[138.970089,35.905854],[138.970013,35.906046],[138.969806,35.906355],[138.969653,35.906513],[138.969577,35.906569],[138.969314,35.906665],[138.969273,35.906688],[138.969044,35.906761],[138.968865,35.906834],[138.968785,35.906886],[138.968761,35.906919],[138.968768,35.907014],[138.968803,35.907065],[138.969287,35.90742],[138.969771,35.907792],[138.97001,35.908001],[138.97036,35.908302],[138.970502,35.908416],[138.970961,35.908777],[138.971134,35.908884],[138.971251,35.908918],[138.971383,35.908941],[138.971576,35.908991],[138.971728,35.909059],[138.971832,35.909138],[138.971901,35.909251],[138.971908,35.909341],[138.971853,35.909397],[138.971742,35.909442],[138.971569,35.909464],[138.97141,35.909509],[138.971258,35.9096],[138.971175,35.90969],[138.971058,35.90987],[138.971023,35.909966],[138.970961,35.910208],[138.970926,35.910286],[138.970815,35.910432],[138.970718,35.910517],[138.970608,35.910579],[138.970407,35.910641],[138.970193,35.910686],[138.97011,35.91072],[138.969964,35.910821],[138.969806,35.9109],[138.969639,35.91095],[138.969605,35.91099],[138.969487,35.911153],[138.969342,35.911429],[138.96919,35.911621],[138.968962,35.911824],[138.968927,35.911885],[138.968927,35.912095],[138.968996,35.912641],[138.969051,35.912923],[138.969063,35.912963],[138.969086,35.913041],[138.969273,35.913323],[138.969404,35.91341],[138.969423,35.913439],[138.969411,35.913482],[138.969321,35.913627],[138.969283,35.913724],[138.969266,35.913798],[138.969252,35.913901],[138.969233,35.913931],[138.969193,35.913948],[138.96912,35.913953],[138.969051,35.913942],[138.969004,35.913922],[138.968961,35.913891],[138.96892,35.913846],[138.96876,35.913578],[138.96874,35.913503],[138.968671,35.913261],[138.968657,35.9129],[138.968609,35.912624],[138.96856,35.912483],[138.968477,35.912314],[138.968318,35.912084],[138.968311,35.911948],[138.968381,35.91174],[138.968429,35.91153],[138.968429,35.911226],[138.96847,35.911153],[138.968595,35.911074],[138.968747,35.910945],[138.968803,35.910731],[138.968816,35.910511],[138.968851,35.910404],[138.968934,35.910303],[138.96946,35.90997],[138.969538,35.909892],[138.969553,35.90983],[138.969553,35.90979],[138.969537,35.909758],[138.96948,35.909724],[138.969356,35.909684],[138.969169,35.909583],[138.968927,35.909425],[138.968484,35.909053],[138.968367,35.908974],[138.968166,35.908901],[138.968021,35.908828],[138.967883,35.908772],[138.967807,35.908777],[138.967724,35.908794],[138.967509,35.9088],[138.966878,35.908653],[138.96645,35.908552],[138.966244,35.908518],[138.966215,35.908513],[138.965972,35.908513],[138.965855,35.908535],[138.965717,35.90858],[138.965447,35.908731],[138.96535,35.908759],[138.965232,35.908759],[138.965184,35.908743],[138.965102,35.908686],[138.965046,35.908607],[138.964887,35.908287],[138.964838,35.908214],[138.96472,35.908056],[138.964396,35.907775],[138.96441,35.907606],[138.964479,35.907363],[138.964673,35.906839],[138.964784,35.906564],[138.964881,35.906423],[138.965012,35.906288],[138.965102,35.906226],[138.965183,35.9061],[138.965438,35.905874],[138.965591,35.905752],[138.965767,35.905577],[138.965948,35.905499],[138.966006,35.905463],[138.966035,35.90542],[138.966086,35.905234],[138.966158,35.905025],[138.966172,35.904956],[138.966158,35.904894],[138.966133,35.904842],[138.966085,35.904805],[138.966037,35.904788],[138.965747,35.904743],[138.965572,35.904662],[138.965481,35.904631],[138.965371,35.904593],[138.965286,35.904536],[138.96522,35.904506],[138.965014,35.904452],[138.96492,35.904396],[138.964842,35.904313],[138.964738,35.904235],[138.964655,35.9042],[138.964569,35.904182],[138.964487,35.904182],[138.964294,35.904227],[138.964211,35.904239],[138.964142,35.904238],[138.963913,35.904205],[138.96386,35.904207],[138.963741,35.904225],[138.963627,35.904224],[138.963499,35.904184],[138.963426,35.9041],[138.963363,35.903996],[138.963225,35.903743],[138.963202,35.90367],[138.963209,35.903588],[138.963253,35.903461],[138.963322,35.903365],[138.963434,35.903276],[138.96353,35.903171],[138.963562,35.903104],[138.963613,35.902906],[138.963687,35.902758],[138.963746,35.902705],[138.963796,35.902669],[138.963866,35.902648],[138.964081,35.902627],[138.964178,35.902606],[138.96459,35.902441],[138.964624,35.902417],[138.964712,35.902332],[138.964789,35.902284],[138.96495,35.902203],[138.965052,35.902128],[138.965353,35.901873],[138.965415,35.90181],[138.96544,35.901768],[138.965492,35.901652],[138.965538,35.901595],[138.965606,35.901554],[138.965778,35.901477],[138.965826,35.901449],[138.965867,35.901385],[138.965887,35.901318],[138.965862,35.901244],[138.965805,35.901184],[138.965724,35.901146],[138.965638,35.901147],[138.965546,35.901176],[138.965482,35.901221],[138.965455,35.901309],[138.9654,35.901392],[138.965303,35.901595],[138.965234,35.901697],[138.965102,35.90182],[138.964971,35.901922],[138.964874,35.901973],[138.964736,35.902085],[138.96468,35.902128],[138.964563,35.902215],[138.964445,35.902265],[138.964175,35.902356],[138.963988,35.902441],[138.963622,35.902649],[138.963311,35.902869],[138.962999,35.903156],[138.962951,35.903229],[138.962903,35.903466],[138.962764,35.903911],[138.962757,35.904035],[138.962813,35.904215],[138.962979,35.904587],[138.963075,35.904744],[138.963193,35.90484],[138.963352,35.905012],[138.963433,35.905044],[138.963947,35.905077],[138.96403,35.905099],[138.964085,35.90515],[138.964099,35.905219],[138.964092,35.905308],[138.964064,35.905392],[138.963829,35.905696],[138.963636,35.905989],[138.963359,35.906473],[138.963207,35.906783],[138.963096,35.907037],[138.962992,35.907318],[138.962909,35.907471],[138.962743,35.907774],[138.962723,35.907892],[138.962778,35.907999],[138.96302,35.908269],[138.963137,35.908345],[138.963372,35.908459],[138.963435,35.908521],[138.96358,35.908706],[138.96364,35.908787],[138.963678,35.908887],[138.963683,35.909036],[138.96365,35.909185]]}},{"type":"Feature","properties":{"id":696276330,"highway":"residential"},"geometry":{"type":"LineString","coordinates":[[138.99828,35.802125],[138.998254,35.802303],[138.998253,35.802355],[138.998263,35.802392],[138.998303,35.802423],[138.998412,35.802479],[138.998441,35.802486],[138.998472,35.802485],[138.998498,35.80247],[138.998554,35.802385],[138.998728,35.802149],[138.9988,35.802078],[138.998846,35.80202],[138.998864,35.801961]]}},{"type":"Feature","properties":{"id":743565670,"highway":"unclassified"},"geometry":{"type":"LineString","coordinates":[[138.998603,35.801732],[138.99866,35.801677]]}},{"type":"Feature","properties":{"id":743565671,"highway":"unclassified"},"geometry":{"type":"LineString","coordinates":[[138.998864,35.801961],[138.998777,35.801952],[138.998697,35.80194],[138.99861,35.801902],[138.998528,35.801853],[138.998521,35.801818],[138.998603,35.801732]]}}]}