{"type":"FeatureCollection","features":[{"type":"Feature","properties":{"id":180762195,"highway":"residential"},"geometry":{"type":"LineString","coordinates":[[138.966321,36.833317],[138.966434,36.833254],[138.966564,36.833163],[138.966697,36.833043],[138.966872,36.83284],[138.967096,36.832575],[138.967262,36.83242]]}},{"type":"Feature","properties":{"id":180762232,"highway":"trunk"},"geometry":{"type":"LineString","coordinates":[[138.962159,36.83674],[138.962047,36.836737],[138.961938,36.836688],[138.961878,36.83661],[138.961689,36.836317],[138.961566,36.836161],[138.961497,36.836102],[138.961417,36.836083],[138.961332,36.836117],[138.96127,36.836173],[138.961253,36.836243],[138.96126,36.836314],[138.961415,36.836666],[138.961481,36.836845],[138.961522,36.837011],[138.961605,36.837319],[138.961603,36.837401],[138.961554,36.837462],[138.961484,36.83748],[138.961401,36.837444],[138.961301,36.837351],[138.961116,36.837094],[138.960899,36.836755],[138.960739,36.836423],[138.960658,36.836233],[138.960594,36.836031],[138.960517,36.835925],[138.960453,36.835946],[138.960454,36.836009],[138.96055,36.83624],[138.960571,36.836386],[138.960588,36.836641],[138.960616,36.836821],[138.960649,36.836988],[138.96068,36.837097],[138.960752,36.837214],[138.960892,36.837349],[138.961063,36.837513],[138.961148,36.837629],[138.961201,36.837754],[138.961206,36.837941],[138.961169,36.838078],[138.961113,36.838211],[138.961026,36.838314],[138.961007,36.838383],[138.960989,36.838452],[138.961005,36.838523],[138.961036,36.838623],[138.961038,36.838799],[138.96102,36.838886],[138.960948,36.838962],[138.960836,36.839026],[138.960518,36.839155],[138.960336,36.839235],[138.96019,36.839274],[138.95992,36.839295],[138.95965,36.839327],[138.959551,36.839349],[138.95943,36.8394],[138.959293,36.839485],[138.959106,36.839608],[138.95896,36.839662],[138.958787,36.8397],[138.958677,36.839721],[138.958559,36.839753],[138.958403,36.839836],[138.958272,36.839941],[138.958028,36.840165],[138.957876,36.840285],[138.957724,36.840406],[138.957572,36.840488],[138.957427,36.840531],[138.957256,36.840531],[138.957038,36.840502],[138.956941,36.840507],[138.956803,36.84055],[138.956725,36.840609],[138.956657,36.840696],[138.95661,36.840842],[138.956585,36.84099],[138.956595,36.841101],[138.956632,36.841189],[138.956705,36.841254],[138.956726,36.84134],[138.956705,36.841411],[138.956655,36.84146],[138.956545,36.841504],[138.956364,36.841573],[138.956208,36.841658],[138.956084,36.84175],[138.955998,36.841842],[138.955952,36.841913],[138.955874,36.841985],[138.955768,36.842032],[138.955627,36.84208],[138.955526,36.842099],[138.95544,36.842086]]}},{"type":"Feature","properties":{"id":180762240,"highway":"trunk"},"geometry":{"type":"LineString","coordinates":[[138.966024,36.834994],[138.965867,36.834905],[138.965736,36.834796]]}},{"type":"Feature","properties":{"id":180877473,"highway":"primary"},"geometry":{"type":"LineString","coordinates":[[138.987619,36.799704],[138.987907,36.79984],[138.988208,36.799964],[138.988652,36.800128],[138.988863,36.800197],[138.989174,36.80032],[138.989525,36.80047],[138.989719,36.800545],[138.989902,36.800594],[138.990121,36.800635],[138.990393,36.800669],[138.990683,36.800703],[138.990922,36.800703],[138.991246,36.800665],[138.991572,36.800606],[138.991834,36.800566],[138.992075,36.800534],[138.992462,36.800506],[138.993087,36.800512],[138.993713,36.800525],[138.99406,36.800539],[138.994298,36.800564],[138.994485,36.800601],[138.9947,36.800662],[138.995031,36.800785],[138.995343,36.800908],[138.995633,36.801034],[138.995783,36.801114],[138.99592,36.801204],[138.996119,36.801322],[138.996319,36.801416],[138.996504,36.801471],[138.996747,36.801517],[138.997056,36.801544],[138.997335,36.80156],[138.997522,36.801586],[138.997706,36.801631],[138.998074,36.801767],[138.998246,36.801825],[138.998431,36.801884],[138.998572,36.801915],[138.998803,36.801947],[138.999222,36.801996],[138.999366,36.802033],[138.999527,36.802082],[138.999737,36.802171],[139.000027,36.802325],[139.000349,36.802494],[139.000628,36.802621],[139.000873,36.802721],[139.001567,36.802975],[139.002182,36.803209],[139.003195,36.803571],[139.00363,36.803733],[139.003973,36.80385],[139.004254,36.803943],[139.004422,36.803987],[139.004615,36.804018],[139.004847,36.804043],[139.005072,36.804071],[139.00524,36.804102],[139.005352,36.804125],[139.005447,36.804156],[139.005571,36.804204],[139.005696,36.804264],[139.00593,36.804375],[139.006458,36.804661],[139.006989,36.804956],[139.007262,36.805093],[139.007558,36.805234],[139.007823,36.805364],[139.008116,36.80552],[139.008357,36.805666],[139.008631,36.805838],[139.009168,36.806181],[139.00974,36.806551],[139.009975,36.80671],[139.010173,36.806851],[139.01061,36.807226],[139.011074,36.807629],[139.011218,36.807742],[139.011286,36.807785],[139.011385,36.807824],[139.011527,36.807855],[139.01184,36.807911],[139.012279,36.807986],[139.012407,36.808006]]}},{"type":"Feature","properties":{"id":180888135,"highway":"residential"},"geometry":{"type":"LineString","coordinates":[[138.986451,36.809326],[138.98663,36.809043],[138.986752,36.808938],[138.986884,36.808844],[138.986934,36.808786],[138.986966,36.808743],[138.987082,36.808588],[138.98717,36.808397],[138.987341,36.807891],[138.987421,36.807833],[138.987559,36.80785],[138.987662,36.807895]]}},{"type":"Feature","properties":{"id":180888137,"highway":"residential"},"geometry":{"type":"LineString","coordinates":[[138.998572,36.801915],[138.998586,36.801832],[138.998632,36.801738],[138.998709,36.801618],[138.998773,36.80158],[138.998847,36.801546],[138.998932,36.801523],[138.999225,36.801504],[138.999792,36.801492],[139.000008,36.801527],[139.000239,36.80158],[139.001096,36.801817]]}},{"type":"Feature","properties":{"id":180888176,"highway":"unclassified"},"geometry":{"type":"LineString","coordinates":[[138.98521,36.810209],[138.98585,36.810176]]}},{"type":"Feature","properties":{"id":180888281,"highway":"unclassified"},"geometry":{"type":"LineString","coordinates":[[138.98585,36.810176],[138.986303,36.810167]]}},{"type":"Feature","properties":{"id":180888360,"highway":"unclassified"},"geometry":{"type":"LineString","coordinates":[[138.998572,36.801915],[138.998589,36.802038],[138.99889,36.802277],[138.998929,36.802324],[138.998959,36.802382],[138.999097,36.802652],[138.999192,36.802842],[138.999324,36.803138],[138.999424,36.80337],[138.99948,36.803472],[138.999563,36.803571],[138.999734,36.803659],[138.999843,36.803701],[139.000204,36.803839],[139.000404,36.803917],[139.00057,36.804],[139.000857,36.804246],[139.001149,36.804478],[139.001277,36.804566],[139.001396,36.804616],[139.001465,36.804641],[139.001571,36.804667],[139.001903,36.804702],[139.002537,36.804771],[139.002612,36.804771],[139.002686,36.804733],[139.002998,36.804396],[139.003048,36.804286],[139.003055,36.804179],[139.003072,36.803977],[139.003102,36.803769],[139.003175,36.803615],[139.003195,36.803571]]}},{"type":"Feature","properties":{"id":180888569,"highway":"residential"},"geometry":{"type":"LineString","coordinates":[[138.990623,36.799743],[138.990761,36.80001],[138.990708,36.800095]]}},{"type":"Feature","properties":{"id":180888593,"highway":"residential"},"geometry":{"type":"LineString","coordinates":[[138.990683,36.800703],[138.990693,36.800479],[138.990708,36.800095]]}},{"type":"Feature","properties":{"id":180888637,"highway":"unclassified"},"geometry":{"type":"LineString","coordinates":[[138.986004,36.800706],[138.986117,36.800621],[138.986241,36.800314],[138.986542,36.799493],[138.986587,36.799422],[138.986659,36.799352],[138.986776,36.799297],[138.986932,36.799241]]}},{"type":"Feature","properties":{"id":180888643,"highway":"residential"},"geometry":{"type":"LineString","coordinates":[[138.990708,36.800095],[138.990325,36.800036],[138.989877,36.800023],[138.988863,36.800197]]}},{"type":"Feature","properties":{"id":180888687,"highway":"trunk"},"geometry":{"type":"LineString","coordinates":[[138.984779,36.817272],[138.984611,36.81737],[138.98433,36.817526],[138.984033,36.817665],[138.983749,36.817788],[138.983485,36.817895],[138.983208,36.817962],[138.982873,36.81806],[138.982637,36.818169],[138.982472,36.818267],[138.982302,36.818396],[138.982114,36.818546],[138.981899,36.818715],[138.981685,36.818861],[138.981501,36.818981],[138.98129,36.819107],[138.981122,36.81923],[138.980975,36.819344],[138.980838,36.819487],[138.980677,36.81968],[138.980518,36.819883],[138.980323,36.820108],[138.980142,36.820316],[138.979994,36.820453],[138.979845,36.820568],[138.979636,36.820699],[138.979135,36.821017],[138.978769,36.821241],[138.978542,36.821507],[138.978413,36.82167],[138.978327,36.821777],[138.978054,36.821979],[138.977845,36.822103],[138.977637,36.822172],[138.977264,36.822275],[138.977022,36.822337],[138.976745,36.822393],[138.976416,36.822454],[138.97619,36.822516],[138.975982,36.822621],[138.975856,36.822739],[138.975728,36.822894],[138.975669,36.822956],[138.97559,36.823018],[138.975475,36.823066],[138.975345,36.823097],[138.975193,36.823116],[138.975074,36.823146],[138.974776,36.823224],[138.974621,36.823253],[138.974463,36.823274],[138.97427,36.823295],[138.974154,36.82333],[138.974014,36.823395],[138.973899,36.823482],[138.973815,36.823563],[138.97358,36.823818],[138.97332,36.824096],[138.973199,36.824233],[138.973065,36.824384],[138.972888,36.8245],[138.972573,36.824667],[138.972193,36.824845],[138.971987,36.824957],[138.971868,36.825066],[138.971811,36.825166],[138.971769,36.825272],[138.971726,36.825449],[138.971655,36.825622],[138.971453,36.825922],[138.971339,36.826122],[138.971243,36.826276],[138.971167,36.826373],[138.971056,36.826471],[138.97085,36.826617],[138.970583,36.826771],[138.970259,36.826977],[138.970124,36.82707],[138.970018,36.827158],[138.969884,36.827309],[138.969791,36.827448],[138.969719,36.82759],[138.969581,36.827907],[138.96946,36.828218],[138.969357,36.828433],[138.969229,36.828618],[138.969126,36.828722],[138.968915,36.828895],[138.968655,36.829049],[138.968225,36.829288],[138.967796,36.829541],[138.967514,36.829735],[138.967268,36.829922],[138.966931,36.830185],[138.966604,36.830455],[138.966495,36.830561],[138.966385,36.830666],[138.96637,36.830687],[138.966283,36.830799],[138.966206,36.830913],[138.966157,36.830997],[138.965869,36.831499],[138.965799,36.831642],[138.965754,36.831771],[138.965704,36.831977],[138.965677,36.832129],[138.965687,36.832281],[138.965704,36.832392],[138.965753,36.832516],[138.965831,36.832626],[138.965957,36.83276],[138.966155,36.832985],[138.966271,36.833141],[138.966321,36.833317],[138.966352,36.83362],[138.966386,36.833955],[138.966437,36.834226],[138.966574,36.834582],[138.966617,36.834714],[138.96662,36.834841],[138.966565,36.83496],[138.966477,36.835041],[138.966387,36.835077],[138.96627,36.835083],[138.966159,36.835059],[138.966111,36.835039],[138.966024,36.834994]]}},{"type":"Feature","properties":{"id":180888694,"highway":"trunk"},"geometry":{"type":"LineString","coordinates":[[138.98737,36.804245],[138.987554,36.804549]]}},{"type":"Feature","properties":{"id":180888695,"highway":"trunk"},"geometry":{"type":"LineString","coordinates":[[138.987554,36.804549],[138.987551,36.804591],[138.987541,36.804641],[138.98752,36.804672],[138.987364,36.804821],[138.987171,36.805063],[138.98702,36.805293],[138.986936,36.805493],[138.986855,36.805685],[138.986851,36.805693],[138.986778,36.805834],[138.986764,36.80586],[138.986652,36.80604],[138.986453,36.806396],[138.986402,36.806524],[138.986374,36.806737],[138.986356,36.806967],[138.986368,36.807138],[138.986411,36.807388],[138.986446,36.80765],[138.98643,36.807835],[138.98639,36.808026],[138.98635,36.808237],[138.986321,36.808516],[138.986322,36.808763],[138.986357,36.808918],[138.986415,36.809168],[138.986451,36.809326],[138.98644,36.809403],[138.986437,36.809424],[138.986411,36.809592],[138.986303,36.810167],[138.986117,36.811216],[138.986057,36.811539],[138.985989,36.811867],[138.985823,36.812422],[138.985635,36.812995],[138.985162,36.814534],[138.984884,36.815446],[138.984829,36.815655],[138.984815,36.815794],[138.984813,36.815945],[138.984829,36.816113],[138.984897,36.81642],[138.984907,36.816463],[138.984978,36.816744],[138.984999,36.816927],[138.984985,36.817028]]}},{"type":"Feature","properties":{"id":180888700,"highway":"trunk"},"geometry":{"type":"LineString","coordinates":[[138.984985,36.817028],[138.984949,36.817105],[138.984851,36.817218],[138.984779,36.817272]]}},{"type":"Feature","properties":{"id":180888702,"highway":"trunk"},"geometry":{"type":"LineString","coordinates":[[138.988228,36.796938],[138.988179,36.79705],[138.988105,36.797196],[138.987977,36.797365],[138.987859,36.797496],[138.987726,36.797623],[138.987531,36.797802],[138.987352,36.797978],[138.987199,36.798154],[138.987057,36.798317],[138.986899,36.79854],[138.986754,36.798772],[138.986496,36.799209],[138.986418,36.79936],[138.986322,36.799554],[138.986279,36.799672],[138.986236,36.799793],[138.986114,36.80025],[138.986004,36.800706],[138.985963,36.80093],[138.985949,36.801068],[138.985966,36.801233],[138.986025,36.801419],[138.986166,36.801762],[138.986242,36.801929],[138.986298,36.802026],[138.986384,36.802112],[138.986585,36.802268],[138.986689,36.802346],[138.986802,36.802459],[138.986883,36.802567],[138.98693,36.80267],[138.987019,36.802847],[138.987072,36.802976],[138.987087,36.80301],[138.987093,36.803025],[138.987141,36.803164],[138.987167,36.803303],[138.987216,36.803653],[138.987264,36.803952],[138.987329,36.80415],[138.98737,36.804245]]}},{"type":"Feature","properties":{"id":545397708,"highway":"residential"},"geometry":{"type":"LineString","coordinates":[[138.987208,36.8046],[138.987159,36.804482],[138.987181,36.804325],[138.987245,36.804255],[138.987329,36.80415]]}},{"type":"Feature","properties":{"id":592071627,"highway":"residential"},"geometry":{"type":"LineString","coordinates":[[138.987541,36.804641],[138.987676,36.804618],[138.987832,36.80453],[138.988599,36.804068],[138.988703,36.80397],[138.988773,36.803886],[138.988822,36.803811],[138.98887,36.803722],[138.988873,36.803648],[138.988844,36.803481],[138.988816,36.803401],[138.988761,36.803301],[138.988671,36.803184],[138.988634,36.803114],[138.988619,36.802988],[138.98858,36.80286],[138.988336,36.802613],[138.988071,36.802388],[138.987765,36.802061],[138.987701,36.801966],[138.987662,36.801866],[138.98762,36.801697],[138.987579,36.801472],[138.987559,36.801338],[138.987469,36.801215],[138.987406,36.8011],[138.987376,36.801013],[138.987382,36.800941],[138.98741,36.800894],[138.987461,36.800826],[138.987582,36.800714],[138.987665,36.800604],[138.987764,36.800518],[138.987869,36.800419],[138.987951,36.800355],[138.988,36.800327],[138.988106,36.800291],[138.988541,36.800155],[138.988652,36.800128]]}},{"type":"Feature","properties":{"id":909232537,"highway":"trunk"},"geometry":{"type":"LineString","coordinates":[[138.95544,36.842086],[138.955289,36.841954],[138.95512,36.841866],[138.954777,36.841721],[138.954515,36.84157],[138.954345,36.841497],[138.954156,36.841429],[138.953778,36.841317],[138.953478,36.84123],[138.953272,36.841142],[138.953155,36.841057],[138.952991,36.840883],[138.952842,36.840759],[138.95273,36.840695],[138.95261,36.840639],[138.952484,36.840608],[138.952386,36.840597],[138.952316,36.840638],[138.952263,36.840711],[138.952244,36.840795],[138.952232,36.840874],[138.952254,36.841059],[138.952248,36.841381],[138.952231,36.841531],[138.952194,36.841646],[138.952178,36.841761],[138.952207,36.841869],[138.952283,36.842095],[138.952362,36.842411],[138.952409,36.842616],[138.952487,36.842803],[138.95259,36.843065],[138.952648,36.843213],[138.952689,36.84337],[138.95272,36.843476],[138.952726,36.84353],[138.952704,36.8436],[138.95265,36.843649],[138.952581,36.843705],[138.952415,36.843785],[138.952242,36.843894],[138.952104,36.844026],[138.952009,36.844157],[138.951912,36.84431],[138.951832,36.844493],[138.951741,36.844646],[138.951635,36.844771],[138.951549,36.844882],[138.951473,36.844994],[138.951411,36.845084],[138.951318,36.845176],[138.951151,36.845277],[138.950919,36.845446],[138.950847,36.845569],[138.950811,36.845692],[138.95075,36.845964],[138.95065,36.846146],[138.950558,36.846251],[138.950481,36.846355],[138.950436,36.846468],[138.950392,36.846598],[138.950299,36.846757],[138.950118,36.846933],[138.950035,36.846986],[138.949989,36.846995],[138.949946,36.846986],[138.949847,36.846944],[138.949562,36.846807],[138.949365,36.846724],[138.949216,36.846701],[138.948899,36.846653],[138.948546,36.846608],[138.94832,36.846567],[138.948042,36.846554],[138.947836,36.846579],[138.94754,36.846615],[138.947329,36.846662],[138.947132,36.846732],[138.947054,36.846752],[138.946963,36.846769],[138.946732,36.846773],[138.946486,36.846798],[138.946225,36.846845],[138.945975,36.8469],[138.945807,36.846963],[138.945667,36.847036],[138.94557,36.847122],[138.94547,36.847259],[138.94539,36.847347],[138.945291,36.847427],[138.945179,36.847491],[138.945079,36.847528],[138.944907,36.847574],[138.944789,36.847586],[138.944689,36.847571],[138.944573,36.847529],[138.94444,36.847456],[138.944301,36.847372],[138.944139,36.8473],[138.943997,36.847254],[138.943748,36.847188],[138.943555,36.847145],[138.943407,36.847122],[138.943256,36.847113],[138.943086,36.847113],[138.94295,36.847102],[138.942798,36.84708]]}},{"type":"Feature","properties":{"id":909244865,"highway":"trunk"},"geometry":{"type":"LineString","coordinates":[[138.965736,36.834796],[138.96567,36.834691],[138.965605,36.83455],[138.965562,36.834338],[138.965456,36.834167],[138.965292,36.834064],[138.964929,36.833857],[138.964627,36.833682],[138.964498,36.833612],[138.964335,36.833614],[138.964279,36.8337],[138.964311,36.83379],[138.964418,36.833996],[138.964576,36.834229],[138.964666,36.834426],[138.964685,36.834524],[138.964648,36.834623],[138.964564,36.834702],[138.964415,36.834768],[138.964123,36.834872],[138.963905,36.834973],[138.963687,36.83509],[138.963566,36.835225],[138.963447,36.83542],[138.963369,36.835536],[138.96329,36.835626],[138.963213,36.835682],[138.963112,36.835715],[138.963017,36.835711],[138.962933,36.835694],[138.962788,36.835597],[138.962688,36.835495],[138.962496,36.835358],[138.96229,36.835242],[138.962143,36.835178],[138.961976,36.835125],[138.961824,36.835102],[138.961705,36.83513],[138.96161,36.835172],[138.961526,36.835249]]}},{"type":"Feature","properties":{"id":1517168423,"highway":"trunk"},"geometry":{"type":"LineString","coordinates":[[138.96222,36.836449],[138.962232,36.836467]]}},{"type":"Feature","properties":{"id":1517168424,"highway":"trunk"},"geometry":{"type":"LineString","coordinates":[[138.961526,36.835249],[138.961498,36.83531],[138.961487,36.835415],[138.961509,36.83552],[138.96163,36.835727],[138.961775,36.835935],[138.961934,36.836133],[138.962078,36.836293]]}},{"type":"Feature","properties":{"id":1530333386,"highway":"service"},"geometry":{"type":"LineString","coordinates":[[138.962159,36.83674],[138.962194,36.836876],[138.962257,36.836978],[138.962331,36.837006],[138.962407,36.836983],[138.962543,36.836704]]}},{"type":"Feature","properties":{"id":1530366361,"highway":"trunk"},"geometry":{"type":"LineString","coordinates":[[138.962232,36.836467],[138.96228,36.836537],[138.962287,36.836624],[138.962253,36.836688],[138.962159,36.83674]]}},{"type":"Feature","properties":{"id":1530366362,"highway":"service"},"geometry":{"type":"LineString","coordinates":[[138.962543,36.836704],[138.962541,36.836611],[138.962482,36.836524],[138.96239,36.836435],[138.96222,36.836348],[138.962078,36.836293]]}},{"type":"Feature","properties":{"id":1530700239,"highway":"trunk"},"geometry":{"type":"LineString","coordinates":[[138.962078,36.836293],[138.962199,36.836418],[138.96222,36.836449]]}}]}