{"type":"FeatureCollection","features":[{"type":"Feature","properties":{"id":152038570,"highway":"service"},"geometry":{"type":"LineString","coordinates":[[138.994898,35.196776],[138.994535,35.196571]]}},{"type":"Feature","properties":{"id":303447025,"highway":"service"},"geometry":{"type":"LineString","coordinates":[[138.993465,35.19737],[138.993613,35.197583]]}},{"type":"Feature","properties":{"id":303447048,"highway":"unclassified"},"geometry":{"type":"LineString","coordinates":[[138.994535,35.196571],[138.994389,35.196491],[138.994373,35.196418],[138.994422,35.196218],[138.994491,35.196021],[138.994635,35.195582],[138.994909,35.194765],[138.995026,35.194545],[138.995218,35.194297],[138.995287,35.194196],[138.995287,35.194084],[138.995225,35.194033],[138.995081,35.193988],[138.994916,35.193965],[138.994854,35.193931],[138.994793,35.193864],[138.994799,35.19374],[138.994991,35.193368],[138.99506,35.193226]]}},{"type":"Feature","properties":{"id":303447049,"highway":"service"},"geometry":{"type":"LineString","coordinates":[[138.994535,35.196571],[138.994637,35.196441]]}},{"type":"Feature","properties":{"id":303447050,"highway":"service"},"geometry":{"type":"LineString","coordinates":[[138.993613,35.197583],[138.993983,35.197477],[138.994,35.197444],[138.994009,35.197373]]}},{"type":"Feature","properties":{"id":303447051,"highway":"service"},"geometry":{"type":"LineString","coordinates":[[138.995006,35.196646],[138.994637,35.196441],[138.99459,35.196414],[138.994701,35.196282],[138.995122,35.196508]]}},{"type":"Feature","properties":{"id":303447053,"highway":"service"},"geometry":{"type":"LineString","coordinates":[[138.993613,35.197583],[138.993694,35.19772],[138.993784,35.197798],[138.993902,35.197783],[138.993983,35.197776],[138.994049,35.19759],[138.99409,35.197521],[138.994084,35.197437],[138.994009,35.197373]]}}]}