{"type":"FeatureCollection","features":[{"type":"Feature","properties":{"id":339782991,"highway":"unclassified"},"geometry":{"type":"LineString","coordinates":[[139.005091,35.355546],[139.005033,35.355663],[139.004974,35.355791],[139.004864,35.355894],[139.004041,35.356455],[139.002827,35.357131],[139.002323,35.357437],[139.002016,35.357568],[139.001486,35.357761],[139.001218,35.357843],[139.000882,35.357879],[139.000376,35.357982],[138.999792,35.358154],[138.999537,35.358251],[138.999183,35.358369]]}},{"type":"Feature","properties":{"id":377158192,"highway":"primary"},"geometry":{"type":"LineString","coordinates":[[138.988391,35.32627],[138.988376,35.326171],[138.988285,35.326044],[138.988241,35.325946],[138.988243,35.325836],[138.988298,35.325737],[138.988382,35.325644],[138.988513,35.325501],[138.988625,35.325333],[138.988627,35.325128],[138.988616,35.324991],[138.988594,35.324774],[138.988643,35.324637],[138.988795,35.324355],[138.98907,35.323969],[138.989243,35.323723],[138.989327,35.32361],[138.989373,35.323577],[138.989456,35.323578],[138.989529,35.323662],[138.989618,35.32385],[138.989693,35.323954],[138.989768,35.324],[138.990044,35.324056],[138.990124,35.324105],[138.990149,35.324164],[138.990091,35.324286],[138.989778,35.324538],[138.989693,35.324608],[138.989668,35.324644],[138.989684,35.324746],[138.989713,35.324802],[138.989772,35.324842],[138.989961,35.324844],[138.990141,35.324818],[138.990208,35.324833],[138.990255,35.324862],[138.990263,35.32502],[138.99023,35.325194],[138.990174,35.32534],[138.990041,35.325483],[138.989864,35.325603],[138.989828,35.325649],[138.989815,35.325692],[138.98982,35.325725],[138.989835,35.325754],[138.989856,35.325781],[138.989979,35.325862],[138.99008,35.32591],[138.990147,35.325935],[138.990323,35.325932],[138.990437,35.325919],[138.990578,35.325894],[138.990855,35.325806],[138.991027,35.325723],[138.991178,35.325611],[138.991365,35.325576],[138.991561,35.325556],[138.991828,35.325533],[138.991879,35.325541],[138.991907,35.325557],[138.991925,35.325631],[138.991927,35.325747],[138.991917,35.32583],[138.991895,35.325914],[138.991824,35.326005],[138.991733,35.326065],[138.991607,35.326107],[138.991424,35.32618],[138.991377,35.326208],[138.991357,35.326248],[138.99136,35.326295],[138.991382,35.326326],[138.991465,35.326392],[138.991483,35.326453],[138.991481,35.326503],[138.991435,35.326572],[138.991374,35.326621],[138.991301,35.326681],[138.991217,35.326709],[138.991043,35.326729],[138.990795,35.326804],[138.990617,35.326909],[138.990434,35.327049],[138.990328,35.327103],[138.990154,35.32716],[138.990096,35.327205],[138.990038,35.327273],[138.98998,35.32739],[138.989884,35.32753],[138.989825,35.327622],[138.989802,35.327687],[138.989824,35.327723],[138.989858,35.327725],[138.989924,35.32771],[138.990031,35.327687],[138.990215,35.327627],[138.990578,35.327496],[138.991065,35.327306],[138.991545,35.327037],[138.991741,35.326918],[138.992044,35.326808],[138.992176,35.326735],[138.992395,35.326576],[138.993067,35.326041],[138.993481,35.325681],[138.994184,35.325256],[138.99438,35.325155],[138.99451,35.32504],[138.994619,35.324899],[138.994867,35.324443],[138.995004,35.324241],[138.995204,35.324016],[138.995439,35.3238],[138.995568,35.323672],[138.995589,35.32362],[138.995613,35.323429],[138.995685,35.323348],[138.995836,35.323293],[138.996092,35.323247],[138.996388,35.323208],[138.996546,35.323178],[138.996705,35.323157],[138.99687,35.323168],[138.997131,35.323192],[138.997245,35.323185],[138.997364,35.323132],[138.997471,35.323012],[138.997647,35.322811],[138.997742,35.322714],[138.997939,35.322579],[138.998169,35.322453],[138.998391,35.322336],[138.998611,35.32222],[138.998946,35.322126],[138.999068,35.322102],[138.999492,35.32206],[139.000097,35.321979],[139.000268,35.321929],[139.000419,35.32185],[139.000601,35.321814],[139.000806,35.321792],[139.000985,35.321703],[139.001162,35.321569],[139.00138,35.321456],[139.001608,35.321345],[139.001874,35.321211],[139.001938,35.321195],[139.001996,35.321199],[139.002077,35.321237],[139.002114,35.321274],[139.002115,35.32131],[139.002034,35.321413],[139.002008,35.321453],[139.002022,35.321512],[139.002065,35.321543],[139.002107,35.321551],[139.002168,35.321553],[139.002206,35.321536],[139.002431,35.321404],[139.002497,35.321384],[139.002551,35.321386],[139.002703,35.321419],[139.002828,35.321453],[139.002893,35.321457],[139.002943,35.321449],[139.003001,35.321399],[139.003104,35.321244],[139.003248,35.321048],[139.003322,35.320905],[139.003397,35.320811],[139.00354,35.32074],[139.003576,35.320735],[139.003752,35.32071],[139.003951,35.320712],[139.004012,35.320715],[139.004074,35.320733],[139.004188,35.320804],[139.004291,35.320864],[139.004343,35.320867],[139.004386,35.32085],[139.004457,35.320795],[139.004491,35.320749],[139.004478,35.320706],[139.004396,35.320626],[139.004277,35.320506],[139.004232,35.320415],[139.00422,35.32032],[139.004235,35.320252],[139.004287,35.320176],[139.004381,35.320102],[139.004488,35.320049],[139.004637,35.319989],[139.004782,35.319938],[139.00487,35.319905],[139.004972,35.319837],[139.005034,35.319779],[139.005068,35.319715],[139.005148,35.319585],[139.005209,35.319495],[139.005294,35.319493],[139.005354,35.31952],[139.00539,35.319542],[139.005421,35.319556],[139.005443,35.319586],[139.005442,35.319632],[139.005379,35.319687],[139.005322,35.319729],[139.005256,35.319782],[139.005228,35.319815],[139.005198,35.319868],[139.005169,35.31993],[139.005067,35.320031],[139.004887,35.320145],[139.004801,35.3202],[139.004779,35.32029],[139.004817,35.320354],[139.0049,35.320395],[139.005018,35.320441],[139.005265,35.32049],[139.005555,35.320549],[139.005712,35.320568],[139.005848,35.320543],[139.006023,35.320489],[139.0062,35.320461],[139.006415,35.320451],[139.006515,35.320443],[139.0066,35.320414],[139.006674,35.320363],[139.006726,35.320313],[139.006769,35.320234],[139.006825,35.320069],[139.006886,35.319905],[139.00698,35.319783],[139.007069,35.31971],[139.007142,35.319684],[139.007283,35.319654],[139.00753,35.319599],[139.00783,35.319507],[139.008003,35.319476],[139.008194,35.319486],[139.008321,35.319483],[139.0084,35.319446],[139.008493,35.319416],[139.008556,35.319412],[139.008593,35.319419],[139.008658,35.319445],[139.00868,35.319472],[139.008674,35.319518],[139.008625,35.319553],[139.008557,35.31959],[139.008444,35.319638],[139.00836,35.319681],[139.008303,35.319737],[139.008226,35.319814],[139.008093,35.319911],[139.007986,35.32],[139.007945,35.320052],[139.007927,35.3201],[139.007929,35.32014],[139.007945,35.320182],[139.008032,35.320252],[139.008146,35.320334],[139.008181,35.320396],[139.00819,35.320458],[139.008171,35.320553],[139.008096,35.320657],[139.008031,35.320713],[139.008014,35.320761],[139.008024,35.320831],[139.008094,35.320882],[139.008178,35.320896],[139.008259,35.320868],[139.00836,35.320822],[139.008434,35.320812],[139.008519,35.320825],[139.008583,35.320848],[139.00871,35.320921],[139.00878,35.32097],[139.008843,35.321058],[139.008841,35.321102],[139.008811,35.321185],[139.008698,35.321289],[139.008581,35.321392],[139.008548,35.321489],[139.008569,35.321552],[139.008613,35.321656],[139.008646,35.321736],[139.008668,35.321851],[139.008671,35.321937],[139.008625,35.322019],[139.008548,35.322082],[139.008465,35.322128],[139.008371,35.322136],[139.008253,35.322102],[139.00811,35.322051],[139.007961,35.321938],[139.007881,35.321938],[139.007828,35.321973],[139.00781,35.322019],[139.007764,35.3221],[139.00772,35.322188],[139.007676,35.322295],[139.007684,35.322361],[139.007692,35.32247],[139.007649,35.322533],[139.007603,35.322565],[139.007589,35.322575],[139.007507,35.322597],[139.007454,35.322637],[139.007443,35.322688],[139.00748,35.322743],[139.007503,35.322804],[139.007501,35.32288],[139.007448,35.322965],[139.007365,35.323024],[139.007321,35.323051],[139.007174,35.323145],[139.007193,35.323249]]}},{"type":"Feature","properties":{"id":726830578,"highway":"secondary"},"geometry":{"type":"LineString","coordinates":[[138.999442,35.361843],[138.99963,35.361873],[138.999789,35.361893],[138.999909,35.361892],[139.000038,35.361886],[139.000202,35.361852],[139.000368,35.361805],[139.00086,35.361661],[139.001176,35.361568],[139.001791,35.361384],[139.002018,35.361302],[139.002181,35.361213],[139.002348,35.361093],[139.002674,35.360776],[139.003015,35.360472],[139.003273,35.360245],[139.003526,35.360079],[139.003875,35.359899],[139.004836,35.359401],[139.005058,35.359248],[139.005363,35.359007],[139.006282,35.358288],[139.006665,35.357988],[139.006754,35.357933],[139.006844,35.357889],[139.006914,35.357858],[139.00699,35.357834],[139.007087,35.357818],[139.007175,35.357815],[139.007274,35.357837]]}},{"type":"Feature","properties":{"id":764867291,"highway":"secondary"},"geometry":{"type":"LineString","coordinates":[[138.927843,35.400719],[138.928147,35.400605],[138.928255,35.400579],[138.9284,35.40056],[138.929071,35.400509],[138.929212,35.400501],[138.929386,35.400504],[138.929824,35.400525],[138.92989,35.400548],[138.929959,35.400586],[138.930015,35.400639],[138.930098,35.400738],[138.930178,35.40079],[138.930269,35.400821],[138.930367,35.400825],[138.930467,35.40081],[138.930616,35.400731],[138.930684,35.400707],[138.930774,35.400692],[138.930869,35.400696],[138.930961,35.400722],[138.931174,35.40079],[138.931262,35.400811],[138.931362,35.400803],[138.93146,35.400772],[138.932055,35.40041],[138.932153,35.40036],[138.932226,35.400331],[138.932352,35.400305],[138.932521,35.400282],[138.932626,35.40025],[138.93272,35.400209],[138.932846,35.400123],[138.93294,35.400064],[138.933034,35.400024],[138.933148,35.400007],[138.933836,35.400001],[138.934027,35.399978],[138.934945,35.399813],[138.935058,35.399779],[138.935146,35.399742],[138.935257,35.399669],[138.936235,35.398811],[138.936336,35.398751],[138.936437,35.398705],[138.936544,35.398674],[138.936659,35.398662],[138.936787,35.398667],[138.936937,35.398688],[138.937637,35.398813],[138.93781,35.398857],[138.93893,35.399223],[138.939214,35.399298],[138.939919,35.399489],[138.940215,35.399524],[138.940698,35.399509],[138.940816,35.399499],[138.940939,35.399462],[138.941016,35.399405],[138.941062,35.399357],[138.941106,35.399316],[138.941194,35.399091],[138.941255,35.398998],[138.941347,35.398914],[138.941438,35.39883],[138.941537,35.398767],[138.941715,35.398706],[138.941881,35.398654],[138.941985,35.398604],[138.942057,35.398544],[138.942088,35.398484],[138.942105,35.398432],[138.942117,35.398356],[138.942109,35.398285],[138.942081,35.398222],[138.942065,35.398146],[138.942081,35.398076],[138.942129,35.397949],[138.942141,35.397871],[138.942129,35.39778],[138.942098,35.397705],[138.941989,35.397611],[138.941936,35.397547],[138.941902,35.397462],[138.941908,35.397359],[138.942102,35.396313],[138.942134,35.396209],[138.942177,35.396125],[138.94227,35.396022],[138.942329,35.395957],[138.942355,35.3959],[138.942361,35.39583],[138.942341,35.395769],[138.942315,35.395677],[138.942313,35.395596],[138.942335,35.395508],[138.942399,35.39545],[138.942744,35.395223],[138.942844,35.395153],[138.942914,35.395046],[138.942968,35.394932],[138.943077,35.394409],[138.943099,35.394281],[138.943112,35.394159],[138.9431,35.394018],[138.943039,35.393833],[138.942987,35.39368],[138.942961,35.39356],[138.942947,35.393438],[138.942962,35.392712],[138.942968,35.392532],[138.942958,35.39244],[138.942934,35.392352],[138.942875,35.392235],[138.942799,35.392112],[138.942435,35.391607],[138.942359,35.391466],[138.942323,35.391346],[138.942314,35.391161],[138.942296,35.391044],[138.942215,35.390906],[138.942107,35.390785],[138.942002,35.390709],[138.941825,35.390622],[138.941737,35.390561],[138.941658,35.390462],[138.941164,35.389594],[138.941131,35.389512],[138.941134,35.389413],[138.94119,35.389271],[138.941232,35.389202],[138.941314,35.389148],[138.941431,35.389128],[138.941523,35.389139],[138.94203,35.389181],[138.942172,35.389164],[138.942275,35.389135],[138.94237,35.389092],[138.942485,35.389034],[138.942621,35.388945],[138.942738,35.388867],[138.942841,35.388831],[138.943016,35.38881],[138.943066,35.38881],[138.943166,35.388783],[138.943251,35.388741],[138.943316,35.388686],[138.943586,35.388393],[138.943714,35.388253],[138.943807,35.388132],[138.943906,35.387961],[138.944124,35.387541],[138.944274,35.387268],[138.944412,35.387031],[138.944475,35.386967],[138.944568,35.386899],[138.944734,35.386841],[138.945155,35.386724],[138.945431,35.386648],[138.945559,35.386629],[138.945676,35.386636],[138.945731,35.386648],[138.945832,35.386676],[138.945903,35.38669],[138.945964,35.386705],[138.946012,35.386706],[138.946073,35.38669],[138.94611,35.386658],[138.946131,35.386604],[138.946136,35.38658],[138.946121,35.386541],[138.946087,35.386497],[138.946017,35.38644],[138.945893,35.386344],[138.945799,35.386285],[138.945727,35.386253],[138.945641,35.386245],[138.94558,35.386253],[138.945454,35.386276],[138.945321,35.386307],[138.945185,35.386334],[138.945053,35.386331],[138.944917,35.386304],[138.944825,35.386262],[138.944651,35.386168],[138.94446,35.386052],[138.944372,35.385967],[138.944295,35.385872],[138.944238,35.385725],[138.944162,35.385417],[138.944117,35.385255],[138.944023,35.385037],[138.943914,35.384822],[138.943778,35.384591],[138.94369,35.384472],[138.943547,35.384188],[138.943443,35.383864],[138.943333,35.383637],[138.94326,35.383522],[138.94319,35.383447],[138.943074,35.38334],[138.942996,35.383258],[138.942806,35.382801],[138.942703,35.382534],[138.94267,35.38235],[138.942709,35.382017],[138.942775,35.381797],[138.942904,35.381623],[138.94307,35.381448],[138.943161,35.381299],[138.943623,35.380322],[138.94376,35.379916],[138.943829,35.379633],[138.943812,35.37933],[138.943879,35.379039],[138.943893,35.378808],[138.943841,35.378506],[138.943884,35.378294],[138.943998,35.378115],[138.944002,35.377899],[138.94388,35.377631],[138.943898,35.377409],[138.944061,35.377058],[138.944218,35.37679],[138.944197,35.376615],[138.944165,35.376514],[138.94403,35.376382],[138.943871,35.376205],[138.943926,35.37586],[138.944046,35.375667],[138.944127,35.375482],[138.944253,35.37534],[138.944728,35.374865],[138.944806,35.374777],[138.944869,35.374674],[138.944946,35.374489],[138.944998,35.374312],[138.945031,35.37425],[138.945115,35.374147],[138.94532,35.374],[138.945685,35.373756],[138.945851,35.373642],[138.945998,35.373488],[138.946124,35.373292],[138.94622,35.373105],[138.946345,35.372974],[138.946615,35.372776],[138.946817,35.372678],[138.94698,35.372588],[138.947108,35.372491],[138.947225,35.372375],[138.947444,35.372146],[138.947578,35.371993],[138.947643,35.371865]]}},{"type":"Feature","properties":{"id":930537471,"highway":"unclassified"},"geometry":{"type":"LineString","coordinates":[[138.999243,35.390592],[138.999187,35.39066],[138.999115,35.390708],[138.99906,35.390722],[138.998954,35.390711],[138.998895,35.390688],[138.998847,35.390652],[138.998754,35.390536],[138.998664,35.390463],[138.99853,35.390407],[138.998427,35.390401],[138.998375,35.390418],[138.99832,35.390463],[138.998166,35.390742],[138.998083,35.390883],[138.997984,35.390936],[138.997913,35.390944],[138.997875,35.390925],[138.997807,35.390869],[138.997707,35.390731],[138.997641,35.390543],[138.997463,35.390184],[138.997459,35.389699],[138.997356,35.389469],[138.997209,35.389345],[138.997202,35.389083],[138.997013,35.388869],[138.996992,35.388768],[138.997038,35.388693],[138.997059,35.388614],[138.996977,35.388447],[138.996945,35.388297],[138.996855,35.388176],[138.99678,35.388143],[138.996638,35.388133],[138.996548,35.38815],[138.996383,35.388167],[138.996259,35.388156],[138.99594,35.388117],[138.995513,35.388045],[138.995404,35.388004],[138.995268,35.3879],[138.995061,35.387694],[138.994855,35.387497],[138.994768,35.387373],[138.994757,35.387261],[138.994812,35.387165],[138.994967,35.387063],[138.995039,35.386997],[138.995087,35.386941],[138.995124,35.386848],[138.995096,35.386769],[138.995002,35.386682],[138.99471,35.386381],[138.994666,35.38624],[138.994709,35.386128],[138.994778,35.385995],[138.994813,35.385849],[138.994754,35.385648],[138.994686,35.385559],[138.994604,35.385397],[138.994597,35.3853],[138.99464,35.38525],[138.994727,35.385212],[138.994834,35.385199],[138.995228,35.385203],[138.995297,35.385174],[138.995386,35.385118],[138.995421,35.385017],[138.995421,35.38486],[138.995454,35.384681],[138.995498,35.384593],[138.995582,35.384439],[138.995633,35.384268],[138.995633,35.384138],[138.995551,35.384026],[138.995475,35.383992],[138.995379,35.383997],[138.995289,35.384009],[138.99497,35.384059],[138.994812,35.384053],[138.994655,35.384002],[138.9946,35.383892],[138.994542,35.383764],[138.994518,35.383627],[138.99457,35.383522],[138.994692,35.383361],[138.994784,35.383247],[138.9948,35.383126],[138.994758,35.382965],[138.994703,35.38289],[138.994579,35.382862],[138.994128,35.3829],[138.99397,35.382877],[138.993784,35.382815],[138.993463,35.382511],[138.993371,35.382431],[138.993228,35.382413],[138.993118,35.382421],[138.993038,35.382452],[138.992952,35.382488],[138.992836,35.382583],[138.992663,35.382743],[138.992597,35.38284],[138.99249,35.382978],[138.992397,35.383039],[138.992318,35.383053],[138.992219,35.383026],[138.992162,35.382967],[138.992142,35.382898],[138.992187,35.382807],[138.992468,35.382507],[138.99258,35.38237],[138.992629,35.382145],[138.992691,35.382083],[138.992774,35.382038],[138.992918,35.381998],[138.993124,35.381967],[138.993241,35.381925],[138.993427,35.38178],[138.993519,35.381766],[138.993805,35.381796],[138.993947,35.38181],[138.994122,35.381747],[138.994376,35.381501],[138.994492,35.381464],[138.994594,35.381479],[138.994753,35.38145],[138.994795,35.381428],[138.994929,35.381337],[138.995048,35.381256],[138.995167,35.381202],[138.995198,35.381131],[138.995157,35.381055],[138.995059,35.381023],[138.994933,35.381008],[138.994853,35.380942],[138.994751,35.380682],[138.994611,35.380547],[138.994482,35.380429],[138.994368,35.38026],[138.994256,35.379937],[138.994181,35.379786],[138.994059,35.379667],[138.99392,35.379487],[138.993799,35.379363],[138.993741,35.379288],[138.993716,35.37923],[138.993702,35.379092],[138.993843,35.378959],[138.993948,35.378851],[138.993965,35.378724],[138.993936,35.37844],[138.99387,35.378261],[138.993624,35.377972],[138.993457,35.377782],[138.993043,35.3775],[138.992889,35.377424],[138.99269,35.37734],[138.992585,35.377257],[138.992565,35.377179],[138.992666,35.376993],[138.992821,35.376758],[138.99286,35.376635],[138.99281,35.376471],[138.992743,35.3764],[138.99258,35.37638],[138.992497,35.37643],[138.992462,35.376632],[138.992392,35.376751],[138.992194,35.37686],[138.992114,35.37694],[138.992062,35.377038],[138.992062,35.377189],[138.992123,35.377336],[138.992152,35.377501],[138.992327,35.377651],[138.992443,35.377757],[138.992521,35.377872],[138.992527,35.377937],[138.992485,35.378033],[138.992451,35.378091],[138.992467,35.378155],[138.992661,35.378291],[138.99273,35.37838],[138.992717,35.378435],[138.992605,35.378478],[138.992335,35.378535],[138.991993,35.378588],[138.991711,35.378519],[138.991439,35.378543],[138.990577,35.378519],[138.990471,35.378556],[138.990327,35.378574],[138.990173,35.378543],[138.989725,35.378359],[138.989546,35.378344],[138.989463,35.378398],[138.98944,35.378559],[138.98935,35.378649],[138.989294,35.378723],[138.98927,35.378829],[138.989328,35.378934],[138.989471,35.379068],[138.989517,35.37911],[138.989545,35.379182],[138.98957,35.379284],[138.989595,35.379353],[138.989742,35.379458],[138.989876,35.379515],[138.989974,35.379599],[138.990013,35.379648],[138.990024,35.379741],[138.989945,35.37981],[138.989852,35.379845],[138.989708,35.379849],[138.989544,35.379798],[138.989234,35.379583],[138.989027,35.379449],[138.98878,35.379358],[138.988549,35.379287],[138.988284,35.379244],[138.988017,35.379213],[138.987866,35.379256]]}}]}