{"type":"FeatureCollection","features":[{"type":"Feature","properties":{"id":147955068,"highway":"service"},"geometry":{"type":"LineString","coordinates":[[138.925246,35.426647],[138.925696,35.426606],[138.925909,35.426604],[138.925979,35.426588],[138.926158,35.426414],[138.926345,35.426261],[138.926469,35.426194],[138.927051,35.425625]]}},{"type":"Feature","properties":{"id":147955123,"highway":"unclassified"},"geometry":{"type":"LineString","coordinates":[[138.923199,35.438723],[138.92317,35.438611],[138.92305,35.438451],[138.922927,35.438272],[138.922814,35.438086],[138.922543,35.437764],[138.922502,35.43764],[138.922629,35.437266],[138.922665,35.437064],[138.922597,35.436951],[138.922483,35.436833],[138.922481,35.436656]]}},{"type":"Feature","properties":{"id":147955136,"highway":"unclassified"},"geometry":{"type":"LineString","coordinates":[[138.923199,35.438723],[138.923098,35.43871],[138.922982,35.438687],[138.922944,35.438662],[138.922899,35.438621],[138.922822,35.438565],[138.922771,35.438502],[138.922706,35.438425],[138.922632,35.438366],[138.922526,35.438321],[138.92245,35.438361]]}},{"type":"Feature","properties":{"id":147955175,"highway":"unclassified"},"geometry":{"type":"LineString","coordinates":[[138.920817,35.420023],[138.920685,35.420276],[138.920621,35.420389],[138.920387,35.420819],[138.920094,35.421084],[138.920017,35.421169],[138.919775,35.42148],[138.919599,35.421727],[138.918869,35.422756],[138.918802,35.422886],[138.918665,35.423151],[138.918323,35.423704],[138.918278,35.423779]]}},{"type":"Feature","properties":{"id":147955354,"highway":"unclassified"},"geometry":{"type":"LineString","coordinates":[[138.92137,35.436764],[138.921378,35.436591],[138.921462,35.436374],[138.921613,35.436239],[138.921716,35.436182],[138.921881,35.436134],[138.922076,35.436126],[138.922848,35.436334],[138.922969,35.436372],[138.923072,35.436461],[138.923273,35.436623],[138.923347,35.436783]]}},{"type":"Feature","properties":{"id":147955450,"highway":"unclassified"},"geometry":{"type":"LineString","coordinates":[[138.92335,35.438064],[138.923362,35.438132],[138.923376,35.438272],[138.92345,35.438464],[138.92366,35.438652],[138.923766,35.438746],[138.923814,35.438826],[138.923817,35.438885],[138.923787,35.438924],[138.92374,35.438944],[138.923688,35.438949],[138.923612,35.438944],[138.923529,35.438904],[138.923338,35.438824],[138.923268,35.438779],[138.923199,35.438723]]}},{"type":"Feature","properties":{"id":147955460,"highway":"unclassified"},"geometry":{"type":"LineString","coordinates":[[138.92194,35.438467],[138.921955,35.4385],[138.922204,35.438806],[138.922429,35.439127],[138.922594,35.439237],[138.922724,35.439324],[138.922779,35.439358],[138.922875,35.439375],[138.922971,35.439363],[138.923076,35.439328],[138.923108,35.439291],[138.92313,35.439227],[138.923098,35.43915],[138.923005,35.439032],[138.92287,35.438906],[138.922696,35.438737],[138.922573,35.438593],[138.922512,35.438498],[138.92245,35.438361]]}},{"type":"Feature","properties":{"id":147955464,"highway":"unclassified"},"geometry":{"type":"LineString","coordinates":[[138.92335,35.438064],[138.923399,35.437807],[138.923446,35.437683],[138.923502,35.43757],[138.923608,35.437431],[138.92372,35.437308],[138.923783,35.437245],[138.923852,35.437184],[138.924073,35.437369],[138.92422,35.437508],[138.92405,35.437679],[138.92393,35.437814],[138.923889,35.437925],[138.923882,35.438038],[138.923897,35.438151],[138.923951,35.438247],[138.924018,35.43831],[138.924338,35.438525]]}},{"type":"Feature","properties":{"id":147955964,"highway":"service"},"geometry":{"type":"LineString","coordinates":[[138.918278,35.423779],[138.918442,35.42374],[138.918685,35.423675],[138.918901,35.423617],[138.919061,35.423579],[138.919148,35.423558],[138.919298,35.423464],[138.919343,35.423439],[138.919417,35.423397],[138.919569,35.423291],[138.919693,35.423181],[138.920006,35.422901],[138.92022,35.422727],[138.920242,35.42271],[138.920417,35.422566],[138.920654,35.422357],[138.920986,35.422042],[138.921434,35.421639],[138.921445,35.421306],[138.921454,35.421143],[138.921427,35.421019],[138.921298,35.420865],[138.921242,35.420812],[138.921206,35.420703],[138.921212,35.420547],[138.921225,35.420401],[138.921248,35.420251],[138.921272,35.420126],[138.921265,35.42002],[138.92114,35.419937],[138.920817,35.420023]]}},{"type":"Feature","properties":{"id":147956035,"highway":"unclassified"},"geometry":{"type":"LineString","coordinates":[[138.926552,35.441612],[138.926427,35.441604],[138.926316,35.441596]]}},{"type":"Feature","properties":{"id":147956203,"highway":"unclassified"},"geometry":{"type":"LineString","coordinates":[[138.926837,35.441674],[138.9267,35.441637],[138.926552,35.441612]]}},{"type":"Feature","properties":{"id":147956254,"highway":"unclassified"},"geometry":{"type":"LineString","coordinates":[[138.927195,35.442795],[138.927224,35.442836],[138.927365,35.442995]]}},{"type":"Feature","properties":{"id":147957092,"highway":"unclassified"},"geometry":{"type":"LineString","coordinates":[[138.926837,35.441674],[138.926507,35.442299],[138.926398,35.442544],[138.926321,35.44276]]}},{"type":"Feature","properties":{"id":147957134,"highway":"unclassified"},"geometry":{"type":"LineString","coordinates":[[138.925844,35.442631],[138.925858,35.442639],[138.925941,35.442645],[138.9261,35.442773],[138.926321,35.44276]]}},{"type":"Feature","properties":{"id":147957166,"highway":"unclassified"},"geometry":{"type":"LineString","coordinates":[[138.926321,35.44276],[138.926756,35.442769],[138.926853,35.442771],[138.926921,35.442773],[138.927195,35.442795]]}},{"type":"Feature","properties":{"id":147957184,"highway":"unclassified"},"geometry":{"type":"LineString","coordinates":[[138.926316,35.441596],[138.925829,35.442574],[138.925818,35.442614],[138.925844,35.442631]]}},{"type":"Feature","properties":{"id":147957327,"highway":"unclassified"},"geometry":{"type":"LineString","coordinates":[[138.923347,35.436783],[138.922481,35.436656]]}},{"type":"Feature","properties":{"id":147957866,"highway":"unclassified"},"geometry":{"type":"LineString","coordinates":[[138.92335,35.438064],[138.923113,35.437655],[138.923067,35.437485],[138.923139,35.43727],[138.923339,35.436868],[138.923347,35.436783]]}},{"type":"Feature","properties":{"id":147958425,"highway":"unclassified"},"geometry":{"type":"LineString","coordinates":[[138.926552,35.441612],[138.926486,35.441514],[138.926222,35.441198],[138.92607,35.441264],[138.92589,35.441358],[138.925734,35.441449],[138.926129,35.441555],[138.926316,35.441596]]}},{"type":"Feature","properties":{"id":147958443,"highway":"unclassified"},"geometry":{"type":"LineString","coordinates":[[138.926837,35.441674],[138.926939,35.441698],[138.927049,35.441789],[138.927204,35.441931],[138.927249,35.441986],[138.92744,35.442102],[138.927371,35.442278],[138.927195,35.442795]]}},{"type":"Feature","properties":{"id":168737646,"highway":"service"},"geometry":{"type":"LineString","coordinates":[[138.923065,35.426563],[138.923527,35.426577],[138.92439,35.426587],[138.925059,35.426619],[138.925246,35.426647]]}},{"type":"Feature","properties":{"id":264704043,"highway":"residential"},"geometry":{"type":"LineString","coordinates":[[138.926321,35.44276],[138.926781,35.443239],[138.927119,35.443024],[138.926853,35.442771],[138.927204,35.441931]]}},{"type":"Feature","properties":{"id":265411004,"highway":"residential"},"geometry":{"type":"LineString","coordinates":[[138.924685,35.4406],[138.924254,35.439927],[138.923871,35.440176],[138.924264,35.440757],[138.924618,35.44132],[138.924682,35.44136],[138.924759,35.441413],[138.924904,35.441457],[138.925363,35.441447],[138.925491,35.441443],[138.92561,35.441445],[138.925734,35.441449]]}},{"type":"Feature","properties":{"id":265411006,"highway":"residential"},"geometry":{"type":"LineString","coordinates":[[138.925678,35.440613],[138.925869,35.440855],[138.92592,35.440866],[138.92597,35.440845],[138.926567,35.440442],[138.926363,35.44008],[138.926144,35.439723],[138.926111,35.439735],[138.925842,35.44017],[138.925325,35.440362],[138.925105,35.440444],[138.924685,35.4406],[138.924264,35.440757]]}},{"type":"Feature","properties":{"id":265411014,"highway":"residential"},"geometry":{"type":"LineString","coordinates":[[138.925538,35.440681],[138.925678,35.440613],[138.925976,35.440468],[138.926363,35.44008]]}},{"type":"Feature","properties":{"id":265411018,"highway":"residential"},"geometry":{"type":"LineString","coordinates":[[138.925325,35.440362],[138.924812,35.439679],[138.924632,35.439764],[138.925105,35.440444]]}},{"type":"Feature","properties":{"id":764867290,"highway":"secondary"},"geometry":{"type":"LineString","coordinates":[[138.915838,35.405272],[138.916028,35.405216],[138.916199,35.405173],[138.91641,35.405114],[138.916519,35.405068],[138.916605,35.405018],[138.916667,35.404962],[138.916729,35.40488],[138.916769,35.404791],[138.916813,35.404595],[138.916845,35.404488],[138.916913,35.404374],[138.916993,35.404292],[138.917065,35.404246],[138.917143,35.404199],[138.917252,35.404161],[138.917402,35.404132],[138.91801,35.40402],[138.918282,35.403968],[138.918391,35.403937],[138.918477,35.403905],[138.918556,35.403858],[138.91863,35.403794],[138.919269,35.402967],[138.919361,35.402863],[138.919425,35.402797],[138.91951,35.40273],[138.919585,35.402701],[138.919643,35.402694],[138.919702,35.402703],[138.919756,35.402726],[138.919793,35.40275],[138.91985,35.402804],[138.919973,35.402944],[138.920036,35.402992],[138.920091,35.403016],[138.920154,35.403025],[138.920256,35.403006],[138.920366,35.402985],[138.920475,35.402987],[138.920552,35.403005],[138.920613,35.403028],[138.920708,35.40308],[138.921126,35.403319],[138.921297,35.403425],[138.921392,35.403456],[138.921458,35.403467],[138.921526,35.403461],[138.921624,35.403434],[138.9217,35.403399],[138.921772,35.403344],[138.921818,35.403294],[138.92186,35.403216],[138.921884,35.403137],[138.921948,35.40296],[138.921986,35.402876],[138.922034,35.402783],[138.92207,35.402745],[138.922116,35.402707],[138.92217,35.402678],[138.92224,35.402648],[138.922303,35.402633],[138.922361,35.402632],[138.922472,35.402661],[138.922535,35.402698],[138.922675,35.402833],[138.922805,35.402967],[138.922986,35.403188],[138.923105,35.403327],[138.923185,35.403405],[138.923257,35.403449],[138.923333,35.40348],[138.923428,35.403491],[138.923642,35.403471],[138.923905,35.403437],[138.924041,35.403408],[138.924112,35.40338],[138.924183,35.403332],[138.924264,35.40325],[138.924366,35.403137],[138.924427,35.403091],[138.924523,35.403042],[138.924645,35.403012],[138.925046,35.402936],[138.925242,35.402921],[138.925395,35.402937],[138.92556,35.402974],[138.925883,35.403075],[138.925996,35.403111],[138.926095,35.40313],[138.926169,35.403126],[138.926231,35.403107],[138.926277,35.403054],[138.92631,35.40297],[138.92633,35.402897],[138.926346,35.40282],[138.926333,35.40267],[138.926283,35.402532],[138.926081,35.402165],[138.926035,35.402051],[138.926003,35.401942],[138.925992,35.401841],[138.926003,35.401745],[138.926043,35.40168],[138.926099,35.401628],[138.926192,35.401576],[138.926452,35.401416],[138.926873,35.401158],[138.927031,35.401071],[138.927843,35.400719]]}},{"type":"Feature","properties":{"id":764867291,"highway":"secondary"},"geometry":{"type":"LineString","coordinates":[[138.927843,35.400719],[138.928147,35.400605],[138.928255,35.400579],[138.9284,35.40056],[138.929071,35.400509],[138.929212,35.400501],[138.929386,35.400504],[138.929824,35.400525],[138.92989,35.400548],[138.929959,35.400586],[138.930015,35.400639],[138.930098,35.400738],[138.930178,35.40079],[138.930269,35.400821],[138.930367,35.400825],[138.930467,35.40081],[138.930616,35.400731],[138.930684,35.400707],[138.930774,35.400692],[138.930869,35.400696],[138.930961,35.400722],[138.931174,35.40079],[138.931262,35.400811],[138.931362,35.400803],[138.93146,35.400772],[138.932055,35.40041],[138.932153,35.40036],[138.932226,35.400331],[138.932352,35.400305],[138.932521,35.400282],[138.932626,35.40025],[138.93272,35.400209],[138.932846,35.400123],[138.93294,35.400064],[138.933034,35.400024],[138.933148,35.400007],[138.933836,35.400001],[138.934027,35.399978],[138.934945,35.399813],[138.935058,35.399779],[138.935146,35.399742],[138.935257,35.399669],[138.936235,35.398811],[138.936336,35.398751],[138.936437,35.398705],[138.936544,35.398674],[138.936659,35.398662],[138.936787,35.398667],[138.936937,35.398688],[138.937637,35.398813],[138.93781,35.398857],[138.93893,35.399223],[138.939214,35.399298],[138.939919,35.399489],[138.940215,35.399524],[138.940698,35.399509],[138.940816,35.399499],[138.940939,35.399462],[138.941016,35.399405],[138.941062,35.399357],[138.941106,35.399316],[138.941194,35.399091],[138.941255,35.398998],[138.941347,35.398914],[138.941438,35.39883],[138.941537,35.398767],[138.941715,35.398706],[138.941881,35.398654],[138.941985,35.398604],[138.942057,35.398544],[138.942088,35.398484],[138.942105,35.398432],[138.942117,35.398356],[138.942109,35.398285],[138.942081,35.398222],[138.942065,35.398146],[138.942081,35.398076],[138.942129,35.397949],[138.942141,35.397871],[138.942129,35.39778],[138.942098,35.397705],[138.941989,35.397611],[138.941936,35.397547],[138.941902,35.397462],[138.941908,35.397359],[138.942102,35.396313],[138.942134,35.396209],[138.942177,35.396125],[138.94227,35.396022],[138.942329,35.395957],[138.942355,35.3959],[138.942361,35.39583],[138.942341,35.395769],[138.942315,35.395677],[138.942313,35.395596],[138.942335,35.395508],[138.942399,35.39545],[138.942744,35.395223],[138.942844,35.395153],[138.942914,35.395046],[138.942968,35.394932],[138.943077,35.394409],[138.943099,35.394281],[138.943112,35.394159],[138.9431,35.394018],[138.943039,35.393833],[138.942987,35.39368],[138.942961,35.39356],[138.942947,35.393438],[138.942962,35.392712],[138.942968,35.392532],[138.942958,35.39244],[138.942934,35.392352],[138.942875,35.392235],[138.942799,35.392112],[138.942435,35.391607],[138.942359,35.391466],[138.942323,35.391346],[138.942314,35.391161],[138.942296,35.391044],[138.942215,35.390906],[138.942107,35.390785],[138.942002,35.390709],[138.941825,35.390622],[138.941737,35.390561],[138.941658,35.390462],[138.941164,35.389594],[138.941131,35.389512],[138.941134,35.389413],[138.94119,35.389271],[138.941232,35.389202],[138.941314,35.389148],[138.941431,35.389128],[138.941523,35.389139],[138.94203,35.389181],[138.942172,35.389164],[138.942275,35.389135],[138.94237,35.389092],[138.942485,35.389034],[138.942621,35.388945],[138.942738,35.388867],[138.942841,35.388831],[138.943016,35.38881],[138.943066,35.38881],[138.943166,35.388783],[138.943251,35.388741],[138.943316,35.388686],[138.943586,35.388393],[138.943714,35.388253],[138.943807,35.388132],[138.943906,35.387961],[138.944124,35.387541],[138.944274,35.387268],[138.944412,35.387031],[138.944475,35.386967],[138.944568,35.386899],[138.944734,35.386841],[138.945155,35.386724],[138.945431,35.386648],[138.945559,35.386629],[138.945676,35.386636],[138.945731,35.386648],[138.945832,35.386676],[138.945903,35.38669],[138.945964,35.386705],[138.946012,35.386706],[138.946073,35.38669],[138.94611,35.386658],[138.946131,35.386604],[138.946136,35.38658],[138.946121,35.386541],[138.946087,35.386497],[138.946017,35.38644],[138.945893,35.386344],[138.945799,35.386285],[138.945727,35.386253],[138.945641,35.386245],[138.94558,35.386253],[138.945454,35.386276],[138.945321,35.386307],[138.945185,35.386334],[138.945053,35.386331],[138.944917,35.386304],[138.944825,35.386262],[138.944651,35.386168],[138.94446,35.386052],[138.944372,35.385967],[138.944295,35.385872],[138.944238,35.385725],[138.944162,35.385417],[138.944117,35.385255],[138.944023,35.385037],[138.943914,35.384822],[138.943778,35.384591],[138.94369,35.384472],[138.943547,35.384188],[138.943443,35.383864],[138.943333,35.383637],[138.94326,35.383522],[138.94319,35.383447],[138.943074,35.38334],[138.942996,35.383258],[138.942806,35.382801],[138.942703,35.382534],[138.94267,35.38235],[138.942709,35.382017],[138.942775,35.381797],[138.942904,35.381623],[138.94307,35.381448],[138.943161,35.381299],[138.943623,35.380322],[138.94376,35.379916],[138.943829,35.379633],[138.943812,35.37933],[138.943879,35.379039],[138.943893,35.378808],[138.943841,35.378506],[138.943884,35.378294],[138.943998,35.378115],[138.944002,35.377899],[138.94388,35.377631],[138.943898,35.377409],[138.944061,35.377058],[138.944218,35.37679],[138.944197,35.376615],[138.944165,35.376514],[138.94403,35.376382],[138.943871,35.376205],[138.943926,35.37586],[138.944046,35.375667],[138.944127,35.375482],[138.944253,35.37534],[138.944728,35.374865],[138.944806,35.374777],[138.944869,35.374674],[138.944946,35.374489],[138.944998,35.374312],[138.945031,35.37425],[138.945115,35.374147],[138.94532,35.374],[138.945685,35.373756],[138.945851,35.373642],[138.945998,35.373488],[138.946124,35.373292],[138.94622,35.373105],[138.946345,35.372974],[138.946615,35.372776],[138.946817,35.372678],[138.94698,35.372588],[138.947108,35.372491],[138.947225,35.372375],[138.947444,35.372146],[138.947578,35.371993],[138.947643,35.371865]]}},{"type":"Feature","properties":{"id":1058232607,"highway":"secondary"},"geometry":{"type":"LineString","coordinates":[[138.909392,35.412495],[138.90943,35.412446],[138.909434,35.412379],[138.909421,35.412292],[138.909406,35.412205],[138.909421,35.412101],[138.909464,35.411989],[138.909518,35.411901],[138.909579,35.41182],[138.909655,35.411746],[138.909756,35.411678],[138.909956,35.411591],[138.910228,35.411454],[138.910366,35.411368],[138.910449,35.411291],[138.910725,35.410873],[138.910765,35.410799],[138.910761,35.410716],[138.910737,35.410644],[138.910656,35.410567],[138.910521,35.410499],[138.910394,35.410461],[138.910266,35.410446],[138.910138,35.41041],[138.910012,35.410367],[138.909927,35.41031],[138.909869,35.410218],[138.909828,35.410116],[138.909811,35.409992],[138.90983,35.409876],[138.909883,35.40975],[138.909963,35.409636],[138.91013,35.409519],[138.91027,35.409461],[138.910417,35.409424],[138.911618,35.409349],[138.911736,35.409338],[138.911835,35.409296],[138.911896,35.40923],[138.912012,35.408924],[138.912054,35.408843],[138.91213,35.408768],[138.912828,35.408272],[138.912943,35.4082],[138.913032,35.408161],[138.913146,35.408139],[138.913606,35.408124],[138.913735,35.408102],[138.913814,35.408052],[138.913874,35.407981],[138.913906,35.407907],[138.913905,35.407811],[138.913851,35.407613],[138.913542,35.407147],[138.913512,35.407059],[138.913503,35.406965],[138.913524,35.406875],[138.91359,35.406725],[138.913644,35.406641],[138.913715,35.40656],[138.913874,35.406449],[138.914744,35.405882],[138.91567,35.405321],[138.915769,35.405284]]}},{"type":"Feature","properties":{"id":1282920021,"highway":"residential"},"geometry":{"type":"LineString","coordinates":[[138.928027,35.445604],[138.928132,35.44546],[138.928201,35.445479],[138.928866,35.445822]]}},{"type":"Feature","properties":{"id":1383654934,"highway":"secondary"},"geometry":{"type":"LineString","coordinates":[[138.915769,35.405284],[138.915806,35.405279]]}},{"type":"Feature","properties":{"id":1383654935,"highway":"secondary"},"geometry":{"type":"LineString","coordinates":[[138.915806,35.405279],[138.915825,35.405275],[138.915838,35.405272]]}},{"type":"Feature","properties":{"id":1517277142,"highway":"service"},"geometry":{"type":"LineString","coordinates":[[138.920232,35.419859],[138.920427,35.41994],[138.920817,35.420023]]}}]}