{"type":"FeatureCollection","features":[{"type":"Feature","properties":{"id":27263649,"highway":"primary"},"geometry":{"type":"LineString","coordinates":[[139.091645,35.504886],[139.091725,35.504884],[139.091864,35.504856],[139.091964,35.504837],[139.09201,35.504818],[139.092065,35.504783],[139.092103,35.504747],[139.092268,35.50454],[139.092332,35.504471],[139.092428,35.50441],[139.092553,35.504385],[139.092645,35.504382],[139.092714,35.50439],[139.092775,35.5044],[139.092893,35.504429],[139.093007,35.504457],[139.093108,35.504489],[139.093194,35.504533],[139.093328,35.504617],[139.093557,35.504777],[139.093677,35.50485],[139.093872,35.50495],[139.094031,35.505001],[139.09423,35.505051],[139.094361,35.505105],[139.094477,35.505176],[139.094739,35.505345],[139.09513,35.505598],[139.095224,35.50564],[139.095325,35.505672],[139.095422,35.505697],[139.095611,35.505743],[139.095806,35.505829],[139.095951,35.505934],[139.096054,35.506001],[139.096199,35.506078],[139.096288,35.506233],[139.096366,35.506353],[139.096432,35.506484],[139.096562,35.506614],[139.096667,35.506745],[139.096887,35.50703],[139.097039,35.50717],[139.097451,35.507533],[139.0976,35.507657],[139.097735,35.507702],[139.097857,35.50774],[139.097956,35.507786],[139.098111,35.507931],[139.098295,35.508128],[139.098416,35.508263],[139.098505,35.508375],[139.098716,35.508618],[139.098882,35.5088],[139.098901,35.508855],[139.09891,35.508922],[139.098911,35.509141],[139.098912,35.509275],[139.098904,35.50937],[139.098883,35.509429],[139.098833,35.509499],[139.098648,35.509596],[139.098534,35.509621],[139.098264,35.509749],[139.098173,35.509835],[139.097979,35.509929],[139.097801,35.509983],[139.097322,35.510226],[139.097197,35.510289],[139.097135,35.510339],[139.097061,35.510428],[139.097017,35.510533],[139.097016,35.510774],[139.097021,35.510882],[139.097053,35.510955],[139.097111,35.511037],[139.097214,35.511171],[139.097246,35.511249],[139.097269,35.511334],[139.097309,35.511508],[139.097313,35.511607],[139.097369,35.511946],[139.097401,35.512098],[139.097403,35.5122],[139.097379,35.512266],[139.097344,35.512318],[139.097284,35.512385],[139.097154,35.512494],[139.097029,35.512611],[139.096946,35.512686],[139.0969,35.512745],[139.096886,35.512783],[139.096858,35.512915],[139.096808,35.513256],[139.096782,35.513472],[139.096745,35.513694],[139.096723,35.513784],[139.096678,35.513888],[139.096573,35.514082],[139.09636,35.514514]]}},{"type":"Feature","properties":{"id":146621457,"highway":"trunk"},"geometry":{"type":"LineString","coordinates":[[139.093096,35.534142],[139.093184,35.534051],[139.09332,35.533891],[139.093484,35.533746],[139.094197,35.533216],[139.094298,35.533159],[139.094357,35.533136],[139.094446,35.533126],[139.094526,35.533113],[139.094584,35.533071],[139.094617,35.53301],[139.094609,35.532941],[139.094575,35.532844],[139.094362,35.532247],[139.094287,35.532092],[139.09422,35.531995],[139.09421,35.531924],[139.094239,35.531868],[139.094283,35.531836],[139.094382,35.531823],[139.094474,35.531829],[139.094737,35.531886],[139.094912,35.531909],[139.095019,35.531905],[139.095145,35.531889],[139.095432,35.531838],[139.09553,35.531828],[139.095597,35.531835],[139.095674,35.531866],[139.095801,35.531966],[139.095865,35.532002],[139.095964,35.532018],[139.096059,35.532004],[139.096136,35.531959],[139.096521,35.531757],[139.096624,35.531708],[139.09676,35.531687],[139.096907,35.531694],[139.097061,35.531696],[139.097145,35.531678],[139.097198,35.53163],[139.097223,35.53156],[139.097205,35.531491],[139.097154,35.531443],[139.097063,35.531429],[139.096832,35.531436],[139.096718,35.531427],[139.09659,35.531397],[139.096097,35.531231],[139.095993,35.531193],[139.095922,35.531115],[139.095916,35.531024],[139.09595,35.530934],[139.096013,35.530837],[139.096259,35.530509],[139.096344,35.53036],[139.096397,35.530224],[139.096481,35.52989],[139.096618,35.529366],[139.09667,35.529156],[139.096745,35.529036],[139.096822,35.528952],[139.096921,35.528878],[139.09707,35.528808],[139.097208,35.528769],[139.097343,35.528745],[139.097483,35.528766],[139.097644,35.528815],[139.098623,35.529167],[139.098779,35.529215],[139.09888,35.529225],[139.099017,35.529221],[139.099264,35.529218],[139.099367,35.529229],[139.09946,35.529275],[139.099548,35.52937],[139.099647,35.529537],[139.099706,35.529603],[139.099794,35.529662],[139.099881,35.529691],[139.099964,35.529702],[139.100218,35.529708],[139.100303,35.529717],[139.100382,35.529743],[139.100444,35.529779],[139.100498,35.529823],[139.100571,35.529939],[139.100625,35.529998],[139.100682,35.530046],[139.100765,35.530071],[139.100844,35.530081],[139.100913,35.530078],[139.101091,35.530033],[139.101174,35.529991],[139.101248,35.529927],[139.101299,35.529863],[139.101352,35.529767],[139.101398,35.52971],[139.101455,35.529675],[139.101525,35.529657],[139.101642,35.52966],[139.101719,35.529674],[139.101798,35.529698],[139.101857,35.529737],[139.101908,35.529799],[139.101927,35.529865],[139.10196,35.530116],[139.101968,35.53018],[139.102008,35.530236],[139.102084,35.530275],[139.102164,35.530291],[139.102233,35.530274],[139.10234,35.530223],[139.102576,35.53015],[139.10265,35.530136],[139.102749,35.530146],[139.102867,35.530205],[139.102993,35.530312],[139.103059,35.530409],[139.103099,35.530532],[139.103142,35.530751],[139.103218,35.530924],[139.10343,35.531229],[139.103535,35.53135],[139.103691,35.531454],[139.103851,35.531528],[139.104031,35.531579],[139.104138,35.531597],[139.10428,35.531589],[139.104406,35.531592],[139.104506,35.531587],[139.104616,35.531601],[139.104715,35.531635],[139.104776,35.531687],[139.104806,35.531759],[139.104795,35.531897],[139.104756,35.532525],[139.104752,35.53264],[139.104777,35.532758],[139.104829,35.532859],[139.104955,35.533077],[139.10504,35.533163],[139.105162,35.53324],[139.105642,35.533447],[139.105811,35.533508],[139.105979,35.533551],[139.106193,35.533576],[139.106417,35.533588],[139.106666,35.533595],[139.107035,35.53362],[139.107242,35.533645],[139.107465,35.533688],[139.107644,35.533707],[139.107784,35.533712],[139.107943,35.5337],[139.108167,35.533671],[139.108321,35.533647],[139.108406,35.533645],[139.108475,35.533657],[139.108522,35.533685],[139.108566,35.533723],[139.108613,35.533793],[139.108638,35.533871],[139.10871,35.534126],[139.108774,35.534272],[139.108825,35.534363],[139.108914,35.534484],[139.109017,35.534596],[139.109145,35.534706],[139.109441,35.534929],[139.109516,35.535002],[139.109603,35.535125],[139.109627,35.53521],[139.10964,35.535311],[139.109623,35.535402],[139.10959,35.535479],[139.10953,35.535551],[139.109452,35.535603],[139.109365,35.535631],[139.109264,35.535652],[139.109152,35.535648],[139.109028,35.53562],[139.108892,35.535553],[139.10879,35.535471],[139.108724,35.535433],[139.108643,35.535408],[139.108546,35.535395],[139.108403,35.535402],[139.108156,35.535418],[139.10801,35.535447],[139.10792,35.535479],[139.107843,35.535528],[139.107773,35.535594],[139.107527,35.535873],[139.10748,35.535957],[139.107439,35.536023],[139.107434,35.536112]]}},{"type":"Feature","properties":{"id":152646969,"highway":"primary"},"geometry":{"type":"LineString","coordinates":[[139.090581,35.504737],[139.090562,35.504966]]}},{"type":"Feature","properties":{"id":152646986,"highway":"primary"},"geometry":{"type":"LineString","coordinates":[[139.090581,35.504737],[139.090596,35.504691],[139.090662,35.504577],[139.090745,35.504455]]}},{"type":"Feature","properties":{"id":152646993,"highway":"primary"},"geometry":{"type":"LineString","coordinates":[[139.090562,35.504966],[139.090567,35.504998],[139.090587,35.505021],[139.090668,35.505076],[139.090698,35.505091],[139.09074,35.505098],[139.090797,35.505098],[139.090857,35.505093],[139.090914,35.505075],[139.090948,35.505063],[139.091018,35.505057],[139.091078,35.505058],[139.091178,35.505065],[139.091224,35.50506],[139.09127,35.505045],[139.091375,35.504995],[139.091575,35.50492],[139.091645,35.504886]]}},{"type":"Feature","properties":{"id":152646997,"highway":"primary"},"geometry":{"type":"LineString","coordinates":[[139.096344,35.517674],[139.096758,35.518071]]}},{"type":"Feature","properties":{"id":152649271,"highway":"unclassified"},"geometry":{"type":"LineString","coordinates":[[139.091277,35.504511],[139.090868,35.50431],[139.090745,35.504455]]}},{"type":"Feature","properties":{"id":152680706,"highway":"unclassified"},"geometry":{"type":"LineString","coordinates":[[139.091807,35.503844],[139.091621,35.504013],[139.091437,35.504207],[139.091324,35.504356],[139.091288,35.504445],[139.091277,35.504511]]}},{"type":"Feature","properties":{"id":401034592,"highway":"primary"},"geometry":{"type":"LineString","coordinates":[[139.096758,35.518071],[139.096812,35.518103],[139.09683,35.518114],[139.096909,35.51814],[139.097045,35.518165],[139.097203,35.518197],[139.097372,35.518254],[139.097454,35.518288],[139.0975,35.518317],[139.097537,35.518349],[139.0976,35.518454],[139.09778,35.518755],[139.097986,35.51902],[139.098036,35.51913],[139.098175,35.519293],[139.098271,35.519388],[139.098371,35.519475],[139.098405,35.519529],[139.098439,35.51959],[139.09853,35.519792],[139.098604,35.519875],[139.098707,35.51997],[139.098782,35.52006],[139.098976,35.520255],[139.099088,35.520387],[139.099152,35.52048],[139.099356,35.520781],[139.09941,35.520862],[139.099458,35.520943],[139.099497,35.521029],[139.099505,35.521128],[139.099522,35.521223],[139.099572,35.521281],[139.099631,35.521332],[139.099768,35.521452],[139.100013,35.521696],[139.100156,35.521852],[139.100207,35.521919]]}},{"type":"Feature","properties":{"id":671074741,"highway":"unclassified"},"geometry":{"type":"LineString","coordinates":[[139.091277,35.504511],[139.091274,35.504584]]}},{"type":"Feature","properties":{"id":671074742,"highway":"unclassified"},"geometry":{"type":"LineString","coordinates":[[139.091274,35.504584],[139.091289,35.50462],[139.091316,35.504672],[139.091346,35.504713],[139.091384,35.504759],[139.091433,35.504804],[139.091497,35.504838],[139.091599,35.504877]]}},{"type":"Feature","properties":{"id":911205791,"highway":"primary"},"geometry":{"type":"LineString","coordinates":[[139.095834,35.515568],[139.095667,35.515925],[139.095483,35.516286],[139.09543,35.516476],[139.095419,35.516582],[139.095439,35.51669],[139.095514,35.516849],[139.095605,35.516952],[139.095691,35.517035],[139.096025,35.517352],[139.096344,35.517674]]}},{"type":"Feature","properties":{"id":911205792,"highway":"primary"},"geometry":{"type":"LineString","coordinates":[[139.09636,35.514514],[139.095834,35.515568]]}},{"type":"Feature","properties":{"id":973481234,"highway":"service"},"geometry":{"type":"LineString","coordinates":[[139.100207,35.521919],[139.10009,35.52189],[139.099751,35.521594],[139.099525,35.521388],[139.099415,35.521269],[139.099124,35.520904],[139.098791,35.520546],[139.098622,35.52034],[139.098372,35.519962]]}},{"type":"Feature","properties":{"id":975955043,"highway":"unclassified"},"geometry":{"type":"LineString","coordinates":[[139.091599,35.504877],[139.091645,35.504886]]}}]}