{"type":"FeatureCollection","features":[{"type":"Feature","properties":{"id":146615519,"highway":"primary"},"geometry":{"type":"LineString","coordinates":[[139.093748,35.675005],[139.093818,35.675028],[139.093851,35.67505],[139.093874,35.675071],[139.093886,35.675096],[139.093902,35.675147],[139.093901,35.675185],[139.093889,35.675216],[139.093875,35.675243],[139.093832,35.675264],[139.09378,35.675283],[139.093745,35.675283],[139.093662,35.675276],[139.0936,35.675261],[139.093516,35.675234],[139.093412,35.675187],[139.093309,35.675125],[139.093227,35.675091],[139.093171,35.675085],[139.09309,35.675098],[139.093,35.675122],[139.092735,35.675198],[139.092599,35.675246],[139.092479,35.675306],[139.092372,35.6754],[139.09228,35.675512],[139.092226,35.67558],[139.092179,35.675611],[139.092119,35.675625],[139.092047,35.675632],[139.091986,35.675625],[139.091927,35.675595],[139.091892,35.675551],[139.09187,35.675505],[139.091828,35.675349],[139.091804,35.675268],[139.091777,35.6752],[139.091751,35.675158],[139.091703,35.675111],[139.09165,35.675076],[139.091536,35.675019],[139.091405,35.67497],[139.09125,35.674921],[139.091149,35.67489],[139.09105,35.674857],[139.090951,35.674813],[139.090858,35.674759],[139.090759,35.674687],[139.090596,35.674614],[139.090491,35.674582],[139.090363,35.674552],[139.090206,35.674527],[139.090094,35.674519],[139.089948,35.67452],[139.089798,35.674526],[139.089622,35.674565],[139.089514,35.674601],[139.089341,35.674667],[139.089106,35.674764],[139.089012,35.674812],[139.088931,35.674864],[139.088782,35.675012],[139.088657,35.675142],[139.088605,35.675175],[139.088534,35.675203],[139.088439,35.675218],[139.088303,35.675216],[139.087894,35.675217],[139.087771,35.67523],[139.087649,35.675263],[139.087563,35.67531],[139.087512,35.675357],[139.087461,35.675429],[139.087406,35.675529],[139.087373,35.675599],[139.087307,35.675732],[139.087215,35.675938],[139.08705,35.676268],[139.08702,35.676357],[139.086965,35.67643],[139.086906,35.6765],[139.086839,35.67657],[139.086788,35.676632],[139.086763,35.676669],[139.08676,35.676726],[139.086767,35.676778],[139.086788,35.676822],[139.086835,35.676862],[139.08689,35.676875],[139.086976,35.676868],[139.087046,35.676843],[139.087091,35.67681],[139.087121,35.676769],[139.087134,35.676717],[139.087131,35.676666],[139.087134,35.676622],[139.087158,35.676561],[139.087256,35.676431],[139.08732,35.676377],[139.087367,35.676355],[139.087436,35.676333],[139.087573,35.676295],[139.087684,35.676274],[139.087801,35.67627],[139.088106,35.676258],[139.088413,35.676258],[139.088561,35.676269],[139.088703,35.67629],[139.088845,35.676316],[139.08899,35.676347],[139.089393,35.676467],[139.089787,35.676591],[139.090415,35.676779],[139.091108,35.676988],[139.091318,35.677068],[139.091425,35.677112],[139.09154,35.677183],[139.091632,35.677263],[139.091709,35.677355],[139.09178,35.67744],[139.091843,35.677563],[139.091897,35.677748],[139.091909,35.677881],[139.091939,35.677964],[139.091993,35.678034],[139.092057,35.678097],[139.092127,35.678159],[139.092205,35.678202],[139.09232,35.678219],[139.092485,35.678213],[139.092668,35.678176],[139.09278,35.678135],[139.092836,35.678096],[139.092882,35.67804],[139.092916,35.677982],[139.092937,35.677913],[139.092932,35.677842],[139.092906,35.6777],[139.092901,35.677652],[139.09291,35.677599],[139.092945,35.677545],[139.093,35.677503],[139.093187,35.677439],[139.093881,35.677212],[139.094021,35.677182],[139.094184,35.677151],[139.094351,35.677135],[139.094483,35.677137],[139.094595,35.677157],[139.09471,35.677207],[139.094838,35.677303],[139.094994,35.67743],[139.09513,35.67756],[139.095276,35.677696],[139.095353,35.677818],[139.095382,35.677885],[139.095393,35.677989],[139.095415,35.678041],[139.095468,35.678077],[139.095544,35.6781],[139.095616,35.678109],[139.095704,35.678101],[139.095789,35.678073],[139.095895,35.678032],[139.095971,35.67801],[139.096048,35.678001],[139.096117,35.678016],[139.096199,35.67805],[139.096388,35.678158],[139.096531,35.678216],[139.096631,35.678242],[139.096754,35.678269],[139.096824,35.678305],[139.096892,35.678354],[139.096942,35.678408],[139.096977,35.678478],[139.097003,35.678562],[139.097014,35.678626],[139.097026,35.678708],[139.097015,35.678811],[139.096995,35.678902],[139.096962,35.678999],[139.096918,35.679114],[139.096888,35.679178],[139.096891,35.67922],[139.096905,35.67929],[139.096935,35.679341],[139.096997,35.679385],[139.097079,35.679427],[139.097159,35.679438],[139.097318,35.679423],[139.097436,35.679401],[139.097619,35.67937],[139.097695,35.679376],[139.097755,35.679394],[139.097823,35.679433],[139.097897,35.679502],[139.098447,35.680244],[139.098543,35.68039],[139.09857,35.680439],[139.098584,35.680485],[139.098595,35.680619],[139.098586,35.680726],[139.098565,35.680853],[139.098534,35.680928],[139.098486,35.68099],[139.098422,35.68105],[139.098333,35.681121],[139.098216,35.681208],[139.098038,35.68133],[139.097936,35.681403],[139.097911,35.681446],[139.097908,35.681485],[139.097926,35.681509],[139.097985,35.681538],[139.098056,35.68156],[139.098203,35.681582],[139.098313,35.681609],[139.098384,35.681649],[139.098412,35.681673],[139.098438,35.681703],[139.098451,35.681746],[139.098432,35.68181],[139.098426,35.681885],[139.09841,35.681959],[139.098401,35.68201],[139.098418,35.682076],[139.098437,35.682127],[139.098545,35.682298],[139.098588,35.682375],[139.098602,35.682425],[139.098605,35.682489],[139.098594,35.682544],[139.098534,35.682765],[139.098505,35.682882],[139.098483,35.682917],[139.098422,35.682969],[139.098337,35.683046],[139.098284,35.683107],[139.098232,35.683211],[139.098217,35.68334],[139.098207,35.683415],[139.098175,35.683491],[139.098077,35.683651],[139.098075,35.683709],[139.098098,35.683749],[139.098147,35.683767],[139.098247,35.683744],[139.098878,35.683519],[139.098998,35.683487],[139.099124,35.683458],[139.099207,35.683453],[139.099296,35.683463],[139.099377,35.683482],[139.099452,35.68354],[139.099506,35.683593],[139.099545,35.68365],[139.099584,35.683732],[139.099589,35.68381],[139.099574,35.68395],[139.099542,35.684224],[139.099519,35.684502],[139.099503,35.684704],[139.099516,35.684854],[139.099559,35.685116],[139.099645,35.685656],[139.09968,35.68579],[139.099737,35.685888],[139.099833,35.686009],[139.099923,35.686115],[139.099984,35.686189],[139.100046,35.686265],[139.100095,35.686364],[139.100115,35.686468],[139.100094,35.686615],[139.100042,35.686749],[139.100015,35.68683],[139.100002,35.686889],[139.100004,35.68695],[139.10001,35.686965],[139.100028,35.687034],[139.100092,35.687101],[139.100188,35.687162],[139.100311,35.687203],[139.100539,35.687275],[139.100724,35.687354],[139.10085,35.687385],[139.100942,35.687392],[139.101026,35.687379],[139.101105,35.687344],[139.101183,35.687284],[139.101238,35.687207],[139.101262,35.687099],[139.101249,35.686974],[139.101234,35.686871],[139.101253,35.686762],[139.101267,35.686678],[139.101287,35.686606],[139.101337,35.686497],[139.101408,35.686384],[139.101472,35.686295],[139.101527,35.686153],[139.101543,35.686016],[139.10153,35.685908],[139.101514,35.685766],[139.101486,35.685644],[139.101476,35.685465],[139.101501,35.685291],[139.101551,35.68514],[139.101597,35.685047],[139.10166,35.68498],[139.101736,35.684952],[139.101809,35.68494],[139.101954,35.68494],[139.10214,35.68497],[139.102302,35.685017],[139.102865,35.685166],[139.103129,35.685242],[139.103221,35.685286],[139.103285,35.685329],[139.103335,35.685371],[139.10338,35.685419],[139.103405,35.685466],[139.103447,35.685581],[139.103618,35.686004],[139.103773,35.686445],[139.103817,35.686573],[139.103851,35.686729],[139.103908,35.687368],[139.103912,35.687403]]}},{"type":"Feature","properties":{"id":186251727,"highway":"primary"},"geometry":{"type":"LineString","coordinates":[[139.102382,35.698213],[139.10236,35.698675],[139.102353,35.698983],[139.102339,35.699237],[139.102298,35.699346],[139.10223,35.699421],[139.102135,35.699468],[139.102027,35.699493],[139.1019,35.699499],[139.101816,35.699494],[139.101733,35.69947],[139.101659,35.699421],[139.101616,35.699371],[139.101577,35.699302],[139.10156,35.699238],[139.101563,35.699067],[139.101543,35.698995],[139.101515,35.698922],[139.101464,35.698851],[139.101404,35.698781],[139.101333,35.698727],[139.10117,35.698631],[139.101118,35.698589],[139.101071,35.698537],[139.101046,35.698487],[139.101032,35.69843],[139.101019,35.698245],[139.101002,35.698181],[139.100957,35.698122],[139.100916,35.69808],[139.100868,35.698047],[139.100804,35.698027],[139.100695,35.698006],[139.100579,35.697987],[139.100417,35.697955],[139.100341,35.697922],[139.100283,35.697877],[139.100253,35.697845],[139.100211,35.697778],[139.100159,35.697711],[139.100104,35.697657],[139.100036,35.697617],[139.099959,35.697587],[139.099873,35.697571],[139.099737,35.697554],[139.099661,35.697538],[139.099514,35.697492],[139.099196,35.697388],[139.099065,35.697347],[139.098997,35.697336],[139.098943,35.697343],[139.098891,35.697369],[139.098876,35.697414],[139.098885,35.697465],[139.098912,35.697498],[139.098954,35.697527],[139.099076,35.697557],[139.099312,35.697601],[139.099529,35.697659],[139.099631,35.697694],[139.099705,35.697725],[139.099775,35.69776],[139.09986,35.697823],[139.100048,35.697981],[139.100123,35.698041],[139.100192,35.698086],[139.100297,35.698142],[139.100389,35.698197],[139.10047,35.698247],[139.100534,35.698296],[139.100598,35.698362],[139.100647,35.698438],[139.100692,35.698531],[139.100781,35.698725],[139.10089,35.699038],[139.10093,35.699185],[139.100933,35.699269],[139.100916,35.699358],[139.100846,35.69953],[139.100818,35.699604],[139.100819,35.699681],[139.100833,35.699739],[139.100862,35.699785],[139.100957,35.699863],[139.101073,35.699932],[139.101298,35.700041],[139.101587,35.700192],[139.101875,35.700341],[139.101967,35.700383],[139.10208,35.700422],[139.102205,35.70043],[139.102299,35.700417],[139.102403,35.700389],[139.102506,35.700345],[139.102617,35.700283],[139.102922,35.700102],[139.103331,35.699881],[139.10342,35.699824],[139.103492,35.699772],[139.10352,35.699713],[139.103535,35.699645],[139.10353,35.699577],[139.103506,35.699503],[139.103414,35.699307],[139.103388,35.699194],[139.10338,35.699156],[139.10339,35.699104],[139.10342,35.699048],[139.103454,35.699012],[139.103539,35.698963],[139.103635,35.698933],[139.103747,35.698923],[139.103923,35.698949],[139.104105,35.699012],[139.104286,35.699087],[139.10447,35.699217],[139.104559,35.699273],[139.104643,35.69932],[139.104729,35.699346],[139.104832,35.699355],[139.104929,35.699332],[139.105018,35.699283],[139.105089,35.699215],[139.105136,35.699147],[139.105213,35.699015],[139.105262,35.698926],[139.105284,35.698857],[139.105289,35.698797],[139.105277,35.698731],[139.105252,35.698653],[139.105233,35.698601],[139.105232,35.698546],[139.105254,35.6985],[139.105288,35.698453],[139.105356,35.698416],[139.105424,35.698397],[139.10551,35.698396],[139.105593,35.698414],[139.10565,35.698417],[139.105715,35.698396],[139.105755,35.698368],[139.105821,35.698286],[139.105875,35.698219],[139.106014,35.69803],[139.106086,35.697955],[139.106187,35.697881],[139.1063,35.697824],[139.106414,35.697781],[139.106528,35.697752],[139.106626,35.697743],[139.106707,35.697755]]}}]}