{"type":"FeatureCollection","features":[{"type":"Feature","properties":{"id":180756606,"highway":"tertiary"},"geometry":{"type":"LineString","coordinates":[[139.053332,36.91071],[139.053286,36.910712],[139.053236,36.910702],[139.053189,36.91067],[139.053155,36.910622],[139.053122,36.910553],[139.053101,36.910483],[139.053085,36.910406],[139.053074,36.910322],[139.053073,36.910174],[139.053061,36.910141],[139.053038,36.910113],[139.053005,36.910089],[139.052962,36.910084],[139.05293,36.910091],[139.052898,36.910109],[139.052882,36.910134],[139.052867,36.910163],[139.052904,36.910288],[139.052922,36.910367],[139.052924,36.910432],[139.052908,36.910615]]}},{"type":"Feature","properties":{"id":180756613,"highway":"unclassified"},"geometry":{"type":"LineString","coordinates":[[139.056381,36.910344],[139.056436,36.910108],[139.056428,36.910054],[139.056431,36.909997],[139.056522,36.909756],[139.056554,36.909608],[139.056546,36.909306],[139.056519,36.909146],[139.056499,36.909092],[139.05646,36.909018],[139.056397,36.908935],[139.056281,36.908836],[139.056203,36.908787],[139.056114,36.908743],[139.056008,36.908718],[139.055904,36.908707],[139.055591,36.908646],[139.055416,36.908589],[139.05531,36.908547],[139.055205,36.908465],[139.05514,36.90838],[139.055095,36.908253],[139.055009,36.907973],[139.05498,36.907838],[139.054942,36.907765],[139.05491,36.907675],[139.054905,36.907609],[139.054908,36.907539],[139.054938,36.907259],[139.054935,36.907118]]}},{"type":"Feature","properties":{"id":180756614,"highway":"residential"},"geometry":{"type":"LineString","coordinates":[[139.056612,36.909609],[139.057115,36.909613]]}},{"type":"Feature","properties":{"id":180756615,"highway":"tertiary"},"geometry":{"type":"LineString","coordinates":[[139.052593,36.907761],[139.053317,36.907816]]}},{"type":"Feature","properties":{"id":180756616,"highway":"residential"},"geometry":{"type":"LineString","coordinates":[[139.056419,36.910354],[139.056381,36.910344]]}},{"type":"Feature","properties":{"id":180756618,"highway":"tertiary"},"geometry":{"type":"LineString","coordinates":[[139.054935,36.907118],[139.055017,36.906971]]}},{"type":"Feature","properties":{"id":180756619,"highway":"tertiary"},"geometry":{"type":"LineString","coordinates":[[139.053317,36.907816],[139.053523,36.907818]]}},{"type":"Feature","properties":{"id":180756620,"highway":"residential"},"geometry":{"type":"LineString","coordinates":[[139.056612,36.909609],[139.056554,36.909608]]}},{"type":"Feature","properties":{"id":180756621,"highway":"unclassified"},"geometry":{"type":"LineString","coordinates":[[139.055406,36.906116],[139.055468,36.905977],[139.055623,36.905725],[139.055814,36.905454],[139.055942,36.905317]]}},{"type":"Feature","properties":{"id":180756622,"highway":"service"},"geometry":{"type":"LineString","coordinates":[[139.058138,36.911328],[139.057826,36.911518],[139.057688,36.911581],[139.057582,36.911613],[139.057465,36.911647],[139.057243,36.911702],[139.057117,36.911721],[139.056981,36.911735],[139.056857,36.911741],[139.056706,36.911741],[139.056557,36.911737],[139.056418,36.911714],[139.056273,36.911687],[139.056154,36.911657],[139.055924,36.911582],[139.055709,36.911498],[139.055522,36.911393],[139.05534,36.911265],[139.055181,36.91112],[139.055099,36.911064],[139.055018,36.911046],[139.054928,36.911051],[139.054718,36.911114],[139.054399,36.911249],[139.054276,36.91127],[139.054196,36.911262]]}},{"type":"Feature","properties":{"id":180756623,"highway":"residential"},"geometry":{"type":"LineString","coordinates":[[139.056419,36.910354],[139.057007,36.910483]]}},{"type":"Feature","properties":{"id":180756624,"highway":"unclassified"},"geometry":{"type":"LineString","coordinates":[[139.056223,36.910693],[139.056278,36.91061],[139.056381,36.910344]]}},{"type":"Feature","properties":{"id":180756625,"highway":"tertiary"},"geometry":{"type":"LineString","coordinates":[[139.052389,36.907719],[139.052593,36.907761]]}},{"type":"Feature","properties":{"id":180756633,"highway":"unclassified"},"geometry":{"type":"LineString","coordinates":[[139.055406,36.906116],[139.055017,36.906971]]}},{"type":"Feature","properties":{"id":180756638,"highway":"tertiary"},"geometry":{"type":"LineString","coordinates":[[139.053332,36.91071],[139.053361,36.91069],[139.053373,36.910667],[139.05338,36.910629],[139.053374,36.910589],[139.053319,36.910456],[139.053262,36.910309],[139.053256,36.910109],[139.053249,36.910029],[139.053229,36.909939],[139.05313,36.909707],[139.053032,36.9095],[139.052993,36.909451],[139.052945,36.90942],[139.052892,36.90941],[139.052847,36.909421],[139.052767,36.909452],[139.052465,36.909639],[139.052344,36.909711],[139.052268,36.909736],[139.052203,36.90973],[139.052155,36.909698],[139.052138,36.909656],[139.052136,36.909606],[139.052295,36.909425],[139.052455,36.909285],[139.052508,36.909216],[139.052534,36.909157],[139.052543,36.909098],[139.052529,36.909044],[139.052435,36.908878],[139.052385,36.908819],[139.052324,36.908786],[139.052241,36.908762],[139.052103,36.908735],[139.051968,36.908713],[139.051899,36.908682],[139.051852,36.908633],[139.051833,36.908584],[139.051827,36.908526],[139.051835,36.908472],[139.051896,36.908384],[139.051963,36.90829],[139.051978,36.908246],[139.051978,36.908195],[139.051954,36.908142],[139.0519,36.908084],[139.051733,36.907971],[139.051597,36.907888],[139.05153,36.907863],[139.051475,36.90786],[139.05141,36.907877],[139.05132,36.907913],[139.051255,36.907924],[139.051155,36.907917],[139.050868,36.907868],[139.050635,36.907834],[139.050498,36.907798],[139.050366,36.907748],[139.050183,36.907672],[139.050062,36.90764],[139.04991,36.90761],[139.049788,36.907594],[139.049606,36.907576],[139.049513,36.907547],[139.049474,36.907505],[139.049465,36.90746],[139.049488,36.90742],[139.049542,36.907395],[139.049617,36.907393],[139.049705,36.907404],[139.049913,36.907464],[139.050008,36.907476],[139.05016,36.907471],[139.05026,36.907462]]}},{"type":"Feature","properties":{"id":180756639,"highway":"unclassified"},"geometry":{"type":"LineString","coordinates":[[139.052975,36.892695],[139.05347,36.893134],[139.053618,36.893242],[139.053942,36.893467],[139.054054,36.893562],[139.054146,36.893668],[139.054217,36.893715],[139.054276,36.893717],[139.054337,36.893708],[139.054443,36.893669],[139.054564,36.893633],[139.054913,36.893584],[139.0551,36.89357],[139.055221,36.893574],[139.055316,36.893594],[139.05541,36.893627],[139.055513,36.893686],[139.055594,36.893753],[139.055648,36.893833],[139.055724,36.893953],[139.055751,36.894034],[139.05577,36.89414],[139.055775,36.894247],[139.055755,36.894376],[139.055712,36.894476],[139.055389,36.895059],[139.055283,36.895254],[139.055092,36.895657],[139.055032,36.895822],[139.055008,36.895942],[139.054997,36.896046],[139.054981,36.896656],[139.054949,36.896887],[139.054875,36.897171],[139.054831,36.897276],[139.054797,36.897329],[139.054733,36.897385],[139.054646,36.897456],[139.054546,36.897507],[139.054359,36.897641],[139.054217,36.897785],[139.05416,36.897846],[139.054108,36.897913],[139.054054,36.89803],[139.053849,36.898503],[139.053808,36.898626],[139.053783,36.898775],[139.053778,36.898986],[139.053779,36.899273],[139.053783,36.899569],[139.053778,36.899653],[139.053803,36.899719],[139.053934,36.9],[139.054034,36.900295],[139.054167,36.900566],[139.054251,36.900712],[139.054462,36.901191],[139.054476,36.901202],[139.054773,36.901913],[139.054833,36.902031],[139.054966,36.902334],[139.055064,36.902447],[139.05526,36.902644],[139.055533,36.902943],[139.055772,36.903213],[139.055849,36.903331],[139.055919,36.903579],[139.055961,36.903652],[139.056149,36.903832],[139.056214,36.903926],[139.056294,36.904075],[139.056346,36.904218],[139.056427,36.904688],[139.056409,36.904781],[139.056364,36.904867],[139.056255,36.904988],[139.055942,36.905317]]}},{"type":"Feature","properties":{"id":180756680,"highway":"tertiary"},"geometry":{"type":"LineString","coordinates":[[139.05026,36.907462],[139.050456,36.907452],[139.050967,36.907433],[139.051104,36.907435],[139.051212,36.907449],[139.051544,36.907538],[139.05178,36.907602],[139.052095,36.907661],[139.052389,36.907719]]}},{"type":"Feature","properties":{"id":180756695,"highway":"tertiary"},"geometry":{"type":"LineString","coordinates":[[139.053523,36.907818],[139.053575,36.907797],[139.053727,36.907646],[139.053962,36.907428],[139.054044,36.907362],[139.054143,36.907312],[139.054226,36.907277],[139.054733,36.907155],[139.05482,36.907139],[139.054935,36.907118]]}},{"type":"Feature","properties":{"id":509441355,"highway":"service"},"geometry":{"type":"LineString","coordinates":[[139.054057,36.911407],[139.05397,36.911341],[139.053908,36.911313],[139.053646,36.911215],[139.053313,36.911108],[139.053187,36.911062],[139.053034,36.91098],[139.052988,36.910944],[139.052851,36.910847],[139.052908,36.910615]]}},{"type":"Feature","properties":{"id":1385372235,"highway":"service"},"geometry":{"type":"LineString","coordinates":[[139.05196,36.912238],[139.051955,36.912179],[139.051942,36.912139],[139.051909,36.912077],[139.051824,36.911966],[139.051777,36.911872],[139.051773,36.911821],[139.051774,36.911775],[139.051789,36.911723],[139.051813,36.9117],[139.051891,36.911671],[139.051969,36.911629],[139.052002,36.911594],[139.052037,36.911546],[139.052161,36.911387],[139.052238,36.911302],[139.052371,36.911196],[139.052563,36.91108],[139.052733,36.910932],[139.052851,36.910847]]}},{"type":"Feature","properties":{"id":1385372236,"highway":"service"},"geometry":{"type":"LineString","coordinates":[[139.054196,36.911262],[139.053858,36.911131],[139.053653,36.911025],[139.053537,36.910945],[139.053423,36.910835],[139.053332,36.91071]]}},{"type":"Feature","properties":{"id":1385374842,"highway":"unclassified"},"geometry":{"type":"LineString","coordinates":[[139.056564,36.909139],[139.056519,36.909146]]}},{"type":"Feature","properties":{"id":1385374843,"highway":"unclassified"},"geometry":{"type":"LineString","coordinates":[[139.057159,36.909101],[139.056564,36.909139]]}}]}