{"type":"FeatureCollection","features":[{"type":"Feature","properties":{"id":150600272,"highway":"unclassified"},"geometry":{"type":"LineString","coordinates":[[139.13389,34.206685],[139.133949,34.206562],[139.134151,34.206389],[139.134188,34.206344],[139.134251,34.206266],[139.134275,34.206204],[139.134191,34.206083],[139.134125,34.205998],[139.134115,34.205948],[139.134115,34.205886],[139.134141,34.205796],[139.134178,34.205748],[139.134318,34.205684],[139.134411,34.205678],[139.134726,34.205577]]}},{"type":"Feature","properties":{"id":150600374,"highway":"unclassified"},"geometry":{"type":"LineString","coordinates":[[139.137422,34.208274],[139.137315,34.208368]]}},{"type":"Feature","properties":{"id":150600376,"highway":"unclassified"},"geometry":{"type":"LineString","coordinates":[[139.133865,34.206719],[139.133799,34.206869]]}},{"type":"Feature","properties":{"id":150600393,"highway":"unclassified"},"geometry":{"type":"LineString","coordinates":[[139.139982,34.209801],[139.140092,34.209761]]}},{"type":"Feature","properties":{"id":150600409,"highway":"unclassified"},"geometry":{"type":"LineString","coordinates":[[139.13389,34.206685],[139.133878,34.206701],[139.133865,34.206719]]}},{"type":"Feature","properties":{"id":150600421,"highway":"unclassified"},"geometry":{"type":"LineString","coordinates":[[139.140556,34.211689],[139.140752,34.211517]]}},{"type":"Feature","properties":{"id":150600423,"highway":"unclassified"},"geometry":{"type":"LineString","coordinates":[[139.140251,34.209744],[139.140092,34.209761]]}},{"type":"Feature","properties":{"id":150600432,"highway":"unclassified"},"geometry":{"type":"LineString","coordinates":[[139.136331,34.207403],[139.13632,34.207422]]}},{"type":"Feature","properties":{"id":150600438,"highway":"unclassified"},"geometry":{"type":"LineString","coordinates":[[139.133799,34.206869],[139.133784,34.206903]]}},{"type":"Feature","properties":{"id":150600440,"highway":"unclassified"},"geometry":{"type":"LineString","coordinates":[[139.137267,34.208391],[139.137315,34.208368]]}},{"type":"Feature","properties":{"id":150600449,"highway":"unclassified"},"geometry":{"type":"LineString","coordinates":[[139.136229,34.207575],[139.136222,34.207617]]}},{"type":"Feature","properties":{"id":150600580,"highway":"secondary"},"geometry":{"type":"LineString","coordinates":[[139.137664,34.240154],[139.138453,34.241484]]}},{"type":"Feature","properties":{"id":150600620,"highway":"tertiary"},"geometry":{"type":"LineString","coordinates":[[139.131731,34.219567],[139.133068,34.219277]]}},{"type":"Feature","properties":{"id":150600811,"highway":"tertiary"},"geometry":{"type":"LineString","coordinates":[[139.141037,34.243062],[139.141689,34.242862],[139.14202,34.242758],[139.142331,34.242673],[139.142738,34.242606],[139.143135,34.242569],[139.143608,34.242521],[139.143996,34.242484],[139.14414,34.242479]]}},{"type":"Feature","properties":{"id":150600837,"highway":"secondary"},"geometry":{"type":"LineString","coordinates":[[139.143925,34.201889],[139.14381,34.202016],[139.143394,34.202256],[139.14232,34.202753],[139.141708,34.202981],[139.141546,34.203104],[139.141475,34.203269],[139.141429,34.203429],[139.141346,34.203518],[139.140603,34.203923],[139.140481,34.204025],[139.140395,34.204046],[139.140316,34.204006],[139.140319,34.203933],[139.140404,34.203846],[139.141036,34.203445],[139.141102,34.203368],[139.141116,34.203282],[139.141092,34.203229],[139.141046,34.203183],[139.140791,34.203067],[139.140899,34.202737],[139.140868,34.202598],[139.140763,34.202539],[139.140287,34.202622],[139.140139,34.20265],[139.140054,34.202617],[139.140005,34.202487],[139.140059,34.202384],[139.140686,34.202122],[139.140805,34.202052],[139.141079,34.201764],[139.141173,34.201651],[139.141139,34.201512],[139.141039,34.201423],[139.14086,34.201383],[139.14058,34.201479],[139.140384,34.201524],[139.139678,34.201597],[139.139441,34.201628],[139.139043,34.201793],[139.138798,34.201965],[139.138718,34.202108],[139.138664,34.202339],[139.138613,34.202532],[139.138456,34.202607],[139.138288,34.202626],[139.138222,34.202608],[139.138018,34.202551],[139.137746,34.202665],[139.137704,34.202683],[139.137511,34.202711],[139.13726,34.202641],[139.13656,34.2019]]}},{"type":"Feature","properties":{"id":150600880,"highway":"secondary"},"geometry":{"type":"LineString","coordinates":[[139.133632,34.206848],[139.133721,34.206682]]}},{"type":"Feature","properties":{"id":150600891,"highway":"secondary"},"geometry":{"type":"LineString","coordinates":[[139.133589,34.206906],[139.133632,34.206848]]}},{"type":"Feature","properties":{"id":150600898,"highway":"secondary"},"geometry":{"type":"LineString","coordinates":[[139.132968,34.208278],[139.132965,34.208192],[139.133021,34.208056],[139.133071,34.207975],[139.133176,34.207759],[139.133394,34.207308]]}},{"type":"Feature","properties":{"id":150600968,"highway":"secondary"},"geometry":{"type":"LineString","coordinates":[[139.133784,34.206903],[139.133589,34.206906]]}},{"type":"Feature","properties":{"id":150600971,"highway":"secondary"},"geometry":{"type":"LineString","coordinates":[[139.140503,34.213124],[139.140179,34.212745],[139.140058,34.212643],[139.139841,34.212616],[139.139717,34.212534],[139.139723,34.21237],[139.139964,34.212164],[139.139959,34.212035],[139.139688,34.211782],[139.139691,34.211636],[139.13976,34.211563],[139.140044,34.211385],[139.140101,34.21135],[139.140146,34.211281],[139.140139,34.211064],[139.14002,34.210334],[139.140012,34.209846],[139.139982,34.209801],[139.139953,34.209759],[139.139452,34.209471],[139.139328,34.209269],[139.139081,34.20919],[139.138742,34.209044],[139.138438,34.209051],[139.13836,34.209034],[139.138278,34.209016],[139.137538,34.208621],[139.137367,34.208505],[139.13735,34.208486],[139.137267,34.208391]]}},{"type":"Feature","properties":{"id":181622619,"highway":"service"},"geometry":{"type":"LineString","coordinates":[[139.133963,34.206924],[139.133922,34.207059],[139.133951,34.207604],[139.133983,34.207841]]}},{"type":"Feature","properties":{"id":424080469,"highway":"service"},"geometry":{"type":"LineString","coordinates":[[139.132968,34.208278],[139.132098,34.20825],[139.131675,34.208246],[139.131597,34.208286],[139.131543,34.208468],[139.13147,34.208557],[139.131337,34.20872],[139.131341,34.208946],[139.131333,34.208982],[139.131213,34.209091],[139.130987,34.209176],[139.130869,34.209675],[139.130693,34.20965],[139.130212,34.209575],[139.128056,34.209236]]}},{"type":"Feature","properties":{"id":428015795,"highway":"residential"},"geometry":{"type":"LineString","coordinates":[[139.134799,34.204901],[139.135113,34.204796],[139.135727,34.20481],[139.136023,34.204716],[139.136257,34.204758],[139.136428,34.204719],[139.136698,34.204657],[139.137134,34.204487]]}},{"type":"Feature","properties":{"id":428015797,"highway":"residential"},"geometry":{"type":"LineString","coordinates":[[139.134265,34.202998],[139.134527,34.202937],[139.134765,34.20291],[139.135094,34.20288],[139.135122,34.202887],[139.135174,34.202901],[139.135263,34.202887],[139.135489,34.202811],[139.13573,34.202791],[139.135767,34.202804],[139.135841,34.20283],[139.136114,34.202841],[139.136303,34.202848],[139.136638,34.20285]]}},{"type":"Feature","properties":{"id":428015800,"highway":"residential"},"geometry":{"type":"LineString","coordinates":[[139.136021,34.204507],[139.135834,34.204435],[139.135718,34.204432],[139.135112,34.204416],[139.135018,34.204409],[139.13499,34.204399],[139.134968,34.20434],[139.134833,34.203928],[139.134766,34.203764],[139.134636,34.203449],[139.134326,34.203147],[139.134265,34.202998],[139.134169,34.202966],[139.133734,34.202966],[139.133615,34.202925],[139.133538,34.202801],[139.133306,34.202142],[139.133261,34.202046]]}},{"type":"Feature","properties":{"id":428015802,"highway":"residential"},"geometry":{"type":"LineString","coordinates":[[139.134799,34.204901],[139.134698,34.204829],[139.134637,34.204804],[139.134447,34.204818],[139.134342,34.204765],[139.134278,34.204678],[139.134186,34.204621],[139.133979,34.204509],[139.133926,34.204444],[139.133871,34.204378],[139.133772,34.204086],[139.133758,34.203985],[139.133777,34.203862],[139.133763,34.203759],[139.13368,34.203642],[139.133625,34.203402],[139.133597,34.203109],[139.133615,34.202925]]}},{"type":"Feature","properties":{"id":428015804,"highway":"residential"},"geometry":{"type":"LineString","coordinates":[[139.134034,34.200183],[139.134117,34.200169],[139.134668,34.199971],[139.13477,34.199978],[139.135058,34.200127],[139.135066,34.200136],[139.13516,34.200243],[139.135274,34.200399],[139.135439,34.200538],[139.135614,34.200684],[139.135683,34.200742],[139.135719,34.200783],[139.135986,34.201082],[139.136001,34.201099],[139.136165,34.201295],[139.136305,34.201498],[139.136337,34.201547],[139.136396,34.201654],[139.136406,34.201732]]}},{"type":"Feature","properties":{"id":428015806,"highway":"residential"},"geometry":{"type":"LineString","coordinates":[[139.136023,34.204716],[139.136021,34.204507],[139.135969,34.204336],[139.135901,34.204139],[139.135881,34.204082],[139.135816,34.203855],[139.135791,34.203768],[139.13577,34.203698]]}},{"type":"Feature","properties":{"id":428015808,"highway":"residential"},"geometry":{"type":"LineString","coordinates":[[139.134726,34.205577],[139.134654,34.20541],[139.13463,34.205352],[139.134582,34.205251],[139.134584,34.205188],[139.134737,34.205037],[139.134815,34.204969],[139.134799,34.204901]]}},{"type":"Feature","properties":{"id":428180033,"highway":"residential"},"geometry":{"type":"LineString","coordinates":[[139.13735,34.208486],[139.137257,34.208574],[139.137179,34.208721],[139.137174,34.208742],[139.13715,34.208841],[139.137059,34.208935],[139.137031,34.209046],[139.137148,34.209105],[139.137269,34.209187],[139.137358,34.209246],[139.137495,34.209246],[139.137572,34.209226],[139.137652,34.209204],[139.137706,34.209091],[139.137709,34.209023],[139.137825,34.208976],[139.137982,34.209008],[139.138104,34.209001],[139.138224,34.209053],[139.138278,34.209016]]}},{"type":"Feature","properties":{"id":428180034,"highway":"residential"},"geometry":{"type":"LineString","coordinates":[[139.132968,34.208278],[139.133201,34.207956],[139.133281,34.207933],[139.133312,34.207966],[139.133631,34.207912],[139.133983,34.207841],[139.134523,34.207798],[139.134756,34.20778],[139.135049,34.207817],[139.135425,34.207825],[139.135895,34.207942]]}},{"type":"Feature","properties":{"id":428180036,"highway":"service"},"geometry":{"type":"LineString","coordinates":[[139.134935,34.207362],[139.135083,34.207391],[139.135151,34.207253]]}},{"type":"Feature","properties":{"id":428180039,"highway":"service"},"geometry":{"type":"LineString","coordinates":[[139.1372,34.209434],[139.137106,34.209379],[139.137124,34.209346],[139.137269,34.209187]]}},{"type":"Feature","properties":{"id":428180040,"highway":"service"},"geometry":{"type":"LineString","coordinates":[[139.136451,34.208175],[139.136477,34.20809],[139.136533,34.207929],[139.136612,34.207775]]}},{"type":"Feature","properties":{"id":428180041,"highway":"service"},"geometry":{"type":"LineString","coordinates":[[139.138875,34.209656],[139.138772,34.209388],[139.138522,34.209199],[139.138414,34.209138],[139.13836,34.209034]]}},{"type":"Feature","properties":{"id":428180042,"highway":"residential"},"geometry":{"type":"LineString","coordinates":[[139.135895,34.207942],[139.135952,34.207803],[139.136074,34.207772],[139.136154,34.207685],[139.136222,34.207617]]}},{"type":"Feature","properties":{"id":428180043,"highway":"service"},"geometry":{"type":"LineString","coordinates":[[139.134436,34.208172],[139.134448,34.208091],[139.134647,34.207916],[139.134873,34.207904],[139.134995,34.207859],[139.135049,34.207817]]}},{"type":"Feature","properties":{"id":428180044,"highway":"service"},"geometry":{"type":"LineString","coordinates":[[139.134523,34.207798],[139.134502,34.207676],[139.134519,34.207537],[139.134519,34.20745],[139.134479,34.207344],[139.134477,34.20727],[139.134538,34.207079]]}},{"type":"Feature","properties":{"id":428182444,"highway":"residential"},"geometry":{"type":"LineString","coordinates":[[139.138082,34.205705],[139.138133,34.205608],[139.138355,34.205522],[139.138381,34.205512],[139.138967,34.205474],[139.139507,34.205468],[139.139995,34.205462],[139.140457,34.205724],[139.140485,34.205771],[139.140747,34.206226]]}},{"type":"Feature","properties":{"id":428182445,"highway":"residential"},"geometry":{"type":"LineString","coordinates":[[139.13715,34.206581],[139.136886,34.206548],[139.136553,34.20639],[139.136268,34.206242],[139.136173,34.206084],[139.136159,34.206035],[139.136156,34.206015],[139.136148,34.205953],[139.136154,34.20571],[139.136173,34.205659],[139.136242,34.205474]]}},{"type":"Feature","properties":{"id":428182448,"highway":"residential"},"geometry":{"type":"LineString","coordinates":[[139.134188,34.206344],[139.134465,34.20656],[139.134596,34.206628],[139.134733,34.206612],[139.134859,34.206591],[139.135023,34.206565],[139.13524,34.20651],[139.135587,34.20639],[139.135735,34.206308],[139.135786,34.206289],[139.135878,34.206254],[139.13605,34.206249],[139.136268,34.206242]]}},{"type":"Feature","properties":{"id":428182449,"highway":"residential"},"geometry":{"type":"LineString","coordinates":[[139.136242,34.205474],[139.136046,34.205411],[139.136026,34.205354],[139.135898,34.205243],[139.135858,34.205128],[139.135881,34.205099],[139.135909,34.205064],[139.136014,34.204984],[139.136022,34.204932],[139.136026,34.204902],[139.136023,34.204716]]}},{"type":"Feature","properties":{"id":428182450,"highway":"service"},"geometry":{"type":"LineString","coordinates":[[139.138136,34.203388],[139.138075,34.203461],[139.138001,34.203604],[139.137778,34.203958],[139.137653,34.204287],[139.1376,34.204426],[139.137576,34.204572],[139.137528,34.204659],[139.137496,34.204869],[139.137437,34.205024],[139.137343,34.205286],[139.137283,34.20534]]}},{"type":"Feature","properties":{"id":428182451,"highway":"service"},"geometry":{"type":"LineString","coordinates":[[139.138234,34.207216],[139.138055,34.207185],[139.137833,34.207414],[139.137807,34.207536],[139.13773,34.207628],[139.137636,34.20768],[139.137611,34.207751],[139.137596,34.207845],[139.137685,34.208049],[139.137758,34.208071],[139.137881,34.208092],[139.13789,34.20813]]}},{"type":"Feature","properties":{"id":428182452,"highway":"service"},"geometry":{"type":"LineString","coordinates":[[139.134833,34.203928],[139.135149,34.203845],[139.13528,34.203774],[139.135269,34.20373],[139.135231,34.203578],[139.135191,34.203357],[139.135271,34.203336],[139.13526,34.203265],[139.135434,34.203253],[139.135533,34.203315],[139.135567,34.203449],[139.135647,34.20371],[139.13577,34.203698]]}},{"type":"Feature","properties":{"id":428182453,"highway":"residential"},"geometry":{"type":"LineString","coordinates":[[139.135881,34.205099],[139.135764,34.205017],[139.135724,34.205024],[139.135553,34.205095],[139.135358,34.205135],[139.135314,34.205145],[139.1352,34.205147],[139.135146,34.205194],[139.135137,34.205211],[139.135098,34.205285],[139.135066,34.205345],[139.135064,34.205445],[139.135063,34.205507],[139.134749,34.205628]]}},{"type":"Feature","properties":{"id":428182454,"highway":"residential"},"geometry":{"type":"LineString","coordinates":[[139.137344,34.207902],[139.137495,34.208086],[139.137563,34.208121],[139.13789,34.20813],[139.138029,34.208178],[139.138289,34.208335],[139.138412,34.208402],[139.138557,34.208406],[139.138643,34.208439],[139.138732,34.208524],[139.13912,34.208721],[139.139212,34.208699],[139.13952,34.208772],[139.139807,34.208823],[139.140188,34.209098],[139.140322,34.209283],[139.140362,34.209338],[139.140539,34.209529],[139.140703,34.209553],[139.140891,34.209544],[139.141022,34.209589],[139.141237,34.209635],[139.141492,34.209644],[139.142095,34.209753]]}},{"type":"Feature","properties":{"id":428182455,"highway":"residential"},"geometry":{"type":"LineString","coordinates":[[139.137353,34.205637],[139.137552,34.205641],[139.137653,34.205668],[139.13772,34.205686],[139.137811,34.20571],[139.138082,34.205705],[139.138187,34.205703],[139.138227,34.205783],[139.13821,34.205969],[139.138253,34.206086],[139.138264,34.2062],[139.138251,34.20624],[139.138236,34.206289],[139.138144,34.206395],[139.138156,34.20651],[139.138204,34.206558],[139.138196,34.206652],[139.138261,34.206736]]}},{"type":"Feature","properties":{"id":428182456,"highway":"residential"},"geometry":{"type":"LineString","coordinates":[[139.133878,34.206701],[139.134471,34.206852],[139.134568,34.206835],[139.13485,34.206722],[139.135032,34.20668],[139.135206,34.206671],[139.135303,34.206694],[139.135405,34.206718],[139.135556,34.206798],[139.135667,34.206861],[139.135752,34.206868],[139.136043,34.206845],[139.136151,34.206809],[139.136265,34.20678],[139.136396,34.206746],[139.136507,34.206654],[139.136612,34.206621],[139.136886,34.206548]]}},{"type":"Feature","properties":{"id":428182458,"highway":"residential"},"geometry":{"type":"LineString","coordinates":[[139.133751,34.206625],[139.13389,34.206685]]}},{"type":"Feature","properties":{"id":428182459,"highway":"service"},"geometry":{"type":"LineString","coordinates":[[139.136221,34.203781],[139.135816,34.203855]]}},{"type":"Feature","properties":{"id":428182460,"highway":"service"},"geometry":{"type":"LineString","coordinates":[[139.135742,34.202986],[139.13573,34.202791]]}},{"type":"Feature","properties":{"id":428182461,"highway":"service"},"geometry":{"type":"LineString","coordinates":[[139.134032,34.203497],[139.134636,34.203449]]}},{"type":"Feature","properties":{"id":428182463,"highway":"service"},"geometry":{"type":"LineString","coordinates":[[139.135718,34.204432],[139.135596,34.203967]]}},{"type":"Feature","properties":{"id":428182464,"highway":"service"},"geometry":{"type":"LineString","coordinates":[[139.136693,34.203036],[139.136964,34.202983]]}},{"type":"Feature","properties":{"id":428182466,"highway":"service"},"geometry":{"type":"LineString","coordinates":[[139.136739,34.202683],[139.1366,34.202699]]}},{"type":"Feature","properties":{"id":428182467,"highway":"service"},"geometry":{"type":"LineString","coordinates":[[139.134047,34.203182],[139.134326,34.203147]]}},{"type":"Feature","properties":{"id":428182468,"highway":"residential"},"geometry":{"type":"LineString","coordinates":[[139.138222,34.202608],[139.138224,34.202976],[139.138336,34.203097]]}},{"type":"Feature","properties":{"id":428182470,"highway":"service"},"geometry":{"type":"LineString","coordinates":[[139.137919,34.206266],[139.137791,34.205948],[139.13772,34.205686]]}},{"type":"Feature","properties":{"id":428182476,"highway":"service"},"geometry":{"type":"LineString","coordinates":[[139.136428,34.204719],[139.136407,34.204615],[139.136441,34.204422]]}},{"type":"Feature","properties":{"id":428182477,"highway":"residential"},"geometry":{"type":"LineString","coordinates":[[139.137134,34.204487],[139.137156,34.204732],[139.137166,34.204996],[139.137168,34.205055],[139.13721,34.205246],[139.137283,34.20534],[139.137316,34.205382],[139.137353,34.205637],[139.137337,34.205663],[139.137207,34.205882],[139.137193,34.205948],[139.137153,34.206122],[139.137122,34.206393],[139.13715,34.206581],[139.137225,34.206711],[139.137179,34.206819],[139.137158,34.206865],[139.137094,34.207005],[139.136982,34.207186],[139.136883,34.207377],[139.136533,34.207434],[139.136331,34.207403]]}},{"type":"Feature","properties":{"id":428182478,"highway":"residential"},"geometry":{"type":"LineString","coordinates":[[139.137653,34.205668],[139.137734,34.205427],[139.137803,34.205135],[139.137774,34.204911],[139.137763,34.204707],[139.137795,34.204609],[139.137837,34.20448],[139.137863,34.204453],[139.138022,34.20429],[139.138053,34.204144],[139.138127,34.203618],[139.138136,34.203388],[139.138287,34.20315],[139.138336,34.203097],[139.138515,34.202907],[139.138688,34.202764],[139.138848,34.202787],[139.13887,34.203268],[139.138907,34.203315],[139.13897,34.203293],[139.139033,34.203211],[139.139189,34.202914],[139.139238,34.202891],[139.139411,34.202971],[139.139585,34.203235],[139.139708,34.20343],[139.139782,34.203461],[139.139836,34.203435],[139.139847,34.203352],[139.139796,34.203041],[139.139876,34.202959],[139.140012,34.202954],[139.140106,34.203004],[139.14028,34.203112],[139.14036,34.203103],[139.1404,34.203053],[139.140405,34.202775],[139.140451,34.202655],[139.140656,34.202606],[139.140764,34.202646],[139.140807,34.20274],[139.140784,34.202851],[139.140741,34.202999],[139.140791,34.203067]]}},{"type":"Feature","properties":{"id":428182481,"highway":"service"},"geometry":{"type":"LineString","coordinates":[[139.13646,34.20363],[139.136516,34.20381],[139.136716,34.20376],[139.137006,34.203594]]}},{"type":"Feature","properties":{"id":428182482,"highway":"service"},"geometry":{"type":"LineString","coordinates":[[139.135269,34.20373],[139.135402,34.203691],[139.135442,34.203769],[139.135647,34.20371]]}},{"type":"Feature","properties":{"id":428182484,"highway":"service"},"geometry":{"type":"LineString","coordinates":[[139.136156,34.206015],[139.136316,34.20603],[139.136288,34.206117],[139.136268,34.206242]]}},{"type":"Feature","properties":{"id":428182487,"highway":"residential"},"geometry":{"type":"LineString","coordinates":[[139.137344,34.207902],[139.137296,34.207926],[139.137441,34.208218],[139.137422,34.208274]]}},{"type":"Feature","properties":{"id":428182489,"highway":"service"},"geometry":{"type":"LineString","coordinates":[[139.136128,34.203106],[139.136137,34.203043],[139.13613,34.202957],[139.136114,34.202841]]}},{"type":"Feature","properties":{"id":428182490,"highway":"service"},"geometry":{"type":"LineString","coordinates":[[139.135122,34.202887],[139.135113,34.202794],[139.1351,34.202672],[139.134962,34.202108]]}},{"type":"Feature","properties":{"id":428182491,"highway":"service"},"geometry":{"type":"LineString","coordinates":[[139.135869,34.206678],[139.135821,34.206492],[139.135811,34.206435],[139.135786,34.206289]]}},{"type":"Feature","properties":{"id":428182494,"highway":"service"},"geometry":{"type":"LineString","coordinates":[[139.135811,34.206435],[139.135678,34.206433],[139.135522,34.206496],[139.135354,34.206626],[139.135303,34.206694]]}},{"type":"Feature","properties":{"id":428182495,"highway":"service"},"geometry":{"type":"LineString","coordinates":[[139.136173,34.205659],[139.136444,34.205707],[139.136575,34.205705],[139.136695,34.205703],[139.137337,34.205663]]}},{"type":"Feature","properties":{"id":428182499,"highway":"service"},"geometry":{"type":"LineString","coordinates":[[139.13721,34.205246],[139.137005,34.205328],[139.136806,34.205352],[139.136806,34.20542],[139.136439,34.205432],[139.136333,34.205408],[139.136266,34.205426],[139.136242,34.205474]]}},{"type":"Feature","properties":{"id":428182500,"highway":"service"},"geometry":{"type":"LineString","coordinates":[[139.137166,34.204996],[139.13688,34.20494],[139.136772,34.204916],[139.136618,34.204933],[139.136191,34.204991],[139.136022,34.204932]]}},{"type":"Feature","properties":{"id":428182501,"highway":"service"},"geometry":{"type":"LineString","coordinates":[[139.137097,34.203698],[139.137283,34.203607],[139.13767,34.203501],[139.137727,34.20351],[139.13779,34.203633],[139.138001,34.203604]]}},{"type":"Feature","properties":{"id":428182502,"highway":"residential"},"geometry":{"type":"LineString","coordinates":[[139.137441,34.208218],[139.13721,34.208069],[139.137011,34.207829],[139.136889,34.207671],[139.136749,34.207561],[139.136578,34.207502],[139.136533,34.207434]]}},{"type":"Feature","properties":{"id":428182504,"highway":"service"},"geometry":{"type":"LineString","coordinates":[[139.136265,34.20678],[139.136296,34.206873],[139.136268,34.207007],[139.136291,34.207071],[139.136319,34.207125],[139.136379,34.207165],[139.136561,34.207191]]}},{"type":"Feature","properties":{"id":428182505,"highway":"unclassified"},"geometry":{"type":"LineString","coordinates":[[139.139349,34.205171],[139.139278,34.205209],[139.139181,34.205273],[139.138337,34.205344],[139.138252,34.205351],[139.138207,34.205355],[139.138102,34.205334],[139.138019,34.20524],[139.137795,34.204609]]}},{"type":"Feature","properties":{"id":428182506,"highway":"service"},"geometry":{"type":"LineString","coordinates":[[139.140014,34.206339],[139.139854,34.206294],[139.139851,34.206228],[139.139894,34.205884],[139.139857,34.205787],[139.139786,34.205705],[139.139572,34.2057],[139.1395,34.205661],[139.139507,34.205468]]}},{"type":"Feature","properties":{"id":428182507,"highway":"service"},"geometry":{"type":"LineString","coordinates":[[139.137284,34.206711],[139.137395,34.206605],[139.137552,34.206376],[139.137572,34.206374],[139.137723,34.206357],[139.137862,34.20632],[139.137919,34.206266]]}},{"type":"Feature","properties":{"id":442582415,"highway":"secondary"},"geometry":{"type":"LineString","coordinates":[[139.146975,34.210206],[139.147125,34.209942],[139.147366,34.209671],[139.147584,34.209376],[139.147771,34.209232],[139.14827,34.208939],[139.148332,34.208866],[139.148442,34.208642],[139.148504,34.208593],[139.148737,34.208453],[139.148933,34.208438],[139.149126,34.208362],[139.149268,34.20826],[139.149745,34.208134],[139.149885,34.208005],[139.149968,34.207897],[139.150003,34.207697],[139.150065,34.207571],[139.150188,34.207424],[139.15029,34.207082],[139.1504,34.206972],[139.150497,34.206925],[139.1507,34.206929],[139.150867,34.206943],[139.150971,34.206929],[139.151189,34.206879],[139.151304,34.206852],[139.151526,34.206743],[139.151787,34.206581],[139.152012,34.206424],[139.152465,34.20626],[139.152634,34.206166],[139.152741,34.206084],[139.152851,34.205922],[139.152951,34.205843],[139.15315,34.205781],[139.153232,34.205756],[139.153356,34.205674],[139.153372,34.205567],[139.153356,34.20543],[139.153238,34.205317],[139.153112,34.205279],[139.152937,34.205286],[139.152677,34.205405],[139.15246,34.205419],[139.151765,34.20521],[139.151462,34.205226],[139.151255,34.205148],[139.151143,34.205026]]}},{"type":"Feature","properties":{"id":442582417,"highway":"secondary"},"geometry":{"type":"LineString","coordinates":[[139.138453,34.241484],[139.138574,34.241695],[139.138713,34.241791],[139.139084,34.241979],[139.139318,34.242445],[139.139398,34.242545],[139.140262,34.243057],[139.140568,34.243128],[139.140726,34.243139],[139.140857,34.243115],[139.141037,34.243062]]}},{"type":"Feature","properties":{"id":442582418,"highway":"residential"},"geometry":{"type":"LineString","coordinates":[[139.141492,34.209644],[139.141502,34.209809],[139.141397,34.210015],[139.141249,34.210432],[139.141242,34.210645],[139.141322,34.210685],[139.141523,34.210818],[139.141499,34.210927],[139.141346,34.211095],[139.141153,34.211195],[139.14093,34.211279],[139.140831,34.211335],[139.140752,34.211517]]}},{"type":"Feature","properties":{"id":442582419,"highway":"residential"},"geometry":{"type":"LineString","coordinates":[[139.142796,34.211033],[139.142627,34.211285],[139.142616,34.211424],[139.142307,34.211693],[139.14212,34.211859],[139.142147,34.211926],[139.142294,34.212061],[139.142514,34.212327],[139.142656,34.212336],[139.142884,34.212529],[139.142898,34.212669],[139.143,34.212798],[139.143037,34.212873]]}},{"type":"Feature","properties":{"id":442582420,"highway":"secondary"},"geometry":{"type":"LineString","coordinates":[[139.14245,34.213527],[139.142354,34.213473],[139.142182,34.213374],[139.142078,34.213265],[139.142023,34.213194],[139.141815,34.212923],[139.14163,34.212761],[139.141434,34.212695],[139.141107,34.212679],[139.140806,34.212812],[139.140712,34.212919],[139.14064,34.213021],[139.140503,34.213124]]}},{"type":"Feature","properties":{"id":442582421,"highway":"unclassified"},"geometry":{"type":"LineString","coordinates":[[139.140044,34.211385],[139.140089,34.211672],[139.140214,34.211752],[139.140284,34.211754],[139.140417,34.211698],[139.140515,34.211738],[139.140588,34.211836],[139.140704,34.211889],[139.141368,34.212059],[139.141749,34.212164],[139.141912,34.212245],[139.142111,34.212383],[139.141966,34.212518],[139.141871,34.212684],[139.141846,34.212814],[139.141896,34.212866],[139.142047,34.212932],[139.142045,34.213074],[139.142045,34.213119],[139.142023,34.213194]]}},{"type":"Feature","properties":{"id":442582422,"highway":"service"},"geometry":{"type":"LineString","coordinates":[[139.143037,34.212873],[139.143159,34.212894],[139.143315,34.212955],[139.143472,34.212955],[139.143677,34.212928],[139.1439,34.212952],[139.144119,34.212988],[139.144849,34.21338],[139.144855,34.213573],[139.144806,34.213634],[139.144742,34.213635],[139.144672,34.213578],[139.144569,34.213579],[139.144567,34.213787],[139.144445,34.213969],[139.144445,34.214004],[139.144555,34.214024],[139.144643,34.214006],[139.144786,34.214035],[139.145277,34.21422],[139.145293,34.214272],[139.145277,34.214406],[139.145473,34.214939],[139.145532,34.215143],[139.145591,34.215429],[139.145915,34.215738],[139.146178,34.216021]]}},{"type":"Feature","properties":{"id":442582423,"highway":"service"},"geometry":{"type":"LineString","coordinates":[[139.143118,34.210801],[139.143115,34.210664]]}},{"type":"Feature","properties":{"id":442582424,"highway":"unclassified"},"geometry":{"type":"LineString","coordinates":[[139.140321,34.209745],[139.140251,34.209744]]}},{"type":"Feature","properties":{"id":442582425,"highway":"service"},"geometry":{"type":"LineString","coordinates":[[139.141911,34.211436],[139.142227,34.211147]]}},{"type":"Feature","properties":{"id":442582426,"highway":"secondary"},"geometry":{"type":"LineString","coordinates":[[139.144602,34.212959],[139.144473,34.213243]]}},{"type":"Feature","properties":{"id":442582427,"highway":"service"},"geometry":{"type":"LineString","coordinates":[[139.142734,34.210988],[139.142922,34.210715]]}},{"type":"Feature","properties":{"id":442582428,"highway":"secondary"},"geometry":{"type":"LineString","coordinates":[[139.144736,34.212718],[139.144602,34.212959]]}},{"type":"Feature","properties":{"id":442582429,"highway":"tertiary"},"geometry":{"type":"LineString","coordinates":[[139.132633,34.221936],[139.132518,34.221996],[139.132382,34.222018],[139.132261,34.22206],[139.132132,34.222189],[139.131958,34.222338],[139.131759,34.222395],[139.131663,34.222437],[139.131582,34.22259],[139.131545,34.222692],[139.131443,34.222765],[139.131408,34.22279],[139.131266,34.222794],[139.130893,34.222719],[139.130228,34.222661],[139.129967,34.22265],[139.129731,34.222681],[139.129318,34.222801],[139.129166,34.222821],[139.128943,34.22275],[139.128718,34.222604],[139.128583,34.222479],[139.128608,34.22212],[139.128798,34.221617],[139.129364,34.220949],[139.129597,34.220718],[139.13082,34.220324],[139.131054,34.220217],[139.131204,34.220029],[139.131325,34.219807],[139.131545,34.219625],[139.131731,34.219567]]}},{"type":"Feature","properties":{"id":442582430,"highway":"service"},"geometry":{"type":"LineString","coordinates":[[139.142651,34.209982],[139.142455,34.209946],[139.1422,34.209962]]}},{"type":"Feature","properties":{"id":442582432,"highway":"tertiary"},"geometry":{"type":"LineString","coordinates":[[139.133068,34.219277],[139.133197,34.219257],[139.133328,34.219181],[139.133417,34.218962],[139.133672,34.218652],[139.133699,34.21862],[139.134047,34.218212],[139.134259,34.218088],[139.13431,34.218015],[139.134303,34.217912],[139.134259,34.217234],[139.134141,34.217006],[139.134102,34.216926],[139.134063,34.216848],[139.133275,34.216691],[139.133147,34.216634],[139.132754,34.216462],[139.131877,34.216356],[139.131228,34.216158],[139.131003,34.216063],[139.130807,34.21595],[139.130619,34.215659],[139.130625,34.215371],[139.130719,34.215287],[139.130933,34.215267],[139.131174,34.215103],[139.131483,34.214754],[139.131534,34.214683],[139.131539,34.213832],[139.131445,34.213308],[139.131478,34.212559],[139.131488,34.212082],[139.131604,34.211847],[139.131679,34.211756],[139.131773,34.211723],[139.13184,34.2117],[139.132168,34.211654],[139.132312,34.211634],[139.132419,34.211609],[139.132805,34.211234],[139.133138,34.210879],[139.13321,34.210784],[139.133395,34.210101],[139.133454,34.209904],[139.133526,34.209196],[139.133484,34.209114],[139.133444,34.209034],[139.133087,34.208923],[139.132926,34.20889],[139.13287,34.208823],[139.132968,34.208278]]}},{"type":"Feature","properties":{"id":442582433,"highway":"secondary"},"geometry":{"type":"LineString","coordinates":[[139.137664,34.240154],[139.137649,34.240118],[139.13764,34.240092],[139.137634,34.240063],[139.137631,34.240033],[139.13763,34.239988],[139.137649,34.239875],[139.13781,34.239669],[139.137786,34.239376],[139.137797,34.239197],[139.137861,34.239024],[139.13802,34.238815],[139.138076,34.238707],[139.138052,34.238503],[139.138274,34.237733],[139.138282,34.237691],[139.13828,34.237653],[139.138275,34.237622],[139.138265,34.237592],[139.138248,34.237564],[139.138125,34.237425],[139.138095,34.237397],[139.138057,34.237373],[139.137509,34.237157],[139.137365,34.237097],[139.137285,34.237049],[139.136879,34.236724],[139.136737,34.236608],[139.136469,34.23639],[139.136286,34.236284],[139.135842,34.236028],[139.135694,34.235862],[139.135625,34.235733],[139.135568,34.235627],[139.135545,34.235399],[139.135525,34.235203],[139.135498,34.235114],[139.135378,34.234995],[139.135343,34.234902],[139.135339,34.234836],[139.135345,34.234664],[139.135361,34.234576],[139.135376,34.23453],[139.135605,34.234079],[139.135661,34.234001],[139.135722,34.233936],[139.136109,34.2337],[139.13617,34.233655],[139.136235,34.2336],[139.13629,34.233536],[139.136329,34.233474],[139.136393,34.233337],[139.136408,34.233285],[139.136415,34.23322],[139.136381,34.23287],[139.136362,34.232786],[139.136336,34.232704],[139.136305,34.232641],[139.136192,34.232443],[139.136171,34.232381],[139.136167,34.232324],[139.136196,34.232061],[139.136202,34.231977],[139.136202,34.23189],[139.136192,34.231728],[139.136187,34.231679],[139.136197,34.231634],[139.136218,34.231583],[139.136506,34.231132],[139.136542,34.231085],[139.136577,34.231048],[139.136665,34.230982],[139.136715,34.230945],[139.13674,34.230902],[139.136761,34.230846],[139.13685,34.230194],[139.136847,34.230144],[139.136835,34.230087],[139.136696,34.229599],[139.136686,34.229551],[139.136689,34.229489],[139.136696,34.229434],[139.136712,34.229383],[139.13674,34.229321],[139.136774,34.229273],[139.136815,34.229226],[139.136864,34.229182],[139.136913,34.229149],[139.137126,34.22903],[139.137257,34.228921],[139.137342,34.228841],[139.137432,34.228743],[139.137478,34.228686],[139.137526,34.228619],[139.137574,34.228533],[139.137592,34.228493],[139.13769,34.228184],[139.137742,34.228028],[139.137749,34.227945]]}},{"type":"Feature","properties":{"id":442582434,"highway":"service"},"geometry":{"type":"LineString","coordinates":[[139.141728,34.211735],[139.141905,34.211578],[139.141735,34.21143],[139.141346,34.211095]]}},{"type":"Feature","properties":{"id":442582436,"highway":"service"},"geometry":{"type":"LineString","coordinates":[[139.142966,34.2111],[139.143118,34.210801],[139.143206,34.210799],[139.143378,34.210917]]}},{"type":"Feature","properties":{"id":442582437,"highway":"service"},"geometry":{"type":"LineString","coordinates":[[139.141735,34.21143],[139.141911,34.211436],[139.14208,34.211518],[139.142307,34.211693],[139.142512,34.21185]]}},{"type":"Feature","properties":{"id":442582438,"highway":"unclassified"},"geometry":{"type":"LineString","coordinates":[[139.142045,34.213074],[139.142443,34.212888],[139.142588,34.212848],[139.142756,34.212877],[139.143037,34.212873]]}},{"type":"Feature","properties":{"id":442582439,"highway":"service"},"geometry":{"type":"LineString","coordinates":[[139.139599,34.20818],[139.139392,34.208231],[139.139304,34.208316],[139.139258,34.208471],[139.139212,34.208699]]}},{"type":"Feature","properties":{"id":442582440,"highway":"residential"},"geometry":{"type":"LineString","coordinates":[[139.14038,34.210965],[139.140364,34.210379],[139.140326,34.210186],[139.140321,34.209745],[139.140318,34.209552],[139.140283,34.209363],[139.140322,34.209283]]}},{"type":"Feature","properties":{"id":442582441,"highway":"secondary"},"geometry":{"type":"LineString","coordinates":[[139.132633,34.221936],[139.132499,34.221792],[139.132487,34.221688],[139.13265,34.22134],[139.132656,34.221143],[139.132625,34.221061],[139.132385,34.22087],[139.132372,34.220772],[139.132434,34.220612],[139.132467,34.220583],[139.132515,34.22054],[139.13263,34.220506],[139.132766,34.220523],[139.132925,34.220774],[139.133064,34.220947],[139.133088,34.221164],[139.133013,34.221399],[139.132973,34.221521],[139.133053,34.221623],[139.133171,34.221663],[139.133297,34.22163],[139.133408,34.221479],[139.133525,34.221348],[139.134161,34.221002],[139.134263,34.220971],[139.135076,34.221109],[139.135288,34.221302],[139.135424,34.221362],[139.135666,34.22139],[139.135797,34.221344],[139.136141,34.220674],[139.136141,34.219898],[139.136173,34.219632],[139.136293,34.219379],[139.136312,34.219199],[139.136208,34.219017],[139.13621,34.218913],[139.136352,34.218491],[139.136374,34.218453],[139.136397,34.218426],[139.136423,34.218407],[139.136461,34.218394],[139.136501,34.218387],[139.136561,34.218379],[139.137262,34.218348],[139.137312,34.21834],[139.13736,34.218325],[139.137393,34.21831],[139.137427,34.218287],[139.137461,34.218258],[139.137487,34.21823],[139.137506,34.218195],[139.137684,34.217654],[139.137735,34.217511],[139.137757,34.217464],[139.137791,34.217416],[139.137834,34.217373],[139.137878,34.217341],[139.137954,34.217295],[139.137997,34.217262],[139.138025,34.217227],[139.13805,34.217177],[139.138054,34.217122],[139.13804,34.216877],[139.138167,34.216657],[139.138183,34.216575],[139.138135,34.216352],[139.138343,34.216051],[139.138382,34.215938],[139.138387,34.215853],[139.138282,34.215731],[139.138152,34.215465],[139.138076,34.215367],[139.137476,34.215288],[139.137392,34.215279],[139.137135,34.215423],[139.137094,34.215439],[139.137052,34.215447],[139.137009,34.215444],[139.136963,34.215427],[139.136921,34.215403],[139.136763,34.215268],[139.13672,34.215215],[139.136693,34.21516],[139.136681,34.215103],[139.136677,34.215042],[139.136683,34.21479],[139.136693,34.214734],[139.136714,34.214689],[139.136749,34.214652],[139.136855,34.214581],[139.137116,34.214597],[139.137301,34.214632],[139.137478,34.214639],[139.137797,34.214613],[139.13817,34.214555],[139.138883,34.214384],[139.139025,34.2143],[139.139291,34.213936],[139.139712,34.213725],[139.140189,34.213656],[139.140353,34.213574],[139.140522,34.213217],[139.140503,34.213124]]}},{"type":"Feature","properties":{"id":442679168,"highway":"service"},"geometry":{"type":"LineString","coordinates":[[139.133354,34.215303],[139.133431,34.215248],[139.133574,34.215225],[139.133705,34.215137],[139.133836,34.214831],[139.133922,34.214476],[139.133973,34.214309],[139.134137,34.214187],[139.134284,34.214172],[139.134407,34.214212]]}},{"type":"Feature","properties":{"id":442679173,"highway":"unclassified"},"geometry":{"type":"LineString","coordinates":[[139.132467,34.220583],[139.132407,34.220438],[139.132528,34.220267],[139.132645,34.220178],[139.132871,34.220134],[139.132938,34.220041],[139.132933,34.219956],[139.132868,34.219868],[139.132911,34.219757],[139.133008,34.219732],[139.133147,34.219737],[139.13341,34.219885],[139.133563,34.219987],[139.133708,34.219981],[139.133788,34.219881],[139.133767,34.219752],[139.133753,34.219448],[139.133608,34.219262],[139.133582,34.219138],[139.133627,34.218938],[139.13367,34.218754],[139.133672,34.218652]]}},{"type":"Feature","properties":{"id":442679176,"highway":"service"},"geometry":{"type":"LineString","coordinates":[[139.134751,34.217687],[139.134636,34.2179],[139.134303,34.217912]]}},{"type":"Feature","properties":{"id":442679178,"highway":"service"},"geometry":{"type":"LineString","coordinates":[[139.134461,34.216647],[139.134335,34.216716],[139.134241,34.216849],[139.134102,34.216926]]}},{"type":"Feature","properties":{"id":442679179,"highway":"service"},"geometry":{"type":"LineString","coordinates":[[139.134118,34.208746],[139.13378,34.208973],[139.133751,34.209066],[139.133783,34.209112],[139.133826,34.209163],[139.133834,34.209237],[139.133724,34.20931]]}},{"type":"Feature","properties":{"id":442679180,"highway":"unclassified"},"geometry":{"type":"LineString","coordinates":[[139.133526,34.209196],[139.133724,34.20931],[139.13393,34.209525],[139.134038,34.209634],[139.134177,34.209676],[139.134325,34.209729],[139.134518,34.209858],[139.13466,34.209869],[139.134885,34.209798],[139.135143,34.209791],[139.135314,34.209731],[139.135467,34.209738],[139.135701,34.209791],[139.136022,34.210155],[139.136017,34.210257],[139.135945,34.210361],[139.135768,34.210534],[139.13576,34.210661],[139.135942,34.211044],[139.136146,34.211202],[139.136317,34.2112],[139.136419,34.211313],[139.136411,34.211373],[139.136344,34.211422],[139.13621,34.211468],[139.136141,34.211535],[139.136146,34.21173],[139.136025,34.211847],[139.135676,34.211883],[139.135564,34.211936],[139.135518,34.212012],[139.135408,34.212211],[139.135202,34.212213],[139.135076,34.212098],[139.134821,34.211996],[139.134697,34.212023],[139.134652,34.212147],[139.134647,34.212251],[139.134445,34.212413],[139.134351,34.212402],[139.13404,34.212269],[139.133946,34.212269],[139.133697,34.212326],[139.133426,34.21244],[139.133372,34.212519],[139.133354,34.212726],[139.133399,34.212788],[139.133584,34.212881],[139.133598,34.212981],[139.133549,34.213098],[139.133566,34.213256],[139.133507,34.213313],[139.133211,34.213338],[139.133088,34.213404],[139.132774,34.213498],[139.132731,34.213708],[139.132702,34.213815],[139.13278,34.213904],[139.132873,34.213917],[139.133018,34.213844],[139.133094,34.213833],[139.133386,34.214052],[139.133512,34.214107],[139.133555,34.214125],[139.133745,34.214163],[139.133839,34.214139],[139.134129,34.213946],[139.134298,34.213899],[139.134365,34.213954],[139.13441,34.214134],[139.134407,34.214212],[139.134394,34.214536],[139.134292,34.214915],[139.134148,34.21517],[139.133995,34.215554],[139.133971,34.215764],[139.134046,34.215831],[139.134185,34.215902],[139.134198,34.216002],[139.134153,34.216119],[139.13407,34.216184],[139.133874,34.216204],[139.133668,34.216294],[139.133324,34.216277],[139.132951,34.216243],[139.132798,34.216223],[139.132694,34.216263],[139.132691,34.216348],[139.132734,34.216401],[139.133152,34.216567],[139.133147,34.216634]]}},{"type":"Feature","properties":{"id":442679185,"highway":"service"},"geometry":{"type":"LineString","coordinates":[[139.136681,34.215103],[139.136637,34.215186],[139.136644,34.215218],[139.137042,34.215716],[139.137135,34.215716],[139.137278,34.215718],[139.137409,34.215798],[139.137406,34.215915],[139.137385,34.216037],[139.137444,34.21629]]}},{"type":"Feature","properties":{"id":442742474,"highway":"unclassified"},"geometry":{"type":"LineString","coordinates":[[139.153638,34.233396],[139.153496,34.233191],[139.153348,34.232908],[139.153348,34.232744],[139.153504,34.232575],[139.153716,34.23242],[139.153922,34.232431],[139.15403,34.232369],[139.154113,34.232154],[139.154107,34.232058],[139.153764,34.231885],[139.153506,34.23191],[139.153276,34.231888],[139.153016,34.231799],[139.152957,34.231668],[139.15301,34.231522],[139.153128,34.231411],[139.153528,34.231105],[139.154099,34.23093],[139.154215,34.23081],[139.154459,34.230668],[139.154598,34.230455],[139.154692,34.230045],[139.154858,34.22983],[139.155153,34.229799],[139.155218,34.229719],[139.155228,34.229504],[139.155298,34.229411],[139.155569,34.229191],[139.15599,34.229007],[139.156103,34.228901],[139.156207,34.228714],[139.156285,34.228688],[139.15654,34.228843],[139.156628,34.228874],[139.156696,34.228898],[139.156942,34.228858],[139.157098,34.228716],[139.157245,34.228437],[139.15739,34.228346],[139.157549,34.228353],[139.157602,34.228448],[139.157565,34.228963],[139.157621,34.229313],[139.157755,34.229408],[139.157908,34.229408],[139.1582,34.229366],[139.158356,34.229433],[139.158431,34.229624],[139.158737,34.23002],[139.158898,34.230364],[139.159018,34.230393],[139.159099,34.230342],[139.159292,34.230204],[139.159394,34.230242],[139.159558,34.230293],[139.159705,34.230282],[139.159944,34.230176],[139.160051,34.230209],[139.160282,34.23036],[139.160427,34.230406],[139.160821,34.23048],[139.16084,34.230559],[139.160963,34.231431],[139.160845,34.231657],[139.160896,34.23177],[139.161784,34.231952],[139.16214,34.23187],[139.162309,34.231726],[139.162763,34.23161],[139.162881,34.231639],[139.163018,34.23197],[139.163034,34.23207],[139.163128,34.232107],[139.163229,34.232036],[139.16342,34.231899],[139.163559,34.231812],[139.163868,34.23181],[139.163967,34.23185],[139.164187,34.231799],[139.164278,34.231712],[139.164321,34.231296],[139.164394,34.231167],[139.164495,34.231134],[139.164656,34.231176],[139.164887,34.231142],[139.165002,34.231236],[139.165166,34.231242],[139.16526,34.2312],[139.165327,34.231058],[139.165354,34.230927],[139.165461,34.230832],[139.165729,34.230908],[139.165799,34.230874],[139.165989,34.230466],[139.166217,34.230369],[139.166261,34.230357],[139.166062,34.230235],[139.166038,34.230076],[139.165969,34.229982],[139.165405,34.229504],[139.165375,34.229437],[139.165421,34.229387],[139.165514,34.229372]]}},{"type":"Feature","properties":{"id":442742476,"highway":"service"},"geometry":{"type":"LineString","coordinates":[[139.153413,34.235593],[139.153348,34.235436],[139.153327,34.235243],[139.153134,34.234901],[139.1533,34.234544],[139.153265,34.23442],[139.153206,34.234329],[139.1529,34.234121],[139.152924,34.233972],[139.152879,34.233899],[139.15282,34.233827]]}},{"type":"Feature","properties":{"id":442742477,"highway":"service"},"geometry":{"type":"LineString","coordinates":[[139.142686,34.239529],[139.142684,34.239635],[139.142609,34.23976],[139.142512,34.239926],[139.142461,34.239984],[139.142351,34.239977],[139.142244,34.239866],[139.14223,34.239751],[139.142362,34.239638],[139.142456,34.239609],[139.142579,34.239569],[139.142686,34.239529]]}},{"type":"Feature","properties":{"id":442742478,"highway":"unclassified"},"geometry":{"type":"LineString","coordinates":[[139.144733,34.22938],[139.144886,34.229402],[139.145023,34.229419],[139.145261,34.229595],[139.145838,34.229816],[139.14628,34.229754],[139.14701,34.229672],[139.14738,34.22965],[139.147461,34.229699],[139.14748,34.229761],[139.147439,34.229845]]}},{"type":"Feature","properties":{"id":442742479,"highway":"service"},"geometry":{"type":"LineString","coordinates":[[139.142686,34.239529],[139.142812,34.239412],[139.142804,34.239341],[139.142727,34.239314],[139.142501,34.239316],[139.142407,34.239341],[139.142297,34.239392],[139.142196,34.23935],[139.142257,34.23923],[139.142383,34.239035],[139.14248,34.238813],[139.142523,34.238616],[139.142536,34.238498]]}},{"type":"Feature","properties":{"id":442742481,"highway":"unclassified"},"geometry":{"type":"LineString","coordinates":[[139.137684,34.217654],[139.137723,34.217779],[139.137644,34.218087],[139.137697,34.218235],[139.137652,34.218353],[139.137421,34.218457],[139.136649,34.218626],[139.136418,34.218832],[139.136431,34.218965],[139.136914,34.219329],[139.136906,34.219424],[139.136694,34.219626],[139.136686,34.21973],[139.136769,34.21985],[139.136861,34.219914],[139.137153,34.219941],[139.137263,34.220058],[139.137172,34.22028],[139.137204,34.220471],[139.137164,34.220537],[139.136976,34.220617],[139.136928,34.220679],[139.13693,34.220939],[139.137016,34.221005],[139.137223,34.221081],[139.137279,34.221172],[139.137276,34.221225],[139.137201,34.22142],[139.137258,34.221507],[139.137539,34.221573],[139.137719,34.221533],[139.137815,34.221549],[139.137963,34.221662],[139.138041,34.221653],[139.138212,34.221578],[139.138339,34.221611],[139.138389,34.221691],[139.138414,34.221841],[139.138537,34.222019],[139.138615,34.222376],[139.138714,34.222533],[139.138741,34.222687],[139.138786,34.22282],[139.138722,34.223161],[139.138757,34.223321],[139.138668,34.223567],[139.139033,34.223853],[139.13913,34.223853],[139.139232,34.223813],[139.13972,34.223432],[139.139819,34.223416],[139.139964,34.223456],[139.140052,34.223773],[139.140093,34.223964],[139.139902,34.224308],[139.139945,34.224705],[139.139696,34.225053],[139.139698,34.225133],[139.139862,34.225277],[139.139902,34.225388],[139.140235,34.225694],[139.14039,34.225698],[139.140484,34.225652],[139.140707,34.225445],[139.140801,34.225448],[139.140876,34.225512],[139.140905,34.225632],[139.141002,34.225791],[139.141098,34.226035],[139.141286,34.226073],[139.141466,34.226066],[139.141729,34.226015],[139.141879,34.22606],[139.141917,34.226166],[139.141721,34.22657],[139.141689,34.226914],[139.141632,34.227093],[139.141758,34.227441],[139.141863,34.227483],[139.142002,34.227483],[139.14215,34.227537],[139.142233,34.227621],[139.142303,34.227723],[139.142719,34.227969],[139.142971,34.227918],[139.143137,34.227838],[139.143234,34.227657],[139.143327,34.227628],[139.143563,34.227701],[139.14395,34.227838],[139.144333,34.227931],[139.144432,34.227883],[139.144722,34.227723],[139.145041,34.22773],[139.145272,34.227883],[139.145261,34.228308],[139.145256,34.228575],[139.145073,34.228728],[139.144953,34.228972],[139.144808,34.229133],[139.144733,34.229302],[139.144733,34.22938],[139.144634,34.229639],[139.144615,34.229788],[139.144542,34.229965],[139.144231,34.230227],[139.144105,34.230417],[139.143789,34.230533],[139.143467,34.23067],[139.143357,34.230633],[139.143239,34.230535],[139.143158,34.230542],[139.142998,34.230595],[139.142904,34.230533],[139.14281,34.230468],[139.142681,34.230466],[139.142474,34.230535],[139.142378,34.230493],[139.142324,34.230424],[139.142233,34.230211],[139.14201,34.230131],[139.141847,34.230131],[139.141742,34.230282],[139.141731,34.230679],[139.14167,34.230834],[139.141595,34.230892],[139.141495,34.230941],[139.1413,34.230843],[139.140919,34.230617],[139.140742,34.230491],[139.140549,34.230431],[139.140417,34.230475],[139.140372,34.23061],[139.140321,34.230746],[139.140205,34.230797],[139.140061,34.231094],[139.139937,34.231149],[139.139725,34.231138],[139.13957,34.231216],[139.139371,34.231205],[139.13932,34.231254],[139.139328,34.231557],[139.139468,34.231686],[139.139503,34.231823],[139.139599,34.231861],[139.14005,34.231954],[139.140077,34.232041],[139.140047,34.232134],[139.139873,34.232416],[139.13983,34.232571],[139.139666,34.232739],[139.139677,34.232846],[139.140031,34.233196],[139.140165,34.233234],[139.140342,34.233225],[139.140538,34.233129],[139.140779,34.232779],[139.141082,34.232677],[139.141359,34.232478],[139.141474,34.232458],[139.141562,34.23254],[139.141638,34.232775],[139.141646,34.233067],[139.141715,34.233387],[139.141691,34.233611],[139.141672,34.233781],[139.141831,34.233877],[139.141938,34.233883],[139.142139,34.233839],[139.14245,34.233739],[139.142853,34.233886],[139.143043,34.233835],[139.143091,34.233693],[139.143164,34.233482],[139.143384,34.23346],[139.143467,34.233549],[139.143598,34.233757],[139.143899,34.233886],[139.143942,34.233972],[139.143853,34.234114],[139.143845,34.234609],[139.143775,34.234704],[139.143631,34.235199],[139.143534,34.235527],[139.1434,34.235948],[139.143284,34.236119],[139.143132,34.23617],[139.142692,34.236371],[139.142214,34.236553],[139.142029,34.236713],[139.141734,34.236844],[139.14164,34.236966],[139.141614,34.237083],[139.141707,34.237012],[139.141863,34.236915],[139.142547,34.236764],[139.142917,34.236768],[139.143351,34.236908],[139.143896,34.237227],[139.143993,34.237238],[139.144006,34.237301],[139.14385,34.237318],[139.143569,34.237285],[139.143491,34.237283],[139.143496,34.237385],[139.143655,34.237631],[139.143655,34.237786],[139.143488,34.238048],[139.143335,34.238083],[139.143174,34.238148],[139.143057,34.238205],[139.142871,34.238197],[139.14282,34.238194],[139.142697,34.238285],[139.142598,34.238376],[139.142536,34.238498]]}},{"type":"Feature","properties":{"id":442742483,"highway":"unclassified"},"geometry":{"type":"LineString","coordinates":[[139.153638,34.233396],[139.153504,34.233484],[139.153096,34.233642],[139.15282,34.233827],[139.152538,34.234017],[139.152407,34.234039],[139.151814,34.233746],[139.151556,34.233819],[139.151414,34.233841],[139.150923,34.233761],[139.150738,34.233804],[139.150478,34.233939],[139.150368,34.233979],[139.150191,34.233914],[139.149931,34.233502],[139.149784,34.23338],[139.149674,34.233358],[139.149609,34.233391],[139.149529,34.233524],[139.149413,34.233564],[139.148965,34.233571],[139.148818,34.233482],[139.148571,34.233032],[139.14843,34.232912],[139.148129,34.232863],[139.14786,34.232664],[139.147651,34.23258],[139.14763,34.232287],[139.147394,34.232083],[139.147356,34.231608],[139.147308,34.231471],[139.146922,34.231227],[139.14704,34.230726],[139.147211,34.230364],[139.147209,34.230111],[139.147383,34.229925],[139.147439,34.229845]]}},{"type":"Feature","properties":{"id":442742484,"highway":"service"},"geometry":{"type":"LineString","coordinates":[[139.142501,34.239316],[139.142429,34.239172],[139.142383,34.239035]]}},{"type":"Feature","properties":{"id":442742485,"highway":"service"},"geometry":{"type":"LineString","coordinates":[[139.141938,34.239518],[139.142072,34.239443],[139.142196,34.23935]]}},{"type":"Feature","properties":{"id":442742487,"highway":"unclassified"},"geometry":{"type":"LineString","coordinates":[[139.148662,34.239653],[139.148673,34.239307],[139.148719,34.239134],[139.148853,34.238855],[139.148855,34.238602],[139.148815,34.238405],[139.148692,34.238203],[139.148469,34.238123],[139.148445,34.238043],[139.148416,34.237811],[139.148273,34.23778],[139.14811,34.237762],[139.147992,34.23768],[139.147777,34.237398],[139.147756,34.237216],[139.147734,34.237101],[139.147662,34.237046],[139.147327,34.236948],[139.147209,34.236844],[139.147048,34.236531],[139.147007,34.236097],[139.146935,34.236037],[139.146707,34.235952],[139.146685,34.235855],[139.1466,34.235662],[139.146514,34.235573],[139.146471,34.235405],[139.14639,34.235292],[139.146385,34.235059],[139.146238,34.234895],[139.146122,34.234912],[139.145985,34.234972],[139.145846,34.234935],[139.145816,34.234873],[139.145825,34.234702],[139.145784,34.234584],[139.145811,34.23452],[139.14591,34.234303],[139.145878,34.234236],[139.145621,34.233759],[139.145666,34.233666],[139.14576,34.233527],[139.145733,34.233342],[139.145403,34.232886],[139.145213,34.232549],[139.145234,34.232389],[139.145438,34.231737],[139.145473,34.231311],[139.145669,34.230921],[139.146192,34.230737],[139.146594,34.230739],[139.146795,34.230621],[139.147005,34.230358],[139.14704,34.230156],[139.147099,34.229983],[139.147227,34.229912],[139.147439,34.229845]]}},{"type":"Feature","properties":{"id":442742489,"highway":"service"},"geometry":{"type":"LineString","coordinates":[[139.154703,34.234123],[139.154561,34.234061],[139.154368,34.234005],[139.154177,34.233892],[139.153869,34.233522],[139.153638,34.233396]]}},{"type":"Feature","properties":{"id":442742490,"highway":"service"},"geometry":{"type":"LineString","coordinates":[[139.143124,34.240114],[139.142912,34.240221],[139.142606,34.240279],[139.142434,34.240243],[139.142367,34.240106],[139.142351,34.239977]]}},{"type":"Feature","properties":{"id":442742491,"highway":"unclassified"},"geometry":{"type":"LineString","coordinates":[[139.153496,34.233191],[139.152871,34.233458],[139.152777,34.23348],[139.152651,34.233427],[139.15264,34.233329],[139.15264,34.231939],[139.152503,34.231832],[139.15238,34.231613],[139.152385,34.231528],[139.15245,34.231375],[139.152321,34.23116],[139.152189,34.23116],[139.152007,34.231167],[139.151683,34.231054],[139.151484,34.23093],[139.151275,34.230901],[139.15121,34.230792],[139.151264,34.230717],[139.151385,34.230706],[139.15157,34.230772],[139.152721,34.230701],[139.152825,34.230615],[139.153032,34.230395],[139.153665,34.230176],[139.153735,34.230116],[139.153794,34.229896],[139.153836,34.22951],[139.153512,34.229235],[139.153472,34.22914],[139.153531,34.229058],[139.154107,34.228588],[139.154158,34.228493],[139.154174,34.228397],[139.154206,34.228255],[139.154595,34.227947],[139.154625,34.227854],[139.154628,34.227596],[139.154558,34.227523],[139.154445,34.22751],[139.154247,34.227399],[139.153874,34.227273],[139.153799,34.227149],[139.153775,34.227016],[139.153683,34.226891],[139.153547,34.226831],[139.153335,34.226803],[139.153118,34.226809],[139.152871,34.226667],[139.152509,34.226543],[139.151975,34.226459],[139.151398,34.226301],[139.150956,34.226071],[139.150746,34.225825],[139.150025,34.224827],[139.149969,34.224556],[139.149794,34.224319],[139.149245,34.223651],[139.149086,34.22352],[139.149016,34.223354],[139.148609,34.223254],[139.148523,34.223177],[139.148426,34.223013],[139.148448,34.222915],[139.148502,34.222755],[139.148405,34.222174],[139.148206,34.222012],[139.148204,34.221436],[139.148381,34.22081],[139.14841,34.220673],[139.148405,34.220351]]}},{"type":"Feature","properties":{"id":442742492,"highway":"service"},"geometry":{"type":"LineString","coordinates":[[139.149773,34.234037],[139.149936,34.233912],[139.149947,34.233846],[139.149912,34.233759],[139.149802,34.233677],[139.149604,34.233629],[139.149529,34.233524]]}},{"type":"Feature","properties":{"id":442742495,"highway":"service"},"geometry":{"type":"LineString","coordinates":[[139.155751,34.233921],[139.155328,34.233584],[139.155049,34.23342],[139.154566,34.233269],[139.154056,34.233061],[139.153826,34.23287],[139.153868,34.232684],[139.153922,34.232431]]}},{"type":"Feature","properties":{"id":442744300,"highway":"service"},"geometry":{"type":"LineString","coordinates":[[139.14654,34.212522],[139.146556,34.212467],[139.147081,34.211748],[139.147411,34.211554],[139.147559,34.211406],[139.148398,34.210454],[139.149018,34.209838],[139.149511,34.20968],[139.149973,34.209394]]}},{"type":"Feature","properties":{"id":442744313,"highway":"service"},"geometry":{"type":"LineString","coordinates":[[139.145118,34.211366],[139.145332,34.211384],[139.145499,34.211455],[139.145458,34.211668],[139.145632,34.211772]]}},{"type":"Feature","properties":{"id":442868062,"highway":"service"},"geometry":{"type":"LineString","coordinates":[[139.153433,34.200415],[139.153446,34.199742],[139.153457,34.199554],[139.1542,34.198833],[139.154353,34.198748],[139.15468,34.198755],[139.154809,34.198709],[139.154846,34.198562],[139.155114,34.197928],[139.155208,34.197897],[139.155313,34.197919],[139.155407,34.197992],[139.155275,34.198389],[139.155257,34.198507],[139.154774,34.199944],[139.155176,34.200548]]}},{"type":"Feature","properties":{"id":442868067,"highway":"service"},"geometry":{"type":"LineString","coordinates":[[139.152684,34.202646],[139.152759,34.202124]]}},{"type":"Feature","properties":{"id":442868078,"highway":"service"},"geometry":{"type":"LineString","coordinates":[[139.151679,34.202699],[139.151802,34.20275],[139.15207,34.202837],[139.152224,34.202923]]}},{"type":"Feature","properties":{"id":442868080,"highway":"unclassified"},"geometry":{"type":"LineString","coordinates":[[139.146187,34.208611],[139.146049,34.208553],[139.146019,34.208449],[139.146086,34.208371],[139.146199,34.208261],[139.146164,34.208172],[139.14604,34.208017],[139.146027,34.207813],[139.145949,34.207535],[139.145992,34.207453],[139.146075,34.207426],[139.146663,34.207209],[139.146842,34.20712],[139.14695,34.206996],[139.147162,34.206885],[139.14739,34.206688],[139.147636,34.206462],[139.147706,34.206457],[139.147905,34.20657],[139.148299,34.206561],[139.148508,34.206482],[139.14868,34.206453],[139.149039,34.206344],[139.149098,34.206251],[139.149077,34.206164],[139.148919,34.205905],[139.148916,34.205685],[139.148825,34.20539],[139.148712,34.20512],[139.148481,34.204884],[139.148202,34.204645],[139.148068,34.204612],[139.147832,34.204576],[139.147524,34.204325],[139.147376,34.20429],[139.147215,34.204285],[139.1471,34.204226],[139.146813,34.204004],[139.146703,34.203846],[139.146486,34.203536],[139.145987,34.202764],[139.145898,34.202551],[139.145799,34.202447],[139.145458,34.202247],[139.145394,34.202118],[139.145289,34.201462],[139.145322,34.201326],[139.145483,34.200947],[139.145477,34.200816],[139.145281,34.200665],[139.145057,34.200585]]}},{"type":"Feature","properties":{"id":442872058,"highway":"service"},"geometry":{"type":"LineString","coordinates":[[139.136792,34.201212],[139.136305,34.201498]]}},{"type":"Feature","properties":{"id":442872060,"highway":"service"},"geometry":{"type":"LineString","coordinates":[[139.134557,34.201268],[139.134366,34.20119]]}},{"type":"Feature","properties":{"id":442872073,"highway":"service"},"geometry":{"type":"LineString","coordinates":[[139.134469,34.201011],[139.134366,34.20119],[139.134228,34.201426],[139.134014,34.201765]]}},{"type":"Feature","properties":{"id":709062449,"highway":"service"},"geometry":{"type":"LineString","coordinates":[[139.154823,34.203613],[139.154396,34.20328],[139.153704,34.202495],[139.153514,34.202187]]}},{"type":"Feature","properties":{"id":709062452,"highway":"service"},"geometry":{"type":"LineString","coordinates":[[139.143507,34.209997],[139.143507,34.209645]]}},{"type":"Feature","properties":{"id":709062462,"highway":"service"},"geometry":{"type":"LineString","coordinates":[[139.138917,34.227905],[139.138807,34.227923],[139.138702,34.227975],[139.138568,34.227973],[139.138296,34.227906],[139.138089,34.227812],[139.137792,34.227653],[139.137754,34.227632]]}},{"type":"Feature","properties":{"id":709062467,"highway":"service"},"geometry":{"type":"LineString","coordinates":[[139.134315,34.200866],[139.134723,34.201015],[139.134992,34.20126],[139.135168,34.201421],[139.135577,34.201326],[139.135986,34.201082]]}},{"type":"Feature","properties":{"id":709062468,"highway":"service"},"geometry":{"type":"LineString","coordinates":[[139.133187,34.20096],[139.133241,34.200888],[139.133465,34.200703],[139.13368,34.200527],[139.133803,34.200495],[139.133935,34.200515],[139.134176,34.200678],[139.134262,34.200692],[139.135066,34.200136]]}},{"type":"Feature","properties":{"id":709062469,"highway":"service"},"geometry":{"type":"LineString","coordinates":[[139.130302,34.20113],[139.130596,34.201068],[139.131458,34.201064],[139.132037,34.201097],[139.132356,34.20113],[139.132485,34.201163],[139.132909,34.201767],[139.133206,34.201967],[139.133261,34.202046]]}},{"type":"Feature","properties":{"id":709062473,"highway":"service"},"geometry":{"type":"LineString","coordinates":[[139.139314,34.20474],[139.139063,34.20488],[139.139349,34.205171]]}},{"type":"Feature","properties":{"id":709062480,"highway":"service"},"geometry":{"type":"LineString","coordinates":[[139.131207,34.207947],[139.13113,34.208016],[139.130783,34.208405],[139.130488,34.208808],[139.130283,34.209361],[139.130212,34.209575]]}},{"type":"Feature","properties":{"id":709062482,"highway":"service"},"geometry":{"type":"LineString","coordinates":[[139.131333,34.208982],[139.13145,34.209033],[139.131494,34.2091],[139.131513,34.20914],[139.131715,34.209241],[139.131784,34.209036],[139.131825,34.208916],[139.131523,34.208944],[139.131494,34.2091]]}},{"type":"Feature","properties":{"id":709063277,"highway":"secondary"},"geometry":{"type":"LineString","coordinates":[[139.153514,34.202187],[139.153444,34.202211],[139.153392,34.202217],[139.153307,34.202193],[139.153225,34.202045],[139.152809,34.201395],[139.15253,34.200802],[139.152434,34.20068]]}},{"type":"Feature","properties":{"id":709063284,"highway":"service"},"geometry":{"type":"LineString","coordinates":[[139.134204,34.20532],[139.134207,34.205276],[139.134238,34.205233],[139.134315,34.205223],[139.134437,34.205413],[139.13463,34.205352]]}},{"type":"Feature","properties":{"id":709073206,"highway":"secondary"},"geometry":{"type":"LineString","coordinates":[[139.137749,34.227945],[139.137754,34.227632],[139.137745,34.227547],[139.137718,34.227517],[139.137581,34.227283],[139.137566,34.227248],[139.13756,34.227225],[139.137438,34.226641],[139.137401,34.226517],[139.137125,34.22559],[139.137112,34.225547],[139.137094,34.225504],[139.136534,34.224543],[139.136369,34.224294],[139.136281,34.224151],[139.136249,34.224113],[139.136206,34.224075],[139.136156,34.224039],[139.135784,34.223811],[139.135691,34.22378],[139.135489,34.223714],[139.135305,34.22364],[139.135116,34.22351],[139.134867,34.223094],[139.134742,34.223035],[139.134403,34.223032],[139.13427,34.223041],[139.13415,34.222978],[139.133458,34.22227],[139.133342,34.222202],[139.133242,34.222187],[139.133145,34.222173],[139.132954,34.222121],[139.132633,34.221936]]}},{"type":"Feature","properties":{"id":709073207,"highway":"secondary"},"geometry":{"type":"LineString","coordinates":[[139.133394,34.207308],[139.133589,34.206906]]}},{"type":"Feature","properties":{"id":709073208,"highway":"service"},"geometry":{"type":"LineString","coordinates":[[139.133394,34.207308],[139.131476,34.207868],[139.131207,34.207947]]}},{"type":"Feature","properties":{"id":709073209,"highway":"service"},"geometry":{"type":"LineString","coordinates":[[139.136331,34.207403],[139.135083,34.207]]}},{"type":"Feature","properties":{"id":709149197,"highway":"unclassified"},"geometry":{"type":"LineString","coordinates":[[139.140515,34.211738],[139.140556,34.211689]]}},{"type":"Feature","properties":{"id":709239365,"highway":"service"},"geometry":{"type":"LineString","coordinates":[[139.131207,34.207947],[139.131368,34.208071],[139.131437,34.208056],[139.131476,34.207868]]}},{"type":"Feature","properties":{"id":709242522,"highway":"residential"},"geometry":{"type":"LineString","coordinates":[[139.134034,34.200183],[139.133878,34.20021],[139.133588,34.200258],[139.133098,34.200443],[139.132926,34.200546],[139.132877,34.20067],[139.132893,34.200736],[139.133131,34.200944],[139.133187,34.20096],[139.133319,34.200995],[139.133452,34.201031],[139.133671,34.201288],[139.133687,34.201375],[139.133648,34.201457],[139.133441,34.201571],[139.133386,34.201626],[139.133391,34.201695],[139.1335,34.201897]]}},{"type":"Feature","properties":{"id":709242523,"highway":"secondary"},"geometry":{"type":"LineString","coordinates":[[139.1335,34.201897],[139.133433,34.20192],[139.133261,34.202046],[139.133166,34.202134],[139.133148,34.202204],[139.133441,34.203444],[139.133771,34.204612],[139.133857,34.20491],[139.133889,34.205102],[139.133915,34.205497],[139.133871,34.206022],[139.133856,34.206089],[139.133852,34.206436],[139.133751,34.206625],[139.133721,34.206682]]}},{"type":"Feature","properties":{"id":709245663,"highway":"secondary"},"geometry":{"type":"LineString","coordinates":[[139.152759,34.202124],[139.15244,34.201048],[139.152314,34.200882],[139.152312,34.20078],[139.152434,34.20068]]}},{"type":"Feature","properties":{"id":709245664,"highway":"secondary"},"geometry":{"type":"LineString","coordinates":[[139.151143,34.205026],[139.151071,34.204886],[139.151065,34.204767],[139.151138,34.204636],[139.151304,34.204436],[139.151406,34.204174],[139.151517,34.20401],[139.151586,34.203908],[139.151661,34.203886],[139.15206,34.203939],[139.152165,34.203926],[139.152227,34.203846],[139.152274,34.203722],[139.152353,34.20352],[139.152366,34.203283],[139.152366,34.203227],[139.152286,34.203019],[139.152224,34.202923],[139.152256,34.202595],[139.152318,34.20248],[139.152516,34.202304],[139.152759,34.202124]]}},{"type":"Feature","properties":{"id":709245666,"highway":"residential"},"geometry":{"type":"LineString","coordinates":[[139.137225,34.206711],[139.137284,34.206711],[139.137358,34.20688],[139.137355,34.207013],[139.137353,34.207085],[139.137316,34.207156],[139.137199,34.207313],[139.13719,34.207383],[139.137188,34.207398],[139.137199,34.207439],[139.137287,34.207763],[139.137344,34.207902]]}},{"type":"Feature","properties":{"id":709245667,"highway":"secondary"},"geometry":{"type":"LineString","coordinates":[[139.137267,34.208391],[139.137219,34.208335],[139.137107,34.208227],[139.137025,34.208147],[139.13678,34.207886],[139.136612,34.207775],[139.136558,34.20774],[139.136222,34.207617]]}},{"type":"Feature","properties":{"id":709245668,"highway":"secondary"},"geometry":{"type":"LineString","coordinates":[[139.136222,34.207617],[139.135151,34.207253],[139.134538,34.207079],[139.133963,34.206924],[139.133784,34.206903]]}},{"type":"Feature","properties":{"id":709245669,"highway":"residential"},"geometry":{"type":"LineString","coordinates":[[139.135895,34.207942],[139.135952,34.208088],[139.136001,34.208129],[139.136236,34.208321],[139.136345,34.208376],[139.136481,34.208408],[139.136743,34.208399],[139.136797,34.208361],[139.136917,34.208255],[139.136997,34.208227],[139.137107,34.208227]]}},{"type":"Feature","properties":{"id":709245673,"highway":"secondary"},"geometry":{"type":"LineString","coordinates":[[139.14535,34.199802],[139.145231,34.200016],[139.145057,34.200585],[139.145043,34.200631],[139.144954,34.200914],[139.144843,34.201015],[139.144482,34.201177],[139.144348,34.201295],[139.14422,34.20146],[139.144012,34.201794],[139.143925,34.201889]]}},{"type":"Feature","properties":{"id":709245674,"highway":"secondary"},"geometry":{"type":"LineString","coordinates":[[139.13656,34.2019],[139.136458,34.201793],[139.136406,34.201732],[139.136276,34.201718],[139.135657,34.201789],[139.134205,34.201748],[139.134014,34.201765],[139.133828,34.201782],[139.1335,34.201897]]}},{"type":"Feature","properties":{"id":709245675,"highway":"residential"},"geometry":{"type":"LineString","coordinates":[[139.13656,34.2019],[139.136501,34.202012],[139.136473,34.202156],[139.136481,34.20233],[139.136555,34.202519],[139.1366,34.202699],[139.136638,34.20285],[139.136693,34.203036],[139.136701,34.20306],[139.136812,34.203275],[139.136874,34.203387],[139.136928,34.203482],[139.136963,34.203545],[139.137006,34.203594],[139.137097,34.203698],[139.137116,34.20372],[139.137165,34.203955],[139.137163,34.204231],[139.137162,34.204318],[139.137134,34.204487]]}},{"type":"Feature","properties":{"id":709245676,"highway":"residential"},"geometry":{"type":"LineString","coordinates":[[139.137134,34.204487],[139.137327,34.20445],[139.1376,34.204426]]}},{"type":"Feature","properties":{"id":709245677,"highway":"residential"},"geometry":{"type":"LineString","coordinates":[[139.133857,34.20491],[139.133977,34.204936],[139.134123,34.204988],[139.134306,34.205052],[139.134566,34.204979],[139.134799,34.204901]]}},{"type":"Feature","properties":{"id":709245678,"highway":"residential"},"geometry":{"type":"LineString","coordinates":[[139.134749,34.205628],[139.134726,34.205577]]}},{"type":"Feature","properties":{"id":709247131,"highway":"unclassified"},"geometry":{"type":"LineString","coordinates":[[139.146975,34.210206],[139.146735,34.210119],[139.146647,34.209975],[139.146609,34.20948],[139.146613,34.208921],[139.146558,34.208808],[139.146354,34.20868],[139.146187,34.208611]]}},{"type":"Feature","properties":{"id":709247132,"highway":"secondary"},"geometry":{"type":"LineString","coordinates":[[139.145501,34.211939],[139.145632,34.211772],[139.14569,34.211698],[139.146114,34.21133],[139.146264,34.211301],[139.14642,34.211257],[139.146556,34.211146],[139.146698,34.210969],[139.146781,34.210701],[139.146806,34.21062],[139.146975,34.210206]]}},{"type":"Feature","properties":{"id":709247136,"highway":"service"},"geometry":{"type":"LineString","coordinates":[[139.146781,34.210701],[139.146875,34.210962],[139.146842,34.211131],[139.146408,34.21181],[139.146346,34.211909]]}},{"type":"Feature","properties":{"id":709247137,"highway":"residential"},"geometry":{"type":"LineString","coordinates":[[139.142095,34.209753],[139.142264,34.209728],[139.143047,34.209741],[139.143507,34.209645]]}},{"type":"Feature","properties":{"id":709247138,"highway":"unclassified"},"geometry":{"type":"LineString","coordinates":[[139.142095,34.209753],[139.1422,34.209962],[139.142198,34.210208],[139.142198,34.210232],[139.142149,34.21047],[139.142434,34.210769],[139.142734,34.210988],[139.142796,34.211033],[139.142966,34.2111],[139.143625,34.211359],[139.143727,34.211415],[139.143845,34.211596],[139.143906,34.211747],[139.143989,34.211843],[139.144158,34.212009],[139.144317,34.21202],[139.144572,34.211876],[139.144668,34.211883],[139.144826,34.211936],[139.144874,34.212005],[139.144861,34.212087],[139.144716,34.212377],[139.144606,34.212575],[139.144566,34.212677],[139.144612,34.212728],[139.144736,34.212718]]}},{"type":"Feature","properties":{"id":709249682,"highway":"secondary"},"geometry":{"type":"LineString","coordinates":[[139.144473,34.213243],[139.144403,34.213366],[139.144293,34.213445],[139.144105,34.213485],[139.142732,34.213573],[139.14245,34.213527]]}},{"type":"Feature","properties":{"id":709249683,"highway":"unclassified"},"geometry":{"type":"LineString","coordinates":[[139.148405,34.220351],[139.148402,34.220185]]}},{"type":"Feature","properties":{"id":709249686,"highway":"service"},"geometry":{"type":"LineString","coordinates":[[139.146346,34.211909],[139.146317,34.211956],[139.146362,34.212475],[139.14636,34.212708],[139.146464,34.212735],[139.146531,34.212666],[139.14654,34.212522]]}},{"type":"Feature","properties":{"id":709249687,"highway":"secondary"},"geometry":{"type":"LineString","coordinates":[[139.152434,34.20068],[139.152203,34.200383],[139.152152,34.200114],[139.152334,34.199556],[139.152459,34.199283],[139.152693,34.199066],[139.153222,34.198878],[139.153473,34.198713],[139.154048,34.19803],[139.154162,34.197775],[139.154225,34.19754],[139.154336,34.196962]]}},{"type":"Feature","properties":{"id":709383771,"highway":"unclassified"},"geometry":{"type":"LineString","coordinates":[[139.13632,34.207422],[139.136229,34.207575]]}},{"type":"Feature","properties":{"id":719285771,"highway":"service"},"geometry":{"type":"LineString","coordinates":[[139.137592,34.228493],[139.137554,34.228488],[139.137523,34.228494],[139.137492,34.228548],[139.137446,34.228621],[139.137377,34.228703],[139.137302,34.228779]]}},{"type":"Feature","properties":{"id":724839182,"highway":"secondary"},"geometry":{"type":"LineString","coordinates":[[139.153124,34.199755],[139.152939,34.199819],[139.152717,34.200006],[139.152682,34.20021],[139.152819,34.200727],[139.153095,34.20145],[139.153315,34.20188],[139.153514,34.202187]]}},{"type":"Feature","properties":{"id":724839183,"highway":"unclassified"},"geometry":{"type":"LineString","coordinates":[[139.153514,34.202187],[139.15355,34.202453],[139.153558,34.20262],[139.15339,34.202759]]}},{"type":"Feature","properties":{"id":724839184,"highway":"unclassified"},"geometry":{"type":"LineString","coordinates":[[139.153217,34.202773],[139.15312,34.202719],[139.153041,34.202594],[139.152759,34.202124]]}},{"type":"Feature","properties":{"id":724852383,"highway":"secondary"},"geometry":{"type":"LineString","coordinates":[[139.144736,34.212718],[139.144837,34.212659],[139.145135,34.212406],[139.145501,34.211939]]}}]}