{"type":"FeatureCollection","features":[{"type":"Feature","properties":{"id":150600404,"highway":"service"},"geometry":{"type":"LineString","coordinates":[[139.153446,34.199742],[139.153124,34.199755]]}},{"type":"Feature","properties":{"id":428015804,"highway":"residential"},"geometry":{"type":"LineString","coordinates":[[139.134034,34.200183],[139.134117,34.200169],[139.134668,34.199971],[139.13477,34.199978],[139.135058,34.200127],[139.135066,34.200136],[139.13516,34.200243],[139.135274,34.200399],[139.135439,34.200538],[139.135614,34.200684],[139.135683,34.200742],[139.135719,34.200783],[139.135986,34.201082],[139.136001,34.201099],[139.136165,34.201295],[139.136305,34.201498],[139.136337,34.201547],[139.136396,34.201654],[139.136406,34.201732]]}},{"type":"Feature","properties":{"id":428183875,"highway":"secondary"},"geometry":{"type":"LineString","coordinates":[[139.154336,34.196962],[139.154343,34.196929],[139.154356,34.196861],[139.154361,34.19664],[139.154259,34.196513],[139.154094,34.196489],[139.153951,34.196532],[139.153393,34.196796],[139.153194,34.196918],[139.153091,34.197224],[139.152977,34.197333],[139.152533,34.197559],[139.152334,34.197559],[139.151867,34.197427],[139.151702,34.197422],[139.151223,34.197559],[139.150984,34.197662],[139.150829,34.197741],[139.150762,34.197775],[139.150585,34.197813],[139.149982,34.197808],[139.149902,34.197816]]}},{"type":"Feature","properties":{"id":428183876,"highway":"secondary"},"geometry":{"type":"LineString","coordinates":[[139.134373,34.190694],[139.134933,34.190564],[139.135403,34.190453],[139.135662,34.190387],[139.135889,34.190267],[139.136006,34.190162],[139.1361,34.190057],[139.136322,34.189807],[139.136555,34.189548],[139.136642,34.189474],[139.136744,34.189407],[139.13686,34.189362],[139.137001,34.189335],[139.137168,34.189332],[139.137353,34.18935],[139.137823,34.189418],[139.13863,34.189493],[139.139215,34.189534],[139.139381,34.189542],[139.139468,34.189558],[139.139517,34.189581],[139.139587,34.18964],[139.139624,34.189708],[139.139646,34.18977],[139.139637,34.189858],[139.139595,34.189929],[139.139235,34.190265],[139.139181,34.190316],[139.138959,34.190524],[139.138934,34.190643],[139.138961,34.190753],[139.139042,34.190831],[139.139155,34.19089],[139.139281,34.190896],[139.139401,34.190881],[139.13956,34.190847],[139.139721,34.190832],[139.139877,34.190826],[139.140032,34.190843],[139.140277,34.190889],[139.140518,34.190983],[139.14073,34.191111],[139.140888,34.191267]]}},{"type":"Feature","properties":{"id":442868062,"highway":"service"},"geometry":{"type":"LineString","coordinates":[[139.153433,34.200415],[139.153446,34.199742],[139.153457,34.199554],[139.1542,34.198833],[139.154353,34.198748],[139.15468,34.198755],[139.154809,34.198709],[139.154846,34.198562],[139.155114,34.197928],[139.155208,34.197897],[139.155313,34.197919],[139.155407,34.197992],[139.155275,34.198389],[139.155257,34.198507],[139.154774,34.199944],[139.155176,34.200548]]}},{"type":"Feature","properties":{"id":442868077,"highway":"service"},"geometry":{"type":"LineString","coordinates":[[139.155407,34.197992],[139.155739,34.198076],[139.156426,34.197792],[139.156729,34.198165]]}},{"type":"Feature","properties":{"id":442871894,"highway":"unclassified"},"geometry":{"type":"LineString","coordinates":[[139.128946,34.198482],[139.128613,34.198315],[139.128535,34.198173],[139.128554,34.198022],[139.128567,34.197918],[139.128669,34.197716],[139.128688,34.197612],[139.128621,34.197563],[139.128548,34.197509],[139.128227,34.197305],[139.127805,34.196942],[139.127706,34.196835],[139.127438,34.196722],[139.127156,34.196183],[139.126961,34.195939],[139.126947,34.195839],[139.127121,34.195542],[139.127221,34.19536],[139.127215,34.1952],[139.127159,34.195009],[139.127087,34.19492],[139.126757,34.194874],[139.126652,34.194794],[139.126585,34.194731],[139.126474,34.194626],[139.126322,34.194483],[139.126215,34.194426],[139.126078,34.194417],[139.125614,34.194585],[139.125453,34.194583],[139.125375,34.194508],[139.125357,34.194454],[139.125349,34.194146],[139.125171,34.193591],[139.125265,34.193374],[139.125536,34.193272],[139.125845,34.193214],[139.126226,34.192899],[139.12647,34.192784],[139.126623,34.192788],[139.127392,34.192926],[139.127513,34.192913],[139.127577,34.192867],[139.127615,34.192839],[139.127714,34.192689],[139.127814,34.192586],[139.127924,34.192542],[139.128141,34.19252],[139.128331,34.192493],[139.128498,34.192476],[139.128838,34.192482],[139.129176,34.192458],[139.129721,34.192445],[139.130048,34.1924],[139.130858,34.192658],[139.131217,34.192693],[139.131308,34.192655],[139.131333,34.192564],[139.131348,34.192408],[139.131359,34.192294],[139.131459,34.192132],[139.131641,34.191921],[139.131778,34.191879],[139.132,34.191941],[139.13225,34.191976],[139.132408,34.192085],[139.132464,34.192085],[139.132679,34.192005],[139.1328,34.191919],[139.132918,34.191617],[139.13303,34.191486],[139.133069,34.191388]]}},{"type":"Feature","properties":{"id":442872189,"highway":"service"},"geometry":{"type":"LineString","coordinates":[[139.144356,34.198241],[139.144812,34.198068],[139.14495,34.198079]]}},{"type":"Feature","properties":{"id":442872352,"highway":"service"},"geometry":{"type":"LineString","coordinates":[[139.134026,34.190193],[139.133837,34.190236],[139.133767,34.190215],[139.133627,34.189782],[139.133547,34.189749],[139.133445,34.189757],[139.130231,34.190486],[139.128305,34.190923],[139.128085,34.190326],[139.130626,34.189752],[139.136326,34.188466],[139.138663,34.187939],[139.138859,34.188562],[139.135072,34.18941],[139.135026,34.189478],[139.135158,34.189889],[139.135125,34.189962],[139.134868,34.190006]]}},{"type":"Feature","properties":{"id":442872353,"highway":"service"},"geometry":{"type":"LineString","coordinates":[[139.130231,34.190486],[139.130226,34.191365],[139.13013,34.191443],[139.129977,34.191507],[139.129859,34.191511],[139.129717,34.191451],[139.129567,34.191261],[139.129403,34.191178],[139.129215,34.191212],[139.128255,34.191429],[139.128062,34.191409],[139.127871,34.191316],[139.12774,34.191134],[139.127475,34.1903],[139.127501,34.190165],[139.127555,34.190034],[139.127713,34.18992],[139.12803,34.189823],[139.128122,34.189803],[139.128397,34.189745],[139.129186,34.189716],[139.129846,34.18969],[139.130232,34.189652],[139.130514,34.189597],[139.130597,34.189634],[139.130609,34.189683],[139.130626,34.189752]]}},{"type":"Feature","properties":{"id":442872354,"highway":"service"},"geometry":{"type":"LineString","coordinates":[[139.138879,34.190036],[139.138584,34.190205],[139.138479,34.190302]]}},{"type":"Feature","properties":{"id":442872355,"highway":"service"},"geometry":{"type":"LineString","coordinates":[[139.138291,34.189638],[139.138606,34.189659],[139.13863,34.189493]]}},{"type":"Feature","properties":{"id":442872356,"highway":"service"},"geometry":{"type":"LineString","coordinates":[[139.134933,34.190564],[139.134891,34.190434],[139.13486,34.190341],[139.134855,34.190324],[139.134803,34.190306],[139.134347,34.190412],[139.134301,34.190477],[139.134329,34.190563],[139.134373,34.190694]]}},{"type":"Feature","properties":{"id":442872358,"highway":"service"},"geometry":{"type":"LineString","coordinates":[[139.130609,34.189683],[139.130857,34.189594],[139.131082,34.189441],[139.131324,34.189313],[139.1316,34.1892]]}},{"type":"Feature","properties":{"id":442872359,"highway":"service"},"geometry":{"type":"LineString","coordinates":[[139.136326,34.188466],[139.136318,34.188407],[139.137074,34.188068],[139.137045,34.187966],[139.136457,34.188106],[139.136248,34.188123]]}},{"type":"Feature","properties":{"id":442872360,"highway":"service"},"geometry":{"type":"LineString","coordinates":[[139.128122,34.189803],[139.128019,34.189748],[139.127885,34.189759],[139.12755,34.189816],[139.127147,34.189969],[139.127021,34.190147],[139.126726,34.190604],[139.126729,34.190775]]}},{"type":"Feature","properties":{"id":709245670,"highway":"secondary"},"geometry":{"type":"LineString","coordinates":[[139.140888,34.191267],[139.140992,34.191414],[139.141068,34.191558],[139.141221,34.192021],[139.141276,34.192138],[139.141384,34.192247],[139.141489,34.192298],[139.141655,34.192335],[139.141812,34.192318],[139.141945,34.192276],[139.142219,34.192135],[139.142249,34.192117],[139.142672,34.191856],[139.142871,34.191781],[139.143105,34.191772],[139.143412,34.191871],[139.143686,34.191915],[139.143843,34.191938],[139.14397,34.191993],[139.144024,34.192083],[139.144072,34.192205],[139.144132,34.192461],[139.144136,34.192535],[139.144112,34.192618],[139.143985,34.192739]]}},{"type":"Feature","properties":{"id":709245671,"highway":"secondary"},"geometry":{"type":"LineString","coordinates":[[139.143985,34.192739],[139.143925,34.192831],[139.143834,34.193081],[139.143794,34.193726],[139.143743,34.193868],[139.143589,34.19399],[139.143475,34.194099],[139.143202,34.194659],[139.143139,34.194777],[139.143168,34.194914],[139.143435,34.195149],[139.143481,34.195239],[139.143498,34.195568],[139.143686,34.196251],[139.143737,34.196435],[139.14372,34.196624],[139.1436,34.196906],[139.1436,34.197038],[139.143646,34.197278],[139.14421,34.197825],[139.144341,34.197891],[139.144586,34.197895],[139.144842,34.197919],[139.14495,34.198079],[139.145001,34.198404],[139.145093,34.198574],[139.145372,34.198757],[139.145451,34.198875],[139.14548,34.199045],[139.145441,34.199272],[139.14535,34.199802]]}},{"type":"Feature","properties":{"id":709245673,"highway":"secondary"},"geometry":{"type":"LineString","coordinates":[[139.14535,34.199802],[139.145231,34.200016],[139.145057,34.200585],[139.145043,34.200631],[139.144954,34.200914],[139.144843,34.201015],[139.144482,34.201177],[139.144348,34.201295],[139.14422,34.20146],[139.144012,34.201794],[139.143925,34.201889]]}},{"type":"Feature","properties":{"id":709249687,"highway":"secondary"},"geometry":{"type":"LineString","coordinates":[[139.152434,34.20068],[139.152203,34.200383],[139.152152,34.200114],[139.152334,34.199556],[139.152459,34.199283],[139.152693,34.199066],[139.153222,34.198878],[139.153473,34.198713],[139.154048,34.19803],[139.154162,34.197775],[139.154225,34.19754],[139.154336,34.196962]]}},{"type":"Feature","properties":{"id":709249688,"highway":"secondary"},"geometry":{"type":"LineString","coordinates":[[139.149902,34.197816],[139.149708,34.197837],[139.148922,34.198058],[139.1487,34.198194],[139.148547,34.19843],[139.148359,34.198548],[139.148148,34.198581],[139.147527,34.198642],[139.147277,34.198713],[139.147111,34.198797],[139.146362,34.199236],[139.145887,34.199513],[139.145608,34.199702],[139.14535,34.199802]]}},{"type":"Feature","properties":{"id":719374004,"highway":"service"},"geometry":{"type":"LineString","coordinates":[[139.134891,34.190434],[139.134329,34.190563]]}},{"type":"Feature","properties":{"id":719374005,"highway":"service"},"geometry":{"type":"LineString","coordinates":[[139.13486,34.190341],[139.135312,34.190229]]}},{"type":"Feature","properties":{"id":719374009,"highway":"service"},"geometry":{"type":"LineString","coordinates":[[139.139235,34.190265],[139.139284,34.190303],[139.139308,34.190328],[139.139327,34.190361],[139.13934,34.190402],[139.139348,34.190429]]}},{"type":"Feature","properties":{"id":719374010,"highway":"service"},"geometry":{"type":"LineString","coordinates":[[139.13934,34.190402],[139.139595,34.190185]]}},{"type":"Feature","properties":{"id":719417347,"highway":"service"},"geometry":{"type":"LineString","coordinates":[[139.127408,34.198785],[139.127018,34.199086]]}},{"type":"Feature","properties":{"id":719417352,"highway":"tertiary"},"geometry":{"type":"LineString","coordinates":[[139.133069,34.191388],[139.1331,34.191309],[139.133108,34.191222],[139.133148,34.19114],[139.133274,34.190978],[139.133393,34.190911],[139.134373,34.190694]]}},{"type":"Feature","properties":{"id":724839182,"highway":"secondary"},"geometry":{"type":"LineString","coordinates":[[139.153124,34.199755],[139.152939,34.199819],[139.152717,34.200006],[139.152682,34.20021],[139.152819,34.200727],[139.153095,34.20145],[139.153315,34.20188],[139.153514,34.202187]]}}]}