{"type":"FeatureCollection","features":[{"type":"Feature","properties":{"id":27601120,"highway":"primary"},"geometry":{"type":"LineString","coordinates":[[139.155448,36.757228],[139.155278,36.757354],[139.155156,36.757505],[139.155048,36.757675],[139.154981,36.757824],[139.154962,36.75795],[139.154976,36.758044],[139.155024,36.758147],[139.155255,36.758424],[139.155291,36.758502],[139.155299,36.758585],[139.155281,36.758676],[139.155247,36.758742],[139.155159,36.758807],[139.155028,36.758873],[139.15447,36.759079],[139.154383,36.759133],[139.154318,36.759192],[139.154274,36.759263],[139.154255,36.759351],[139.15426,36.75943],[139.154284,36.759514],[139.15456,36.760027],[139.154565,36.76011],[139.154548,36.760184],[139.154481,36.760253],[139.154402,36.760295],[139.15432,36.760317],[139.154237,36.760331],[139.154136,36.760328],[139.154059,36.760308],[139.153515,36.760117],[139.153312,36.760055],[139.153263,36.760047],[139.153223,36.76005],[139.153173,36.760065],[139.153132,36.760095],[139.153103,36.760129],[139.152957,36.760449],[139.152941,36.760498],[139.152938,36.760555],[139.152924,36.760835],[139.152898,36.760901],[139.152866,36.760954],[139.152807,36.76099],[139.152728,36.761008],[139.152647,36.761001],[139.152581,36.760972],[139.152536,36.760926],[139.152513,36.760869],[139.152512,36.760799],[139.15254,36.760715],[139.152699,36.760287],[139.152703,36.760239],[139.152696,36.760191],[139.152687,36.760146],[139.152477,36.759614],[139.152287,36.759079],[139.152246,36.759004],[139.152187,36.758931],[139.152123,36.758863],[139.152044,36.758794],[139.151936,36.758729],[139.15176,36.758647],[139.151601,36.758557],[139.151523,36.758503],[139.151177,36.758246],[139.150893,36.758085],[139.149069,36.757232],[139.148889,36.757163],[139.148751,36.757129],[139.148606,36.757123],[139.148086,36.757188],[139.147887,36.757212],[139.147779,36.757213],[139.147673,36.757207],[139.147553,36.757183],[139.146948,36.756924],[139.14687,36.756875],[139.146798,36.756807],[139.146467,36.756215],[139.146405,36.756078],[139.146309,36.755966],[139.146215,36.755873],[139.145971,36.755573],[139.145845,36.755368],[139.145791,36.755211],[139.145647,36.754988],[139.145421,36.754722],[139.145353,36.754619],[139.145297,36.754502],[139.145248,36.754351],[139.145207,36.754189],[139.145195,36.754025],[139.145199,36.753875],[139.145286,36.753357],[139.145346,36.753136],[139.145407,36.752901],[139.14543,36.752779],[139.145421,36.752662],[139.145348,36.752424],[139.145337,36.752359],[139.145336,36.752296],[139.14536,36.752234],[139.145395,36.752182],[139.145698,36.751906],[139.145716,36.751855],[139.145722,36.751792],[139.145704,36.751723],[139.145673,36.751668],[139.145635,36.751624],[139.145565,36.751594],[139.145477,36.751585],[139.145371,36.7516],[139.144655,36.75176],[139.14459,36.751767],[139.144526,36.751769],[139.144433,36.751757],[139.144346,36.751735],[139.144301,36.751697],[139.144029,36.751346],[139.143982,36.7513],[139.143869,36.751237],[139.143769,36.751168],[139.143707,36.751105],[139.143651,36.751027],[139.143594,36.750929],[139.143486,36.750725],[139.14344,36.750683],[139.143324,36.75062],[139.143115,36.750508],[139.143081,36.750468],[139.143055,36.750425],[139.142976,36.750199],[139.142975,36.75015],[139.142989,36.750113],[139.143027,36.750062],[139.143201,36.749861],[139.143207,36.749805],[139.143197,36.749746],[139.14317,36.749693],[139.143104,36.749655],[139.143035,36.749628],[139.142494,36.749547],[139.142415,36.749511],[139.142374,36.749465],[139.142353,36.749419],[139.142343,36.749348],[139.142349,36.749286],[139.142369,36.749229],[139.142408,36.749179],[139.142631,36.749012],[139.142679,36.748951],[139.142704,36.748885],[139.142708,36.748823],[139.142685,36.748754],[139.142666,36.748711],[139.142598,36.74865],[139.142509,36.748611],[139.142411,36.748576],[139.141985,36.748461],[139.141914,36.748438],[139.141853,36.748398],[139.141796,36.748348],[139.141637,36.748152],[139.141542,36.748058],[139.140571,36.747312],[139.140527,36.747276],[139.140483,36.747221],[139.140227,36.74676],[139.140176,36.746718],[139.140109,36.746694],[139.140013,36.746679],[139.139928,36.746691],[139.139857,36.746731],[139.13983,36.746784],[139.139826,36.746847],[139.139849,36.746918],[139.13989,36.746979],[139.140331,36.747426],[139.140361,36.74749],[139.140393,36.747723],[139.140384,36.747823]]}},{"type":"Feature","properties":{"id":92512421,"highway":"residential"},"geometry":{"type":"LineString","coordinates":[[139.118593,36.711445],[139.118344,36.711284],[139.118189,36.711],[139.11789,36.71085],[139.11737,36.710763],[139.116998,36.709953],[139.11653,36.709954],[139.115952,36.71013],[139.115826,36.710129],[139.115591,36.710212],[139.115016,36.710444]]}},{"type":"Feature","properties":{"id":92512423,"highway":"tertiary"},"geometry":{"type":"LineString","coordinates":[[139.113084,36.711721],[139.111838,36.71139],[139.111759,36.711369],[139.110654,36.711075],[139.110386,36.711067],[139.110052,36.711092],[139.109998,36.711096],[139.109796,36.711058],[139.107922,36.710701],[139.107565,36.710633],[139.106262,36.710384],[139.105924,36.71032],[139.105841,36.710316],[139.105198,36.710286],[139.104418,36.710223]]}},{"type":"Feature","properties":{"id":92512424,"highway":"primary"},"geometry":{"type":"LineString","coordinates":[[139.158453,36.755075],[139.155448,36.757228]]}},{"type":"Feature","properties":{"id":92512428,"highway":"primary"},"geometry":{"type":"LineString","coordinates":[[139.190033,36.751055],[139.189072,36.751085],[139.188492,36.751137],[139.188127,36.751188],[139.187569,36.751463],[139.186587,36.75164],[139.186068,36.751721],[139.185772,36.751773],[139.184829,36.752339],[139.184701,36.75237],[139.184475,36.752407],[139.184258,36.752423],[139.183683,36.752373],[139.182183,36.752326],[139.182021,36.752311],[139.181853,36.752293],[139.180789,36.752129],[139.180662,36.75212],[139.180543,36.752128],[139.179787,36.752284],[139.179695,36.752294],[139.179586,36.752291],[139.179471,36.752267],[139.178394,36.751918],[139.178282,36.7519],[139.178178,36.751888],[139.177415,36.751865],[139.17729,36.751848],[139.176929,36.75174],[139.17667,36.75167],[139.176472,36.751651],[139.175642,36.751644],[139.175488,36.751637],[139.174637,36.751527],[139.174259,36.751484],[139.173149,36.751319],[139.173034,36.751311],[139.172959,36.751315],[139.172857,36.751317],[139.172535,36.751355],[139.172357,36.751369],[139.172188,36.75136],[139.171914,36.751301],[139.17085,36.751095],[139.167496,36.750427],[139.167378,36.750406],[139.167256,36.750399],[139.167073,36.750392],[139.166866,36.750394],[139.166635,36.750415],[139.166165,36.750463],[139.166064,36.750467],[139.165958,36.750461],[139.165862,36.750445],[139.165773,36.750423],[139.165695,36.750387],[139.165634,36.750344],[139.165062,36.749831],[139.16499,36.749778],[139.164908,36.749747],[139.164827,36.74973],[139.164756,36.749733],[139.164688,36.749749],[139.164616,36.74978],[139.164549,36.749834],[139.164501,36.749892],[139.16448,36.749946],[139.164482,36.750027],[139.164511,36.750105],[139.164752,36.750411],[139.164769,36.750469],[139.164765,36.750546],[139.164749,36.750611],[139.164707,36.75069],[139.164649,36.750747],[139.163941,36.751247],[139.163879,36.751322],[139.163863,36.751413],[139.163875,36.751491],[139.163917,36.751571],[139.163965,36.751623],[139.164039,36.751664],[139.165431,36.75208],[139.165521,36.752122],[139.165584,36.752173],[139.165637,36.752242],[139.165657,36.752318],[139.165653,36.752402],[139.165625,36.752473],[139.16557,36.752531],[139.165521,36.752564],[139.165465,36.752591],[139.165388,36.752607],[139.165321,36.752611],[139.165247,36.752607],[139.164741,36.752487],[139.16467,36.752484],[139.164584,36.752488],[139.164495,36.752497],[139.164417,36.752513],[139.164333,36.752541],[139.164275,36.752561],[139.164204,36.752599],[139.164147,36.752645],[139.162667,36.754027],[139.162577,36.754091],[139.162463,36.754164],[139.162318,36.754244],[139.162181,36.754305],[139.16205,36.754348],[139.161908,36.754379],[139.161735,36.754409],[139.161585,36.754425],[139.159398,36.754655],[139.159219,36.754693],[139.159025,36.754745],[139.158852,36.754814],[139.15871,36.75489],[139.158585,36.754977],[139.158453,36.755075]]}},{"type":"Feature","properties":{"id":92512455,"highway":"tertiary"},"geometry":{"type":"LineString","coordinates":[[139.110927,36.70326],[139.109453,36.70364],[139.109016,36.70374],[139.108533,36.703826],[139.107982,36.703819],[139.107901,36.703818]]}},{"type":"Feature","properties":{"id":92512456,"highway":"residential"},"geometry":{"type":"LineString","coordinates":[[139.109796,36.711058],[139.109384,36.708664],[139.10887,36.705907],[139.108533,36.703826]]}},{"type":"Feature","properties":{"id":92526052,"highway":"primary"},"geometry":{"type":"LineString","coordinates":[[139.190033,36.751055],[139.190632,36.751043],[139.191408,36.750982],[139.191847,36.750926],[139.192076,36.75089],[139.192891,36.750771],[139.19369,36.750572],[139.19424,36.750559],[139.194453,36.750557],[139.194908,36.750588],[139.195139,36.750607],[139.195954,36.750674],[139.196127,36.750689],[139.196358,36.750745],[139.196975,36.750954],[139.197224,36.751022],[139.197422,36.751049],[139.197715,36.751065],[139.198172,36.751084],[139.198635,36.751094],[139.199142,36.751074],[139.19942,36.751065],[139.199729,36.751049],[139.19989,36.75102],[139.200052,36.750977],[139.200192,36.750912],[139.200358,36.750805],[139.20066,36.750535],[139.20081,36.750415],[139.200952,36.750345],[139.201132,36.750286],[139.202241,36.750103],[139.20256,36.750087],[139.202859,36.75009],[139.203149,36.750111],[139.203319,36.750131],[139.203832,36.750229],[139.204336,36.750317],[139.204482,36.750329],[139.2046,36.750324],[139.204711,36.750303],[139.204828,36.750252],[139.204922,36.750198],[139.205195,36.749893],[139.205419,36.749671],[139.205498,36.749527],[139.205517,36.749377],[139.205479,36.749264],[139.205369,36.749169],[139.205114,36.749166],[139.204724,36.749264],[139.204076,36.749385],[139.203309,36.749532],[139.203014,36.749634],[139.20262,36.749799],[139.20221,36.749886],[139.201942,36.749857],[139.201798,36.749789],[139.201771,36.749618]]}},{"type":"Feature","properties":{"id":127637473,"highway":"unclassified"},"geometry":{"type":"LineString","coordinates":[[139.173211,36.776493],[139.173256,36.776463],[139.17329,36.776446],[139.173327,36.776429],[139.17336,36.776418],[139.174002,36.776291],[139.175403,36.776066],[139.175598,36.776048]]}},{"type":"Feature","properties":{"id":127637501,"highway":"tertiary"},"geometry":{"type":"LineString","coordinates":[[139.191564,36.763129],[139.191361,36.763196],[139.190696,36.763422],[139.189703,36.763747],[139.189296,36.763888],[139.189009,36.763984],[139.188876,36.764029],[139.188806,36.764063],[139.187707,36.764847],[139.187679,36.764857]]}},{"type":"Feature","properties":{"id":127637512,"highway":"residential"},"geometry":{"type":"LineString","coordinates":[[139.188581,36.768031],[139.188564,36.768094],[139.188547,36.768148],[139.188536,36.768236],[139.188541,36.768289],[139.188561,36.76837],[139.18858,36.768404],[139.188603,36.768464],[139.18862,36.768553],[139.188646,36.768605],[139.188683,36.768656],[139.188737,36.768699],[139.188793,36.768732],[139.188827,36.768744],[139.188885,36.768744],[139.188909,36.768738],[139.188935,36.768727],[139.188977,36.768701],[139.18901,36.768675],[139.189042,36.768634],[139.189059,36.768591],[139.189111,36.768377],[139.189115,36.768324],[139.189124,36.768236],[139.189133,36.768174],[139.189148,36.768129],[139.189167,36.768072],[139.189195,36.768046],[139.189232,36.768039],[139.189279,36.768042],[139.189338,36.768058],[139.189417,36.76807],[139.189453,36.768063],[139.189497,36.768039],[139.189534,36.768007],[139.189555,36.76796],[139.189556,36.767916],[139.18956,36.76775],[139.189563,36.767724],[139.189568,36.767704],[139.189584,36.76768],[139.189619,36.767666],[139.189673,36.767659],[139.189725,36.767657],[139.189758,36.76765],[139.189781,36.76764],[139.189802,36.767628],[139.189823,36.767593],[139.189837,36.767561],[139.189844,36.767514],[139.18984,36.767474],[139.189844,36.767431],[139.189849,36.767384],[139.189873,36.767331],[139.18991,36.767284],[139.189962,36.767243],[139.189999,36.76722],[139.190022,36.767201],[139.19003,36.76718],[139.190041,36.767116],[139.190038,36.767091],[139.190022,36.767044],[139.189999,36.766992],[139.189966,36.766917],[139.189957,36.766877],[139.189943,36.766825],[139.189945,36.766798],[139.189956,36.766762],[139.18998,36.766739],[139.190033,36.766737],[139.190106,36.766739],[139.190228,36.766735],[139.190282,36.766723],[139.190315,36.766704],[139.190353,36.766675],[139.190381,36.766647],[139.190394,36.766605],[139.190394,36.766567],[139.190386,36.766534],[139.190355,36.766477],[139.190261,36.766377],[139.190179,36.76628],[139.190137,36.766227],[139.190083,36.766157],[139.190032,36.766087],[139.189952,36.765964],[139.189917,36.765905],[139.189903,36.765852],[139.189893,36.765792],[139.189891,36.765734],[139.189901,36.7657],[139.189935,36.765635],[139.189978,36.765557],[139.190027,36.765477],[139.190143,36.765337],[139.190366,36.765097],[139.190518,36.764944],[139.19065,36.764822],[139.190721,36.76476],[139.190771,36.764725],[139.190818,36.764704],[139.190866,36.76468],[139.190888,36.764659],[139.190918,36.764616],[139.190951,36.76455],[139.190967,36.764515]]}},{"type":"Feature","properties":{"id":127637522,"highway":"residential"},"geometry":{"type":"LineString","coordinates":[[139.197283,36.761522],[139.196914,36.761733],[139.19674,36.761801],[139.196429,36.761861],[139.196331,36.761873],[139.195981,36.761912],[139.195757,36.761923],[139.195449,36.761923],[139.195211,36.76189],[139.194959,36.761822],[139.194566,36.761715]]}},{"type":"Feature","properties":{"id":127637530,"highway":"unclassified"},"geometry":{"type":"LineString","coordinates":[[139.194349,36.757907],[139.195476,36.756887],[139.195589,36.756797],[139.195841,36.756905],[139.196107,36.756995],[139.196247,36.757028],[139.196338,36.75704],[139.196352,36.757051],[139.196534,36.757068],[139.196947,36.757062],[139.197115,36.757035]]}},{"type":"Feature","properties":{"id":127637536,"highway":"tertiary"},"geometry":{"type":"LineString","coordinates":[[139.198108,36.766035],[139.198255,36.766102],[139.198528,36.766187],[139.198801,36.76622],[139.199157,36.766249],[139.199717,36.766271],[139.201243,36.766265],[139.201825,36.76622],[139.202,36.766169],[139.202154,36.766119],[139.202378,36.766097]]}},{"type":"Feature","properties":{"id":127637542,"highway":"residential"},"geometry":{"type":"LineString","coordinates":[[139.190239,36.801955],[139.190294,36.801876],[139.190343,36.80184],[139.190419,36.801791],[139.190488,36.801758],[139.190584,36.801729],[139.190682,36.801717],[139.190823,36.801719],[139.190919,36.801731],[139.19097,36.801742],[139.191008,36.801778],[139.191041,36.80182],[139.191061,36.801878],[139.191106,36.802039],[139.191139,36.802121],[139.191175,36.80219],[139.191222,36.80227],[139.191271,36.802331],[139.191306,36.802367],[139.191353,36.802407],[139.191413,36.802441],[139.19148,36.802468],[139.191536,36.802485],[139.191594,36.802492],[139.191656,36.802496],[139.191746,36.80249],[139.191808,36.802474],[139.191862,36.802445],[139.191938,36.802394],[139.191991,36.802349],[139.192049,36.802309],[139.192109,36.802273],[139.192188,36.802256],[139.192295,36.802264],[139.192375,36.802273],[139.192469,36.802289],[139.192523,36.802302],[139.192572,36.802316],[139.192723,36.802347],[139.192788,36.802356],[139.19288,36.80236],[139.192976,36.802354],[139.193049,36.802345],[139.193103,36.802316],[139.193142,36.802271],[139.193158,36.802233],[139.193169,36.802119],[139.193153,36.802039],[139.193131,36.801949],[139.193086,36.801838],[139.193006,36.801706],[139.192966,36.801648],[139.192945,36.80161],[139.192934,36.801581],[139.19293,36.801559],[139.19293,36.801528],[139.192943,36.801474],[139.192959,36.801425],[139.193075,36.801227],[139.193185,36.801047],[139.193252,36.800984],[139.193317,36.800944],[139.193393,36.800904],[139.193478,36.800875],[139.193607,36.800844],[139.193721,36.800821],[139.193794,36.800812],[139.193875,36.800797],[139.193942,36.800781],[139.194004,36.800757],[139.194064,36.800721],[139.194114,36.800676],[139.194172,36.800616],[139.194254,36.800518],[139.19434,36.800387],[139.194382,36.800309],[139.194424,36.800204],[139.194447,36.800135],[139.194463,36.800055],[139.194478,36.799946],[139.194478,36.799738],[139.194449,36.799614],[139.194368,36.799398],[139.194259,36.799159],[139.194217,36.799051],[139.194174,36.798922],[139.19415,36.798826],[139.194134,36.798677],[139.194128,36.79852],[139.194139,36.798317],[139.194161,36.798186],[139.194201,36.798045],[139.194333,36.79774],[139.194396,36.797616],[139.194431,36.797527],[139.194451,36.797458],[139.194456,36.7974],[139.194445,36.797379],[139.194422,36.797363],[139.194396,36.797352],[139.194355,36.797342],[139.194325,36.79734],[139.194279,36.797345],[139.194249,36.797361],[139.194215,36.797385],[139.194187,36.797418],[139.194155,36.797478],[139.194095,36.797636],[139.194084,36.797721],[139.194029,36.79787],[139.193992,36.797923],[139.193932,36.798],[139.193771,36.798218],[139.193736,36.798278],[139.193706,36.798347],[139.193669,36.798425],[139.193635,36.798487],[139.19358,36.798572],[139.19352,36.798638],[139.193449,36.79873],[139.193366,36.798878],[139.193323,36.798973],[139.193302,36.799085],[139.193279,36.799191],[139.193242,36.799288],[139.193219,36.799355],[139.193201,36.799389],[139.193173,36.799408],[139.193148,36.799412],[139.193121,36.799421]]}},{"type":"Feature","properties":{"id":127637550,"highway":"residential"},"geometry":{"type":"LineString","coordinates":[[139.199146,36.756336],[139.199351,36.756356],[139.199514,36.75634],[139.199635,36.756317],[139.199683,36.756298],[139.199739,36.756268],[139.199885,36.756145],[139.200054,36.755979],[139.200185,36.755856],[139.200289,36.755774],[139.200413,36.755706],[139.200595,36.755626]]}},{"type":"Feature","properties":{"id":127637556,"highway":"unclassified"},"geometry":{"type":"LineString","coordinates":[[139.197752,36.757282],[139.19785,36.757242],[139.197955,36.757186],[139.198088,36.757141],[139.19834,36.757096],[139.198515,36.757102],[139.198654,36.757135],[139.198864,36.757135],[139.198906,36.757102],[139.198941,36.757013],[139.199032,36.756579],[139.199146,36.756336]]}},{"type":"Feature","properties":{"id":127637697,"highway":"tertiary"},"geometry":{"type":"LineString","coordinates":[[139.184701,36.75237],[139.184565,36.753594],[139.184537,36.753706],[139.184502,36.753757],[139.184348,36.75392],[139.184215,36.754095],[139.184152,36.754202],[139.184131,36.754303],[139.18411,36.75468],[139.184054,36.754748],[139.183627,36.755092],[139.183298,36.755383],[139.182981,36.755596]]}},{"type":"Feature","properties":{"id":127637733,"highway":"unclassified"},"geometry":{"type":"LineString","coordinates":[[139.190661,36.759907],[139.190276,36.759654],[139.190136,36.759547],[139.190269,36.759428],[139.191564,36.75811],[139.192964,36.757772],[139.193125,36.757727],[139.193195,36.757715],[139.19374,36.757575],[139.193845,36.757575],[139.194019,36.757692],[139.194146,36.757772],[139.194272,36.75786],[139.194349,36.757907]]}},{"type":"Feature","properties":{"id":127637775,"highway":"tertiary"},"geometry":{"type":"LineString","coordinates":[[139.197569,36.765369],[139.197366,36.765105],[139.197149,36.764874],[139.196933,36.764682],[139.196814,36.764598],[139.19652,36.764429],[139.196352,36.764351],[139.19596,36.764199],[139.195827,36.764171],[139.195596,36.764092],[139.195337,36.763985],[139.194679,36.763619],[139.194301,36.763399],[139.193684,36.763022],[139.19297,36.762583],[139.192774,36.762498]]}},{"type":"Feature","properties":{"id":127637783,"highway":"unclassified"},"geometry":{"type":"LineString","coordinates":[[139.198108,36.766035],[139.197898,36.766045],[139.197499,36.766045],[139.197142,36.766012],[139.196827,36.765955],[139.196568,36.765882],[139.196247,36.765747],[139.196101,36.765662],[139.195921,36.765572],[139.195689,36.76544],[139.195465,36.765339],[139.195337,36.765285],[139.194819,36.765089],[139.193832,36.76475],[139.193502,36.764637],[139.193432,36.764592]]}},{"type":"Feature","properties":{"id":127637794,"highway":"unclassified"},"geometry":{"type":"LineString","coordinates":[[139.182981,36.755596],[139.182745,36.755744],[139.182584,36.755885],[139.182388,36.756121],[139.181941,36.756837],[139.181849,36.756928],[139.181429,36.757231],[139.181359,36.757316],[139.181268,36.757654],[139.181206,36.757784],[139.181108,36.757908],[139.180393,36.758572],[139.180015,36.758933],[139.17984,36.759096],[139.179638,36.759259],[139.179498,36.759417],[139.179455,36.759524],[139.179379,36.759704],[139.179249,36.759921]]}},{"type":"Feature","properties":{"id":127637799,"highway":"tertiary"},"geometry":{"type":"LineString","coordinates":[[139.191847,36.750926],[139.191963,36.751127],[139.192193,36.751284],[139.192472,36.751464],[139.192703,36.751566],[139.192975,36.751622],[139.193395,36.751679],[139.193612,36.751724],[139.193801,36.751797],[139.193926,36.751876],[139.19401,36.751937],[139.194184,36.752124],[139.194247,36.752169],[139.194464,36.752253],[139.194548,36.752321],[139.194695,36.75258],[139.194883,36.752783],[139.195015,36.753098]]}},{"type":"Feature","properties":{"id":127637803,"highway":"tertiary"},"geometry":{"type":"LineString","coordinates":[[139.175598,36.776048],[139.175634,36.776033],[139.175673,36.776015],[139.175736,36.776001],[139.175845,36.775982],[139.175983,36.77597],[139.176305,36.775919],[139.176459,36.775869],[139.17662,36.775801],[139.176873,36.775615],[139.176893,36.775593],[139.176943,36.77557],[139.177159,36.775559],[139.177285,36.775536],[139.177398,36.775497],[139.177803,36.775097],[139.177943,36.774984],[139.178069,36.774905],[139.178447,36.774736],[139.178552,36.774663],[139.178846,36.774354],[139.179007,36.774258],[139.17942,36.774117],[139.179707,36.774044],[139.179847,36.773897],[139.179959,36.773796],[139.180155,36.773802],[139.1804,36.773852],[139.18061,36.773847],[139.180757,36.773779],[139.181043,36.773588],[139.181148,36.773519],[139.18126,36.773464],[139.181498,36.773379],[139.181855,36.773278],[139.182129,36.773227],[139.182282,36.773204],[139.18259,36.773081],[139.182674,36.77303],[139.182772,36.77294],[139.183024,36.772574],[139.183185,36.772315],[139.183284,36.772123],[139.183424,36.771655],[139.183529,36.771396],[139.183717,36.770994],[139.184397,36.769549],[139.18446,36.769425],[139.1853,36.767403],[139.185377,36.767274],[139.185495,36.767189],[139.185888,36.766993],[139.186014,36.766897],[139.186182,36.766739],[139.186343,36.766677],[139.186609,36.766643],[139.186714,36.766615],[139.186784,36.766519],[139.187029,36.76595],[139.187323,36.76541],[139.187456,36.765207],[139.187679,36.764857]]}},{"type":"Feature","properties":{"id":127637840,"highway":"residential"},"geometry":{"type":"LineString","coordinates":[[139.196075,36.754644],[139.196173,36.754547],[139.196249,36.754447],[139.19634,36.754385],[139.196429,36.754348],[139.196541,36.754348],[139.196702,36.754388],[139.197052,36.754455],[139.197219,36.754455],[139.197367,36.754421],[139.197661,36.754421],[139.19806,36.754472],[139.198508,36.754506],[139.198543,36.754517],[139.199158,36.754619],[139.199431,36.754686],[139.19955,36.754747],[139.199679,36.754847],[139.200013,36.755084]]}},{"type":"Feature","properties":{"id":127637848,"highway":"unclassified"},"geometry":{"type":"LineString","coordinates":[[139.193432,36.764592],[139.19342,36.764487]]}},{"type":"Feature","properties":{"id":127637913,"highway":"tertiary"},"geometry":{"type":"LineString","coordinates":[[139.196189,36.791906],[139.196012,36.791709]]}},{"type":"Feature","properties":{"id":127637924,"highway":"unclassified"},"geometry":{"type":"LineString","coordinates":[[139.174259,36.751484],[139.17405,36.751868],[139.173924,36.752133],[139.173728,36.752423],[139.173631,36.752636],[139.173547,36.752878],[139.173427,36.753103],[139.173307,36.753268],[139.173282,36.753305],[139.17319,36.75334],[139.173023,36.753315],[139.172959,36.75332],[139.172798,36.753441],[139.17262,36.753552],[139.172416,36.753634],[139.172346,36.753688],[139.172281,36.753802],[139.172247,36.753955]]}},{"type":"Feature","properties":{"id":127637926,"highway":"unclassified"},"geometry":{"type":"LineString","coordinates":[[139.19342,36.764487],[139.193391,36.76422]]}},{"type":"Feature","properties":{"id":127637962,"highway":"unclassified"},"geometry":{"type":"LineString","coordinates":[[139.196288,36.791999],[139.196189,36.791906]]}},{"type":"Feature","properties":{"id":127637973,"highway":"tertiary"},"geometry":{"type":"LineString","coordinates":[[139.19787,36.765771],[139.198108,36.766035]]}},{"type":"Feature","properties":{"id":127638014,"highway":"tertiary"},"geometry":{"type":"LineString","coordinates":[[139.196012,36.791709],[139.195941,36.791587]]}},{"type":"Feature","properties":{"id":127638015,"highway":"tertiary"},"geometry":{"type":"LineString","coordinates":[[139.197569,36.765369],[139.19787,36.765771]]}},{"type":"Feature","properties":{"id":127638027,"highway":"tertiary"},"geometry":{"type":"LineString","coordinates":[[139.192597,36.76242],[139.192774,36.762498]]}},{"type":"Feature","properties":{"id":127638045,"highway":"residential"},"geometry":{"type":"LineString","coordinates":[[139.190967,36.764515],[139.191134,36.764202]]}},{"type":"Feature","properties":{"id":127638046,"highway":"tertiary"},"geometry":{"type":"LineString","coordinates":[[139.191564,36.763129],[139.191648,36.763101]]}},{"type":"Feature","properties":{"id":127638074,"highway":"unclassified"},"geometry":{"type":"LineString","coordinates":[[139.200013,36.755084],[139.199995,36.755101]]}},{"type":"Feature","properties":{"id":127638098,"highway":"tertiary"},"geometry":{"type":"LineString","coordinates":[[139.197264,36.783418],[139.197317,36.783353],[139.197709,36.782977],[139.19787,36.782797],[139.197996,36.78269],[139.198374,36.782525],[139.198436,36.782475],[139.198604,36.782154],[139.198801,36.78185],[139.198983,36.781681],[139.199129,36.781569],[139.199368,36.781451],[139.199438,36.781428],[139.199613,36.781344],[139.199801,36.781282],[139.200131,36.781197],[139.200243,36.781152],[139.200418,36.781],[139.200439,36.780972],[139.200466,36.780859]]}},{"type":"Feature","properties":{"id":127638125,"highway":"residential"},"geometry":{"type":"LineString","coordinates":[[139.180293,36.766554],[139.180426,36.766443],[139.18054,36.766335],[139.180643,36.766197],[139.180728,36.7661],[139.180823,36.766039],[139.180903,36.766011],[139.181019,36.765989],[139.181127,36.765978],[139.181213,36.765973],[139.181291,36.765959],[139.181357,36.765937],[139.181443,36.765892],[139.181548,36.765823],[139.181659,36.765715],[139.181801,36.765519],[139.181969,36.765275],[139.182038,36.765182],[139.182093,36.7651],[139.182182,36.765004],[139.182293,36.764912],[139.182376,36.764854]]}},{"type":"Feature","properties":{"id":127638148,"highway":"residential"},"geometry":{"type":"LineString","coordinates":[[139.189689,36.753419],[139.189806,36.753413],[139.189838,36.753402],[139.189877,36.753383],[139.18995,36.753375],[139.190073,36.753366],[139.190093,36.753373],[139.190115,36.753401],[139.190271,36.753643],[139.190552,36.75408],[139.190664,36.754222],[139.190807,36.754383],[139.190971,36.754547],[139.191145,36.754702],[139.191184,36.754742],[139.191207,36.754769],[139.191218,36.754798],[139.191236,36.75511],[139.191246,36.755448],[139.19124,36.755546],[139.191234,36.755623],[139.19118,36.756064],[139.19115,36.75627],[139.191102,36.75647]]}},{"type":"Feature","properties":{"id":127638239,"highway":"residential"},"geometry":{"type":"LineString","coordinates":[[139.189689,36.753419],[139.189654,36.753294]]}},{"type":"Feature","properties":{"id":127638273,"highway":"unclassified"},"geometry":{"type":"LineString","coordinates":[[139.199995,36.755101],[139.199767,36.755317],[139.199536,36.755514]]}},{"type":"Feature","properties":{"id":127638293,"highway":"tertiary"},"geometry":{"type":"LineString","coordinates":[[139.175598,36.776048],[139.175603,36.776283],[139.175607,36.776474]]}},{"type":"Feature","properties":{"id":127638390,"highway":"residential"},"geometry":{"type":"LineString","coordinates":[[139.188149,36.757653],[139.188078,36.757612],[139.188025,36.7576],[139.187957,36.75761],[139.187905,36.757618],[139.187847,36.757678],[139.187779,36.757745],[139.187729,36.757779],[139.187685,36.757779],[139.187647,36.757768],[139.18761,36.75774],[139.18758,36.75768],[139.187562,36.75757],[139.187547,36.75718],[139.187519,36.75673],[139.187525,36.756504],[139.18756,36.756324],[139.187715,36.755986],[139.187805,36.755723],[139.187847,36.755593],[139.18791,36.755244],[139.18796,36.754911],[139.187952,36.754714],[139.187939,36.754653],[139.187952,36.754399],[139.187967,36.754331],[139.188009,36.754268],[139.188077,36.75419],[139.18814,36.754136],[139.18833,36.754],[139.188462,36.753913],[139.188535,36.753886],[139.18863,36.753862],[139.188739,36.753828],[139.188905,36.753779]]}},{"type":"Feature","properties":{"id":127638397,"highway":"tertiary"},"geometry":{"type":"LineString","coordinates":[[139.195941,36.791587],[139.195881,36.79142],[139.195938,36.791071],[139.196056,36.790625],[139.196056,36.790416],[139.195994,36.790275],[139.195833,36.790084],[139.195595,36.789909],[139.195301,36.789622],[139.195203,36.789487],[139.194993,36.789173],[139.194937,36.789043],[139.194937,36.788908],[139.195007,36.788677],[139.195069,36.788378],[139.195133,36.788181],[139.195203,36.78804],[139.195714,36.787573],[139.195896,36.787308],[139.195952,36.78719],[139.195987,36.787066],[139.196008,36.786903],[139.196043,36.786418],[139.196092,36.785917],[139.19612,36.785725],[139.196218,36.784993],[139.196379,36.784424],[139.196414,36.78435],[139.196582,36.784182],[139.196995,36.7839],[139.197072,36.783832],[139.197135,36.783715],[139.197149,36.78363],[139.197198,36.7835],[139.197264,36.783418]]}},{"type":"Feature","properties":{"id":127638437,"highway":"unclassified"},"geometry":{"type":"LineString","coordinates":[[139.194566,36.761715],[139.194825,36.761653],[139.195064,36.761597],[139.195294,36.761524],[139.195351,36.76149],[139.195834,36.76131],[139.195918,36.761259],[139.196163,36.761062],[139.196415,36.760718],[139.196436,36.760634],[139.196429,36.760578],[139.196303,36.760448],[139.196225,36.760393],[139.196212,36.760368],[139.196207,36.76034],[139.196216,36.760308],[139.196253,36.760276],[139.196334,36.760249],[139.196436,36.760215],[139.19652,36.760194],[139.196625,36.760149],[139.196779,36.760059],[139.19682,36.759997],[139.19684,36.759947],[139.196833,36.759892],[139.196797,36.759844],[139.196513,36.759811],[139.196464,36.759783],[139.196415,36.759682],[139.196464,36.759367],[139.196541,36.759141],[139.196639,36.759011],[139.197213,36.758448],[139.197423,36.758222],[139.197514,36.758042],[139.19757,36.757856],[139.197661,36.75744],[139.197696,36.757366],[139.197752,36.757282]]}},{"type":"Feature","properties":{"id":127638463,"highway":"residential"},"geometry":{"type":"LineString","coordinates":[[139.172257,36.751466],[139.172188,36.75136]]}},{"type":"Feature","properties":{"id":127638490,"highway":"residential"},"geometry":{"type":"LineString","coordinates":[[139.199995,36.755101],[139.200161,36.755242],[139.200505,36.755535],[139.200595,36.755626]]}},{"type":"Feature","properties":{"id":127638506,"highway":"unclassified"},"geometry":{"type":"LineString","coordinates":[[139.196884,36.756658],[139.196989,36.75677],[139.197052,36.756921],[139.197115,36.757035]]}},{"type":"Feature","properties":{"id":127638507,"highway":"unclassified"},"geometry":{"type":"LineString","coordinates":[[139.197752,36.757282],[139.197402,36.75709],[139.19715,36.757028],[139.197115,36.757035]]}},{"type":"Feature","properties":{"id":127638519,"highway":"residential"},"geometry":{"type":"LineString","coordinates":[[139.171167,36.752039],[139.171326,36.751952],[139.171711,36.751794],[139.172257,36.751466]]}},{"type":"Feature","properties":{"id":127638537,"highway":"residential"},"geometry":{"type":"LineString","coordinates":[[139.185587,36.761095],[139.185664,36.760876],[139.185712,36.760628],[139.185797,36.760442],[139.185845,36.760296],[139.185915,36.760172],[139.186095,36.759996],[139.186177,36.759918],[139.186265,36.759855],[139.186412,36.759744],[139.18651,36.759686],[139.186585,36.759644],[139.186637,36.759603],[139.186675,36.759567],[139.186709,36.759525],[139.186745,36.759473],[139.186809,36.759398],[139.186895,36.759271],[139.186947,36.759193],[139.187002,36.759105],[139.18705,36.759041],[139.187207,36.758945],[139.187234,36.758923],[139.187289,36.758887],[139.187339,36.758843],[139.1874,36.758793],[139.187472,36.758751],[139.187552,36.75871],[139.187597,36.758674],[139.18766,36.758621],[139.18769,36.75858],[139.187744,36.758486],[139.187808,36.758383],[139.187938,36.758223],[139.188005,36.758172],[139.188049,36.75813],[139.188085,36.758085],[139.188102,36.758044],[139.188124,36.75793],[139.188149,36.757805],[139.188149,36.757653]]}},{"type":"Feature","properties":{"id":127638640,"highway":"residential"},"geometry":{"type":"LineString","coordinates":[[139.202374,36.749092],[139.202452,36.748864],[139.202465,36.748792],[139.202443,36.748728],[139.202391,36.748716],[139.202261,36.748757],[139.202015,36.748837],[139.201902,36.748863],[139.201573,36.748868],[139.201481,36.748855],[139.20147,36.748829],[139.201489,36.748772],[139.201555,36.748683],[139.20177,36.748498],[139.201779,36.748437],[139.201774,36.748292],[139.201778,36.748177],[139.201802,36.748074],[139.201909,36.747916],[139.201984,36.747804],[139.201992,36.747705],[139.201968,36.74765],[139.201849,36.747515],[139.201806,36.74738],[139.201802,36.74717],[139.201837,36.747019],[139.201893,36.746765],[139.201901,36.746591],[139.201853,36.746424],[139.201746,36.746214],[139.201611,36.746044],[139.201421,36.745853],[139.201146,36.745683],[139.2009,36.745571],[139.200797,36.745504],[139.200734,36.745448],[139.200658,36.745353],[139.200523,36.745234],[139.200341,36.745155],[139.2,36.745115],[139.199468,36.745009],[139.19863,36.744779],[139.198058,36.744597],[139.197816,36.744488],[139.197623,36.744372],[139.197338,36.744135],[139.197102,36.743967],[139.196835,36.743825]]}},{"type":"Feature","properties":{"id":127638681,"highway":"unclassified"},"geometry":{"type":"LineString","coordinates":[[139.199146,36.756336],[139.199235,36.75601],[139.199298,36.755841],[139.199445,36.755599],[139.199536,36.755514]]}},{"type":"Feature","properties":{"id":127638683,"highway":"unclassified"},"geometry":{"type":"LineString","coordinates":[[139.173386,36.777073],[139.17329,36.776845],[139.173211,36.776662],[139.173181,36.776565],[139.173184,36.776522],[139.173211,36.776493]]}},{"type":"Feature","properties":{"id":127638692,"highway":"residential"},"geometry":{"type":"LineString","coordinates":[[139.196835,36.743825],[139.196777,36.743792],[139.196514,36.743665],[139.196328,36.743595],[139.196221,36.743578]]}},{"type":"Feature","properties":{"id":127638798,"highway":"residential"},"geometry":{"type":"LineString","coordinates":[[139.182376,36.764854],[139.182478,36.764805],[139.182556,36.764752],[139.182639,36.764697],[139.182811,36.764612],[139.183033,36.764515],[139.183305,36.764384],[139.183412,36.764352],[139.183453,36.764327],[139.183495,36.764292],[139.183561,36.764232],[139.183611,36.764185],[139.183666,36.764112],[139.183736,36.764005],[139.183808,36.763925],[139.183893,36.763831],[139.183982,36.763745],[139.184052,36.763657],[139.184195,36.76346],[139.184594,36.762988],[139.184657,36.762922],[139.184737,36.762834],[139.185012,36.762462],[139.185106,36.762356],[139.185184,36.762262],[139.18528,36.762141],[139.185384,36.762008],[139.185489,36.761858],[139.185519,36.761798],[139.18553,36.761748],[139.185525,36.761712],[139.185495,36.761689],[139.18546,36.761678],[139.185425,36.761667],[139.18538,36.761673],[139.18535,36.761692],[139.185317,36.761725],[139.185272,36.761775],[139.185236,36.761814],[139.185205,36.761836],[139.185184,36.761847],[139.185154,36.761844],[139.185125,36.761828],[139.185106,36.761806],[139.185092,36.761773],[139.185084,36.761734],[139.185079,36.761699],[139.185081,36.76166],[139.185115,36.761602],[139.185225,36.761474],[139.185272,36.761424],[139.18537,36.761341],[139.185422,36.761297],[139.185484,36.761248],[139.185512,36.76122],[139.185542,36.761187],[139.185562,36.761156],[139.185587,36.761095]]}},{"type":"Feature","properties":{"id":127638803,"highway":"residential"},"geometry":{"type":"LineString","coordinates":[[139.192531,36.768015],[139.19277,36.767755],[139.192858,36.76768],[139.192996,36.767541],[139.193125,36.767415],[139.193181,36.767349],[139.193209,36.767318],[139.193261,36.76727],[139.193303,36.767245],[139.193336,36.76723],[139.193374,36.767223],[139.193421,36.767217],[139.193468,36.767215],[139.193507,36.767202],[139.193536,36.767185],[139.193551,36.76716],[139.193561,36.76712],[139.193561,36.76707],[139.19357,36.767017],[139.193611,36.766935],[139.193765,36.766764],[139.193926,36.766602],[139.19402,36.766489],[139.194059,36.766432],[139.194084,36.766387],[139.194103,36.766344],[139.194111,36.7663],[139.194111,36.766267],[139.194105,36.76623],[139.194086,36.766202],[139.194057,36.766182],[139.194013,36.766167],[139.193932,36.766135],[139.193878,36.766095],[139.193845,36.766074],[139.19381,36.766044],[139.193778,36.766009],[139.193761,36.76597],[139.193751,36.765924],[139.193746,36.765865],[139.193751,36.765774],[139.193755,36.76567],[139.19375,36.765617],[139.193742,36.7656],[139.193717,36.765585],[139.193675,36.765569],[139.193623,36.765562],[139.193277,36.765524],[139.19323,36.765519],[139.193198,36.765514],[139.193177,36.765502],[139.193158,36.765479],[139.193142,36.765445],[139.19314,36.765407],[139.193137,36.765347],[139.193158,36.765254],[139.193283,36.764864],[139.193337,36.764728],[139.193432,36.764592]]}},{"type":"Feature","properties":{"id":127638812,"highway":"unclassified"},"geometry":{"type":"LineString","coordinates":[[139.196884,36.756658],[139.199053,36.755582],[139.199312,36.755469],[139.19941,36.755475],[139.19948,36.755503],[139.199536,36.755514]]}},{"type":"Feature","properties":{"id":127638827,"highway":"residential"},"geometry":{"type":"LineString","coordinates":[[139.173631,36.752636],[139.173281,36.752478],[139.173096,36.752394],[139.172939,36.752306],[139.172878,36.752223],[139.172851,36.752118],[139.172818,36.75204],[139.172709,36.751947],[139.172257,36.751466]]}},{"type":"Feature","properties":{"id":127638834,"highway":"unclassified"},"geometry":{"type":"LineString","coordinates":[[139.196075,36.754644],[139.196002,36.754523],[139.195981,36.754467],[139.195986,36.754245],[139.196018,36.754023],[139.196029,36.753882]]}},{"type":"Feature","properties":{"id":127638846,"highway":"unclassified"},"geometry":{"type":"LineString","coordinates":[[139.192597,36.76242],[139.192956,36.762216],[139.193165,36.762121],[139.193747,36.76185],[139.193943,36.761805],[139.194566,36.761715]]}},{"type":"Feature","properties":{"id":127638925,"highway":"tertiary"},"geometry":{"type":"LineString","coordinates":[[139.195015,36.753098],[139.195189,36.753239],[139.195933,36.753648],[139.195988,36.753679],[139.196016,36.753715],[139.196026,36.75378],[139.196029,36.753882]]}},{"type":"Feature","properties":{"id":127638931,"highway":"residential"},"geometry":{"type":"LineString","coordinates":[[139.179455,36.759524],[139.179546,36.759564],[139.179918,36.759716],[139.180163,36.759834],[139.180338,36.759941],[139.180423,36.759993],[139.180585,36.760125]]}},{"type":"Feature","properties":{"id":127638934,"highway":"residential"},"geometry":{"type":"LineString","coordinates":[[139.194349,36.757907],[139.194221,36.757965],[139.192061,36.75847],[139.192012,36.75853],[139.191645,36.758897],[139.190963,36.759586],[139.190661,36.759907]]}},{"type":"Feature","properties":{"id":127639001,"highway":"tertiary"},"geometry":{"type":"LineString","coordinates":[[139.191648,36.763101],[139.191697,36.763078],[139.191984,36.762684],[139.192126,36.762521],[139.192234,36.76246],[139.192366,36.762432],[139.192498,36.762423],[139.192597,36.76242]]}},{"type":"Feature","properties":{"id":127639097,"highway":"residential"},"geometry":{"type":"LineString","coordinates":[[139.191648,36.763101],[139.191627,36.763202],[139.191606,36.763304],[139.191375,36.763939],[139.191361,36.763968],[139.191339,36.763996],[139.191293,36.764045],[139.191134,36.764202]]}},{"type":"Feature","properties":{"id":127639123,"highway":"residential"},"geometry":{"type":"LineString","coordinates":[[139.200796,36.772263],[139.198523,36.772643]]}},{"type":"Feature","properties":{"id":127639132,"highway":"unclassified"},"geometry":{"type":"LineString","coordinates":[[139.196884,36.756658],[139.196793,36.756579],[139.196436,36.756179],[139.196296,36.755987],[139.196219,36.755835],[139.196135,36.755328],[139.196128,36.754878],[139.196075,36.754644]]}},{"type":"Feature","properties":{"id":127639182,"highway":"unclassified"},"geometry":{"type":"LineString","coordinates":[[139.193121,36.799421],[139.19309,36.799399],[139.193057,36.799364],[139.193042,36.799313],[139.193033,36.799242],[139.193029,36.799117],[139.193033,36.798921],[139.193039,36.798861],[139.193061,36.798777],[139.193154,36.798526],[139.193175,36.798458],[139.193199,36.798339],[139.193205,36.798233],[139.193201,36.798161],[139.193167,36.798037],[139.193149,36.797962],[139.193146,36.797916],[139.19316,36.79787],[139.193273,36.797728],[139.193318,36.797664],[139.193338,36.79762],[139.19334,36.797575],[139.193333,36.79753],[139.193305,36.797499],[139.193267,36.797483],[139.193203,36.797477],[139.19315,36.797479],[139.19309,36.797492],[139.193035,36.797511],[139.19296,36.797572],[139.192928,36.797618],[139.192886,36.797678],[139.192847,36.79792],[139.192838,36.798031],[139.192832,36.798067],[139.192808,36.798101],[139.192742,36.798153],[139.192649,36.798211],[139.192468,36.798304],[139.192384,36.798332],[139.192283,36.79836],[139.192197,36.798378],[139.1921,36.798378],[139.192012,36.798358],[139.19198,36.798336],[139.191949,36.798304],[139.191931,36.798274],[139.191929,36.798238],[139.191936,36.798197],[139.191964,36.798149],[139.192041,36.798088],[139.192127,36.798038],[139.192228,36.797963],[139.192366,36.79785],[139.192407,36.797805],[139.192462,36.797713],[139.192485,36.797665],[139.192504,36.79761],[139.192513,36.797466],[139.192522,36.79741],[139.192536,36.797365],[139.192616,36.797204],[139.192724,36.797009],[139.192802,36.79685],[139.192851,36.796737],[139.192869,36.79667],[139.192876,36.796476],[139.192888,36.796326],[139.19289,36.796271],[139.192904,36.796241],[139.192922,36.796214],[139.192957,36.796189],[139.193026,36.796152],[139.19318,36.796085],[139.193386,36.79601],[139.193449,36.795989],[139.193492,36.795966],[139.193568,36.795906],[139.193662,36.795824],[139.193719,36.79578],[139.193786,36.795746],[139.193972,36.795679],[139.194213,36.795619],[139.194307,36.795616],[139.194424,36.795637],[139.194518,36.795662],[139.194597,36.795689],[139.194639,36.795701],[139.194684,36.795703],[139.19475,36.795695],[139.194815,36.795679],[139.194882,36.795655],[139.194973,36.795608],[139.195066,36.795564],[139.195157,36.795537],[139.195301,36.795486],[139.195402,36.795446],[139.195475,36.795409],[139.195495,36.795389],[139.195504,36.795362],[139.195504,36.795339],[139.195496,36.795316],[139.195479,36.795301],[139.195453,36.795286],[139.195419,36.795282],[139.195333,36.795283],[139.195138,36.795331],[139.195035,36.795347],[139.194812,36.795375],[139.194412,36.795371],[139.19419,36.795351],[139.193938,36.79532],[139.193653,36.795274],[139.193443,36.79524],[139.193293,36.79521],[139.193141,36.795174],[139.19302,36.795117],[139.192998,36.79508],[139.192989,36.795029],[139.193006,36.794984],[139.193017,36.794944],[139.193105,36.79488],[139.193508,36.7947],[139.193739,36.794593],[139.194243,36.794272],[139.194404,36.794131],[139.194551,36.793962],[139.194747,36.793787],[139.195089,36.79341],[139.195566,36.792875],[139.195986,36.792396],[139.196288,36.791999]]}},{"type":"Feature","properties":{"id":127639219,"highway":"unclassified"},"geometry":{"type":"LineString","coordinates":[[139.185432,36.76609],[139.185817,36.76577],[139.186209,36.76555],[139.186252,36.765522],[139.186609,36.765324],[139.187022,36.765117],[139.187414,36.764959],[139.187477,36.764947],[139.187679,36.764857]]}},{"type":"Feature","properties":{"id":127639220,"highway":"unclassified"},"geometry":{"type":"LineString","coordinates":[[139.192774,36.762498],[139.192683,36.762825],[139.19269,36.763078],[139.192725,36.763196],[139.192963,36.763563],[139.192998,36.763715],[139.193068,36.763827],[139.193264,36.764035],[139.193391,36.76422]]}},{"type":"Feature","properties":{"id":127639222,"highway":"residential"},"geometry":{"type":"LineString","coordinates":[[139.189686,36.753103],[139.189694,36.752984],[139.189776,36.752903],[139.19023,36.752733],[139.190886,36.752254],[139.191164,36.751926],[139.191246,36.7518],[139.191258,36.751592],[139.191408,36.750982]]}},{"type":"Feature","properties":{"id":127639235,"highway":"residential"},"geometry":{"type":"LineString","coordinates":[[139.188905,36.753779],[139.189104,36.753696],[139.189244,36.753649],[139.189385,36.753602],[139.189499,36.753571],[139.189595,36.753535],[139.189639,36.753503],[139.189673,36.753456],[139.189689,36.753419]]}},{"type":"Feature","properties":{"id":164350621,"highway":"tertiary"},"geometry":{"type":"LineString","coordinates":[[139.103008,36.722731],[139.103136,36.722942]]}},{"type":"Feature","properties":{"id":172495317,"highway":"secondary"},"geometry":{"type":"LineString","coordinates":[[139.103008,36.722731],[139.102895,36.722625],[139.102871,36.722602],[139.102724,36.722504],[139.102604,36.722422],[139.10251,36.72233],[139.102271,36.722035],[139.102212,36.721957],[139.101951,36.721607],[139.101713,36.721173],[139.101668,36.721089],[139.10124,36.720292],[139.101205,36.720211],[139.101171,36.720114],[139.101154,36.719984],[139.101165,36.719854],[139.101272,36.719169],[139.101277,36.71902],[139.101251,36.718885],[139.101131,36.718587],[139.101098,36.718486],[139.101098,36.718384],[139.101126,36.718282],[139.101509,36.71766],[139.10157,36.71756],[139.10161,36.717427],[139.101737,36.716538],[139.101744,36.716501],[139.101762,36.716465],[139.101812,36.716406]]}},{"type":"Feature","properties":{"id":179544407,"highway":"residential"},"geometry":{"type":"LineString","coordinates":[[139.114086,36.764783],[139.114147,36.764816],[139.114282,36.76493],[139.114458,36.765115],[139.114627,36.765315],[139.114866,36.765548],[139.11507,36.765719],[139.115389,36.766011],[139.115839,36.766406],[139.116136,36.766661],[139.116446,36.766911],[139.116992,36.767372],[139.117259,36.767599],[139.117575,36.767839]]}},{"type":"Feature","properties":{"id":179544419,"highway":"unclassified"},"geometry":{"type":"LineString","coordinates":[[139.103342,36.759834],[139.103332,36.759758],[139.103374,36.759691],[139.103534,36.759511],[139.103695,36.759364],[139.103863,36.75919],[139.103954,36.759049],[139.10394,36.758948],[139.103787,36.758616],[139.103745,36.758469],[139.103745,36.758295],[139.103787,36.758199],[139.10385,36.758126],[139.103927,36.758069],[139.103997,36.758069],[139.104074,36.758109],[139.10415,36.758199],[139.104241,36.758351],[139.104409,36.75852],[139.104598,36.758655],[139.104724,36.758706],[139.104919,36.758751],[139.10508,36.758824],[139.105206,36.758903],[139.105311,36.759004],[139.105451,36.75919],[139.10564,36.759511],[139.10587,36.760093],[139.105908,36.760157],[139.105982,36.760201],[139.106095,36.760231]]}},{"type":"Feature","properties":{"id":179544431,"highway":"residential"},"geometry":{"type":"LineString","coordinates":[[139.10817,36.767818],[139.108416,36.767696],[139.108441,36.767672],[139.108434,36.767587],[139.108392,36.767384],[139.108196,36.766776],[139.108112,36.766585],[139.108014,36.766326],[139.107993,36.766213],[139.107972,36.765881],[139.107958,36.765819],[139.107958,36.765661],[139.108104,36.765413],[139.108287,36.765064],[139.108364,36.765042],[139.108559,36.765042],[139.109071,36.765154],[139.109406,36.765183],[139.109568,36.765211],[139.109708,36.76525],[139.109924,36.765295],[139.110092,36.765346],[139.110183,36.765357],[139.110785,36.765464],[139.110974,36.765464],[139.111019,36.765452],[139.111056,36.765421],[139.1111,36.765363],[139.111184,36.765154],[139.111289,36.764839],[139.111373,36.764693],[139.111443,36.764535],[139.111527,36.764298],[139.111584,36.764087],[139.111618,36.764028],[139.11166,36.763993],[139.111702,36.763966],[139.111807,36.763938],[139.111982,36.763938],[139.112108,36.763977],[139.112178,36.764016],[139.112486,36.764163],[139.112589,36.7642],[139.112724,36.764247],[139.112963,36.764323],[139.113308,36.764458],[139.113753,36.76464],[139.113977,36.764722],[139.114086,36.764783]]}},{"type":"Feature","properties":{"id":179714151,"highway":"primary"},"geometry":{"type":"LineString","coordinates":[[139.137131,36.736164],[139.13725,36.736101],[139.137353,36.736028],[139.137422,36.735961],[139.137479,36.735879],[139.137517,36.735768],[139.137605,36.734492],[139.137604,36.734393],[139.137581,36.734261],[139.137518,36.734072],[139.137307,36.733664],[139.136925,36.732698],[139.136895,36.732648],[139.136837,36.732578]]}},{"type":"Feature","properties":{"id":179714152,"highway":"primary"},"geometry":{"type":"LineString","coordinates":[[139.140326,36.747942],[139.140282,36.74799],[139.140241,36.748015],[139.140192,36.748024],[139.140139,36.748016],[139.140086,36.747997],[139.140046,36.747964],[139.139943,36.747856],[139.139528,36.747532],[139.139152,36.747134],[139.138429,36.74667],[139.138362,36.74664],[139.138108,36.746567],[139.138066,36.746556],[139.138025,36.74653],[139.137899,36.746421],[139.137863,36.7464],[139.137821,36.746394],[139.137777,36.746403],[139.137517,36.746486],[139.137373,36.746506],[139.137302,36.746497],[139.137244,36.746465]]}},{"type":"Feature","properties":{"id":179714153,"highway":"primary"},"geometry":{"type":"LineString","coordinates":[[139.136567,36.732426],[139.136242,36.732278],[139.136185,36.732239],[139.136131,36.732187],[139.136096,36.732141],[139.136009,36.731968],[139.13593,36.731759],[139.135821,36.731296],[139.135802,36.731136],[139.135811,36.73101],[139.135997,36.730582],[139.136025,36.7305],[139.136043,36.730407],[139.135878,36.72943],[139.135874,36.729329],[139.135887,36.729221],[139.136044,36.728875],[139.136059,36.728798],[139.136057,36.728734],[139.136039,36.728682],[139.136001,36.728622],[139.135873,36.728509],[139.135771,36.728448],[139.135679,36.728392],[139.135601,36.728366],[139.135524,36.728364],[139.135425,36.728374],[139.135333,36.728395],[139.134744,36.728526],[139.134659,36.72853],[139.134579,36.728521],[139.13449,36.728476],[139.13399,36.727991],[139.133919,36.727936],[139.133833,36.727901],[139.133723,36.727869],[139.133594,36.727864],[139.132471,36.727995],[139.132377,36.728008],[139.132242,36.727994],[139.13215,36.72797],[139.131982,36.727906],[139.131848,36.727814],[139.131754,36.727736],[139.131679,36.727645],[139.131568,36.727438],[139.131468,36.727221],[139.131415,36.727028],[139.131385,36.726892],[139.13138,36.726752],[139.131398,36.726634],[139.131428,36.726527],[139.131487,36.726417],[139.131671,36.726176],[139.131982,36.725853],[139.132033,36.725771],[139.132067,36.72567],[139.132094,36.725568],[139.132115,36.725439],[139.132134,36.724794],[139.132121,36.724689],[139.132094,36.724603],[139.132047,36.724518],[139.131993,36.724452],[139.131911,36.724385],[139.131799,36.72432],[139.131689,36.724275],[139.131251,36.724132],[139.131143,36.724086],[139.131033,36.724032],[139.13091,36.723953],[139.130334,36.723503],[139.130262,36.723424],[139.129838,36.722872],[139.12977,36.722808],[139.129698,36.722757],[139.129632,36.722713],[139.129527,36.722675],[139.129423,36.722644],[139.127083,36.722092],[139.12697,36.722042],[139.126863,36.721976],[139.126773,36.721903],[139.126697,36.721829],[139.126449,36.721485],[139.126397,36.721399],[139.126366,36.721316],[139.126165,36.72049],[139.126097,36.720378],[139.126022,36.720278],[139.125912,36.720195],[139.125771,36.720126],[139.12451,36.719631],[139.124004,36.719193],[139.12318,36.718465],[139.122797,36.71797],[139.122729,36.717882],[139.122452,36.717626],[139.121966,36.717332],[139.121198,36.716904],[139.119049,36.715644],[139.118654,36.715324],[139.118374,36.714925],[139.117896,36.714232],[139.117264,36.713298],[139.116918,36.712831],[139.116362,36.712321],[139.116075,36.712011],[139.115848,36.711649],[139.115016,36.710444]]}},{"type":"Feature","properties":{"id":179714154,"highway":"primary"},"geometry":{"type":"LineString","coordinates":[[139.137244,36.746465],[139.13711,36.7463]]}},{"type":"Feature","properties":{"id":179714155,"highway":"primary"},"geometry":{"type":"LineString","coordinates":[[139.136882,36.736252],[139.137131,36.736164]]}},{"type":"Feature","properties":{"id":179714156,"highway":"primary"},"geometry":{"type":"LineString","coordinates":[[139.136837,36.732578],[139.136763,36.732525],[139.136696,36.732484],[139.136567,36.732426]]}},{"type":"Feature","properties":{"id":179714157,"highway":"primary"},"geometry":{"type":"LineString","coordinates":[[139.140384,36.747823],[139.140326,36.747942]]}},{"type":"Feature","properties":{"id":179714158,"highway":"primary"},"geometry":{"type":"LineString","coordinates":[[139.13711,36.7463],[139.137088,36.746274],[139.137065,36.746221],[139.136948,36.745812],[139.136905,36.745694],[139.136866,36.7456],[139.136766,36.745434],[139.136664,36.745274],[139.136583,36.745181],[139.135827,36.744449],[139.135378,36.743981],[139.135022,36.743636],[139.134387,36.7431],[139.134279,36.742987],[139.134215,36.742886],[139.134179,36.742809],[139.134066,36.74229],[139.134011,36.742196],[139.133824,36.741968],[139.133619,36.74175],[139.133518,36.741465],[139.13351,36.741385],[139.133558,36.740838],[139.133584,36.740762],[139.133634,36.74069],[139.133728,36.740629],[139.133858,36.740591],[139.134001,36.74057],[139.13474,36.740576],[139.134863,36.740556],[139.134958,36.74053],[139.135048,36.74049],[139.13513,36.740423],[139.135192,36.74033],[139.135236,36.740186],[139.135261,36.740059],[139.135271,36.739962],[139.135218,36.738745],[139.135234,36.738582],[139.135266,36.738372],[139.13531,36.738217],[139.135376,36.738068],[139.135482,36.737942],[139.135882,36.737654],[139.135975,36.737563],[139.136042,36.737463],[139.136077,36.737374],[139.136304,36.736683],[139.136347,36.736598],[139.136421,36.736508],[139.13649,36.736445],[139.136588,36.736373],[139.136705,36.73632],[139.136882,36.736252]]}},{"type":"Feature","properties":{"id":179714165,"highway":"unclassified"},"geometry":{"type":"LineString","coordinates":[[139.103514,36.752313],[139.103565,36.752266],[139.103629,36.75215],[139.103669,36.752065],[139.103678,36.75201],[139.103704,36.751865],[139.10368,36.751672],[139.103617,36.751531],[139.103512,36.751362],[139.103421,36.751142],[139.103386,36.750979]]}},{"type":"Feature","properties":{"id":179714172,"highway":"unclassified"},"geometry":{"type":"LineString","coordinates":[[139.135787,36.751857],[139.135827,36.752171],[139.136009,36.752475],[139.136086,36.752514],[139.136114,36.752524],[139.136149,36.752526],[139.136226,36.752526],[139.136268,36.752514],[139.13645,36.752379],[139.136548,36.752272],[139.136638,36.752137],[139.136925,36.75154],[139.136995,36.751315],[139.136995,36.751134],[139.136932,36.750853],[139.13685,36.750408],[139.136848,36.750396],[139.136834,36.750211],[139.136771,36.749883],[139.136687,36.749698],[139.136561,36.749505],[139.136464,36.749404],[139.136373,36.74923],[139.136247,36.748903],[139.136149,36.748728],[139.135995,36.748514],[139.135709,36.748274],[139.135622,36.748215],[139.13557,36.74817],[139.135545,36.748129],[139.135543,36.748093],[139.135563,36.748042],[139.135601,36.748],[139.135664,36.747976],[139.135768,36.747947],[139.135944,36.747901],[139.1361,36.747879],[139.136164,36.747884],[139.136265,36.747926],[139.13639,36.747992],[139.136483,36.748055],[139.136607,36.748133],[139.136721,36.748172],[139.136784,36.748182],[139.13684,36.748181],[139.136897,36.74817],[139.136988,36.748134],[139.137036,36.748098],[139.137073,36.748052],[139.137091,36.747988],[139.137095,36.747936],[139.13708,36.747885],[139.137048,36.747823],[139.136992,36.747761],[139.136936,36.74773],[139.136876,36.747712],[139.13681,36.747703],[139.136727,36.747704],[139.136589,36.747722],[139.136528,36.747719],[139.136469,36.747694],[139.136368,36.74761],[139.136267,36.747502],[139.136013,36.747163],[139.135958,36.747124],[139.135899,36.74709],[139.135836,36.74707],[139.135773,36.747062],[139.135723,36.747067],[139.135662,36.74709],[139.135575,36.747143],[139.135426,36.747329],[139.135326,36.747444],[139.135291,36.747496],[139.135227,36.747622],[139.135202,36.747662],[139.135164,36.747702],[139.135111,36.747719],[139.135032,36.747729],[139.134982,36.747718],[139.13495,36.747694],[139.134909,36.747645],[139.134886,36.747583],[139.134889,36.747544],[139.134901,36.747512],[139.134942,36.747471],[139.135101,36.747346],[139.135277,36.747228],[139.13531,36.747183],[139.135412,36.746861],[139.135463,36.74671],[139.135501,36.746657],[139.135533,36.746619],[139.135606,36.746564],[139.13573,36.746501],[139.135885,36.746455],[139.136057,36.746414],[139.136135,36.746412]]}},{"type":"Feature","properties":{"id":179714174,"highway":"tertiary"},"geometry":{"type":"LineString","coordinates":[[139.103136,36.722942],[139.103333,36.723544],[139.103357,36.723858],[139.103251,36.724269],[139.103212,36.724524],[139.103293,36.724738],[139.103647,36.7252],[139.103799,36.725567],[139.103756,36.726495],[139.103777,36.726684],[139.103777,36.727166],[139.103749,36.729066],[139.103778,36.729866],[139.103704,36.730317],[139.10367,36.731001],[139.103678,36.73131],[139.103727,36.731526],[139.103906,36.731824],[139.104484,36.732728],[139.104607,36.732956],[139.104627,36.733348],[139.104748,36.733607],[139.105086,36.734011],[139.105301,36.734355],[139.10543,36.73475],[139.105494,36.735283],[139.105497,36.735812],[139.105524,36.735977],[139.105585,36.736107],[139.105944,36.736607],[139.106309,36.736882],[139.106629,36.736994],[139.106898,36.737038],[139.107008,36.737144],[139.107012,36.737269],[139.106932,36.737364],[139.106767,36.737389],[139.106281,36.737348],[139.106152,36.737403],[139.106073,36.737519],[139.105945,36.738981],[139.105859,36.739307],[139.105698,36.739594],[139.105584,36.739845],[139.105574,36.740007],[139.105646,36.740108],[139.105781,36.740159],[139.1059,36.740137],[139.106029,36.740011],[139.106095,36.739788],[139.106195,36.739561],[139.106316,36.739488],[139.106446,36.739472],[139.106545,36.739531],[139.106592,36.739598],[139.106612,36.739766],[139.106545,36.740029],[139.106052,36.740786],[139.105966,36.741095],[139.106159,36.742729],[139.106052,36.746065],[139.105966,36.746615],[139.105771,36.747124],[139.105451,36.748351],[139.105322,36.748747],[139.104872,36.74952],[139.104679,36.749985],[139.104566,36.750679],[139.104528,36.75124],[139.104485,36.751463],[139.104378,36.751584],[139.104199,36.751601],[139.104056,36.751549],[139.103949,36.751446],[139.10382,36.751021],[139.103691,36.750827],[139.103496,36.750714],[139.103318,36.750701],[139.103159,36.750754],[139.103048,36.750896],[139.103091,36.751137],[139.10325,36.751409],[139.103518,36.752006],[139.103514,36.752313],[139.103436,36.752544],[139.103219,36.752718],[139.10279,36.752873],[139.102318,36.753011],[139.102189,36.7532],[139.102211,36.753389],[139.102447,36.753458],[139.102962,36.753389],[139.103241,36.75332],[139.103366,36.75334],[139.103498,36.753458],[139.104098,36.754327],[139.104314,36.754884],[139.1044,36.755263],[139.104464,36.755882],[139.104614,36.756363],[139.104979,36.756758],[139.105966,36.757584],[139.106245,36.757827],[139.106331,36.758048],[139.106321,36.758183],[139.106196,36.758244],[139.10604,36.758229],[139.105926,36.75813],[139.105707,36.757849],[139.105595,36.757752],[139.105448,36.757657],[139.105317,36.757669],[139.105223,36.757742],[139.105202,36.757861],[139.105258,36.758013],[139.105451,36.758185],[139.105837,36.758563],[139.106095,36.759062],[139.106138,36.759681],[139.106095,36.760231]]}},{"type":"Feature","properties":{"id":179714185,"highway":"unclassified"},"geometry":{"type":"LineString","coordinates":[[139.103359,36.750419],[139.103386,36.750979]]}},{"type":"Feature","properties":{"id":179714189,"highway":"unclassified"},"geometry":{"type":"LineString","coordinates":[[139.103906,36.731824],[139.103709,36.73216]]}},{"type":"Feature","properties":{"id":179714195,"highway":"unclassified"},"geometry":{"type":"LineString","coordinates":[[139.103709,36.73216],[139.103632,36.732304]]}},{"type":"Feature","properties":{"id":179714217,"highway":"unclassified"},"geometry":{"type":"LineString","coordinates":[[139.100939,36.734622],[139.100982,36.734637],[139.101021,36.734664],[139.101048,36.734699],[139.101057,36.734742],[139.101075,36.734895],[139.101095,36.734934],[139.101156,36.734967],[139.101242,36.734982],[139.101331,36.73498],[139.101392,36.734975],[139.101436,36.734959],[139.101468,36.734939],[139.101541,36.73487],[139.101676,36.734716],[139.101718,36.734681],[139.10236,36.73437],[139.102507,36.734306],[139.102629,36.734271],[139.10273,36.734269],[139.103078,36.734297],[139.103147,36.734316],[139.103205,36.73435],[139.103239,36.734377],[139.103293,36.734533],[139.103325,36.7346],[139.103359,36.734654],[139.103408,36.734691],[139.103518,36.73476],[139.103628,36.73481],[139.103694,36.734837]]}},{"type":"Feature","properties":{"id":179714219,"highway":"unclassified"},"geometry":{"type":"LineString","coordinates":[[139.099946,36.735358],[139.09993,36.735316],[139.099893,36.73529],[139.099771,36.735259],[139.09959,36.735263],[139.099434,36.735257],[139.099094,36.735225],[139.099003,36.735234],[139.098725,36.735279],[139.098666,36.735273],[139.098616,36.735254],[139.098584,36.735218],[139.098575,36.735181],[139.098588,36.735128],[139.098621,36.735097],[139.098654,36.735082],[139.09878,36.735081],[139.098871,36.735088],[139.098949,36.735083],[139.099026,36.735067],[139.099779,36.734842],[139.099869,36.734828],[139.100352,36.734802],[139.100443,36.734785],[139.100792,36.734633],[139.100841,36.734614],[139.100939,36.734622]]}},{"type":"Feature","properties":{"id":179714230,"highway":"unclassified"},"geometry":{"type":"LineString","coordinates":[[139.135336,36.750167],[139.135486,36.750342],[139.135577,36.750477],[139.135619,36.7506],[139.135619,36.750798],[139.135591,36.750916],[139.135612,36.75117],[139.135676,36.751285],[139.135687,36.751479],[139.135702,36.751682],[139.135754,36.75176],[139.135787,36.751857]]}},{"type":"Feature","properties":{"id":179714234,"highway":"unclassified"},"geometry":{"type":"LineString","coordinates":[[139.090145,36.724848],[139.090285,36.724808],[139.090397,36.724718],[139.090474,36.724611],[139.090642,36.724278],[139.090726,36.724199],[139.090789,36.724166],[139.090838,36.724154],[139.090876,36.724143],[139.090936,36.724154],[139.09104,36.724199],[139.091082,36.724238],[139.091166,36.724396],[139.091306,36.724746],[139.091446,36.724999],[139.091593,36.725201],[139.091683,36.725286],[139.091731,36.725324],[139.09178,36.725344],[139.09182,36.725356],[139.091857,36.725358],[139.091894,36.725358],[139.09196,36.725353],[139.092034,36.725329],[139.092121,36.725306],[139.092187,36.725253],[139.09222,36.725165],[139.092202,36.724954],[139.092166,36.724836],[139.092124,36.724644],[139.092124,36.724221],[139.092166,36.723974],[139.092201,36.723867],[139.092264,36.723799],[139.092334,36.723748],[139.092536,36.723665],[139.092697,36.723625],[139.092942,36.72358],[139.093613,36.723507],[139.094494,36.723389],[139.094879,36.723327],[139.094984,36.723293],[139.095082,36.723231],[139.095138,36.723141],[139.095138,36.723017],[139.094984,36.722646],[139.094928,36.722454],[139.094928,36.722296],[139.094963,36.722218],[139.095019,36.722161],[139.095075,36.722122],[139.09511,36.722105],[139.095165,36.722096],[139.095256,36.722105],[139.095571,36.722246],[139.095739,36.722291],[139.096151,36.722336],[139.09627,36.722364],[139.09634,36.722409],[139.09638,36.722485],[139.096394,36.722652],[139.096436,36.722866],[139.096499,36.722968],[139.096604,36.723052],[139.096799,36.723137],[139.09696,36.72317],[139.097023,36.72321],[139.097065,36.723266],[139.097093,36.723356],[139.097142,36.723777],[139.097163,36.723863],[139.097224,36.723961],[139.097303,36.724032],[139.097394,36.724071],[139.09747,36.724071],[139.097545,36.724055],[139.097618,36.724026],[139.097688,36.723981],[139.097736,36.723902],[139.097786,36.723762],[139.097897,36.72352],[139.098002,36.723216],[139.098051,36.723159],[139.098135,36.723125],[139.098268,36.72312],[139.098331,36.723131],[139.098429,36.72317],[139.098505,36.723244],[139.09854,36.723345],[139.098568,36.723598],[139.098602,36.723829],[139.098609,36.724032],[139.098595,36.724075],[139.09857,36.724121],[139.098536,36.724168],[139.098518,36.724218],[139.098522,36.72441],[139.098531,36.724483],[139.098554,36.724569],[139.098574,36.724628],[139.09859,36.724771],[139.098567,36.724921],[139.098562,36.725144],[139.098602,36.725343],[139.098637,36.725445],[139.098742,36.725659],[139.098875,36.7258],[139.099009,36.725857],[139.099245,36.725845],[139.099589,36.725774],[139.099767,36.725769],[139.099917,36.725805],[139.100002,36.725839],[139.100099,36.72594],[139.100175,36.726037],[139.100287,36.726262],[139.100365,36.726487],[139.100357,36.726662],[139.100322,36.726734],[139.100239,36.726814],[139.100162,36.726854],[139.100072,36.726875],[139.099477,36.726882],[139.099399,36.726915],[139.099362,36.726981],[139.099347,36.727046],[139.099343,36.72729],[139.099406,36.727554],[139.099424,36.727606],[139.099444,36.727645],[139.099486,36.727685],[139.099533,36.727717],[139.099585,36.727737],[139.099663,36.727747],[139.09972,36.727745],[139.09983,36.727721],[139.099986,36.727673],[139.100031,36.727665],[139.100085,36.727665],[139.100152,36.727686],[139.1003,36.727728],[139.100402,36.727748],[139.100471,36.727752],[139.100699,36.727755],[139.100792,36.727764],[139.100864,36.72779],[139.101017,36.727911],[139.101091,36.727946],[139.101182,36.727984],[139.101288,36.727998],[139.101515,36.72799],[139.101605,36.72798],[139.101668,36.727991],[139.101739,36.728019],[139.101795,36.728065],[139.101824,36.72812],[139.101838,36.728159],[139.10184,36.728212],[139.101826,36.728262],[139.101802,36.7283],[139.101759,36.72834],[139.1017,36.728386],[139.101568,36.728432],[139.101497,36.728463],[139.101462,36.728501],[139.101438,36.728547],[139.101433,36.728594],[139.101437,36.728633],[139.101453,36.728681],[139.101515,36.728784],[139.101532,36.728835],[139.10153,36.728885],[139.101519,36.72893],[139.101468,36.729028],[139.101441,36.729095],[139.101428,36.729168],[139.101429,36.729216],[139.101437,36.729259],[139.101485,36.729332],[139.101553,36.729395],[139.101605,36.729438],[139.101669,36.729465],[139.101738,36.729476],[139.101814,36.72948],[139.101922,36.729475],[139.101985,36.729471],[139.102038,36.729478],[139.102097,36.729505],[139.102144,36.729534],[139.102185,36.729573],[139.102287,36.729735],[139.102312,36.729791],[139.102329,36.729848],[139.102317,36.730114],[139.10233,36.730184],[139.102362,36.730284],[139.102423,36.730451],[139.102455,36.730519],[139.10249,36.730563],[139.102545,36.730612],[139.102643,36.730659],[139.102732,36.7307],[139.102777,36.730739],[139.102798,36.730767],[139.102813,36.730821],[139.102806,36.730948],[139.102795,36.731088],[139.102817,36.731162],[139.102899,36.731366],[139.102963,36.731571],[139.102989,36.731664],[139.102995,36.731998],[139.103022,36.732125],[139.103058,36.732222],[139.103101,36.732312],[139.103137,36.732362],[139.103172,36.732396],[139.103213,36.732429],[139.103266,36.732455],[139.103327,36.732472],[139.103391,36.732472],[139.103461,36.732456],[139.10351,36.732439],[139.103555,36.73241],[139.103611,36.732391]]}},{"type":"Feature","properties":{"id":179714244,"highway":"unclassified"},"geometry":{"type":"LineString","coordinates":[[139.103611,36.732391],[139.103673,36.732408],[139.10375,36.732462],[139.103867,36.732584],[139.103998,36.732737],[139.104039,36.73281],[139.104095,36.732967],[139.104104,36.7331]]}},{"type":"Feature","properties":{"id":179714246,"highway":"unclassified"},"geometry":{"type":"LineString","coordinates":[[139.103632,36.732304],[139.103611,36.732391]]}},{"type":"Feature","properties":{"id":179714263,"highway":"unclassified"},"geometry":{"type":"LineString","coordinates":[[139.103694,36.734837],[139.103764,36.734855],[139.1038,36.734857],[139.103828,36.734849],[139.103854,36.734829],[139.104009,36.734671],[139.104105,36.734551],[139.104175,36.734405],[139.104177,36.734346],[139.10417,36.734308],[139.104134,36.734225]]}},{"type":"Feature","properties":{"id":179714267,"highway":"unclassified"},"geometry":{"type":"LineString","coordinates":[[139.098249,36.736924],[139.098254,36.736926],[139.09831,36.736984],[139.098327,36.73701],[139.098347,36.737042],[139.09836,36.737067],[139.098437,36.737124],[139.0985,36.737141],[139.098573,36.737146],[139.098629,36.737149],[139.098675,36.737141],[139.098829,36.737119],[139.098888,36.73711],[139.098942,36.737117],[139.098974,36.737127],[139.098999,36.737146],[139.099016,36.737187],[139.099019,36.737222],[139.098999,36.737274],[139.098932,36.737476],[139.098923,36.737513],[139.098925,36.737559],[139.098944,36.737597],[139.098983,36.737631],[139.099034,36.737645],[139.099113,36.737655],[139.099242,36.737649],[139.099461,36.737644],[139.099557,36.737627],[139.099611,36.737604],[139.099698,36.737548],[139.099809,36.73747],[139.099967,36.737394],[139.100061,36.737354],[139.100128,36.737313],[139.100154,36.737281],[139.100158,36.737246],[139.100139,36.737211],[139.100107,36.737182],[139.10006,36.737153],[139.100011,36.737148],[139.099972,36.737158],[139.099874,36.737219],[139.099762,36.737302],[139.099734,36.737322],[139.099684,36.737333],[139.099624,36.737333],[139.099569,36.737322],[139.099531,36.737298],[139.099511,36.737265],[139.099504,36.737211],[139.099514,36.737144],[139.099561,36.737039],[139.099585,36.736967],[139.099592,36.73688],[139.099583,36.736823],[139.099558,36.736772],[139.099526,36.736734],[139.099423,36.736656],[139.099367,36.736609],[139.099361,36.736573],[139.099376,36.736535],[139.099421,36.736475],[139.099522,36.736391],[139.0996,36.7363],[139.099632,36.736226],[139.099645,36.736171],[139.09964,36.736138],[139.09962,36.736094],[139.099549,36.73604],[139.099454,36.73598],[139.099406,36.735925],[139.099398,36.735884],[139.099411,36.735836],[139.099439,36.735783],[139.09949,36.735729],[139.099549,36.73569],[139.09961,36.735664],[139.099759,36.7356],[139.099858,36.735551],[139.099923,36.73551],[139.099946,36.735476],[139.099954,36.735451],[139.099953,36.735414],[139.099946,36.735358]]}},{"type":"Feature","properties":{"id":179714269,"highway":"unclassified"},"geometry":{"type":"LineString","coordinates":[[139.105771,36.747124],[139.105576,36.747175],[139.105524,36.747217],[139.105483,36.747295],[139.105457,36.747364],[139.105424,36.747427],[139.105373,36.747511],[139.105329,36.747584],[139.105285,36.747646],[139.105233,36.747701],[139.105175,36.747738],[139.105094,36.74776],[139.105021,36.747789],[139.104988,36.747811],[139.104962,36.747844],[139.104944,36.747873],[139.104918,36.74791],[139.104893,36.747952],[139.104867,36.747967],[139.104845,36.747976],[139.104776,36.747991],[139.104734,36.747994],[139.104702,36.747991],[139.104669,36.747978],[139.104654,36.747954],[139.104654,36.747936],[139.104658,36.747892],[139.104676,36.74784],[139.104694,36.747774],[139.104716,36.747719],[139.104724,36.747683],[139.104705,36.747631],[139.104662,36.747604],[139.104616,36.747594],[139.104529,36.747599],[139.104435,36.747629],[139.104394,36.747653],[139.104369,36.747685],[139.104343,36.747754],[139.104357,36.747869],[139.104379,36.748013],[139.104375,36.748075],[139.104371,36.748141],[139.104368,36.748203],[139.104353,36.748295],[139.10433,36.748384],[139.104265,36.748557],[139.104191,36.748718],[139.104096,36.748868],[139.104034,36.748964],[139.10396,36.749081],[139.103876,36.749209],[139.103828,36.749319],[139.103751,36.74948],[139.10371,36.74957],[139.103685,36.749676],[139.103655,36.749819],[139.103648,36.749955],[139.103644,36.750046],[139.103632,36.75008],[139.103615,36.750109],[139.103586,36.750124],[139.103568,36.750136],[139.103537,36.750142],[139.103501,36.750142],[139.103465,36.750131],[139.103446,36.750112],[139.103434,36.750079],[139.103424,36.750039],[139.103413,36.750006],[139.103406,36.749981],[139.103395,36.749966],[139.103377,36.749955],[139.103336,36.749948],[139.103307,36.749948],[139.103267,36.749955],[139.103237,36.749969],[139.103226,36.749995],[139.103226,36.750028],[139.10323,36.750068],[139.103241,36.750098],[139.10327,36.750164],[139.103299,36.750222],[139.103311,36.750252],[139.103333,36.750296],[139.103359,36.750419]]}},{"type":"Feature","properties":{"id":179714270,"highway":"unclassified"},"geometry":{"type":"LineString","coordinates":[[139.104104,36.7331],[139.104122,36.733369],[139.104127,36.733708],[139.104096,36.734018],[139.104099,36.734094],[139.104134,36.734225]]}},{"type":"Feature","properties":{"id":179716094,"highway":"unclassified"},"geometry":{"type":"LineString","coordinates":[[139.129652,36.700485],[139.129691,36.700321],[139.129726,36.700203],[139.129726,36.70004],[139.129684,36.699927],[139.129578,36.69974]]}},{"type":"Feature","properties":{"id":179716457,"highway":"secondary"},"geometry":{"type":"LineString","coordinates":[[139.101812,36.716406],[139.101975,36.716274]]}},{"type":"Feature","properties":{"id":179716458,"highway":"secondary"},"geometry":{"type":"LineString","coordinates":[[139.101975,36.716274],[139.102019,36.716217],[139.102048,36.716138],[139.102039,36.716055],[139.102008,36.715951],[139.101912,36.715705],[139.101727,36.715091],[139.101688,36.714962],[139.101656,36.714831],[139.101635,36.714675],[139.101698,36.714163],[139.101713,36.714074],[139.10177,36.713893],[139.101885,36.713703],[139.102174,36.713276],[139.102404,36.712946],[139.102479,36.712857],[139.103183,36.712036],[139.103273,36.711931],[139.103379,36.711825],[139.103481,36.711746],[139.103592,36.711692],[139.104002,36.711559],[139.104102,36.711518],[139.104178,36.71146],[139.104236,36.711388],[139.10429,36.711288],[139.104315,36.711189],[139.104321,36.711069],[139.104325,36.710977],[139.10434,36.710582],[139.104378,36.71036],[139.104418,36.710223],[139.104584,36.709814],[139.104598,36.709687],[139.104586,36.709586],[139.104564,36.709527],[139.104541,36.709469]]}},{"type":"Feature","properties":{"id":179716463,"highway":"residential"},"geometry":{"type":"LineString","coordinates":[[139.114243,36.711709],[139.114337,36.71174],[139.114411,36.711786],[139.11448,36.711821],[139.114583,36.711851],[139.114676,36.711866],[139.114789,36.711917],[139.114905,36.711952],[139.115023,36.711971],[139.115103,36.71193],[139.115204,36.711909],[139.115363,36.711944],[139.115643,36.712153],[139.115825,36.71227],[139.115923,36.7123],[139.116037,36.712343],[139.116362,36.712321]]}},{"type":"Feature","properties":{"id":179716483,"highway":"residential"},"geometry":{"type":"LineString","coordinates":[[139.109781,36.712204],[139.109721,36.712344],[139.109582,36.712577],[139.109419,36.712986],[139.109422,36.713065],[139.109469,36.71323],[139.109454,36.714579],[139.109341,36.715409],[139.10935,36.715505],[139.109376,36.715601],[139.109446,36.715813],[139.109511,36.715948],[139.109612,36.71622],[139.109681,36.716387],[139.10976,36.716613],[139.109791,36.716677],[139.109817,36.716744],[139.109825,36.716835],[139.10983,36.717044],[139.109769,36.717953]]}},{"type":"Feature","properties":{"id":179877840,"highway":"secondary"},"geometry":{"type":"LineString","coordinates":[[139.104541,36.709469],[139.104453,36.709281]]}},{"type":"Feature","properties":{"id":179877841,"highway":"secondary"},"geometry":{"type":"LineString","coordinates":[[139.104453,36.709281],[139.104432,36.709212],[139.104425,36.709189],[139.104439,36.708798],[139.104425,36.708444],[139.1044,36.708261],[139.104358,36.708091],[139.104299,36.707853],[139.104242,36.707545],[139.104229,36.707436],[139.104245,36.70688],[139.104253,36.706737],[139.104254,36.706716],[139.104255,36.706489],[139.104175,36.705929],[139.104087,36.704962],[139.10409,36.704803],[139.104107,36.704571],[139.104161,36.704326],[139.104191,36.704227],[139.104239,36.704161],[139.104437,36.70396],[139.104519,36.703882],[139.104547,36.703802],[139.10455,36.703616],[139.104512,36.703518],[139.104328,36.703178],[139.104098,36.702767],[139.103969,36.702528],[139.103922,36.702378],[139.103772,36.701761],[139.103646,36.701317],[139.103338,36.700505],[139.103197,36.699954],[139.103039,36.699397],[139.103002,36.699287],[139.102942,36.699172],[139.102798,36.698936],[139.102703,36.698831],[139.10254,36.69865],[139.102382,36.698484],[139.102189,36.698325],[139.101832,36.698073],[139.10133,36.697632],[139.100946,36.69739],[139.100819,36.697307],[139.100713,36.697225],[139.100628,36.697146],[139.100557,36.697042],[139.100407,36.696739],[139.100298,36.696517],[139.100205,36.696391],[139.100092,36.696284],[139.099907,36.696181],[139.098874,36.695719],[139.098673,36.695645],[139.098502,36.695603],[139.097781,36.695517],[139.097695,36.695497],[139.097571,36.695446],[139.097445,36.695364],[139.096901,36.694911],[139.096782,36.694828],[139.096664,36.694778],[139.096511,36.694742],[139.096391,36.694707],[139.09627,36.694661],[139.096174,36.694576],[139.095942,36.694287],[139.095637,36.69388],[139.095533,36.693781],[139.095276,36.69359],[139.095134,36.693465],[139.095077,36.693387],[139.095034,36.693272],[139.09495,36.693093],[139.094859,36.692994],[139.094739,36.692912],[139.094507,36.692792]]}},{"type":"Feature","properties":{"id":179877842,"highway":"residential"},"geometry":{"type":"LineString","coordinates":[[139.105492,36.703774],[139.105558,36.704019],[139.1056,36.704136],[139.10567,36.704249],[139.105862,36.704332],[139.106123,36.704465],[139.106253,36.704602]]}},{"type":"Feature","properties":{"id":179877843,"highway":"residential"},"geometry":{"type":"LineString","coordinates":[[139.102454,36.702709],[139.102435,36.702521],[139.102088,36.701737],[139.101561,36.700358],[139.101414,36.700018],[139.101257,36.699893]]}},{"type":"Feature","properties":{"id":179877845,"highway":"residential"},"geometry":{"type":"LineString","coordinates":[[139.107885,36.700367],[139.108103,36.700291],[139.108228,36.700214],[139.108393,36.700109],[139.108661,36.700029],[139.10867,36.699976],[139.108255,36.699407],[139.10794,36.698996],[139.107738,36.698754]]}},{"type":"Feature","properties":{"id":179877848,"highway":"residential"},"geometry":{"type":"LineString","coordinates":[[139.104098,36.702767],[139.103654,36.702774],[139.103521,36.702762],[139.103451,36.702734],[139.103326,36.702723],[139.103151,36.702729],[139.10299,36.702751],[139.102753,36.702751],[139.102592,36.702717],[139.102454,36.702709]]}},{"type":"Feature","properties":{"id":179877858,"highway":"residential"},"geometry":{"type":"LineString","coordinates":[[139.106033,36.706145],[139.106074,36.705997],[139.106115,36.705912],[139.106161,36.705802],[139.106211,36.705652],[139.106315,36.705535],[139.106365,36.705162],[139.106354,36.70481],[139.106347,36.704664],[139.106253,36.704602]]}},{"type":"Feature","properties":{"id":179877870,"highway":"residential"},"geometry":{"type":"LineString","coordinates":[[139.104439,36.708798],[139.104581,36.708616],[139.104579,36.708438],[139.104794,36.707939],[139.104919,36.707555]]}},{"type":"Feature","properties":{"id":179877872,"highway":"unclassified"},"geometry":{"type":"LineString","coordinates":[[139.104966,36.709143],[139.106053,36.709025],[139.107406,36.708879],[139.109384,36.708664]]}},{"type":"Feature","properties":{"id":179877878,"highway":"unclassified"},"geometry":{"type":"LineString","coordinates":[[139.108533,36.703826],[139.10837,36.702959],[139.108052,36.701258],[139.107885,36.700367]]}},{"type":"Feature","properties":{"id":179877897,"highway":"residential"},"geometry":{"type":"LineString","coordinates":[[139.106033,36.706145],[139.106014,36.706332],[139.105814,36.706638],[139.105809,36.706891],[139.105783,36.707092],[139.105703,36.707209],[139.105588,36.707316],[139.105458,36.707477],[139.10544,36.7075],[139.104919,36.707555]]}},{"type":"Feature","properties":{"id":179877907,"highway":"residential"},"geometry":{"type":"LineString","coordinates":[[139.104175,36.705929],[139.104427,36.70586],[139.104503,36.705855],[139.104561,36.70584],[139.104622,36.705829],[139.104714,36.705817],[139.104808,36.705822],[139.104932,36.705834],[139.104982,36.705849],[139.10504,36.705884],[139.105115,36.705924],[139.105188,36.705959],[139.10522,36.705979]]}},{"type":"Feature","properties":{"id":179877926,"highway":"residential"},"geometry":{"type":"LineString","coordinates":[[139.104864,36.700697],[139.10464,36.700759],[139.104489,36.700811],[139.104479,36.700899],[139.104514,36.701051],[139.104605,36.701232],[139.104689,36.701457],[139.104723,36.701541],[139.104743,36.701633],[139.104731,36.701756],[139.104702,36.701995],[139.104682,36.702138],[139.104647,36.702289],[139.104612,36.70238],[139.10463,36.702472],[139.104727,36.702586]]}},{"type":"Feature","properties":{"id":179877999,"highway":"tertiary"},"geometry":{"type":"LineString","coordinates":[[139.107901,36.703818],[139.107701,36.703813]]}},{"type":"Feature","properties":{"id":179878033,"highway":"residential"},"geometry":{"type":"LineString","coordinates":[[139.10617,36.703717],[139.106175,36.703685],[139.106167,36.703633],[139.106146,36.703557],[139.106118,36.70348],[139.106074,36.703392],[139.106038,36.703343],[139.105969,36.703255],[139.105873,36.703142],[139.105836,36.703093],[139.105812,36.703065],[139.105788,36.703037],[139.105773,36.703005],[139.105675,36.702734],[139.105645,36.702658],[139.105507,36.702307],[139.105339,36.70184],[139.104864,36.700697]]}},{"type":"Feature","properties":{"id":179878053,"highway":"residential"},"geometry":{"type":"LineString","coordinates":[[139.104242,36.707545],[139.104919,36.707555]]}},{"type":"Feature","properties":{"id":179878059,"highway":"residential"},"geometry":{"type":"LineString","coordinates":[[139.104864,36.700697],[139.104556,36.699908],[139.104473,36.699739]]}},{"type":"Feature","properties":{"id":179878090,"highway":"residential"},"geometry":{"type":"LineString","coordinates":[[139.104727,36.702586],[139.104499,36.702672],[139.10429,36.702747],[139.104098,36.702767]]}},{"type":"Feature","properties":{"id":179878096,"highway":"unclassified"},"geometry":{"type":"LineString","coordinates":[[139.107885,36.700367],[139.10736,36.698984]]}},{"type":"Feature","properties":{"id":179878110,"highway":"tertiary"},"geometry":{"type":"LineString","coordinates":[[139.107701,36.703813],[139.107636,36.703812],[139.10617,36.703717],[139.105492,36.703774],[139.105204,36.7038],[139.104727,36.703801],[139.104547,36.703802]]}},{"type":"Feature","properties":{"id":179878143,"highway":"residential"},"geometry":{"type":"LineString","coordinates":[[139.105204,36.7038],[139.10507,36.703604],[139.105033,36.703532],[139.104997,36.703275],[139.104955,36.703151],[139.104906,36.702776],[139.104727,36.702586]]}},{"type":"Feature","properties":{"id":179878156,"highway":"residential"},"geometry":{"type":"LineString","coordinates":[[139.10522,36.705979],[139.105296,36.706012],[139.105362,36.70604],[139.105444,36.706072],[139.105525,36.706095],[139.10557,36.706102],[139.105654,36.70612],[139.106033,36.706145]]}},{"type":"Feature","properties":{"id":179878158,"highway":"unclassified"},"geometry":{"type":"LineString","coordinates":[[139.10887,36.705907],[139.107049,36.706133],[139.106729,36.706173],[139.106666,36.706117]]}},{"type":"Feature","properties":{"id":179878160,"highway":"residential"},"geometry":{"type":"LineString","coordinates":[[139.104919,36.707555],[139.105038,36.707168],[139.105045,36.706502],[139.10508,36.706272],[139.105098,36.706197],[139.105136,36.706119],[139.105168,36.706055],[139.10522,36.705979]]}},{"type":"Feature","properties":{"id":179878170,"highway":"residential"},"geometry":{"type":"LineString","coordinates":[[139.106253,36.704602],[139.106234,36.704396],[139.106213,36.704244],[139.106206,36.704125],[139.106199,36.704032],[139.106186,36.703955],[139.10617,36.703911],[139.10617,36.703717]]}},{"type":"Feature","properties":{"id":432308933,"highway":"residential"},"geometry":{"type":"LineString","coordinates":[[139.104727,36.703801],[139.104987,36.704433]]}},{"type":"Feature","properties":{"id":681361392,"highway":"residential"},"geometry":{"type":"LineString","coordinates":[[139.113596,36.711296],[139.113368,36.710098]]}},{"type":"Feature","properties":{"id":681361394,"highway":"residential"},"geometry":{"type":"LineString","coordinates":[[139.113841,36.710491],[139.113623,36.710122],[139.113368,36.710098],[139.113171,36.710004],[139.113067,36.709759],[139.112482,36.709851],[139.112427,36.70986],[139.111464,36.709957]]}},{"type":"Feature","properties":{"id":681361396,"highway":"residential"},"geometry":{"type":"LineString","coordinates":[[139.111759,36.711369],[139.111464,36.709957],[139.111202,36.708436]]}},{"type":"Feature","properties":{"id":816199392,"highway":"residential"},"geometry":{"type":"LineString","coordinates":[[139.189654,36.753294],[139.189686,36.753103]]}},{"type":"Feature","properties":{"id":816533165,"highway":"service"},"geometry":{"type":"LineString","coordinates":[[139.114192,36.709053],[139.113252,36.709439]]}},{"type":"Feature","properties":{"id":1110527466,"highway":"tertiary"},"geometry":{"type":"LineString","coordinates":[[139.106095,36.760231],[139.106073,36.761314],[139.10603,36.761641],[139.105837,36.762002],[139.105408,36.76262],[139.105272,36.762886],[139.1052,36.763016],[139.105187,36.763145],[139.105219,36.763247],[139.105271,36.763318],[139.105326,36.763356],[139.105433,36.763361],[139.105509,36.763358],[139.105559,36.763331],[139.10561,36.763306],[139.105786,36.763144],[139.105908,36.763067],[139.106026,36.763025],[139.106143,36.763019],[139.106235,36.763054],[139.106273,36.763137],[139.106266,36.763256],[139.106245,36.763322],[139.106116,36.763463],[139.105743,36.763689],[139.105604,36.763822],[139.105496,36.763951],[139.105378,36.764147],[139.105268,36.76445],[139.105108,36.764941],[139.105022,36.765285],[139.105086,36.765474],[139.105301,36.765543],[139.105515,36.765422],[139.105644,36.76489],[139.105837,36.764443],[139.106116,36.764099],[139.106395,36.76403],[139.10661,36.764116],[139.106738,36.764477],[139.106459,36.765182],[139.106395,36.765474],[139.106481,36.766024],[139.106824,36.766454],[139.107919,36.767451],[139.10817,36.767818],[139.108519,36.769324],[139.108546,36.769625]]}},{"type":"Feature","properties":{"id":1110669122,"highway":"unclassified"},"geometry":{"type":"LineString","coordinates":[[139.136135,36.746412],[139.136261,36.746414]]}},{"type":"Feature","properties":{"id":1110669123,"highway":"unclassified"},"geometry":{"type":"LineString","coordinates":[[139.136261,36.746414],[139.136328,36.746422],[139.136559,36.746419],[139.136674,36.746445],[139.136776,36.74648],[139.136854,36.746505],[139.136909,36.746504],[139.136949,36.746478],[139.136996,36.746408],[139.137038,36.746347],[139.137088,36.746274]]}},{"type":"Feature","properties":{"id":1460432756,"highway":"tertiary"},"geometry":{"type":"LineString","coordinates":[[139.115016,36.710444],[139.114645,36.710711],[139.11431,36.710826],[139.114057,36.710916],[139.113803,36.71106],[139.113678,36.711224],[139.113596,36.711296],[139.11352,36.711435],[139.113308,36.711641],[139.113084,36.711721]]}},{"type":"Feature","properties":{"id":1460432757,"highway":"primary"},"geometry":{"type":"LineString","coordinates":[[139.115016,36.710444],[139.114593,36.709716],[139.114192,36.709053],[139.113489,36.707884],[139.113471,36.707853],[139.111926,36.705242],[139.111566,36.704667],[139.111244,36.7041],[139.110927,36.70326],[139.110674,36.702646],[139.110262,36.701823],[139.110091,36.701383],[139.109916,36.700933],[139.109708,36.700371],[139.109394,36.699545],[139.109181,36.698987],[139.10907,36.698539],[139.108977,36.698224],[139.1089,36.69808],[139.10867,36.697648],[139.107988,36.696461],[139.10786,36.696072],[139.107717,36.69563],[139.108062,36.695277],[139.108347,36.695025],[139.108997,36.694433],[139.109219,36.694184]]}},{"type":"Feature","properties":{"id":1460432758,"highway":"residential"},"geometry":{"type":"LineString","coordinates":[[139.11431,36.710826],[139.114323,36.711062],[139.114181,36.711252],[139.114212,36.711362],[139.114261,36.711674],[139.114243,36.711709],[139.114071,36.711841],[139.113902,36.711829],[139.113569,36.711863],[139.113084,36.711721]]}},{"type":"Feature","properties":{"id":1460432759,"highway":"unclassified"},"geometry":{"type":"LineString","coordinates":[[139.109384,36.708664],[139.111202,36.708436],[139.111938,36.708343],[139.112434,36.708281],[139.113489,36.707884]]}},{"type":"Feature","properties":{"id":1460432760,"highway":"unclassified"},"geometry":{"type":"LineString","coordinates":[[139.10887,36.705907],[139.110705,36.705695],[139.110829,36.705681]]}},{"type":"Feature","properties":{"id":1460432761,"highway":"unclassified"},"geometry":{"type":"LineString","coordinates":[[139.112482,36.709851],[139.112154,36.70904],[139.111938,36.708343],[139.111945,36.707921],[139.111674,36.706705],[139.111665,36.706461],[139.111492,36.706255],[139.110829,36.705681],[139.110212,36.705102],[139.109778,36.704271],[139.109544,36.70429],[139.109453,36.70364],[139.108984,36.701111]]}},{"type":"Feature","properties":{"id":1460432769,"highway":"unclassified"},"geometry":{"type":"LineString","coordinates":[[139.110091,36.701383],[139.110367,36.701298],[139.110392,36.70127],[139.110441,36.701213],[139.110477,36.701112],[139.11048,36.701086],[139.110502,36.700921],[139.110505,36.700893],[139.110489,36.70062],[139.11053,36.700421],[139.110932,36.699792],[139.110973,36.699599],[139.1109,36.699388],[139.110672,36.699212],[139.110505,36.699159],[139.110355,36.699143],[139.110297,36.699122],[139.110221,36.699094],[139.110164,36.699049],[139.109952,36.698589]]}},{"type":"Feature","properties":{"id":1460432770,"highway":"residential"},"geometry":{"type":"LineString","coordinates":[[139.110392,36.70127],[139.110419,36.701419],[139.111304,36.701378],[139.111162,36.701063],[139.11048,36.701086]]}},{"type":"Feature","properties":{"id":1460432771,"highway":"residential"},"geometry":{"type":"LineString","coordinates":[[139.110502,36.700921],[139.11108,36.700891]]}},{"type":"Feature","properties":{"id":1460432800,"highway":"residential"},"geometry":{"type":"LineString","coordinates":[[139.110052,36.711092],[139.110033,36.711408],[139.11002,36.711465],[139.109985,36.711547],[139.109911,36.711626],[139.109889,36.711661],[139.109846,36.711717],[139.10982,36.711756],[139.109811,36.7118],[139.109803,36.711843],[139.109803,36.711891],[139.109807,36.711974],[139.109807,36.712048],[139.109807,36.712104],[139.109803,36.712144],[139.109781,36.712204]]}},{"type":"Feature","properties":{"id":1460432811,"highway":"residential"},"geometry":{"type":"LineString","coordinates":[[139.121857,36.717802],[139.121457,36.717504],[139.121966,36.717332]]}},{"type":"Feature","properties":{"id":1460890689,"highway":"unclassified"},"geometry":{"type":"LineString","coordinates":[[139.104564,36.709527],[139.104966,36.709143],[139.105197,36.708747],[139.105385,36.708321],[139.105463,36.708236],[139.105488,36.707972],[139.105795,36.707613]]}},{"type":"Feature","properties":{"id":1460890690,"highway":"unclassified"},"geometry":{"type":"LineString","coordinates":[[139.105795,36.707613],[139.105843,36.707874],[139.106053,36.709025],[139.106125,36.709348],[139.106019,36.709485],[139.105948,36.709794],[139.105948,36.709995],[139.105912,36.710132],[139.105841,36.710316]]}},{"type":"Feature","properties":{"id":1460890691,"highway":"unclassified"},"geometry":{"type":"LineString","coordinates":[[139.106262,36.710384],[139.106372,36.710259],[139.106493,36.710225],[139.106571,36.710157],[139.106978,36.710137],[139.107052,36.710004],[139.107268,36.709913],[139.107388,36.709896],[139.107593,36.709803],[139.107406,36.708879],[139.107286,36.708311],[139.107492,36.708129],[139.107608,36.708057],[139.107613,36.707988],[139.10757,36.707871],[139.107323,36.707698],[139.107049,36.706133]]}},{"type":"Feature","properties":{"id":1460890692,"highway":"unclassified"},"geometry":{"type":"LineString","coordinates":[[139.107323,36.707698],[139.106968,36.707533],[139.106816,36.707481],[139.106717,36.707513],[139.106647,36.707616],[139.106625,36.707764],[139.105843,36.707874]]}},{"type":"Feature","properties":{"id":1460890695,"highway":"unclassified"},"geometry":{"type":"LineString","coordinates":[[139.11143,36.71237],[139.111897,36.71238],[139.112023,36.712018],[139.111982,36.711878],[139.111856,36.711633],[139.111823,36.711512],[139.111838,36.71139]]}},{"type":"Feature","properties":{"id":1465600594,"highway":"unclassified"},"geometry":{"type":"LineString","coordinates":[[139.102895,36.722625],[139.102834,36.72277],[139.102779,36.722894],[139.102716,36.723055],[139.102706,36.723084]]}},{"type":"Feature","properties":{"id":1465600595,"highway":"unclassified"},"geometry":{"type":"LineString","coordinates":[[139.101668,36.721089],[139.101761,36.721072],[139.101863,36.721102],[139.101907,36.721146]]}},{"type":"Feature","properties":{"id":1465600596,"highway":"unclassified"},"geometry":{"type":"LineString","coordinates":[[139.102212,36.721957],[139.102264,36.721925],[139.102312,36.721884],[139.102308,36.721831],[139.102298,36.721765]]}}]}