{"type":"FeatureCollection","features":[{"type":"Feature","properties":{"id":69908693,"highway":"primary"},"geometry":{"type":"LineString","coordinates":[[139.174891,36.848022],[139.174961,36.84797],[139.175057,36.847936],[139.175207,36.847923],[139.175331,36.847919],[139.175443,36.847936],[139.175578,36.847996],[139.175658,36.848065],[139.175733,36.848155],[139.175749,36.848249],[139.175722,36.8484],[139.175685,36.848533],[139.175626,36.848632],[139.175653,36.848726],[139.175701,36.84882],[139.175819,36.848859],[139.175899,36.848872],[139.175996,36.84882],[139.17605,36.848756],[139.176066,36.848692],[139.176119,36.848623],[139.176189,36.848597],[139.176275,36.84858],[139.176355,36.848563],[139.17649,36.848559],[139.176634,36.848597],[139.176795,36.848632],[139.176913,36.848704],[139.177181,36.84888],[139.177525,36.849009],[139.177707,36.849099],[139.177798,36.849172],[139.177815,36.849288],[139.177815,36.849353],[139.177766,36.84952],[139.177659,36.84973],[139.177589,36.849855],[139.177455,36.850001],[139.177257,36.85028],[139.177149,36.850404],[139.17708,36.850473],[139.177042,36.850593],[139.177096,36.850675],[139.177208,36.850726],[139.177326,36.850744],[139.177503,36.850744],[139.177675,36.850744],[139.177809,36.850765],[139.177954,36.850812],[139.178024,36.850872],[139.178158,36.85101],[139.178276,36.851151],[139.178346,36.851216],[139.178501,36.851276],[139.178619,36.851319],[139.178742,36.851319],[139.178887,36.851314],[139.179075,36.85131],[139.179279,36.851284],[139.179408,36.851263],[139.179526,36.851276],[139.179633,36.851327],[139.179628,36.851413],[139.179532,36.851605],[139.179424,36.851732],[139.179275,36.851919],[139.1792,36.852033],[139.179173,36.852143],[139.179225,36.85237],[139.179241,36.852491],[139.179225,36.852576],[139.179188,36.852654],[139.179123,36.852748],[139.179054,36.852885],[139.178995,36.853027],[139.17893,36.853143],[139.178844,36.85325],[139.178748,36.853349],[139.17849,36.853499],[139.178351,36.853594],[139.178281,36.853675],[139.178265,36.853752],[139.178292,36.853843],[139.178319,36.85392],[139.178367,36.85398],[139.178426,36.854066],[139.178533,36.854117],[139.178737,36.854152],[139.178925,36.854186],[139.179064,36.85422],[139.179177,36.854259],[139.179263,36.854302],[139.179354,36.854349],[139.179477,36.854366],[139.179601,36.854366],[139.179762,36.854336],[139.179992,36.854289],[139.180277,36.85422],[139.180475,36.854203],[139.180577,36.854263],[139.180599,36.854366],[139.180534,36.854461],[139.180432,36.854538],[139.180304,36.854585],[139.18018,36.85462],[139.180062,36.854658],[139.179971,36.85468],[139.179874,36.854748],[139.179832,36.854817],[139.17981,36.854886],[139.179821,36.854937],[139.179826,36.855002],[139.179874,36.855066],[139.179955,36.855148],[139.179987,36.855242],[139.179976,36.855289],[139.179896,36.855336],[139.179783,36.855371],[139.179579,36.855491],[139.179461,36.855594],[139.179381,36.855693],[139.179333,36.855804],[139.179349,36.85586],[139.179397,36.85589],[139.179483,36.855903],[139.179569,36.855907],[139.179697,36.855894],[139.179794,36.855916],[139.179853,36.855967],[139.17989,36.856057],[139.179874,36.856199],[139.179799,36.856289],[139.179708,36.856388],[139.179665,36.85656],[139.179773,36.85674],[139.179864,36.856779],[139.179939,36.856783],[139.179992,36.85677],[139.180046,36.856706],[139.180105,36.85665],[139.180164,36.856534],[139.180218,36.856435],[139.180309,36.856341],[139.180432,36.856264],[139.180572,36.856199],[139.180679,36.856152],[139.180808,36.856139],[139.180899,36.856139],[139.180996,36.856178],[139.181092,36.856238],[139.181202,36.856288],[139.18131,36.856344],[139.18143,36.856413],[139.181519,36.856467],[139.18158,36.856514],[139.181626,36.856563],[139.181672,36.856617],[139.181709,36.856675],[139.181739,36.85672],[139.181763,36.856797],[139.18179,36.856889],[139.181816,36.856956],[139.181854,36.857031],[139.1819,36.857119],[139.181932,36.857188],[139.181967,36.857254],[139.182023,36.857334],[139.182063,36.857402],[139.182106,36.857464],[139.18213,36.857525],[139.182152,36.85758],[139.18216,36.85766],[139.182154,36.857776],[139.182146,36.857849],[139.182152,36.857924],[139.182187,36.858016],[139.18223,36.8581],[139.182291,36.858173],[139.182337,36.858233],[139.182404,36.858317],[139.182672,36.858587],[139.182755,36.858656],[139.182812,36.858692],[139.182873,36.858699],[139.183016,36.858692],[139.18308,36.858669],[139.183176,36.858606],[139.183246,36.85848],[139.183311,36.858379],[139.183378,36.858302],[139.183418,36.858246],[139.183461,36.858207],[139.183509,36.858179],[139.183573,36.858145],[139.183681,36.858098],[139.183777,36.858044],[139.183842,36.858022],[139.183941,36.857962],[139.184043,36.857902],[139.184112,36.857861],[139.18418,36.857832],[139.184244,36.857812],[139.184333,36.857795],[139.184416,36.857786],[139.184504,36.857769],[139.184587,36.857754],[139.184751,36.857677],[139.184861,36.857608],[139.184939,36.85754],[139.185014,36.857411],[139.185094,36.857198],[139.185183,36.857029],[139.185285,36.856894],[139.18536,36.856761],[139.185408,36.85669],[139.185459,36.856606],[139.185521,36.856552],[139.18559,36.856527],[139.185674,36.856529],[139.185735,36.856546],[139.185789,36.8566],[139.185802,36.856642],[139.1858,36.856707],[139.185794,36.856793],[139.185762,36.856881],[139.1857,36.856997],[139.185607,36.857228],[139.185505,36.857447],[139.185373,36.857707],[139.185344,36.857808],[139.185357,36.857864],[139.185392,36.857894],[139.185483,36.857909],[139.185604,36.857902],[139.185676,36.857868],[139.185751,36.857778],[139.185808,36.857692],[139.185891,36.857559],[139.185958,36.857456],[139.186025,36.857362],[139.186084,36.85731],[139.186156,36.857246],[139.186213,36.857181],[139.186317,36.85711],[139.186441,36.857042],[139.186516,36.856997],[139.186634,36.856947],[139.186835,36.856879],[139.186899,36.856857],[139.187012,36.856846],[139.18709,36.856851],[139.187154,36.856876],[139.187181,36.856915],[139.187194,36.856988],[139.187181,36.857052],[139.18713,36.857119],[139.187017,36.857173],[139.186934,36.857216],[139.186856,36.857304],[139.186779,36.857402],[139.186693,36.85754],[139.186615,36.857683],[139.186559,36.857786],[139.186564,36.857844],[139.186594,36.857877],[139.186623,36.857913],[139.186706,36.857939],[139.186773,36.857937],[139.186843,36.857896],[139.186878,36.857806],[139.186913,36.857698],[139.186958,36.857589],[139.187007,36.857533],[139.187082,36.857533],[139.187135,36.857552],[139.187184,36.857604],[139.187213,36.857688],[139.187186,36.857821],[139.187101,36.857999],[139.187007,36.858164],[139.18695,36.858271],[139.186867,36.858396],[139.186822,36.858473],[139.186733,36.858585],[139.186682,36.858638],[139.186612,36.858716],[139.186529,36.858851],[139.186513,36.858896],[139.186513,36.858939],[139.186524,36.858978]]}},{"type":"Feature","properties":{"id":127637405,"highway":"secondary"},"geometry":{"type":"LineString","coordinates":[[139.19895,36.882752],[139.198898,36.882767],[139.19876,36.882788]]}},{"type":"Feature","properties":{"id":127637406,"highway":"secondary"},"geometry":{"type":"LineString","coordinates":[[139.196572,36.87545],[139.19645,36.875413]]}},{"type":"Feature","properties":{"id":127637407,"highway":"secondary"},"geometry":{"type":"LineString","coordinates":[[139.197012,36.878478],[139.196881,36.878415]]}},{"type":"Feature","properties":{"id":127637420,"highway":"primary"},"geometry":{"type":"LineString","coordinates":[[139.181708,36.872307],[139.181763,36.872349],[139.182023,36.872411],[139.182114,36.872422],[139.182219,36.872428],[139.182313,36.872426],[139.182377,36.872422],[139.182442,36.872417],[139.182492,36.872409],[139.182565,36.872391],[139.18264,36.872363],[139.182718,36.872334],[139.182798,36.872297],[139.182873,36.872254],[139.182959,36.872211],[139.183005,36.872183],[139.183066,36.872149],[139.183123,36.872119],[139.183182,36.8721],[139.183268,36.872065],[139.183343,36.872039],[139.183428,36.872016],[139.183504,36.87199],[139.183584,36.871969],[139.183654,36.871952],[139.183756,36.871936],[139.183906,36.871917],[139.184078,36.871891],[139.184265,36.871868],[139.184509,36.871831],[139.184652,36.87181],[139.184797,36.87178],[139.184901,36.871758],[139.185003,36.871733],[139.185134,36.871711],[139.185236,36.87169],[139.185309,36.871681],[139.1854,36.871681],[139.185472,36.871681],[139.185609,36.871681],[139.185743,36.871688],[139.185893,36.871688],[139.18602,36.871683],[139.186119,36.871671],[139.186234,36.871658],[139.186317,36.871638],[139.186406,36.87163],[139.186534,36.871617],[139.186696,36.871595],[139.186854,36.87157],[139.187058,36.871533],[139.187294,36.871482],[139.187436,36.871441],[139.187618,36.871394],[139.187903,36.871323],[139.18805,36.871269],[139.188157,36.871229],[139.18824,36.871192],[139.188332,36.871145],[139.188383,36.871106],[139.188463,36.871035],[139.18853,36.870964],[139.188586,36.870932],[139.188667,36.870902],[139.188742,36.870881],[139.188812,36.870857],[139.188908,36.87084],[139.188994,36.870836],[139.189123,36.870836],[139.189262,36.870844],[139.189431,36.870881],[139.189506,36.870909]]}},{"type":"Feature","properties":{"id":127637421,"highway":"primary"},"geometry":{"type":"LineString","coordinates":[[139.198429,36.872164],[139.198473,36.872157],[139.19851,36.872147],[139.198551,36.872132],[139.198592,36.872104],[139.198637,36.872061],[139.198676,36.872],[139.198729,36.871924],[139.198766,36.871812],[139.198784,36.87174],[139.19879,36.871671],[139.198843,36.8716],[139.198902,36.871552],[139.198969,36.871505],[139.199028,36.871484],[139.199114,36.871454],[139.199203,36.871426],[139.199326,36.871383],[139.199439,36.871344],[139.199506,36.871308],[139.199645,36.871233],[139.200211,36.870892],[139.200412,36.870784],[139.200501,36.870737],[139.200614,36.870692],[139.200689,36.870666],[139.20078,36.870649],[139.200871,36.870638],[139.200984,36.870623],[139.201418,36.8706],[139.201579,36.870574],[139.201702,36.870555],[139.201826,36.870516],[139.201928,36.870465],[139.201965,36.870428],[139.202014,36.870364],[139.202048,36.870304],[139.202089,36.870235],[139.202108,36.870173],[139.202126,36.87001],[139.20214,36.869947],[139.202161,36.869894],[139.202193,36.869847],[139.202231,36.869804],[139.202284,36.869767],[139.202325,36.869746],[139.202421,36.869733],[139.202534,36.869726],[139.202609,36.869726],[139.202673,36.869722],[139.202719,36.869711],[139.202799,36.869688],[139.202875,36.86966],[139.20295,36.869626],[139.203019,36.8696],[139.2031,36.86958],[139.203178,36.869561],[139.203274,36.869544],[139.203344,36.869538],[139.203483,36.869525],[139.203596,36.869508],[139.203717,36.869478],[139.203821,36.869456],[139.203891,36.86943],[139.203966,36.869411],[139.204031,36.869411],[139.20409,36.869422],[139.204132,36.869443],[139.204205,36.869501],[139.204261,36.869561],[139.20435,36.869647],[139.204444,36.869769],[139.204583,36.869939],[139.20468,36.87004],[139.204733,36.870081],[139.204808,36.87013],[139.20487,36.870175],[139.204964,36.87022],[139.205045,36.870248],[139.205101,36.870269],[139.205146,36.870284],[139.205227,36.870293],[139.205323,36.870304],[139.205441,36.870304],[139.20557,36.870304],[139.205632,36.87031],[139.20571,36.870308],[139.205761,36.87031],[139.205849,36.870327],[139.205975,36.870355],[139.206074,36.870383],[139.206254,36.870426],[139.206383,36.870454],[139.206466,36.870469],[139.206541,36.870471],[139.206638,36.870477],[139.20675,36.870482],[139.206839,36.870484],[139.206925,36.870484],[139.206992,36.870497],[139.207062,36.870531],[139.207121,36.870568],[139.207174,36.870604],[139.207241,36.870675],[139.20729,36.870739],[139.20733,36.870799],[139.207375,36.870838],[139.207429,36.870872],[139.207507,36.870913],[139.20759,36.870962],[139.207686,36.87101],[139.207748,36.871042],[139.207796,36.871076],[139.207834,36.871121],[139.207882,36.871181],[139.207933,36.871278],[139.207989,36.871402],[139.208024,36.871494],[139.208086,36.871578],[139.208145,36.871647],[139.208217,36.87172],[139.208279,36.871791],[139.208352,36.871851],[139.208435,36.871898],[139.208513,36.871947],[139.208598,36.871999],[139.208687,36.872059],[139.208746,36.872091],[139.208834,36.872113],[139.208934,36.872143],[139.209001,36.872153],[139.209103,36.872164],[139.20921,36.872155],[139.209293,36.87214],[139.209379,36.872113],[139.209449,36.872078],[139.20991,36.871885],[139.209961,36.87187],[139.210031,36.871844],[139.210111,36.871829],[139.210208,36.87181],[139.210302,36.871814],[139.210446,36.871823],[139.210605,36.87184],[139.210688,36.871857],[139.210755,36.871881],[139.210814,36.871909],[139.21087,36.871945]]}},{"type":"Feature","properties":{"id":127637427,"highway":"primary"},"geometry":{"type":"LineString","coordinates":[[139.186524,36.858978],[139.186567,36.859016],[139.186599,36.859031],[139.186696,36.85907],[139.1868,36.859096],[139.186953,36.859128],[139.187071,36.859149],[139.187165,36.859166],[139.187251,36.85919],[139.187355,36.859235],[139.187446,36.859271],[139.187546,36.859323],[139.187653,36.859381],[139.187758,36.859437],[139.187838,36.85949],[139.187932,36.859559],[139.188029,36.859641],[139.188168,36.859757],[139.188332,36.859887],[139.188479,36.860003],[139.188611,36.860091],[139.18872,36.860166],[139.188809,36.860224],[139.188892,36.860265],[139.188957,36.860297],[139.189056,36.860325],[139.189147,36.860332],[139.189241,36.860342],[139.189337,36.860355],[139.189413,36.860383],[139.189466,36.860428],[139.189485,36.860514],[139.189482,36.860563],[139.189461,36.860589],[139.189402,36.860613],[139.189252,36.860641],[139.189166,36.860641],[139.18908,36.860639],[139.188997,36.860636],[139.188906,36.860621],[139.188774,36.8606],[139.188664,36.860581],[139.188568,36.860555],[139.18835,36.860484],[139.188227,36.860439],[139.188114,36.860396],[139.188012,36.860364],[139.187889,36.860327],[139.187731,36.860284],[139.187578,36.86025],[139.187414,36.860209],[139.187272,36.860158],[139.187162,36.860111],[139.187036,36.860036],[139.186899,36.859986],[139.186808,36.859973],[139.186749,36.859982],[139.186698,36.860001],[139.186666,36.860068],[139.186671,36.860115],[139.186701,36.860173],[139.186762,36.860209],[139.186827,36.860233],[139.186921,36.860274],[139.187025,36.860321],[139.187108,36.860368],[139.187197,36.86043],[139.187259,36.860467],[139.187318,36.860514],[139.18739,36.860576],[139.187465,36.860649],[139.187543,36.86072],[139.187618,36.860808],[139.187728,36.860913],[139.187793,36.860971],[139.187851,36.861029],[139.187996,36.861179],[139.188106,36.86131],[139.1882,36.8614],[139.188286,36.861467],[139.188428,36.861581],[139.18849,36.861632],[139.188536,36.861671],[139.188613,36.861709],[139.188683,36.861742],[139.188833,36.861774],[139.188994,36.861804],[139.189195,36.861849],[139.189313,36.861879],[139.189343,36.861941],[139.189351,36.861995],[139.189324,36.862042],[139.189273,36.862057],[139.189123,36.862057],[139.189018,36.862057],[139.188884,36.862033],[139.188737,36.861999],[139.188586,36.861937],[139.188348,36.861864],[139.188211,36.861825],[139.18812,36.861776],[139.188018,36.861718],[139.187937,36.861662],[139.187884,36.861598],[139.187822,36.861531],[139.187755,36.861486],[139.187709,36.861471],[139.187645,36.861473],[139.187599,36.861512],[139.187565,36.861564],[139.187554,36.86163],[139.18757,36.861677],[139.187613,36.861727],[139.187699,36.861784],[139.187972,36.86198],[139.188114,36.862068],[139.188243,36.86213],[139.188305,36.86219],[139.188345,36.862235],[139.188377,36.86228],[139.188399,36.86234],[139.188415,36.862407],[139.188409,36.862471],[139.188407,36.862523],[139.188361,36.862686],[139.188337,36.86278],[139.188332,36.862817],[139.188329,36.86286],[139.188342,36.862898],[139.188356,36.862948],[139.188385,36.862999],[139.188828,36.863654],[139.188882,36.863733],[139.18893,36.863789],[139.188978,36.863832],[139.189042,36.863881],[139.189107,36.863926],[139.189198,36.863984],[139.189445,36.864115],[139.189818,36.864325],[139.189946,36.864405],[139.190011,36.864475],[139.19007,36.864572],[139.190094,36.864641],[139.190091,36.864705],[139.190072,36.864774],[139.190019,36.864853],[139.189949,36.86493],[139.189874,36.865008],[139.189844,36.865066],[139.189815,36.865173],[139.189793,36.865248],[139.189783,36.865334],[139.189777,36.865422],[139.189785,36.865506],[139.189796,36.865581],[139.189807,36.865647],[139.189836,36.865733],[139.189906,36.865866],[139.189938,36.866021],[139.189952,36.866109],[139.18992,36.866197],[139.189863,36.86627],[139.189809,36.866325],[139.18978,36.866347],[139.189702,36.866375],[139.189616,36.866383],[139.189517,36.866383],[139.189378,36.866349],[139.189217,36.866289],[139.189061,36.866212],[139.188989,36.866154],[139.188876,36.866051],[139.188801,36.86598],[139.188683,36.865838],[139.188562,36.865705],[139.188484,36.865609],[139.188412,36.865561],[139.188342,36.865536],[139.188248,36.865531],[139.188149,36.865523],[139.187967,36.865506],[139.187868,36.865497],[139.187784,36.865473],[139.187744,36.865439],[139.187709,36.865398],[139.187682,36.86536],[139.187615,36.865265],[139.187578,36.865167],[139.18757,36.865076],[139.187565,36.864971],[139.187583,36.864885],[139.187637,36.864802],[139.187699,36.864731],[139.187715,36.864688],[139.18772,36.864645],[139.18772,36.864534],[139.187701,36.864463],[139.18765,36.86439],[139.187615,36.864334],[139.187605,36.864278],[139.187629,36.864209],[139.187656,36.864132],[139.187669,36.864057],[139.187682,36.86398],[139.187672,36.863924],[139.187645,36.86387],[139.187565,36.863823],[139.187452,36.863789],[139.187398,36.863767],[139.187336,36.86372],[139.187264,36.863634],[139.187151,36.863428],[139.187074,36.863327],[139.187031,36.863306],[139.186931,36.863306],[139.186819,36.863336],[139.18676,36.863375],[139.186755,36.86343],[139.186749,36.863493],[139.186752,36.863563],[139.186776,36.863628],[139.186795,36.863714],[139.186795,36.863802],[139.186787,36.863875],[139.186776,36.863958],[139.186738,36.864066],[139.186696,36.864167],[139.186626,36.864261],[139.186382,36.864619],[139.186323,36.864705],[139.186237,36.864763],[139.186164,36.864817],[139.186041,36.864857],[139.185915,36.864896],[139.185778,36.86495],[139.185562,36.865042],[139.185433,36.86507],[139.184845,36.865132],[139.184547,36.865162],[139.184394,36.865198],[139.18432,36.865229]]}},{"type":"Feature","properties":{"id":127637428,"highway":"primary"},"geometry":{"type":"LineString","coordinates":[[139.198197,36.872201],[139.198429,36.872164]]}},{"type":"Feature","properties":{"id":127637429,"highway":"primary"},"geometry":{"type":"LineString","coordinates":[[139.181583,36.87218],[139.181708,36.872307]]}},{"type":"Feature","properties":{"id":127637517,"highway":"secondary"},"geometry":{"type":"LineString","coordinates":[[139.19876,36.882788],[139.19869,36.88277],[139.198655,36.882734],[139.198357,36.882377],[139.198304,36.88229],[139.19818,36.882024],[139.198127,36.881933],[139.198043,36.881845],[139.197971,36.881747],[139.197821,36.881511],[139.197791,36.881438],[139.197768,36.881353],[139.197713,36.88121],[139.197707,36.881134],[139.197712,36.881063],[139.197869,36.880678],[139.197882,36.880605],[139.197877,36.880537],[139.197842,36.880477],[139.197735,36.880337],[139.197687,36.880268],[139.197684,36.880196],[139.197724,36.880065],[139.197748,36.87999],[139.197751,36.879919],[139.197689,36.879719],[139.197644,36.879578],[139.197632,36.879445],[139.197638,36.87902],[139.197642,36.878917],[139.197618,36.878799],[139.197573,36.878707],[139.197442,36.87855],[139.197343,36.878509],[139.197244,36.878498],[139.19711,36.878507],[139.197012,36.878478]]}},{"type":"Feature","properties":{"id":127637521,"highway":"secondary"},"geometry":{"type":"LineString","coordinates":[[139.196881,36.878415],[139.196818,36.878357],[139.196796,36.878254],[139.196819,36.878173],[139.197188,36.877808],[139.197287,36.877767],[139.197378,36.877726],[139.197429,36.877681],[139.197449,36.877611],[139.197389,36.877396],[139.197362,36.877258],[139.197351,36.877125],[139.197357,36.876995],[139.197512,36.876252],[139.197566,36.876113],[139.197669,36.876044],[139.197777,36.875959],[139.197849,36.875867],[139.197916,36.875686],[139.197927,36.875583],[139.197899,36.875456],[139.197888,36.875375],[139.197917,36.87516],[139.197904,36.875085],[139.197864,36.875031],[139.197786,36.87501],[139.197685,36.875021],[139.197504,36.875113],[139.196733,36.875425],[139.196572,36.87545]]}},{"type":"Feature","properties":{"id":127637542,"highway":"residential"},"geometry":{"type":"LineString","coordinates":[[139.190239,36.801955],[139.190294,36.801876],[139.190343,36.80184],[139.190419,36.801791],[139.190488,36.801758],[139.190584,36.801729],[139.190682,36.801717],[139.190823,36.801719],[139.190919,36.801731],[139.19097,36.801742],[139.191008,36.801778],[139.191041,36.80182],[139.191061,36.801878],[139.191106,36.802039],[139.191139,36.802121],[139.191175,36.80219],[139.191222,36.80227],[139.191271,36.802331],[139.191306,36.802367],[139.191353,36.802407],[139.191413,36.802441],[139.19148,36.802468],[139.191536,36.802485],[139.191594,36.802492],[139.191656,36.802496],[139.191746,36.80249],[139.191808,36.802474],[139.191862,36.802445],[139.191938,36.802394],[139.191991,36.802349],[139.192049,36.802309],[139.192109,36.802273],[139.192188,36.802256],[139.192295,36.802264],[139.192375,36.802273],[139.192469,36.802289],[139.192523,36.802302],[139.192572,36.802316],[139.192723,36.802347],[139.192788,36.802356],[139.19288,36.80236],[139.192976,36.802354],[139.193049,36.802345],[139.193103,36.802316],[139.193142,36.802271],[139.193158,36.802233],[139.193169,36.802119],[139.193153,36.802039],[139.193131,36.801949],[139.193086,36.801838],[139.193006,36.801706],[139.192966,36.801648],[139.192945,36.80161],[139.192934,36.801581],[139.19293,36.801559],[139.19293,36.801528],[139.192943,36.801474],[139.192959,36.801425],[139.193075,36.801227],[139.193185,36.801047],[139.193252,36.800984],[139.193317,36.800944],[139.193393,36.800904],[139.193478,36.800875],[139.193607,36.800844],[139.193721,36.800821],[139.193794,36.800812],[139.193875,36.800797],[139.193942,36.800781],[139.194004,36.800757],[139.194064,36.800721],[139.194114,36.800676],[139.194172,36.800616],[139.194254,36.800518],[139.19434,36.800387],[139.194382,36.800309],[139.194424,36.800204],[139.194447,36.800135],[139.194463,36.800055],[139.194478,36.799946],[139.194478,36.799738],[139.194449,36.799614],[139.194368,36.799398],[139.194259,36.799159],[139.194217,36.799051],[139.194174,36.798922],[139.19415,36.798826],[139.194134,36.798677],[139.194128,36.79852],[139.194139,36.798317],[139.194161,36.798186],[139.194201,36.798045],[139.194333,36.79774],[139.194396,36.797616],[139.194431,36.797527],[139.194451,36.797458],[139.194456,36.7974],[139.194445,36.797379],[139.194422,36.797363],[139.194396,36.797352],[139.194355,36.797342],[139.194325,36.79734],[139.194279,36.797345],[139.194249,36.797361],[139.194215,36.797385],[139.194187,36.797418],[139.194155,36.797478],[139.194095,36.797636],[139.194084,36.797721],[139.194029,36.79787],[139.193992,36.797923],[139.193932,36.798],[139.193771,36.798218],[139.193736,36.798278],[139.193706,36.798347],[139.193669,36.798425],[139.193635,36.798487],[139.19358,36.798572],[139.19352,36.798638],[139.193449,36.79873],[139.193366,36.798878],[139.193323,36.798973],[139.193302,36.799085],[139.193279,36.799191],[139.193242,36.799288],[139.193219,36.799355],[139.193201,36.799389],[139.193173,36.799408],[139.193148,36.799412],[139.193121,36.799421]]}},{"type":"Feature","properties":{"id":127637815,"highway":"secondary"},"geometry":{"type":"LineString","coordinates":[[139.19645,36.875413],[139.196406,36.875375],[139.196372,36.875299],[139.196378,36.875228],[139.196429,36.875107],[139.1965,36.875027],[139.196599,36.874954],[139.196858,36.874819],[139.197063,36.874736],[139.197198,36.874639],[139.197258,36.874544],[139.197298,36.874431],[139.197294,36.874296],[139.197303,36.874132],[139.197333,36.87398],[139.197373,36.873866],[139.197373,36.873774],[139.197355,36.873686],[139.197283,36.873594],[139.197032,36.873413],[139.196965,36.873338],[139.196927,36.873261],[139.196915,36.873165],[139.196942,36.872762],[139.196926,36.87268],[139.196889,36.872597],[139.196803,36.872549],[139.196009,36.872326],[139.195908,36.87233],[139.195836,36.872358],[139.195637,36.872441],[139.195544,36.872439],[139.195477,36.872403],[139.195447,36.872349],[139.195466,36.872287],[139.195582,36.872112],[139.19565,36.872032],[139.195765,36.871972],[139.196316,36.871727],[139.19645,36.871678],[139.196632,36.871665],[139.196826,36.871663],[139.196954,36.871675],[139.197139,36.871727],[139.197212,36.87174],[139.197279,36.871745],[139.197469,36.871745],[139.197556,36.871749],[139.197617,36.871766],[139.197672,36.87179],[139.197726,36.871831],[139.197765,36.871883],[139.197801,36.871959],[139.197836,36.872038],[139.197854,36.872078],[139.197872,36.872105],[139.1979,36.872132],[139.197941,36.872156],[139.197982,36.872173]]}},{"type":"Feature","properties":{"id":127638433,"highway":"residential"},"geometry":{"type":"LineString","coordinates":[[139.184185,36.811071],[139.184424,36.810955],[139.184696,36.810812],[139.184743,36.810791],[139.184785,36.810773],[139.184831,36.81076],[139.184885,36.810747],[139.18498,36.810742],[139.185049,36.810738],[139.185096,36.810729],[139.185148,36.810718],[139.185199,36.810699],[139.185299,36.810668],[139.185364,36.810651],[139.185601,36.810595],[139.186054,36.81051],[139.186297,36.810486],[139.186449,36.810465],[139.186603,36.810436],[139.186844,36.810399],[139.187067,36.81036],[139.187154,36.810329],[139.187274,36.810284],[139.187375,36.810242],[139.187446,36.810226],[139.187513,36.810218],[139.187573,36.810229],[139.187641,36.810238],[139.187705,36.810246],[139.187766,36.810253],[139.18783,36.810242],[139.187895,36.810215],[139.187978,36.810173],[139.188127,36.810073],[139.188259,36.810008],[139.188439,36.80993],[139.188649,36.809853],[139.188897,36.809766]]}},{"type":"Feature","properties":{"id":127638747,"highway":"residential"},"geometry":{"type":"LineString","coordinates":[[139.188897,36.809766],[139.189266,36.809331],[139.189784,36.809025],[139.190188,36.808792],[139.190257,36.80868],[139.190515,36.808323],[139.190799,36.808277],[139.191295,36.808548],[139.191528,36.808593],[139.191486,36.808727],[139.191191,36.809062],[139.191146,36.809196],[139.191151,36.809311],[139.191159,36.809374],[139.191157,36.809419],[139.191095,36.809607],[139.190885,36.809808],[139.190804,36.810189],[139.190749,36.810328],[139.190631,36.810422],[139.190547,36.810469],[139.190456,36.810521],[139.190388,36.810554],[139.190317,36.810569],[139.190243,36.810583],[139.190185,36.810585],[139.189856,36.810578],[139.189458,36.810564],[139.189391,36.810554],[139.189328,36.810538],[139.189281,36.810514],[139.189257,36.8105],[139.189223,36.81048],[139.189181,36.810443],[139.189158,36.810411],[139.189114,36.810356],[139.189085,36.810304],[139.189008,36.810124],[139.188897,36.809766]]}},{"type":"Feature","properties":{"id":127638987,"highway":"residential"},"geometry":{"type":"LineString","coordinates":[[139.188897,36.809766],[139.188814,36.809524],[139.18874,36.809172],[139.188716,36.808929],[139.188702,36.808804],[139.188707,36.808592],[139.188749,36.808202],[139.188779,36.808026],[139.188823,36.807819],[139.188854,36.807705],[139.18889,36.807625],[139.188941,36.807569],[139.188991,36.807529],[139.189046,36.807472],[139.189091,36.807425],[139.189133,36.807365],[139.189263,36.807122],[139.189406,36.806875],[139.189511,36.80669],[139.189742,36.80657],[139.189994,36.806434],[139.190275,36.806279],[139.190706,36.806324],[139.190898,36.806198],[139.191141,36.805682],[139.191612,36.804808],[139.191615,36.804522],[139.190692,36.804086],[139.190542,36.803983],[139.19025,36.803884],[139.189366,36.804126],[139.188951,36.80411],[139.188872,36.804098],[139.1888,36.804082],[139.188756,36.804062],[139.188704,36.804036],[139.188666,36.804011],[139.188633,36.803984],[139.188608,36.803955],[139.188577,36.803919],[139.188559,36.803882],[139.188548,36.803833],[139.188553,36.803781],[139.188559,36.803726],[139.188604,36.803625],[139.18866,36.803529],[139.188711,36.803449],[139.188767,36.803389],[139.188832,36.803331],[139.188919,36.803284],[139.18901,36.803262],[139.189309,36.803228],[139.189456,36.803216]]}},{"type":"Feature","properties":{"id":180758333,"highway":"primary"},"geometry":{"type":"LineString","coordinates":[[139.097875,36.869581],[139.098215,36.8695],[139.098366,36.869467],[139.098494,36.86942],[139.098643,36.869361],[139.098721,36.869311],[139.098869,36.869186],[139.099016,36.869012],[139.099188,36.868813],[139.09931,36.86865],[139.09962,36.868152],[139.099791,36.867894],[139.100274,36.867403],[139.100365,36.867342],[139.100693,36.867216],[139.101069,36.867063],[139.101245,36.866985],[139.101346,36.866903],[139.101438,36.866809],[139.101484,36.866748],[139.101558,36.866628],[139.101725,36.866302],[139.101761,36.866221],[139.101842,36.86597],[139.101845,36.86589],[139.101841,36.865826],[139.101799,36.865705],[139.10156,36.865247],[139.101516,36.865157],[139.101492,36.865067],[139.101409,36.864817],[139.101347,36.864677],[139.101265,36.864525],[139.101122,36.864314],[139.101053,36.86425],[139.10102,36.864155],[139.101002,36.864079],[139.101002,36.863935],[139.101031,36.863858],[139.101071,36.86378],[139.101112,36.863708],[139.101197,36.863597],[139.101279,36.863507],[139.101369,36.86344],[139.101449,36.863399],[139.101539,36.863367],[139.101643,36.863339],[139.102767,36.863197],[139.102908,36.863179],[139.103015,36.863148],[139.103127,36.863109],[139.103221,36.863065],[139.103322,36.862995],[139.103394,36.86291],[139.103579,36.862664],[139.10365,36.862546],[139.103695,36.862448],[139.10374,36.862335],[139.103774,36.862194],[139.103788,36.862018],[139.103804,36.861945],[139.103833,36.861849],[139.103902,36.861693],[139.103929,36.861595],[139.103978,36.861197],[139.104001,36.861125],[139.104076,36.861019],[139.104333,36.860723],[139.104397,36.86063],[139.104438,36.86056],[139.104452,36.860478],[139.10444,36.860368],[139.104399,36.86025],[139.104287,36.859993],[139.104241,36.859855],[139.104236,36.859649],[139.104224,36.85945],[139.104256,36.859304],[139.104368,36.859141],[139.104501,36.859008],[139.105518,36.858182],[139.105628,36.85807],[139.105743,36.857946],[139.105807,36.857843],[139.105866,36.85769],[139.105904,36.857497],[139.10592,36.857283],[139.105901,36.857087],[139.105877,36.856924],[139.105807,36.856512],[139.105757,36.856298],[139.105759,36.856094],[139.105859,36.855899],[139.105976,36.855755],[139.106261,36.855542],[139.107578,36.854737],[139.10809,36.854409],[139.108165,36.85431],[139.108248,36.854087],[139.108299,36.853997],[139.108503,36.853742],[139.108637,36.853499],[139.108702,36.853353],[139.10879,36.852722],[139.108798,36.852546],[139.108905,36.852355],[139.10901,36.852254],[139.109134,36.852166],[139.109211,36.852033],[139.109337,36.851864],[139.109383,36.851806],[139.10953,36.851758],[139.110539,36.851645],[139.11067,36.85163],[139.11092,36.851625],[139.111073,36.851604],[139.111227,36.851579],[139.111376,36.851542],[139.111526,36.851523],[139.111612,36.851494],[139.111741,36.851433],[139.111824,36.851415],[139.111986,36.851398],[139.112085,36.85137],[139.112567,36.85118],[139.112666,36.851151],[139.112823,36.851136],[139.113134,36.851143],[139.113331,36.85111],[139.113841,36.850964],[139.114024,36.850933],[139.114251,36.850921],[139.114396,36.850892],[139.114518,36.850841],[139.114731,36.850692],[139.115142,36.850631],[139.115358,36.850595],[139.115532,36.850545],[139.115746,36.850475],[139.115891,36.85042],[139.116059,36.850324],[139.116176,36.850283],[139.116269,36.850273],[139.116823,36.850281],[139.117112,36.850261],[139.117301,36.850236],[139.117423,36.850212],[139.117511,36.850181],[139.117629,36.850127],[139.117678,36.850085],[139.118198,36.849766],[139.118287,36.84975],[139.118358,36.849734],[139.11843,36.849737],[139.118547,36.849747],[139.118638,36.849777],[139.118724,36.849799],[139.11884,36.849806],[139.118932,36.849787],[139.119054,36.849774],[139.11913,36.849747],[139.119235,36.849686],[139.119331,36.849623],[139.119457,36.849562],[139.119531,36.84952],[139.119573,36.849486],[139.119638,36.849427],[139.11975,36.849363],[139.119822,36.849333],[139.120493,36.849211],[139.1209,36.849057],[139.121059,36.849023],[139.121181,36.848992],[139.121248,36.848959],[139.121364,36.848803],[139.121417,36.848748],[139.121488,36.848707],[139.121557,36.848674],[139.121678,36.848632],[139.121875,36.848599],[139.122024,36.848585],[139.122137,36.848602],[139.122554,36.848707],[139.12314,36.848902],[139.123208,36.848912],[139.123258,36.848911],[139.123333,36.848895],[139.123435,36.84886]]}},{"type":"Feature","properties":{"id":180758343,"highway":"primary"},"geometry":{"type":"LineString","coordinates":[[139.123582,36.848787],[139.123766,36.848689],[139.123969,36.848558],[139.124044,36.848516],[139.124124,36.84848],[139.124182,36.848471],[139.124334,36.84847],[139.124583,36.848459],[139.125467,36.84838],[139.125734,36.84835],[139.125912,36.848341],[139.126179,36.848357],[139.126558,36.84834],[139.12671,36.848324]]}},{"type":"Feature","properties":{"id":180758345,"highway":"primary"},"geometry":{"type":"LineString","coordinates":[[139.12671,36.848324],[139.126867,36.848329]]}},{"type":"Feature","properties":{"id":180758347,"highway":"primary"},"geometry":{"type":"LineString","coordinates":[[139.123435,36.84886],[139.123582,36.848787]]}},{"type":"Feature","properties":{"id":180758381,"highway":"unclassified"},"geometry":{"type":"LineString","coordinates":[[139.096918,36.879369],[139.096925,36.879333],[139.096969,36.879238],[139.097031,36.879152],[139.097087,36.879099],[139.097148,36.879058],[139.097241,36.879025],[139.097328,36.879],[139.097427,36.878971],[139.097734,36.878934],[139.097888,36.878906],[139.098048,36.878872],[139.098248,36.878807],[139.098516,36.878723],[139.098949,36.878596],[139.099052,36.878575],[139.099148,36.87856],[139.099306,36.878556],[139.099449,36.878576],[139.099572,36.878586],[139.099832,36.878586],[139.099922,36.878582],[139.100009,36.878568],[139.100104,36.878544],[139.100178,36.878529],[139.100262,36.87853],[139.100323,36.878543],[139.100422,36.878567],[139.100499,36.878594],[139.100585,36.878604],[139.100673,36.878603],[139.100882,36.878562],[139.100937,36.878549]]}},{"type":"Feature","properties":{"id":180758399,"highway":"unclassified"},"geometry":{"type":"LineString","coordinates":[[139.100937,36.878549],[139.101029,36.878531],[139.101104,36.878506]]}},{"type":"Feature","properties":{"id":180758469,"highway":"unclassified"},"geometry":{"type":"LineString","coordinates":[[139.101147,36.878423],[139.10122,36.878294],[139.101314,36.878149],[139.101339,36.878092],[139.101351,36.878045],[139.101352,36.877974],[139.101342,36.877874],[139.101296,36.877707],[139.101289,36.877609],[139.101289,36.877513],[139.101312,36.877464],[139.10136,36.877405],[139.101438,36.877355],[139.101533,36.877315],[139.101625,36.877297],[139.101717,36.877297],[139.101873,36.877306],[139.101944,36.877305],[139.102065,36.877299],[139.102165,36.877281],[139.102241,36.87725],[139.102295,36.87721],[139.102413,36.877055],[139.10244,36.876967],[139.10246,36.876806],[139.102468,36.876562],[139.102495,36.876452],[139.102545,36.876388],[139.102676,36.876321],[139.102909,36.876245],[139.103023,36.876202],[139.103076,36.876157],[139.103117,36.876118],[139.103143,36.876061],[139.103148,36.876004],[139.103148,36.875956],[139.103139,36.875915],[139.103115,36.875871],[139.1029,36.875678],[139.102813,36.875594],[139.102787,36.875545],[139.102767,36.875479],[139.10276,36.87542],[139.102773,36.875306],[139.102812,36.875231],[139.103288,36.874657],[139.103366,36.874598],[139.103448,36.874555],[139.103567,36.874503],[139.103848,36.874429],[139.103936,36.874391],[139.104002,36.874356],[139.104107,36.874282],[139.104354,36.87391],[139.104383,36.873835],[139.104392,36.873784],[139.104384,36.873703],[139.104356,36.873608],[139.104317,36.873542],[139.104252,36.873465],[139.104183,36.873412],[139.104073,36.873353],[139.104004,36.87333],[139.103955,36.873315]]}},{"type":"Feature","properties":{"id":180758479,"highway":"unclassified"},"geometry":{"type":"LineString","coordinates":[[139.103507,36.866735],[139.103596,36.866747],[139.10366,36.866768],[139.103711,36.866796],[139.103756,36.866831],[139.103787,36.866861],[139.103825,36.866911],[139.103856,36.866983],[139.103864,36.86702],[139.103861,36.867081],[139.103844,36.867132],[139.103794,36.867187],[139.103499,36.867341],[139.103343,36.867405],[139.103182,36.86749],[139.103068,36.867574],[139.102895,36.867752],[139.102796,36.867868],[139.102738,36.867981],[139.102694,36.868178],[139.102665,36.86825],[139.102586,36.868334],[139.102287,36.868546],[139.10225,36.86861],[139.102231,36.86867],[139.102234,36.86873],[139.10225,36.868779],[139.102288,36.868841],[139.102407,36.868948],[139.102654,36.869137],[139.102696,36.869179],[139.102723,36.869213],[139.102749,36.869274],[139.102765,36.869337],[139.102763,36.869402],[139.10273,36.869512],[139.10258,36.869755],[139.102501,36.869805],[139.10239,36.869856],[139.102307,36.869882],[139.102254,36.86989],[139.102176,36.869888],[139.101933,36.869869],[139.101874,36.869874],[139.101822,36.86989],[139.101758,36.869923],[139.101658,36.869997],[139.101605,36.870059],[139.10156,36.870141],[139.101401,36.870504],[139.10139,36.870563],[139.101395,36.87061],[139.101448,36.870853],[139.101469,36.870981],[139.101467,36.871034],[139.101452,36.871076],[139.101364,36.871201],[139.101308,36.871252],[139.101246,36.871289],[139.101184,36.871312],[139.100982,36.871358],[139.100719,36.871426],[139.10064,36.871465],[139.100545,36.871522],[139.100022,36.871892],[139.099964,36.87195],[139.099932,36.872006],[139.099911,36.87208],[139.09992,36.872142],[139.099994,36.87237],[139.100037,36.872515],[139.100048,36.872593],[139.100039,36.872661],[139.100005,36.872718],[139.099893,36.87283],[139.099834,36.87289],[139.099787,36.872913],[139.099639,36.872964],[139.099581,36.87299],[139.0995,36.873064],[139.099457,36.873147],[139.099445,36.873212],[139.099451,36.873257],[139.099501,36.873342],[139.099669,36.87359],[139.099733,36.873644],[139.099873,36.873702],[139.100516,36.873891],[139.100801,36.873973],[139.100909,36.873996],[139.101052,36.874013],[139.101248,36.874014],[139.101376,36.874],[139.101555,36.873973],[139.101652,36.873947],[139.101999,36.873728],[139.102193,36.873605],[139.102428,36.873513],[139.102533,36.873485],[139.102778,36.873474],[139.103128,36.873448],[139.103459,36.873388],[139.103752,36.87331],[139.103849,36.873303],[139.103955,36.873315]]}},{"type":"Feature","properties":{"id":180758480,"highway":"unclassified"},"geometry":{"type":"LineString","coordinates":[[139.103431,36.866734],[139.103337,36.866751],[139.103277,36.866778],[139.103225,36.866812],[139.103176,36.866889],[139.102822,36.867492],[139.102751,36.867574],[139.102681,36.867638],[139.102225,36.868008],[139.102179,36.868029],[139.102115,36.868049],[139.102065,36.868059],[139.102007,36.868064],[139.101961,36.868058],[139.101891,36.868037],[139.101817,36.868001],[139.101768,36.867958],[139.101718,36.867904],[139.101531,36.867598],[139.101484,36.867546],[139.101443,36.867523],[139.101385,36.867484],[139.101335,36.867463],[139.101273,36.867447],[139.101177,36.867432],[139.101063,36.867419],[139.10089,36.867412],[139.10075,36.867413],[139.100638,36.867427],[139.100563,36.867442],[139.10049,36.867469],[139.100368,36.867533],[139.100273,36.867612],[139.100168,36.867712],[139.100116,36.867784],[139.100031,36.867933],[139.09965,36.868651],[139.099502,36.86886],[139.099417,36.86895],[139.0992,36.869124],[139.099145,36.869186],[139.099117,36.869237],[139.099089,36.869367],[139.09904,36.869474],[139.098935,36.869598],[139.098795,36.869693],[139.098697,36.869733],[139.098619,36.86975],[139.098352,36.86975],[139.098052,36.869705],[139.097875,36.869581]]}},{"type":"Feature","properties":{"id":438287084,"highway":"primary"},"geometry":{"type":"LineString","coordinates":[[139.1897,36.870962],[139.189783,36.870956],[139.189868,36.870917],[139.189928,36.870868],[139.19,36.870789],[139.190064,36.870722],[139.190129,36.870666],[139.190198,36.870634],[139.190282,36.870608],[139.190359,36.870606],[139.191349,36.870613],[139.191454,36.87061],[139.191515,36.870606],[139.191588,36.870596],[139.191647,36.87058],[139.191735,36.87055],[139.192119,36.870411],[139.19247,36.870295],[139.192784,36.870209],[139.19302,36.870145],[139.193136,36.870113],[139.193219,36.870102],[139.19327,36.870093],[139.193331,36.870091],[139.193404,36.870102],[139.193468,36.870123],[139.195324,36.870789],[139.196384,36.871133]]}},{"type":"Feature","properties":{"id":438287085,"highway":"primary"},"geometry":{"type":"LineString","coordinates":[[139.189506,36.870909],[139.189573,36.870937],[139.189616,36.870947],[139.1897,36.870962]]}},{"type":"Feature","properties":{"id":503126370,"highway":"residential"},"geometry":{"type":"LineString","coordinates":[[139.189456,36.803216],[139.189619,36.803201],[139.18992,36.803167],[139.189969,36.803153],[139.19,36.803133],[139.190034,36.803106],[139.190074,36.803071],[139.190107,36.803026],[139.190139,36.802979],[139.190203,36.802919],[139.190257,36.802877],[139.190328,36.802839],[139.190398,36.802808],[139.190444,36.80279],[139.190505,36.802765],[139.190547,36.802741],[139.190556,36.802716],[139.190554,36.802676],[139.190538,36.802649],[139.190507,36.802629],[139.190451,36.802611],[139.190398,36.802604],[139.190326,36.802607],[139.190239,36.802627],[139.190172,36.802647],[139.190083,36.802674],[139.190018,36.802692],[139.189958,36.802716],[139.1899,36.802745],[139.189826,36.802783],[139.189771,36.802814],[139.189697,36.802843],[139.189643,36.802861],[139.189581,36.802879],[139.189498,36.802892],[139.189453,36.802885],[139.189419,36.802871],[139.189375,36.802849],[139.189346,36.802823],[139.189324,36.802796],[139.189317,36.802773],[139.189324,36.802729],[139.189355,36.802686],[139.189395,36.802657],[139.189484,36.802619],[139.189596,36.802577],[139.189696,36.802544],[139.189835,36.802461],[139.189879,36.802432],[139.189944,36.802379],[139.189998,36.802314],[139.190047,36.802263],[139.190125,36.802153],[139.190239,36.801955]]}},{"type":"Feature","properties":{"id":549926671,"highway":"secondary"},"geometry":{"type":"LineString","coordinates":[[139.200895,36.889197],[139.200716,36.889039],[139.200657,36.888988],[139.200577,36.88894],[139.200503,36.888891],[139.200438,36.888824],[139.200382,36.888746],[139.200354,36.888675],[139.200327,36.888608],[139.200299,36.888459],[139.200271,36.88838],[139.20022,36.888298],[139.200062,36.888124],[139.199997,36.88803],[139.199954,36.887951],[139.199925,36.887851],[139.199917,36.887771],[139.199912,36.887581],[139.199906,36.887505],[139.199866,36.887216],[139.199851,36.88712],[139.199843,36.887016],[139.199844,36.886915],[139.199879,36.886596],[139.199901,36.886486],[139.199925,36.88641],[139.200003,36.886217],[139.200028,36.886141],[139.200082,36.88586],[139.200117,36.885776],[139.200162,36.885707],[139.200215,36.885643],[139.200294,36.88559],[139.200404,36.885555],[139.200524,36.88553],[139.200709,36.885486],[139.200807,36.885451],[139.200848,36.885424],[139.200892,36.885383],[139.200939,36.885326]]}},{"type":"Feature","properties":{"id":549926673,"highway":"secondary"},"geometry":{"type":"LineString","coordinates":[[139.20075,36.883927],[139.200758,36.883848],[139.200751,36.883772],[139.200506,36.883045],[139.200304,36.882607],[139.200256,36.88244],[139.200213,36.882258],[139.200138,36.8814],[139.200135,36.881185],[139.200194,36.880878],[139.200221,36.880561],[139.200237,36.880479],[139.200267,36.880419],[139.200355,36.880284],[139.200355,36.880207],[139.200318,36.880159],[139.200261,36.880125],[139.200186,36.880134],[139.200143,36.880181],[139.200036,36.880646],[139.199999,36.880775],[139.199878,36.881041],[139.199819,36.881132],[139.199296,36.881939],[139.199254,36.882021],[139.199245,36.882087],[139.199219,36.882153],[139.199177,36.882203],[139.199054,36.882295],[139.199036,36.882351],[139.198986,36.882545],[139.198961,36.882718],[139.19895,36.882752]]}},{"type":"Feature","properties":{"id":549926674,"highway":"primary"},"geometry":{"type":"LineString","coordinates":[[139.196384,36.871133],[139.19648,36.871166]]}},{"type":"Feature","properties":{"id":549926675,"highway":"primary"},"geometry":{"type":"LineString","coordinates":[[139.19648,36.871166],[139.197318,36.871483],[139.197464,36.871542],[139.197583,36.871593],[139.197667,36.871633],[139.197776,36.871701],[139.197835,36.871761],[139.19788,36.871836],[139.197927,36.871913],[139.197977,36.87206],[139.197983,36.872112],[139.197982,36.872173]]}},{"type":"Feature","properties":{"id":549927205,"highway":"primary"},"geometry":{"type":"LineString","coordinates":[[139.18432,36.865229],[139.184268,36.865277],[139.184241,36.865327],[139.184239,36.865366],[139.184245,36.86541],[139.184295,36.865465]]}},{"type":"Feature","properties":{"id":549927206,"highway":"primary"},"geometry":{"type":"LineString","coordinates":[[139.184295,36.865465],[139.184409,36.865513],[139.184827,36.865629],[139.185219,36.865659],[139.185387,36.865679],[139.185471,36.865705],[139.185527,36.865734],[139.185582,36.865789],[139.185636,36.865855],[139.185676,36.86596],[139.185735,36.866085],[139.185778,36.866154],[139.185813,36.866197],[139.185853,36.866246],[139.185923,36.866291],[139.186009,36.866332],[139.186108,36.866383],[139.186188,36.866426],[139.186454,36.866568],[139.186604,36.866656],[139.18672,36.866699],[139.186813,36.866752],[139.18687,36.866819],[139.186891,36.866868],[139.186889,36.866933],[139.186862,36.866976],[139.1868,36.867001],[139.186722,36.867027],[139.186653,36.86707],[139.186618,36.867111],[139.186612,36.867149],[139.186626,36.867186],[139.186644,36.867242],[139.186655,36.867297],[139.186696,36.867402],[139.186725,36.867497],[139.18672,36.867568],[139.186701,36.867641],[139.186661,36.867692],[139.186586,36.867742],[139.186494,36.867789],[139.186422,36.867879],[139.186417,36.867969],[139.186422,36.868048],[139.186438,36.868104],[139.186459,36.868171],[139.186449,36.868233],[139.18643,36.868267],[139.186379,36.868289],[139.186298,36.868293],[139.186213,36.868263],[139.186081,36.868233],[139.185987,36.86822],[139.185907,36.86822],[139.185824,36.868259],[139.185794,36.868299],[139.185786,36.86834],[139.185794,36.868377],[139.185816,36.868428],[139.185861,36.868469],[139.186258,36.868716],[139.186344,36.868791],[139.186374,36.868845],[139.186366,36.868932],[139.186339,36.86899],[139.18625,36.869063],[139.186065,36.86913],[139.18595,36.869141],[139.185848,36.869138],[139.185735,36.869119],[139.185574,36.869076],[139.185475,36.869055],[139.185392,36.869057],[139.185328,36.869098],[139.185298,36.869149],[139.185282,36.86922],[139.18529,36.869284],[139.185325,36.869344],[139.185376,36.869411],[139.185411,36.86946],[139.185408,36.869529],[139.185395,36.869604],[139.185306,36.869701],[139.185159,36.869804],[139.18489,36.869941],[139.184673,36.869986],[139.184526,36.869997],[139.184383,36.869999],[139.184223,36.869984],[139.183973,36.869969],[139.183879,36.86998],[139.183828,36.870007],[139.183783,36.870035],[139.183748,36.870093],[139.183732,36.870151],[139.183724,36.870269],[139.183691,36.870471],[139.183686,36.870516],[139.183643,36.870557],[139.183579,36.870583],[139.183496,36.870589],[139.183297,36.87061],[139.183016,36.870651],[139.182702,36.870686],[139.182458,36.87072],[139.182377,36.870752],[139.182337,36.870801],[139.182342,36.870842],[139.182369,36.870872],[139.182428,36.870887],[139.18249,36.870887],[139.182551,36.870872],[139.182707,36.870836],[139.182785,36.870829],[139.18283,36.870849],[139.182881,36.870909],[139.182892,36.87096],[139.182849,36.871044],[139.182814,36.871089],[139.182753,36.871143],[139.182624,36.871237],[139.182484,36.87134],[139.182417,36.871392],[139.182396,36.871439],[139.182369,36.871525],[139.182326,36.871713],[139.182315,36.87175],[139.182265,36.871786],[139.182195,36.871803],[139.182125,36.87181],[139.181996,36.871799],[139.181913,36.871799],[139.181803,36.871823],[139.181699,36.871881],[139.181618,36.871941],[139.18154,36.872075],[139.181534,36.872131],[139.181583,36.87218]]}},{"type":"Feature","properties":{"id":550275102,"highway":"primary"},"geometry":{"type":"LineString","coordinates":[[139.162311,36.849322],[139.162432,36.849203]]}},{"type":"Feature","properties":{"id":550275104,"highway":"primary"},"geometry":{"type":"LineString","coordinates":[[139.133028,36.844734],[139.133574,36.844712],[139.133909,36.844711],[139.134588,36.844699],[139.13517,36.844665],[139.135266,36.844657],[139.13545,36.84464],[139.135831,36.844553],[139.13606,36.844517],[139.136201,36.844487],[139.136401,36.844434],[139.136544,36.84439],[139.13665,36.844341],[139.13675,36.844291],[139.136978,36.844123],[139.137059,36.844072],[139.137118,36.844037],[139.137193,36.843987],[139.137302,36.843888],[139.137393,36.843823],[139.137447,36.843792],[139.137553,36.843751],[139.137623,36.84372],[139.137671,36.843687],[139.137723,36.843627],[139.137769,36.843612],[139.137991,36.84358],[139.138234,36.843533],[139.138306,36.843534],[139.138474,36.843567],[139.138682,36.843609],[139.138846,36.843621],[139.13907,36.843615],[139.139375,36.843583],[139.139611,36.843564],[139.139818,36.843537],[139.139858,36.843536],[139.139937,36.843553],[139.140067,36.843598],[139.140248,36.8437],[139.140329,36.843772],[139.140362,36.843803],[139.140407,36.843896],[139.140871,36.844558],[139.14134,36.845017],[139.141411,36.845058],[139.141498,36.845081],[139.14187,36.845137],[139.142013,36.845149],[139.142141,36.845158],[139.142291,36.845146],[139.14254,36.845118],[139.142858,36.845053],[139.143094,36.845004],[139.143236,36.844983],[139.143287,36.844985],[139.143357,36.845007],[139.143419,36.845033],[139.143613,36.845215],[139.143699,36.845317],[139.143797,36.845508],[139.143824,36.845557],[139.143875,36.845604],[139.143935,36.845651],[139.144003,36.845692],[139.144132,36.845741],[139.144222,36.845758],[139.144391,36.845759],[139.144507,36.845741],[139.144722,36.845697],[139.144847,36.845677],[139.144929,36.845668],[139.145001,36.845673],[139.145059,36.845693],[139.145123,36.845736],[139.145231,36.845868],[139.145312,36.845935],[139.145601,36.846107],[139.145818,36.846215],[139.145992,36.846278],[139.146125,36.846313],[139.146211,36.846324],[139.146326,36.846326],[139.146423,36.846302],[139.14652,36.846289],[139.146603,36.846296],[139.146844,36.84631],[139.146912,36.846302],[139.147002,36.846282],[139.147285,36.846192],[139.147561,36.846104],[139.147682,36.846041],[139.147796,36.846],[139.147854,36.845992],[139.147932,36.845994],[139.147993,36.846001],[139.148044,36.84602],[139.148154,36.846126],[139.148331,36.846287],[139.148417,36.846352],[139.148504,36.846379],[139.148592,36.84639],[139.148681,36.846382],[139.148779,36.846361],[139.149113,36.846287],[139.149421,36.846249],[139.149933,36.846211],[139.150071,36.84621],[139.150347,36.846237],[139.15056,36.846267],[139.150865,36.846344],[139.150985,36.846364],[139.151146,36.846376],[139.151266,36.846376],[139.15138,36.846361],[139.151481,36.846348],[139.151681,36.846333],[139.151754,36.846343],[139.15181,36.84637],[139.151861,36.846415],[139.152002,36.846577],[139.152364,36.846953],[139.152424,36.847003],[139.15249,36.847045],[139.152568,36.847077],[139.15265,36.847103],[139.152903,36.847127],[139.153379,36.847133],[139.153744,36.847142],[139.154114,36.847114],[139.154291,36.847052],[139.154431,36.846979],[139.154581,36.846927],[139.154705,36.846936],[139.154833,36.846966],[139.154951,36.847004],[139.155043,36.847065],[139.155128,36.84715],[139.155171,36.847241],[139.155236,36.847365],[139.155295,36.847451],[139.155364,36.847537],[139.155423,36.847601],[139.155493,36.84764],[139.155584,36.847683],[139.155713,36.847721],[139.155831,36.847752],[139.155949,36.84779],[139.156014,36.847837],[139.156067,36.847884],[139.156153,36.84794],[139.15625,36.847966],[139.156368,36.848005],[139.156539,36.848061],[139.156727,36.848134],[139.156867,36.848181],[139.157038,36.848215],[139.157162,36.848211],[139.157269,36.848198],[139.157435,36.848172],[139.157757,36.848116],[139.158014,36.848052],[139.158165,36.848043],[139.158293,36.848069],[139.158379,36.848125],[139.158422,36.848189],[139.15847,36.848288],[139.158476,36.848395],[139.158481,36.848546],[139.158476,36.848661],[139.158503,36.848773],[139.158551,36.848911],[139.158637,36.849057],[139.158749,36.849254],[139.15883,36.849391],[139.1589,36.849533],[139.15898,36.84961],[139.159071,36.849683],[139.159195,36.849748],[139.159361,36.849808],[139.159533,36.849876],[139.159699,36.849967],[139.159817,36.850031],[139.15994,36.850069],[139.160069,36.850091],[139.160198,36.8501],[139.160353,36.850074],[139.160439,36.850035],[139.160573,36.849967],[139.160702,36.849872],[139.160847,36.849778],[139.160911,36.84973],[139.161013,36.849705],[139.161099,36.849717],[139.161244,36.849748],[139.16141,36.849765],[139.16155,36.849739],[139.161684,36.849679],[139.161957,36.849563],[139.162107,36.849477],[139.162199,36.8494],[139.162311,36.849322]]}},{"type":"Feature","properties":{"id":693870793,"highway":"unclassified"},"geometry":{"type":"LineString","coordinates":[[139.103507,36.866735],[139.103431,36.866734]]}},{"type":"Feature","properties":{"id":830807510,"highway":"primary"},"geometry":{"type":"LineString","coordinates":[[139.174714,36.848159],[139.174891,36.848022]]}},{"type":"Feature","properties":{"id":830807511,"highway":"primary"},"geometry":{"type":"LineString","coordinates":[[139.162432,36.849203],[139.162403,36.849202],[139.162476,36.849138],[139.162567,36.84908],[139.162648,36.84905],[139.162757,36.849009],[139.162928,36.848958],[139.163003,36.848936],[139.163127,36.848889],[139.163229,36.848833],[139.163325,36.848752],[139.1634,36.84864],[139.163502,36.848494],[139.163572,36.848391],[139.163663,36.848297],[139.163776,36.848202],[139.164079,36.848097],[139.164248,36.848026],[139.164698,36.847902],[139.164929,36.84785],[139.165062,36.847841],[139.165216,36.847845],[139.165298,36.847858],[139.165426,36.84791],[139.165542,36.847969],[139.165656,36.848027],[139.165744,36.848069],[139.165847,36.848084],[139.166016,36.848089],[139.166183,36.848092],[139.166289,36.848074],[139.166368,36.848038],[139.166456,36.847965],[139.166568,36.847865],[139.166678,36.847816],[139.166765,36.847801],[139.166896,36.8478],[139.167045,36.847823],[139.167159,36.847861],[139.167223,36.847936],[139.167312,36.848087],[139.167349,36.848164],[139.167434,36.848292],[139.167507,36.848404],[139.167565,36.848469],[139.167627,36.848523],[139.167702,36.848568],[139.167785,36.84861],[139.167952,36.848662],[139.168105,36.848694],[139.168175,36.848703],[139.168232,36.848699],[139.168285,36.848682],[139.168492,36.848589],[139.168591,36.848551],[139.168685,36.848526],[139.168927,36.848483],[139.169038,36.848446],[139.169139,36.848406],[139.169214,36.848378],[139.169287,36.84837],[139.169361,36.848377],[139.169488,36.8484],[139.169617,36.848438],[139.169704,36.848458],[139.169799,36.84846],[139.169918,36.848438],[139.170063,36.848391],[139.170261,36.848318],[139.170367,36.84829],[139.170437,36.848283],[139.170528,36.848286],[139.171058,36.848335],[139.171538,36.848377],[139.171671,36.848387],[139.171754,36.848382],[139.171829,36.848368],[139.172348,36.848164],[139.17252,36.848097],[139.172653,36.848051],[139.172733,36.848031],[139.172796,36.848033],[139.173047,36.848069],[139.173393,36.848106],[139.173657,36.848136],[139.174002,36.848179],[139.174384,36.84821],[139.174521,36.848228],[139.17459,36.84822],[139.174651,36.848204],[139.174714,36.848159]]}},{"type":"Feature","properties":{"id":963175379,"highway":"service"},"geometry":{"type":"LineString","coordinates":[[139.172653,36.848051],[139.172671,36.848009],[139.1727,36.847958],[139.172765,36.847925],[139.172881,36.847854],[139.173169,36.847805],[139.173284,36.84781],[139.173394,36.8478],[139.173434,36.847771],[139.173453,36.847736]]}},{"type":"Feature","properties":{"id":1110527467,"highway":"service"},"geometry":{"type":"LineString","coordinates":[[139.173453,36.847736],[139.173618,36.847773],[139.173793,36.84784],[139.174154,36.848045],[139.174315,36.848113],[139.174361,36.84817],[139.174384,36.84821]]}},{"type":"Feature","properties":{"id":1110527468,"highway":"primary"},"geometry":{"type":"LineString","coordinates":[[139.126867,36.848329],[139.127053,36.848359],[139.127125,36.848369],[139.127218,36.848367],[139.127439,36.848312],[139.127651,36.848237],[139.127714,36.848195],[139.127743,36.848158],[139.128166,36.847723],[139.128531,36.847411],[139.128616,36.847289],[139.128649,36.8472],[139.128707,36.846975],[139.128757,36.846843],[139.128771,36.84676],[139.12877,36.846212],[139.128657,36.846006],[139.128431,36.845685],[139.128162,36.845221],[139.128085,36.845112],[139.127692,36.844653],[139.127409,36.844294],[139.127358,36.844209],[139.1273,36.844091],[139.127288,36.844011],[139.127301,36.843951],[139.127331,36.843911],[139.127366,36.843882],[139.127559,36.843836],[139.127674,36.843821],[139.128015,36.84384],[139.128232,36.843874],[139.128486,36.843896],[139.128846,36.843904],[139.129009,36.843924],[139.12915,36.843972],[139.129258,36.844029],[139.129326,36.844083],[139.129431,36.844174],[139.129592,36.844364],[139.129734,36.844469],[139.129892,36.844558],[139.13,36.844595],[139.130163,36.844617],[139.130575,36.844637],[139.130838,36.844672],[139.131204,36.844756],[139.131396,36.844817],[139.131582,36.844844],[139.132025,36.844842],[139.132296,36.844817],[139.132691,36.844787],[139.132938,36.844742],[139.133028,36.844734]]}},{"type":"Feature","properties":{"id":1235089686,"highway":"primary"},"geometry":{"type":"LineString","coordinates":[[139.197982,36.872173],[139.198039,36.872191],[139.198119,36.872202],[139.198197,36.872201]]}}]}