{"type":"FeatureCollection","features":[{"type":"Feature","properties":{"id":113361083,"highway":"unclassified"},"geometry":{"type":"LineString","coordinates":[[139.165766,35.042188],[139.165719,35.042256],[139.165701,35.042341],[139.165699,35.042425],[139.165733,35.042484],[139.165846,35.042541],[139.165898,35.042558],[139.165972,35.042556],[139.166092,35.042534],[139.166317,35.042477],[139.166726,35.042313],[139.16682,35.04227],[139.167059,35.04219],[139.167167,35.0422],[139.167289,35.042199],[139.167386,35.042189],[139.167438,35.042176],[139.167829,35.042116],[139.168069,35.042059],[139.16822,35.042048],[139.168497,35.042051],[139.168578,35.042067],[139.168642,35.042111],[139.168762,35.042152],[139.168917,35.042164],[139.169029,35.042211],[139.169216,35.042296],[139.169449,35.042316],[139.16959,35.042345],[139.169682,35.042397],[139.169747,35.042428],[139.169926,35.042451]]}},{"type":"Feature","properties":{"id":113361085,"highway":"unclassified"},"geometry":{"type":"LineString","coordinates":[[139.168568,35.039777],[139.168571,35.039571],[139.168572,35.039386],[139.168567,35.039051],[139.168559,35.038886],[139.168502,35.038711],[139.168285,35.038292],[139.168175,35.038064],[139.168159,35.038],[139.168168,35.037956],[139.168182,35.037931],[139.16824,35.037888],[139.168311,35.037847],[139.168365,35.037819],[139.168593,35.037688],[139.1688,35.037598],[139.169065,35.037521],[139.169231,35.03749],[139.169409,35.037474],[139.169484,35.037473],[139.169889,35.037457],[139.170355,35.037465],[139.170441,35.037488],[139.170797,35.037496],[139.170952,35.037503]]}},{"type":"Feature","properties":{"id":113361086,"highway":"unclassified"},"geometry":{"type":"LineString","coordinates":[[139.168477,35.040348],[139.168912,35.040413],[139.168937,35.040417],[139.169132,35.04046],[139.169284,35.040533],[139.169416,35.040619],[139.169463,35.04067],[139.169515,35.04071],[139.169567,35.04075],[139.169693,35.040781],[139.169965,35.04076],[139.170017,35.040747],[139.17031,35.040673],[139.1704,35.040651],[139.170778,35.040534],[139.170885,35.040534],[139.170962,35.040553],[139.171099,35.040619]]}},{"type":"Feature","properties":{"id":113361087,"highway":"unclassified"},"geometry":{"type":"LineString","coordinates":[[139.170511,35.039732],[139.170668,35.039681],[139.170815,35.039637]]}},{"type":"Feature","properties":{"id":113361088,"highway":"unclassified"},"geometry":{"type":"LineString","coordinates":[[139.171635,35.03937],[139.171702,35.03934],[139.171967,35.039254],[139.172063,35.03922],[139.172089,35.039183],[139.172088,35.039128],[139.17209,35.038623],[139.172089,35.038587]]}},{"type":"Feature","properties":{"id":113361089,"highway":"service"},"geometry":{"type":"LineString","coordinates":[[139.169235,35.039779],[139.169731,35.039788],[139.16997,35.039793],[139.170227,35.039799],[139.170362,35.039786],[139.170511,35.039732]]}},{"type":"Feature","properties":{"id":113361090,"highway":"unclassified"},"geometry":{"type":"LineString","coordinates":[[139.168477,35.040348],[139.168326,35.040886],[139.168233,35.041086],[139.168183,35.041162],[139.168008,35.041333],[139.167872,35.041429],[139.167302,35.041733],[139.16724,35.041766],[139.166886,35.041916],[139.166829,35.041941],[139.166473,35.042065],[139.166082,35.042161],[139.165766,35.042188]]}},{"type":"Feature","properties":{"id":113361091,"highway":"service"},"geometry":{"type":"LineString","coordinates":[[139.169235,35.039779],[139.169219,35.039571],[139.169287,35.039512],[139.16939,35.039442],[139.169419,35.039407],[139.169459,35.03933],[139.169479,35.03925],[139.169483,35.039195],[139.16947,35.039111],[139.169435,35.038996],[139.16939,35.038873],[139.169376,35.0388],[139.169371,35.038727],[139.169378,35.038605],[139.169386,35.038514],[139.16941,35.038443],[139.169448,35.038361],[139.169518,35.038275],[139.169635,35.038198],[139.16977,35.038161],[139.169901,35.038153],[139.170076,35.038158],[139.170218,35.038159],[139.170384,35.038125],[139.170486,35.038117],[139.170759,35.03813],[139.17099,35.038131],[139.171361,35.038137]]}},{"type":"Feature","properties":{"id":113361092,"highway":"unclassified"},"geometry":{"type":"LineString","coordinates":[[139.168568,35.039777],[139.168553,35.04003],[139.168477,35.040348]]}},{"type":"Feature","properties":{"id":113361094,"highway":"unclassified"},"geometry":{"type":"LineString","coordinates":[[139.172089,35.038587],[139.172073,35.038524],[139.172047,35.038494],[139.171988,35.03848],[139.171888,35.038487],[139.171759,35.038505],[139.171712,35.038501],[139.171668,35.038465],[139.171502,35.038288]]}},{"type":"Feature","properties":{"id":113361095,"highway":"unclassified"},"geometry":{"type":"LineString","coordinates":[[139.172089,35.038587],[139.172223,35.038567],[139.172462,35.038518],[139.172478,35.038488],[139.172445,35.038304],[139.172339,35.037855],[139.17233,35.037746],[139.17226,35.037487],[139.172243,35.037459],[139.172185,35.037439],[139.172066,35.037419],[139.171909,35.03742],[139.171821,35.037407],[139.17168,35.03736],[139.171423,35.037269],[139.171243,35.037208],[139.171192,35.037207],[139.171156,35.03722],[139.171122,35.037255],[139.171028,35.037457],[139.170991,35.037496],[139.170952,35.037503]]}},{"type":"Feature","properties":{"id":113361096,"highway":"service"},"geometry":{"type":"LineString","coordinates":[[139.168568,35.039777],[139.169047,35.039776],[139.169097,35.039776],[139.169235,35.039779]]}},{"type":"Feature","properties":{"id":113361097,"highway":"unclassified"},"geometry":{"type":"LineString","coordinates":[[139.171099,35.040619],[139.171153,35.040551],[139.17118,35.040495],[139.171163,35.04047],[139.171103,35.04033],[139.171077,35.040271],[139.170981,35.040067],[139.170815,35.039637]]}},{"type":"Feature","properties":{"id":113361098,"highway":"unclassified"},"geometry":{"type":"LineString","coordinates":[[139.165766,35.042188],[139.165883,35.042042],[139.166054,35.041839],[139.16612,35.041741],[139.166385,35.04166],[139.166717,35.041475],[139.166789,35.041412],[139.166894,35.041289],[139.167103,35.041024],[139.16716,35.040957],[139.167244,35.040878],[139.167319,35.040791],[139.16747,35.04064],[139.167509,35.040582],[139.167512,35.040541],[139.167521,35.040475]]}},{"type":"Feature","properties":{"id":113361099,"highway":"unclassified"},"geometry":{"type":"LineString","coordinates":[[139.171635,35.03937],[139.171519,35.039402],[139.170917,35.039589],[139.170815,35.039637]]}},{"type":"Feature","properties":{"id":113361100,"highway":"unclassified"},"geometry":{"type":"LineString","coordinates":[[139.169926,35.042451],[139.170261,35.042534],[139.170309,35.042542],[139.170512,35.042539],[139.170754,35.042533],[139.1712,35.042522],[139.17149,35.04251],[139.17195,35.042459],[139.172285,35.042379],[139.172347,35.042364],[139.172622,35.042251],[139.172897,35.042093],[139.173144,35.041879],[139.173408,35.041551],[139.17351,35.041421],[139.173609,35.041263],[139.173709,35.041067],[139.17387,35.040807],[139.173892,35.04072],[139.173984,35.040642],[139.174219,35.040484],[139.174465,35.040354],[139.174679,35.040227],[139.174775,35.04015],[139.17492,35.039992],[139.174993,35.03984],[139.175072,35.039725],[139.175114,35.039616],[139.175113,35.039565],[139.175123,35.039514],[139.175056,35.039367],[139.175027,35.039288],[139.174981,35.039207]]}},{"type":"Feature","properties":{"id":113361101,"highway":"unclassified"},"geometry":{"type":"LineString","coordinates":[[139.171361,35.038137],[139.171502,35.038288]]}},{"type":"Feature","properties":{"id":113361102,"highway":"unclassified"},"geometry":{"type":"LineString","coordinates":[[139.171099,35.040619],[139.171051,35.040691],[139.171057,35.040818],[139.171065,35.040982],[139.171064,35.041032],[139.170992,35.041062],[139.170858,35.041077],[139.170716,35.041147],[139.17056,35.041237],[139.170482,35.041276],[139.170433,35.041288],[139.17019,35.041362],[139.170151,35.041397],[139.170214,35.04144],[139.170426,35.041529],[139.170455,35.041561],[139.17066,35.041603],[139.17068,35.041675],[139.170624,35.041702],[139.170475,35.041755],[139.170453,35.04178],[139.170453,35.041814],[139.170417,35.041908],[139.170392,35.041997],[139.170363,35.042175],[139.1702,35.042281],[139.17006,35.042365],[139.169926,35.042451]]}},{"type":"Feature","properties":{"id":176727493,"highway":"unclassified"},"geometry":{"type":"LineString","coordinates":[[139.170441,35.037488],[139.170464,35.037511],[139.170502,35.037583],[139.170505,35.037848],[139.170486,35.038117]]}},{"type":"Feature","properties":{"id":190315773,"highway":"service"},"geometry":{"type":"LineString","coordinates":[[139.171966,35.039826],[139.171949,35.039799],[139.171918,35.039764],[139.171889,35.039735],[139.171857,35.03971],[139.171814,35.039691],[139.171752,35.039669],[139.171686,35.039651],[139.171624,35.039638],[139.171562,35.039634],[139.171497,35.039643],[139.171451,35.039659],[139.171402,35.039682],[139.171368,35.039721],[139.171348,35.039757],[139.171328,35.039795]]}},{"type":"Feature","properties":{"id":190315774,"highway":"service"},"geometry":{"type":"LineString","coordinates":[[139.168912,35.040413],[139.168882,35.040592]]}},{"type":"Feature","properties":{"id":190315775,"highway":"service"},"geometry":{"type":"LineString","coordinates":[[139.170917,35.039589],[139.170949,35.039647],[139.171002,35.039714],[139.17105,35.039747],[139.171106,35.039772],[139.171162,35.03978],[139.171248,35.03978],[139.171304,35.039785],[139.171328,35.039795],[139.171371,35.039811],[139.171441,35.039849],[139.171506,35.039881],[139.171565,35.039899],[139.17165,35.039906],[139.171715,35.039906],[139.171781,35.039903],[139.171816,35.039894],[139.171855,35.039876],[139.171942,35.039834],[139.171966,35.039826],[139.172033,35.039846],[139.17213,35.03987]]}},{"type":"Feature","properties":{"id":190315777,"highway":"residential"},"geometry":{"type":"LineString","coordinates":[[139.169935,35.041485],[139.169971,35.041485],[139.170026,35.041489],[139.170088,35.041501],[139.170221,35.041535],[139.170329,35.04155],[139.170455,35.041561],[139.170467,35.041533],[139.170499,35.041517],[139.170575,35.041512],[139.170634,35.041508],[139.170681,35.041519],[139.170724,35.04154],[139.170767,35.041579],[139.170783,35.041595],[139.170872,35.041629],[139.171401,35.041657],[139.171446,35.041683],[139.171539,35.04171],[139.171654,35.041724],[139.1717,35.041723],[139.17175,35.041691],[139.171789,35.041529],[139.171837,35.041332],[139.171858,35.041198],[139.171862,35.04117],[139.172129,35.041214],[139.172401,35.041282],[139.172564,35.041322],[139.172675,35.041343],[139.172698,35.041311],[139.17278,35.041177],[139.172805,35.041059],[139.172815,35.040836]]}},{"type":"Feature","properties":{"id":190315778,"highway":"service"},"geometry":{"type":"LineString","coordinates":[[139.169731,35.039788],[139.169739,35.039855],[139.169747,35.039933],[139.169759,35.040185]]}},{"type":"Feature","properties":{"id":190315779,"highway":"service"},"geometry":{"type":"LineString","coordinates":[[139.168937,35.040417],[139.168944,35.040386],[139.169116,35.040295],[139.169239,35.040212],[139.169239,35.040065]]}},{"type":"Feature","properties":{"id":190315780,"highway":"residential"},"geometry":{"type":"LineString","coordinates":[[139.171789,35.041529],[139.172026,35.041546],[139.172175,35.041574],[139.172331,35.041602]]}},{"type":"Feature","properties":{"id":190315783,"highway":"unclassified"},"geometry":{"type":"LineString","coordinates":[[139.16612,35.041741],[139.166031,35.041746],[139.16582,35.041795],[139.165672,35.041839],[139.165562,35.041874],[139.16546,35.041976]]}},{"type":"Feature","properties":{"id":190315784,"highway":"residential"},"geometry":{"type":"LineString","coordinates":[[139.168762,35.042152],[139.168757,35.042005],[139.168747,35.041954],[139.168746,35.041853],[139.168757,35.041789],[139.168821,35.041747],[139.168889,35.041688],[139.168931,35.041571],[139.168949,35.041466],[139.168975,35.041437],[139.169079,35.041438],[139.169272,35.04143],[139.169312,35.041428],[139.169382,35.041431],[139.169455,35.041449],[139.169501,35.041465],[139.169619,35.041479],[139.169689,35.041486],[139.169935,35.041485]]}},{"type":"Feature","properties":{"id":190323469,"highway":"residential"},"geometry":{"type":"LineString","coordinates":[[139.168757,35.041789],[139.168798,35.041802],[139.169182,35.041771],[139.169289,35.041765],[139.169513,35.041766],[139.169543,35.041778],[139.169666,35.041781],[139.169898,35.041778],[139.169897,35.041817],[139.1699,35.04191],[139.169875,35.041988],[139.169864,35.042021],[139.169862,35.04211],[139.16985,35.042226],[139.169768,35.042253],[139.169747,35.042303],[139.169706,35.04237],[139.169682,35.042397]]}},{"type":"Feature","properties":{"id":190323471,"highway":"residential"},"geometry":{"type":"LineString","coordinates":[[139.170453,35.04178],[139.17023,35.041757],[139.169916,35.041714],[139.169898,35.041778]]}},{"type":"Feature","properties":{"id":190323473,"highway":"service"},"geometry":{"type":"LineString","coordinates":[[139.167512,35.040541],[139.167659,35.040544],[139.167814,35.040549],[139.167875,35.040553],[139.167899,35.04058],[139.167866,35.040667]]}},{"type":"Feature","properties":{"id":190323475,"highway":"service"},"geometry":{"type":"LineString","coordinates":[[139.175123,35.039514],[139.175225,35.039506],[139.175325,35.039488],[139.175444,35.039454],[139.175687,35.039379],[139.175737,35.039374],[139.175965,35.039368]]}},{"type":"Feature","properties":{"id":231113005,"highway":"residential"},"geometry":{"type":"LineString","coordinates":[[139.171064,35.041032],[139.171235,35.04095],[139.171336,35.040888],[139.171425,35.040841],[139.171526,35.04081],[139.171587,35.040791],[139.171643,35.040771],[139.171677,35.04074],[139.171772,35.04065],[139.171812,35.040589],[139.17184,35.040539],[139.171881,35.040482],[139.171945,35.040444],[139.171999,35.040418],[139.172084,35.040365],[139.172167,35.040331],[139.172217,35.040313],[139.172281,35.040298]]}},{"type":"Feature","properties":{"id":231113008,"highway":"service"},"geometry":{"type":"LineString","coordinates":[[139.167278,35.03948],[139.167359,35.03977],[139.167393,35.03985]]}},{"type":"Feature","properties":{"id":231113012,"highway":"unclassified"},"geometry":{"type":"LineString","coordinates":[[139.167521,35.040475],[139.167506,35.040433],[139.167454,35.04019],[139.167434,35.040064],[139.167393,35.03985]]}},{"type":"Feature","properties":{"id":231113015,"highway":"service"},"geometry":{"type":"LineString","coordinates":[[139.171635,35.03937],[139.171709,35.039388],[139.172067,35.039418],[139.172073,35.039516],[139.172233,35.039555],[139.172356,35.039503],[139.172416,35.039495]]}},{"type":"Feature","properties":{"id":248422472,"highway":"service"},"geometry":{"type":"LineString","coordinates":[[139.170076,35.038158],[139.17008,35.037882],[139.169629,35.037879]]}},{"type":"Feature","properties":{"id":248422477,"highway":"service"},"geometry":{"type":"LineString","coordinates":[[139.169272,35.04143],[139.169283,35.041501],[139.169175,35.041536],[139.169055,35.041564],[139.168931,35.041571]]}},{"type":"Feature","properties":{"id":261942528,"highway":"service"},"geometry":{"type":"LineString","coordinates":[[139.168857,35.042322],[139.169115,35.042367],[139.169311,35.042375]]}},{"type":"Feature","properties":{"id":261942530,"highway":"service"},"geometry":{"type":"LineString","coordinates":[[139.17168,35.03736],[139.171658,35.037402],[139.171651,35.03754]]}},{"type":"Feature","properties":{"id":261942532,"highway":"service"},"geometry":{"type":"LineString","coordinates":[[139.172285,35.042379],[139.172255,35.042293],[139.172229,35.042198],[139.17221,35.042122],[139.172198,35.042056]]}},{"type":"Feature","properties":{"id":261942535,"highway":"service"},"geometry":{"type":"LineString","coordinates":[[139.168917,35.042164],[139.168881,35.042211],[139.168857,35.042322],[139.168694,35.042388],[139.16852,35.042412]]}},{"type":"Feature","properties":{"id":261942536,"highway":"service"},"geometry":{"type":"LineString","coordinates":[[139.169097,35.039776],[139.169106,35.03974],[139.169142,35.039684],[139.169147,35.039642],[139.16917,35.039611],[139.169219,35.039571]]}},{"type":"Feature","properties":{"id":261942537,"highway":"service"},"geometry":{"type":"LineString","coordinates":[[139.168183,35.041162],[139.168221,35.041185],[139.168297,35.04123],[139.168389,35.041278],[139.168453,35.041311],[139.168544,35.041358]]}},{"type":"Feature","properties":{"id":261942538,"highway":"service"},"geometry":{"type":"LineString","coordinates":[[139.17195,35.042459],[139.17195,35.042516],[139.171921,35.042577],[139.171853,35.042612],[139.171736,35.042639],[139.171434,35.042651]]}},{"type":"Feature","properties":{"id":261942539,"highway":"service"},"geometry":{"type":"LineString","coordinates":[[139.169747,35.042428],[139.169707,35.042494],[139.16968,35.042555],[139.169645,35.042639],[139.169508,35.042973],[139.169105,35.042982],[139.1685,35.043201]]}},{"type":"Feature","properties":{"id":270004175,"highway":"service"},"geometry":{"type":"LineString","coordinates":[[139.172229,35.042198],[139.172331,35.042133]]}},{"type":"Feature","properties":{"id":555724489,"highway":"service"},"geometry":{"type":"LineString","coordinates":[[139.170981,35.040067],[139.171042,35.040067],[139.17152,35.04014]]}},{"type":"Feature","properties":{"id":555724490,"highway":"service"},"geometry":{"type":"LineString","coordinates":[[139.171103,35.04033],[139.171054,35.040348],[139.171043,35.040371],[139.171043,35.040467],[139.171015,35.040474],[139.17074,35.040471],[139.170717,35.040459],[139.170717,35.040311],[139.170694,35.040292],[139.170358,35.040287],[139.170358,35.040504]]}},{"type":"Feature","properties":{"id":555724500,"highway":"service"},"geometry":{"type":"LineString","coordinates":[[139.169416,35.040619],[139.169448,35.040603],[139.169448,35.040507]]}},{"type":"Feature","properties":{"id":555724501,"highway":"service"},"geometry":{"type":"LineString","coordinates":[[139.169178,35.041004],[139.169153,35.040993],[139.168897,35.040943],[139.168906,35.040891],[139.168969,35.040731],[139.169004,35.040679],[139.16906,35.040617],[139.169091,35.040533]]}},{"type":"Feature","properties":{"id":555724505,"highway":"service"},"geometry":{"type":"LineString","coordinates":[[139.168934,35.041242],[139.169122,35.041288],[139.16917,35.041288],[139.169171,35.04125],[139.169175,35.041121],[139.169178,35.041004],[139.169326,35.040853],[139.169386,35.040762],[139.169416,35.040742],[139.169438,35.040747],[139.16946,35.040767],[139.169574,35.040939],[139.169584,35.040956]]}},{"type":"Feature","properties":{"id":555724507,"highway":"residential"},"geometry":{"type":"LineString","coordinates":[[139.169535,35.041262],[139.169643,35.041263],[139.169956,35.041316],[139.170151,35.041397]]}},{"type":"Feature","properties":{"id":555724508,"highway":"residential"},"geometry":{"type":"LineString","coordinates":[[139.169955,35.041415],[139.170116,35.041409],[139.170151,35.041397]]}},{"type":"Feature","properties":{"id":555724509,"highway":"residential"},"geometry":{"type":"LineString","coordinates":[[139.169328,35.041138],[139.169336,35.041196],[139.169344,35.041291],[139.169351,35.041311],[139.169475,35.041362],[139.169587,35.041429],[139.169677,35.041461],[139.169689,35.041486]]}},{"type":"Feature","properties":{"id":555724510,"highway":"service"},"geometry":{"type":"LineString","coordinates":[[139.16985,35.042226],[139.169883,35.042299],[139.169892,35.042395],[139.169926,35.042451]]}},{"type":"Feature","properties":{"id":555724511,"highway":"service"},"geometry":{"type":"LineString","coordinates":[[139.168578,35.042067],[139.16857,35.041883]]}},{"type":"Feature","properties":{"id":555724518,"highway":"service"},"geometry":{"type":"LineString","coordinates":[[139.169542,35.041979],[139.1697,35.041978],[139.169875,35.041988]]}},{"type":"Feature","properties":{"id":555724519,"highway":"service"},"geometry":{"type":"LineString","coordinates":[[139.168069,35.042059],[139.168158,35.042351],[139.16818,35.04248]]}},{"type":"Feature","properties":{"id":555724520,"highway":"service"},"geometry":{"type":"LineString","coordinates":[[139.165919,35.042757],[139.165969,35.042777],[139.166069,35.042809],[139.166141,35.042814],[139.166218,35.042802],[139.166337,35.042777],[139.166463,35.042732],[139.166613,35.04267],[139.166834,35.042611],[139.167163,35.042529],[139.167346,35.042483],[139.167516,35.042459],[139.167649,35.042442],[139.167781,35.042429],[139.16787,35.042397],[139.167988,35.042308]]}},{"type":"Feature","properties":{"id":555724521,"highway":"service"},"geometry":{"type":"LineString","coordinates":[[139.165846,35.042541],[139.165881,35.042591],[139.165917,35.042653],[139.165928,35.042682],[139.165927,35.042726],[139.165919,35.042757],[139.165881,35.042801],[139.165805,35.042876],[139.165732,35.042944],[139.165668,35.042997],[139.165586,35.043043],[139.165487,35.043089],[139.165355,35.04313],[139.165226,35.04316],[139.165107,35.043179],[139.164995,35.043189],[139.164883,35.04319],[139.16476,35.043179],[139.164603,35.043148],[139.164483,35.043109],[139.164423,35.043069],[139.164357,35.043009],[139.164319,35.042938],[139.164301,35.042864],[139.164305,35.042776],[139.164325,35.042667],[139.164382,35.042515],[139.16443,35.042434],[139.164532,35.042303],[139.164652,35.042176],[139.164769,35.042054]]}},{"type":"Feature","properties":{"id":555724532,"highway":"residential"},"geometry":{"type":"LineString","coordinates":[[139.169768,35.042253],[139.169627,35.042294],[139.169523,35.042292],[139.169449,35.042316]]}}]}