{"type": "FeatureCollection", "features": [{"type": "Feature", "properties": {"name": "多摩川サイクリングロード"}, "geometry": {"type": "MultiLineString", "coordinates": [[[139.621301, 35.613666], [139.621163, 35.613663], [139.621005, 35.613443], [139.620986, 35.613439], [139.620943, 35.613453], [139.619782, 35.613882], [139.619497, 35.61399], [139.617641, 35.61468], [139.617591, 35.614705], [139.617487, 35.614797], [139.617381, 35.614891], [139.61734, 35.614928]], [[139.615313, 35.616137], [139.615174, 35.61616]], [[139.615233, 35.616054], [139.615174, 35.61616], [139.615092, 35.616195], [139.615058, 35.616223], [139.615055, 35.616232], [139.615049, 35.616249], [139.61503, 35.616271], [139.614996, 35.616287], [139.614889, 35.616325], [139.614871, 35.616373], [139.614841, 35.616406], [139.614467, 35.616475], [139.614406, 35.616477], [139.614332, 35.616478], [139.614119, 35.616481], [139.613755, 35.616487], [139.613622, 35.616488], [139.613251, 35.616503], [139.612793, 35.616547], [139.612352, 35.616595], [139.611254, 35.61673], [139.611055, 35.616758], [139.609371, 35.61703], [139.609022, 35.617093], [139.608926, 35.61711], [139.60879, 35.617129], [139.608481, 35.617181], [139.608323, 35.617206], [139.607793, 35.617303], [139.607635, 35.617336], [139.606902, 35.617488], [139.606802, 35.617511], [139.605974, 35.617702], [139.60503, 35.617945], [139.604337, 35.618152], [139.603969, 35.618281], [139.60368, 35.618381], [139.603654, 35.618391], [139.601612, 35.619162], [139.601275, 35.619304], [139.601109, 35.619365], [139.600104, 35.619702], [139.599908, 35.61976], [139.599219, 35.619959], [139.598237, 35.620202], [139.597919, 35.620339], [139.597557, 35.620438]], [[139.589463, 35.620845], [139.588871, 35.620839]], [[139.625224, 35.611647], [139.625163, 35.611721], [139.625132, 35.611748], [139.624994, 35.611974], [139.624427, 35.612571], [139.624115, 35.612919], [139.623965, 35.612993], [139.623423, 35.613427], [139.622676, 35.613956], [139.6223, 35.614264], [139.622224, 35.614334], [139.622129, 35.614423], [139.621911, 35.614622], [139.62181, 35.614717], [139.621657, 35.614872], [139.621535, 35.615006], [139.621415, 35.615144], [139.621301, 35.615277], [139.621185, 35.615426], [139.621089, 35.615555], [139.620983, 35.615724], [139.620904, 35.61587], [139.620845, 35.615995], [139.620759, 35.616192], [139.620679, 35.616306], [139.620608, 35.616429], [139.620511, 35.616574], [139.62044, 35.616666], [139.620337, 35.61678], [139.620206, 35.616904], [139.62009, 35.617002], [139.619938, 35.617114], [139.619835, 35.617184], [139.619818, 35.617219], [139.619611, 35.617314], [139.619562, 35.617309], [139.619279, 35.617457]], [[139.58556, 35.621294], [139.585501, 35.621283], [139.585438, 35.621306], [139.585227, 35.621387], [139.585009, 35.621477], [139.584383, 35.621722], [139.583623, 35.62201], [139.583043, 35.622218], [139.582349, 35.622435], [139.582078, 35.622511], [139.581899, 35.622561], [139.581507, 35.622657], [139.58123, 35.622726], [139.58097, 35.622788], [139.580697, 35.622852], [139.580276, 35.622956], [139.580167, 35.622981], [139.580123, 35.622993], [139.580019, 35.623017], [139.579907, 35.623042], [139.579744, 35.623079], [139.579517, 35.623123], [139.579389, 35.623148], [139.579345, 35.623157], [139.579306, 35.623164], [139.578696, 35.623283], [139.578456, 35.623329], [139.578327, 35.623354], [139.578047, 35.623408], [139.577534, 35.623502], [139.57724, 35.623555], [139.576762, 35.623665], [139.576331, 35.623771], [139.575995, 35.623861], [139.575886, 35.623891], [139.575337, 35.624059], [139.575158, 35.624114], [139.575085, 35.624138], [139.574589, 35.6243], [139.573677, 35.624601], [139.57361, 35.624626], [139.57349, 35.624666]], [[139.617748, 35.616144], [139.616973, 35.616157], [139.616226, 35.616169], [139.615527, 35.616179], [139.615415, 35.616163], [139.615313, 35.616137]], [[139.622463, 35.613061], [139.622838, 35.61289], [139.623066, 35.61279], [139.623302, 35.612638], [139.623426, 35.612498], [139.623515, 35.612418], [139.623582, 35.612364], [139.623635, 35.612311], [139.623845, 35.612147], [139.623984, 35.612044], [139.624146, 35.611924], [139.624253, 35.611836], [139.624342, 35.611764], [139.624624, 35.611415], [139.624825, 35.611171], [139.624882, 35.611159], [139.62494, 35.611159]], [[139.56732, 35.631849], [139.567114, 35.632067], [139.566959, 35.632203], [139.566856, 35.632275], [139.566761, 35.63232], [139.566622, 35.632377]], [[139.512474, 35.653789], [139.512356, 35.653754], [139.512214, 35.653725], [139.511532, 35.653735], [139.511208, 35.653729], [139.510867, 35.65375], [139.510294, 35.653772], [139.509842, 35.653782], [139.509485, 35.653779], [139.509047, 35.653767], [139.508486, 35.653742], [139.508144, 35.653725], [139.50771, 35.653687], [139.507252, 35.653654], [139.506944, 35.653637], [139.506536, 35.653612], [139.506126, 35.653574], [139.505563, 35.653526], [139.504983, 35.653486], [139.504127, 35.653439], [139.503811, 35.653426], [139.50375, 35.653423], [139.503545, 35.653413], [139.503373, 35.653411], [139.503131, 35.65341], [139.502833, 35.653428], [139.502548, 35.653445], [139.502273, 35.653469], [139.502022, 35.653492], [139.501739, 35.653527], [139.501479, 35.65356], [139.50096, 35.653638], [139.500571, 35.653708], [139.500196, 35.65379], [139.499405, 35.653996], [139.499038, 35.654082], [139.498544, 35.654224], [139.498204, 35.654331], [139.497588, 35.654508], [139.496971, 35.654683], [139.49657, 35.654786], [139.49606, 35.654915], [139.495471, 35.655038], [139.495089, 35.655116], [139.494661, 35.655186], [139.49401, 35.655275], [139.493433, 35.655334], [139.492874, 35.655388], [139.492429, 35.655429], [139.491722, 35.655472], [139.491473, 35.655485], [139.490694, 35.655512], [139.490158, 35.655522], [139.489791, 35.655519], [139.489195, 35.655519], [139.489025, 35.655523]], [[139.405938, 35.687224], [139.405562, 35.686957]], [[139.387098, 35.69114], [139.386586, 35.691243], [139.386224, 35.691294], [139.385994, 35.691331], [139.385651, 35.691399], [139.385249, 35.691481], [139.384751, 35.69159], [139.38414, 35.691748], [139.383483, 35.691943], [139.383158, 35.692047], [139.38265, 35.692231], [139.382315, 35.692366], [139.381609, 35.692669], [139.381121, 35.692884], [139.380671, 35.693075], [139.380371, 35.693182], [139.379975, 35.693307], [139.379262, 35.693513], [139.378928, 35.693602], [139.37874, 35.693653], [139.378678, 35.693666], [139.37865, 35.693669], [139.378622, 35.693669], [139.378605, 35.693665], [139.378592, 35.693657], [139.378584, 35.693646], [139.378582, 35.693634], [139.378582, 35.693624], [139.378586, 35.693616], [139.378592, 35.693606], [139.378601, 35.693597], [139.378633, 35.69358], [139.379278, 35.693354], [139.379295, 35.693348], [139.379307, 35.693336], [139.379311, 35.693325], [139.379311, 35.693312], [139.379303, 35.6933], [139.379291, 35.693295], [139.379267, 35.693296], [139.379235, 35.693303]], [[139.516356, 35.652612], [139.516365, 35.652624], [139.516574, 35.652537], [139.516585, 35.652552], [139.516363, 35.652676]], [[139.329145, 35.727513], [139.329137, 35.727519], [139.329131, 35.727521], [139.329126, 35.727521], [139.329121, 35.727518], [139.329118, 35.727514], [139.329116, 35.727506], [139.329017, 35.727151], [139.329014, 35.727145], [139.329009, 35.72714], [139.329004, 35.727137], [139.328998, 35.727134], [139.328991, 35.727134], [139.328984, 35.727134], [139.328979, 35.727136], [139.328972, 35.727139], [139.328967, 35.727146], [139.328963, 35.727155], [139.328888, 35.727381], [139.328845, 35.727501], [139.328793, 35.727636], [139.328775, 35.727696], [139.328764, 35.727761], [139.328773, 35.727818], [139.328789, 35.727886], [139.328804, 35.727943], [139.328883, 35.728246], [139.328866, 35.728291], [139.328812, 35.728423], [139.328723, 35.728674], [139.328569, 35.72909], [139.328459, 35.729221], [139.32838, 35.729313], [139.328342, 35.729348], [139.3283, 35.729383], [139.328209, 35.729452], [139.328165, 35.729483], [139.328117, 35.729515], [139.327991, 35.729589], [139.327882, 35.729654], [139.327566, 35.729838], [139.327255, 35.730016], [139.327115, 35.730095], [139.326285, 35.730566], [139.325919, 35.730772], [139.325738, 35.730871], [139.32556, 35.730965], [139.325196, 35.731162], [139.324824, 35.731364], [139.324475, 35.731554], [139.324168, 35.731723], [139.324065, 35.731784], [139.323967, 35.731843], [139.323765, 35.731973], [139.323673, 35.732017], [139.323723, 35.731939], [139.323859, 35.731825], [139.323957, 35.731747], [139.323885, 35.731668]], [[139.405508, 35.686561], [139.405521, 35.686525], [139.40561, 35.68647], [139.405943, 35.686311], [139.406109, 35.686275], [139.406168, 35.686243], [139.406198, 35.686202], [139.406202, 35.686159], [139.406192, 35.686119], [139.406153, 35.686078], [139.406096, 35.686067], [139.405493, 35.686147], [139.405173, 35.686172], [139.404758, 35.686192], [139.404428, 35.686183], [139.403456, 35.686145], [139.403178, 35.686151], [139.402868, 35.686171], [139.402736, 35.68616], [139.402126, 35.686134], [139.400154, 35.686214], [139.400006, 35.68625], [139.399104, 35.68647], [139.398985, 35.686505], [139.398871, 35.686569], [139.398803, 35.686631], [139.398744, 35.686711], [139.398711, 35.686779], [139.398695, 35.686852], [139.398686, 35.686927], [139.39871, 35.686997], [139.399117, 35.687775], [139.399145, 35.687812], [139.399166, 35.687834]], [[139.328883, 35.728246], [139.328927, 35.728234], [139.329074, 35.727999], [139.3291, 35.727989], [139.329137, 35.727973]], [[139.400885, 35.687723], [139.400855, 35.687724], [139.400843, 35.68772], [139.400833, 35.687715], [139.400827, 35.687704], [139.400825, 35.687693], [139.400828, 35.687683], [139.400835, 35.687674], [139.400845, 35.687667], [139.401424, 35.687452], [139.401435, 35.687441], [139.401436, 35.687431], [139.401431, 35.687424], [139.401421, 35.687418], [139.401396, 35.687412], [139.401332, 35.687423], [139.400497, 35.687613], [139.39955, 35.687846], [139.39945, 35.687867], [139.399365, 35.687872], [139.399279, 35.687864], [139.399203, 35.687846], [139.399166, 35.687834], [139.399118, 35.687849], [139.398901, 35.687928], [139.398663, 35.688022], [139.398542, 35.688064], [139.39845, 35.688088], [139.398313, 35.68812], [139.397934, 35.688185], [139.397666, 35.688244], [139.397426, 35.688312], [139.396569, 35.688621], [139.395581, 35.688963]], [[139.524952, 35.646615], [139.525043, 35.646533], [139.525464, 35.646144], [139.525704, 35.645916], [139.526047, 35.645569], [139.526185, 35.645418], [139.526326, 35.645271], [139.526397, 35.645195], [139.526495, 35.645101], [139.526669, 35.644931]], [[139.311948, 35.751941], [139.311352, 35.752734], [139.311297, 35.752806], [139.3106, 35.753703], [139.310308, 35.754102]], [[139.310281, 35.754139], [139.310078, 35.754414], [139.309712, 35.754885], [139.309714, 35.754954]], [[139.32106, 35.734081], [139.32112, 35.734029], [139.321345, 35.733799], [139.321408, 35.733736], [139.321475, 35.73367], [139.321661, 35.733548], [139.321845, 35.733433], [139.322113, 35.733253]], [[139.373577, 35.695552], [139.373828, 35.695482], [139.374053, 35.695423], [139.374118, 35.695401], [139.374301, 35.695339]], [[139.327115, 35.730095], [139.32716, 35.730146], [139.327186, 35.730192]], [[139.570448, 35.626451], [139.570334, 35.626557], [139.570099, 35.626764], [139.569997, 35.626875], [139.569748, 35.627225], [139.569679, 35.627294]], [[139.570687, 35.626253], [139.570448, 35.626451]], [[139.405938, 35.687224], [139.405775, 35.687359], [139.405648, 35.68747], [139.404906, 35.688212]], [[139.405562, 35.686957], [139.405785, 35.686764]], [[139.405938, 35.687224], [139.406073, 35.687114], [139.406302, 35.686954], [139.406458, 35.686861], [139.406692, 35.686752], [139.406981, 35.68663], [139.407087, 35.686631], [139.407177, 35.686618], [139.407271, 35.686593], [139.407393, 35.686552], [139.407655, 35.686477], [139.407706, 35.686467], [139.407761, 35.686471], [139.407793, 35.686485]], [[139.401396, 35.687412], [139.401488, 35.687406], [139.401776, 35.687373], [139.402982, 35.687018], [139.403589, 35.686832], [139.403619, 35.686808], [139.403637, 35.686775], [139.403637, 35.686732], [139.403456, 35.686145]], [[139.408988, 35.685875], [139.408727, 35.68596], [139.408049, 35.68625], [139.40801, 35.686266]], [[139.512474, 35.653789], [139.512822, 35.653903]], [[139.512822, 35.653903], [139.512972, 35.653936], [139.513238, 35.653988], [139.513353, 35.653999], [139.513435, 35.654006], [139.513536, 35.654004], [139.513676, 35.653988], [139.513746, 35.65397], [139.513827, 35.653941], [139.513922, 35.653895], [139.514129, 35.65378], [139.514414, 35.653648], [139.514591, 35.653555], [139.515009, 35.653337], [139.515586, 35.653019], [139.51614, 35.652727], [139.516316, 35.652634], [139.516356, 35.652612], [139.516731, 35.652389], [139.51693, 35.652283], [139.517146, 35.652153], [139.517287, 35.652065], [139.517504, 35.651941], [139.517923, 35.651702], [139.518206, 35.651528], [139.518498, 35.651366], [139.518791, 35.651184], [139.519081, 35.651001], [139.519602, 35.650672], [139.520109, 35.650334], [139.520301, 35.650209], [139.520546, 35.65004], [139.520666, 35.649958], [139.520748, 35.649902], [139.521107, 35.649646], [139.521464, 35.649381], [139.521809, 35.64914], [139.522116, 35.648911], [139.52239, 35.648692], [139.522685, 35.648483], [139.522916, 35.648302], [139.523028, 35.648218], [139.523173, 35.648105], [139.5232, 35.648085], [139.524093, 35.647341], [139.524483, 35.647008], [139.524781, 35.646756], [139.524891, 35.646662], [139.524952, 35.646615]], [[139.41778, 35.683526], [139.41799, 35.683566]], [[139.335871, 35.70669], [139.335883, 35.706644], [139.335895, 35.706626], [139.335907, 35.706611], [139.336022, 35.706502], [139.336041, 35.706475], [139.33605, 35.706456], [139.336058, 35.706434], [139.336061, 35.70641], [139.336056, 35.706388], [139.336045, 35.706369], [139.336031, 35.70635], [139.336013, 35.706336], [139.335985, 35.706322], [139.335958, 35.706314], [139.335923, 35.706315], [139.335894, 35.706323], [139.335862, 35.706335], [139.33583, 35.706352], [139.335797, 35.706381], [139.33575, 35.706422], [139.335697, 35.70648], [139.335674, 35.706511], [139.335649, 35.706547], [139.33564, 35.706568], [139.335631, 35.706595], [139.335626, 35.706614], [139.335621, 35.706647], [139.335618, 35.706677], [139.335619, 35.706754]], [[139.395581, 35.688963], [139.395693, 35.689171], [139.395135, 35.689434], [139.395083, 35.689484], [139.394407, 35.689671], [139.393892, 35.689795], [139.393871, 35.689828], [139.393856, 35.689853]], [[139.317536, 35.745526], [139.316904, 35.746265], [139.316779, 35.746411], [139.316644, 35.746563], [139.316626, 35.746575], [139.316603, 35.746586], [139.316577, 35.746593], [139.31655, 35.746598], [139.31646, 35.746603], [139.316423, 35.746612], [139.31639, 35.746624], [139.316354, 35.746648], [139.316316, 35.746682], [139.315881, 35.747175], [139.315572, 35.74755], [139.315372, 35.74779], [139.315217, 35.747963], [139.315207, 35.747974], [139.314927, 35.748274], [139.314727, 35.748504], [139.314541, 35.748725], [139.314217, 35.749094], [139.314052, 35.749285], [139.31389, 35.749471], [139.31327, 35.750187], [139.313145, 35.750352], [139.312928, 35.75066], [139.31265, 35.751031], [139.31255, 35.751161], [139.312113, 35.751728], [139.311948, 35.751941]], [[139.672244, 35.581434], [139.672239, 35.58138], [139.672619, 35.58053], [139.672964, 35.579677], [139.673204, 35.579099], [139.67345, 35.578514], [139.673825, 35.57747], [139.673966, 35.577098], [139.674092, 35.576728], [139.674106, 35.57671], [139.674244, 35.576611], [139.674282, 35.576592], [139.674302, 35.57656], [139.674604, 35.575798], [139.674824, 35.575228], [139.675269, 35.574095], [139.675522, 35.573451], [139.67572, 35.572949], [139.67593, 35.572451], [139.676005, 35.57226], [139.676147, 35.571927], [139.676243, 35.571722], [139.676379, 35.571475], [139.676567, 35.571134], [139.676695, 35.570915], [139.67688, 35.570545], [139.677061, 35.570177], [139.677267, 35.569785], [139.677286, 35.569736], [139.677302, 35.569682], [139.67731, 35.569619], [139.677318, 35.569378], [139.677319, 35.569332], [139.677325, 35.569307], [139.677335, 35.569285], [139.677523, 35.56895], [139.677756, 35.568548], [139.677975, 35.568203], [139.678284, 35.567692], [139.678646, 35.567115], [139.678932, 35.566702], [139.679297, 35.566219], [139.679822, 35.565594], [139.680574, 35.564817], [139.680589, 35.564802], [139.680891, 35.56451], [139.681035, 35.56439], [139.681482, 35.563985], [139.681683, 35.5638], [139.681781, 35.563746], [139.681796, 35.563738], [139.682286, 35.563334], [139.68273, 35.562979], [139.683547, 35.562327], [139.683994, 35.561988], [139.68462, 35.561543], [139.685259, 35.56107], [139.685484, 35.560924], [139.685534, 35.560891], [139.685775, 35.560737], [139.686175, 35.560494], [139.686463, 35.560318], [139.687012, 35.559994], [139.688478, 35.559147], [139.688688, 35.559031], [139.689054, 35.558853], [139.689718, 35.558534], [139.690177, 35.558324], [139.690509, 35.558171], [139.690711, 35.558094], [139.691034, 35.557987], [139.691386, 35.557876], [139.691591, 35.557818], [139.691893, 35.557742], [139.692527, 35.557608], [139.693189, 35.557484], [139.693661, 35.557395], [139.694144, 35.557332], [139.694311, 35.557332]], [[139.671585, 35.582863], [139.671573, 35.582801], [139.671671, 35.582614], [139.671907, 35.582148], [139.672047, 35.581877], [139.67219, 35.581519]], [[139.723334, 35.544308], [139.723432, 35.544334], [139.723661, 35.544388], [139.724087, 35.544496], [139.724262, 35.544537], [139.72457, 35.544615], [139.724721, 35.544653], [139.724848, 35.544678], [139.725046, 35.544712], [139.725422, 35.544774], [139.72561, 35.544805], [139.725845, 35.544843], [139.726003, 35.544868], [139.72654, 35.544945], [139.727049, 35.545018], [139.727504, 35.545085], [139.727978, 35.545147], [139.728076, 35.545161], [139.728251, 35.545182], [139.728515, 35.545212], [139.728739, 35.545236], [139.728955, 35.545259], [139.729199, 35.54528], [139.729468, 35.5453], [139.729671, 35.545314], [139.729966, 35.545332], [139.730216, 35.545347], [139.730473, 35.545362], [139.730644, 35.545371], [139.730802, 35.54538], [139.730945, 35.545387], [139.731149, 35.545397], [139.731366, 35.545403], [139.731731, 35.545412], [139.73203, 35.545415], [139.732517, 35.545423], [139.732637, 35.545426], [139.733023, 35.545432], [139.733172, 35.545434], [139.733566, 35.545428], [139.73382, 35.545428], [139.733951, 35.545428], [139.734305, 35.545435], [139.734724, 35.54545], [139.734846, 35.545455], [139.735152, 35.545475], [139.735229, 35.545479], [139.735611, 35.545496], [139.735833, 35.545507], [139.735947, 35.545512], [139.736278, 35.545528], [139.736515, 35.545539], [139.736671, 35.545545], [139.736761, 35.545549], [139.736974, 35.545554], [139.737179, 35.545558], [139.737526, 35.545557], [139.737717, 35.545554], [139.73795, 35.545549], [139.738162, 35.545538], [139.738375, 35.545523], [139.738408, 35.545522], [139.738672, 35.545504], [139.739215, 35.545458], [139.739615, 35.545421], [139.740185, 35.545357], [139.740358, 35.545335], [139.740679, 35.545292], [139.740779, 35.545279], [139.740937, 35.545259], [139.741327, 35.545211], [139.741541, 35.545176], [139.741648, 35.545159], [139.741978, 35.545124]], [[139.723256, 35.544288], [139.723334, 35.544308]], [[139.704422, 35.540878], [139.704484, 35.540843], [139.704848, 35.540642], [139.705048, 35.540533], [139.705065, 35.540524]], [[139.711292, 35.540235], [139.711496, 35.540274], [139.711811, 35.540336], [139.711945, 35.540371], [139.712446, 35.540494], [139.712897, 35.540602], [139.713679, 35.540802], [139.713976, 35.540889], [139.71489, 35.541172], [139.715632, 35.541416], [139.71614, 35.541575], [139.716656, 35.541765], [139.717296, 35.542029], [139.717682, 35.542187], [139.717939, 35.542292], [139.718086, 35.542356], [139.718327, 35.542451], [139.718827, 35.54266], [139.719299, 35.54285], [139.719992, 35.543141], [139.720526, 35.543348], [139.720884, 35.543484], [139.720984, 35.54352], [139.721193, 35.543598], [139.721592, 35.543739], [139.721923, 35.543851], [139.722216, 35.543947], [139.722744, 35.544113], [139.722908, 35.544168], [139.723197, 35.54427], [139.723256, 35.544288]], [[139.710999, 35.540025], [139.711075, 35.540039], [139.711189, 35.540063], [139.711231, 35.540075], [139.711522, 35.540125]], [[139.347335, 35.699656], [139.347404, 35.699632], [139.347446, 35.699615], [139.347633, 35.699529], [139.347818, 35.699433], [139.34792, 35.699386]], [[139.536123, 35.641473], [139.536131, 35.641483], [139.536127, 35.641511], [139.536068, 35.641532], [139.535897, 35.641576], [139.535745, 35.641619], [139.535648, 35.641652], [139.535606, 35.641666], [139.535612, 35.641728]], [[139.520818, 35.649969], [139.52077, 35.649953], [139.520656, 35.650018], [139.520582, 35.650042], [139.520546, 35.65004]], [[139.491725, 35.655559], [139.491703, 35.65553], [139.491496, 35.65551], [139.491473, 35.655485]], [[139.48007, 35.656447], [139.480126, 35.656451], [139.480361, 35.656417], [139.480395, 35.656402], [139.480562, 35.656321], [139.480586, 35.656319], [139.480828, 35.656354], [139.480879, 35.656354], [139.481028, 35.656502], [139.481148, 35.656593], [139.481215, 35.656635], [139.481289, 35.656663], [139.481342, 35.656672], [139.481444, 35.656715], [139.481607, 35.656763], [139.481878, 35.656854], [139.482012, 35.656889], [139.482145, 35.65692], [139.482298, 35.656937], [139.482444, 35.65694], [139.482482, 35.656934], [139.482546, 35.656915], [139.482951, 35.656907], [139.483277, 35.656906], [139.483329, 35.656899], [139.483429, 35.65687], [139.483532, 35.656863], [139.483787, 35.656844], [139.484047, 35.656828], [139.484315, 35.656805], [139.484375, 35.656776], [139.484443, 35.656756], [139.484485, 35.656724], [139.484575, 35.656674], [139.484611, 35.656626], [139.484751, 35.656489], [139.484951, 35.656467], [139.485054, 35.656444], [139.485358, 35.656463], [139.485514, 35.65649]], [[139.48478, 35.656712], [139.485018, 35.656751], [139.48533, 35.656794], [139.485512, 35.656881], [139.485747, 35.656969], [139.485973, 35.657055], [139.486136, 35.657085], [139.486428, 35.657124], [139.486659, 35.657146], [139.486757, 35.657157], [139.486849, 35.657187], [139.486901, 35.657215], [139.486948, 35.657253], [139.486975, 35.657276], [139.487007, 35.6573], [139.487041, 35.657314]], [[139.33305, 35.713033], [139.332937, 35.713069]], [[139.330172, 35.720014], [139.33012, 35.720261], [139.330084, 35.720466], [139.330081, 35.720479], [139.330078, 35.720487], [139.33007, 35.720497], [139.330058, 35.720507], [139.330017, 35.720523]], [[139.332895, 35.713093], [139.332851, 35.713054], [139.332758, 35.71297], [139.332671, 35.712886], [139.332629, 35.712854], [139.332609, 35.712842], [139.332583, 35.712834], [139.33255, 35.712833], [139.33253, 35.712838], [139.332502, 35.712849], [139.332481, 35.712865], [139.332469, 35.712883], [139.332461, 35.712904], [139.332456, 35.712932], [139.332381, 35.713268], [139.332304, 35.713617], [139.332297, 35.713639], [139.332286, 35.713662], [139.332273, 35.713684], [139.332258, 35.713706], [139.332196, 35.713773], [139.332099, 35.71387], [139.331998, 35.713967], [139.331952, 35.714014], [139.331928, 35.714037], [139.331426, 35.714536], [139.331398, 35.714567], [139.331381, 35.714593], [139.331362, 35.714641], [139.331351, 35.714686], [139.33131, 35.715039], [139.331273, 35.71536], [139.331286, 35.71565], [139.331282, 35.715691], [139.33115, 35.716036]], [[139.33115, 35.716036], [139.330975, 35.716494], [139.330888, 35.716741], [139.330822, 35.717002], [139.330755, 35.717264], [139.330638, 35.717713], [139.330547, 35.718076], [139.330463, 35.718423], [139.330359, 35.718821]], [[139.360162, 35.696888], [139.359949, 35.696902], [139.358135, 35.697033], [139.357932, 35.697046], [139.356991, 35.69713], [139.356617, 35.697167], [139.356344, 35.697214], [139.356059, 35.697279], [139.355391, 35.69747], [139.354884, 35.697617], [139.353082, 35.698053], [139.352886, 35.698093], [139.35246, 35.698179], [139.352064, 35.698242]], [[139.414302, 35.683723], [139.414262, 35.68367], [139.414259, 35.683652], [139.414273, 35.683635], [139.414757, 35.683421], [139.414786, 35.683408]], [[139.319072, 35.744693], [139.318984, 35.744708], [139.318751, 35.744765], [139.31847, 35.744846], [139.318369, 35.744889], [139.31827, 35.744933], [139.318058, 35.745055], [139.31797, 35.74512], [139.317949, 35.745133], [139.317908, 35.745161], [139.317703, 35.745356], [139.317536, 35.745526]], [[139.454399, 35.655471], [139.45487, 35.655385], [139.455299, 35.655308], [139.45541, 35.655296], [139.455527, 35.655289], [139.455561, 35.655289]], [[139.438183, 35.663824], [139.438201, 35.663843], [139.438068, 35.663966], [139.438111, 35.663996]], [[139.485566, 35.655426], [139.485589, 35.655394], [139.485806, 35.655369], [139.485809, 35.655351]], [[139.485507, 35.655333], [139.485576, 35.655337], [139.485809, 35.655351], [139.48648, 35.655399], [139.486826, 35.655429]], [[139.481585, 35.655282], [139.4818, 35.655307], [139.481926, 35.655342], [139.482184, 35.655457], [139.482491, 35.655593], [139.482972, 35.655808], [139.483225, 35.655909]], [[139.54636, 35.639154], [139.546372, 35.639191], [139.546363, 35.639217], [139.545799, 35.639431]], [[139.720828, 35.543593], [139.72081, 35.543564], [139.72067, 35.543471], [139.720545, 35.543404], [139.720528, 35.543391], [139.720526, 35.543348]], [[139.71725, 35.542139], [139.71727, 35.542138], [139.717407, 35.542149], [139.717641, 35.542207], [139.717668, 35.542201], [139.717682, 35.542187]], [[139.31255, 35.751391], [139.312532, 35.751375], [139.312651, 35.751201], [139.312638, 35.751191], [139.312396, 35.751504], [139.31237, 35.751494], [139.312571, 35.751192], [139.31255, 35.751161]], [[139.679862, 35.566012], [139.680041, 35.565822], [139.680106, 35.565756], [139.680315, 35.565529], [139.680752, 35.565081], [139.680824, 35.565009], [139.680854, 35.564979], [139.68094, 35.564897]], [[139.307183, 35.756855], [139.307115, 35.756913], [139.307064, 35.756956], [139.306974, 35.757061], [139.306915, 35.757112], [139.306804, 35.757137], [139.306418, 35.757195], [139.306154, 35.757237], [139.305754, 35.7573], [139.305434, 35.757349], [139.304897, 35.75745], [139.304476, 35.757539], [139.303799, 35.75772], [139.303329, 35.757865], [139.302842, 35.758028], [139.302368, 35.758219], [139.302135, 35.758312]], [[139.427774, 35.674503], [139.427421, 35.674923], [139.427062, 35.67534], [139.426436, 35.676072], [139.426276, 35.676261], [139.426091, 35.676473], [139.425873, 35.676726], [139.425442, 35.677232], [139.425246, 35.677462], [139.424481, 35.678351], [139.424147, 35.678738], [139.423898, 35.679024], [139.423703, 35.679244], [139.423601, 35.67936], [139.42356, 35.679433]], [[139.320486, 35.735846], [139.320531, 35.735765], [139.320568, 35.735698], [139.320623, 35.735583], [139.320748, 35.735337], [139.320811, 35.735212], [139.320871, 35.735122], [139.320909, 35.735065], [139.320957, 35.735007], [139.321059, 35.734918], [139.321191, 35.734815], [139.321443, 35.734629], [139.321623, 35.734508], [139.321829, 35.73437], [139.32198, 35.734265], [139.322288, 35.734065], [139.322334, 35.734031]], [[139.301706, 35.758605], [139.301704, 35.758584], [139.301703, 35.758571], [139.301779, 35.75853], [139.301816, 35.758508], [139.302135, 35.758312]], [[139.33305, 35.713033], [139.333089, 35.71302], [139.333109, 35.713008], [139.333124, 35.712999], [139.333139, 35.712985], [139.333147, 35.712972], [139.333155, 35.712952], [139.333166, 35.712904], [139.333181, 35.712861], [139.333331, 35.712557], [139.333384, 35.712443], [139.3334, 35.712359], [139.333406, 35.712318], [139.333445, 35.712013], [139.333475, 35.711776], [139.333504, 35.711506], [139.333608, 35.711304], [139.333735, 35.711074], [139.333744, 35.711049], [139.333746, 35.711024], [139.333744, 35.711008]], [[139.333744, 35.711008], [139.333736, 35.710982], [139.333722, 35.710947], [139.333717, 35.71092], [139.333715, 35.710897], [139.333715, 35.7108], [139.333716, 35.710717], [139.333728, 35.710611], [139.333766, 35.710421], [139.333817, 35.710149], [139.333899, 35.709837], [139.334059, 35.709266], [139.334202, 35.708837], [139.334388, 35.708416], [139.334612, 35.70805], [139.334985, 35.707522], [139.335232, 35.707264], [139.335389, 35.707126], [139.335487, 35.707046], [139.335586, 35.706946], [139.335609, 35.706917], [139.33562, 35.706885], [139.335626, 35.706857], [139.335624, 35.70682], [139.335619, 35.706754]], [[139.337435, 35.705514], [139.337157, 35.705792], [139.336318, 35.706529], [139.33603, 35.706791], [139.335835, 35.706949], [139.335684, 35.707084], [139.335658, 35.707094], [139.33564, 35.707093], [139.335629, 35.70708], [139.335632, 35.707063], [139.33566, 35.707035], [139.335731, 35.706952], [139.335844, 35.706808]], [[139.34422, 35.701049], [139.344931, 35.700678], [139.345627, 35.700344], [139.346251, 35.700056], [139.346305, 35.700035], [139.346505, 35.699964], [139.346549, 35.699984], [139.346624, 35.699994], [139.346808, 35.699956], [139.346962, 35.699923], [139.347128, 35.699876]], [[139.347195, 35.699734], [139.347119, 35.699759], [139.347099, 35.699766], [139.346698, 35.699897], [139.346505, 35.699964]], [[139.347478, 35.699729], [139.347128, 35.699876]], [[139.34422, 35.701049], [139.343661, 35.701414], [139.343167, 35.70171], [139.342862, 35.701923], [139.341713, 35.702651], [139.340751, 35.703277], [139.339624, 35.704012], [139.339456, 35.704113], [139.33884, 35.704524], [139.337598, 35.705371], [139.337435, 35.705514]], [[139.330179, 35.719804], [139.330177, 35.719726], [139.33018, 35.719671], [139.330189, 35.71962], [139.330205, 35.719576], [139.33022, 35.719554], [139.330234, 35.71954], [139.330249, 35.719517], [139.330256, 35.719492], [139.330264, 35.719417]], [[139.330172, 35.720014], [139.330179, 35.719804]], [[139.714857, 35.540937], [139.714811, 35.540868], [139.714784, 35.540827], [139.714766, 35.54078], [139.714755, 35.540716], [139.714757, 35.540681], [139.714758, 35.540652], [139.714806, 35.540571], [139.714879, 35.540512], [139.714957, 35.540477], [139.71501, 35.54046], [139.715116, 35.540469], [139.715214, 35.540495], [139.715879, 35.540773], [139.716045, 35.54084], [139.716714, 35.541113], [139.717601, 35.541458], [139.717755, 35.541523], [139.718987, 35.542022], [139.719794, 35.542327], [139.720686, 35.542682], [139.722529, 35.543417], [139.722581, 35.543445], [139.72262, 35.543481], [139.722647, 35.543532], [139.722654, 35.543581], [139.722637, 35.543644], [139.722568, 35.543711], [139.722519, 35.543731], [139.722446, 35.543745], [139.722361, 35.543724], [139.722345, 35.54372], [139.722176, 35.543659], [139.722096, 35.543633], [139.72189, 35.543564], [139.721009, 35.543261], [139.720479, 35.543076], [139.720109, 35.542947], [139.71984, 35.542844], [139.719546, 35.542723], [139.719434, 35.542678], [139.7192, 35.54259], [139.71888, 35.542455], [139.718426, 35.542289], [139.718234, 35.542203], [139.717498, 35.541905], [139.717394, 35.541861], [139.717336, 35.541839], [139.716241, 35.541385], [139.716072, 35.541315], [139.71568, 35.541193], [139.715621, 35.541173], [139.715579, 35.541158], [139.714934, 35.540963], [139.714857, 35.540937]], [[139.698016, 35.557239], [139.698189, 35.557175], [139.698308, 35.557132], [139.698524, 35.557045], [139.698761, 35.556959], [139.698868, 35.556909], [139.699076, 35.556818], [139.699233, 35.55677], [139.699489, 35.556696], [139.699779, 35.556604], [139.699931, 35.556543], [139.699947, 35.556538], [139.700124, 35.55645], [139.700299, 35.556355], [139.700429, 35.556272], [139.70058, 35.55615], [139.70068, 35.556077], [139.700789, 35.556003], [139.700964, 35.555874], [139.701195, 35.555696], [139.701319, 35.555593], [139.701491, 35.555458], [139.701652, 35.555342], [139.701674, 35.555328]], [[139.697502, 35.557374], [139.697589, 35.557357], [139.697676, 35.557337], [139.697794, 35.557301], [139.697871, 35.557276], [139.69798, 35.557248], [139.698016, 35.557239]], [[139.615233, 35.616054], [139.615201, 35.615931], [139.615191, 35.615832], [139.615273, 35.615701]], [[139.625336, 35.611209], [139.62538, 35.611212], [139.625473, 35.611149], [139.625757, 35.610977], [139.626119, 35.610727], [139.626284, 35.610638], [139.626499, 35.610517]], [[139.330359, 35.718821], [139.330342, 35.718853], [139.330295, 35.718856], [139.33026, 35.718862], [139.330232, 35.718886], [139.330218, 35.71892]], [[139.407798, 35.686349], [139.407767, 35.686359], [139.406981, 35.68663]], [[139.566622, 35.632377], [139.566365, 35.632583], [139.566081, 35.632821], [139.565747, 35.6331], [139.565537, 35.633281], [139.56516, 35.633601]], [[139.56516, 35.633601], [139.565126, 35.633661], [139.565117, 35.633706], [139.565129, 35.633806], [139.565163, 35.633879], [139.565233, 35.633933], [139.565278, 35.633943]], [[139.704115, 35.553488], [139.704239, 35.553372], [139.704286, 35.553318], [139.704355, 35.553234], [139.704526, 35.553052], [139.704645, 35.552911], [139.704749, 35.552783], [139.704837, 35.552675], [139.704907, 35.552567], [139.704951, 35.55249], [139.705006, 35.552385], [139.705041, 35.552299], [139.705079, 35.552203], [139.705158, 35.551926], [139.705193, 35.551766], [139.705225, 35.551563], [139.70523, 35.55146], [139.705228, 35.551352], [139.70522, 35.551242], [139.705192, 35.551078], [139.70512, 35.550753], [139.705045, 35.550506], [139.70496, 35.55025], [139.704912, 35.550121], [139.70488, 35.549992], [139.704834, 35.549872], [139.704706, 35.549575], [139.704564, 35.549276], [139.704391, 35.548907], [139.704356, 35.548843], [139.704102, 35.548361], [139.703812, 35.547842], [139.7036, 35.5474], [139.703395, 35.547043], [139.703295, 35.546857], [139.7032, 35.546673], [139.703123, 35.546522], [139.703106, 35.546484], [139.703091, 35.546444], [139.703066, 35.546346]], [[139.711292, 35.540235], [139.711313, 35.540208], [139.711338, 35.540201], [139.711536, 35.540229], [139.71186, 35.540277], [139.712268, 35.54034], [139.712382, 35.540354], [139.712439, 35.540356], [139.712479, 35.540352], [139.712503, 35.540329]], [[139.711522, 35.540125], [139.711703, 35.540161], [139.711864, 35.540192], [139.712047, 35.540226], [139.712182, 35.54025], [139.712305, 35.540264], [139.712424, 35.540269], [139.712468, 35.54028], [139.712496, 35.5403], [139.712503, 35.540329]], [[139.712503, 35.540329], [139.712579, 35.540338], [139.712963, 35.540428], [139.713588, 35.540577], [139.714024, 35.54067], [139.714152, 35.540704], [139.714473, 35.540803], [139.714857, 35.540937]], [[139.74848, 35.545018], [139.748818, 35.545092], [139.749154, 35.545178], [139.74937, 35.545238], [139.749744, 35.545351], [139.749887, 35.545393], [139.750047, 35.54544], [139.75023, 35.545492], [139.750352, 35.545524], [139.750511, 35.545562]], [[139.748331, 35.544991], [139.74848, 35.545018]], [[139.742122, 35.545105], [139.742338, 35.54506], [139.742819, 35.544996], [139.743437, 35.544907], [139.743531, 35.5449], [139.743727, 35.544872], [139.743739, 35.544864], [139.743987, 35.544833], [139.744081, 35.544823], [139.744236, 35.54481], [139.7444, 35.544797], [139.744545, 35.544786], [139.744692, 35.544776], [139.744918, 35.54476], [139.745056, 35.544754], [139.745507, 35.544751], [139.745959, 35.544753], [139.746467, 35.544779], [139.746528, 35.544782], [139.746554, 35.544784], [139.746802, 35.544803], [139.747078, 35.544827], [139.747104, 35.54483], [139.747483, 35.54487], [139.747613, 35.544885], [139.747774, 35.544903], [139.747999, 35.544926], [139.748152, 35.544952], [139.748331, 35.544991]], [[139.709383, 35.539976], [139.709576, 35.539976], [139.709675, 35.539981], [139.709728, 35.539987], [139.709776, 35.539997]], [[139.67219, 35.581519], [139.672222, 35.581468], [139.672244, 35.581434], [139.672275, 35.58139], [139.6723, 35.581367], [139.672434, 35.581119], [139.672527, 35.580949], [139.672562, 35.58088], [139.672581, 35.580861], [139.672603, 35.580857], [139.672616, 35.580862], [139.672618, 35.580882], [139.672597, 35.580991], [139.672574, 35.581111], [139.672552, 35.581221], [139.672532, 35.581333], [139.672523, 35.581381], [139.672524, 35.581397], [139.672532, 35.581408], [139.672551, 35.581416], [139.672578, 35.581412], [139.672592, 35.581401], [139.672598, 35.581391], [139.672629, 35.581302], [139.672656, 35.581231], [139.672706, 35.581105], [139.672745, 35.581007], [139.672819, 35.58082], [139.672888, 35.580639], [139.672981, 35.580394], [139.673001, 35.580349], [139.673156, 35.579948], [139.67323, 35.579751], [139.673385, 35.579364], [139.673595, 35.578849], [139.673746, 35.578485], [139.673802, 35.57835], [139.67389, 35.578132], [139.674026, 35.577808], [139.674139, 35.577556], [139.67427, 35.577236], [139.674383, 35.576931], [139.674527, 35.576528], [139.674559, 35.576433], [139.674641, 35.576212], [139.674674, 35.576123], [139.674789, 35.575847], [139.675009, 35.575276], [139.675223, 35.574731], [139.675324, 35.574473], [139.675456, 35.574143], [139.675688, 35.573559], [139.675713, 35.573502], [139.67573, 35.573442], [139.675736, 35.57342], [139.67587, 35.573113], [139.675934, 35.572938], [139.676111, 35.57249], [139.676156, 35.572387], [139.676252, 35.572171], [139.676334, 35.571987], [139.676397, 35.571847], [139.676511, 35.571614], [139.676678, 35.571279], [139.676814, 35.571005], [139.676909, 35.570812], [139.677019, 35.570595], [139.677087, 35.570466], [139.677193, 35.570256], [139.677355, 35.569966], [139.677501, 35.569688], [139.677585, 35.569517], [139.677664, 35.569362], [139.677722, 35.569252], [139.677966, 35.568798], [139.67809, 35.568579], [139.678223, 35.568352], [139.678399, 35.56806], [139.678572, 35.567791], [139.678769, 35.567505], [139.678932, 35.567251], [139.679348, 35.566711], [139.679592, 35.566379], [139.679734, 35.566199], [139.679862, 35.566012], [139.679888, 35.565952], [139.680053, 35.565712], [139.680269, 35.565418], [139.680468, 35.565159], [139.680706, 35.564931]], [[139.734869, 35.545544], [139.735025, 35.545545], [139.735102, 35.545536], [139.735131, 35.545528], [139.735146, 35.545506], [139.735152, 35.545475]], [[139.735947, 35.545512], [139.736007, 35.545549], [139.736109, 35.545568], [139.736238, 35.545574], [139.736522, 35.545591], [139.736542, 35.545592], [139.736827, 35.54561], [139.736847, 35.545619], [139.736863, 35.54563], [139.736877, 35.54565]], [[139.484333, 35.656648], [139.484404, 35.656694], [139.484444, 35.656714], [139.484485, 35.656724], [139.484523, 35.656731], [139.484661, 35.65672], [139.48478, 35.656712]], [[139.484333, 35.656648], [139.483949, 35.656373], [139.483591, 35.656136], [139.483513, 35.65608], [139.483225, 35.655909]], [[139.684425, 35.56213], [139.684275, 35.562245], [139.683994, 35.562441], [139.683752, 35.562627], [139.683362, 35.562937], [139.68303, 35.563192], [139.682852, 35.563323], [139.682544, 35.563552], [139.682465, 35.563615], [139.681918, 35.564058], [139.681686, 35.564223], [139.681475, 35.564393], [139.681406, 35.564444]], [[139.410794, 35.685073], [139.410989, 35.684933], [139.411388, 35.684668], [139.41157, 35.684544], [139.41174, 35.68441], [139.41192, 35.684301], [139.412289, 35.684174], [139.412445, 35.684119], [139.412565, 35.684095], [139.412679, 35.684068], [139.412859, 35.684006], [139.412957, 35.683968], [139.413144, 35.683873], [139.413394, 35.683754], [139.413662, 35.683643], [139.413982, 35.683529], [139.414204, 35.683448], [139.414803, 35.683261], [139.415217, 35.683141], [139.415383, 35.683094], [139.415435, 35.683086], [139.415473, 35.683095], [139.415488, 35.683112], [139.415481, 35.683143], [139.415459, 35.683167], [139.415403, 35.68319], [139.414844, 35.683358], [139.414789, 35.683379], [139.414778, 35.683391], [139.414786, 35.683408], [139.414807, 35.683412], [139.41486, 35.6834], [139.415274, 35.683307], [139.416031, 35.683149], [139.416837, 35.682986], [139.417013, 35.682946], [139.417192, 35.682899], [139.417317, 35.682864], [139.417358, 35.682856], [139.41739, 35.682858], [139.417429, 35.682865], [139.417466, 35.682882], [139.417493, 35.682897], [139.417511, 35.682917], [139.41754, 35.68296], [139.417564, 35.683024], [139.417638, 35.683191], [139.417681, 35.683305], [139.417717, 35.683414], [139.417732, 35.683456], [139.417749, 35.683491], [139.41778, 35.683526]], [[139.332937, 35.713069], [139.332913, 35.71308], [139.332895, 35.713093]], [[139.330218, 35.71892], [139.330193, 35.71902], [139.330192, 35.719063], [139.330195, 35.719087], [139.330218, 35.719204], [139.330243, 35.71933], [139.330264, 35.719417]], [[139.320486, 35.735846], [139.320445, 35.735945], [139.320363, 35.736143], [139.320328, 35.736213], [139.320216, 35.736488], [139.320176, 35.736556], [139.320123, 35.736627], [139.320064, 35.736701], [139.320042, 35.736732], [139.320019, 35.736776], [139.320004, 35.736813], [139.319993, 35.736857], [139.31998, 35.736926], [139.319962, 35.737044], [139.319938, 35.737143], [139.319914, 35.737229], [139.319896, 35.737292], [139.319869, 35.737353], [139.31984, 35.737426], [139.319811, 35.737508], [139.319792, 35.737582], [139.319785, 35.737619], [139.319783, 35.737654], [139.319789, 35.737705], [139.319799, 35.737745], [139.319856, 35.737943], [139.319893, 35.738086], [139.31989, 35.738127], [139.319875, 35.738181], [139.319838, 35.738273], [139.319775, 35.738385], [139.319714, 35.738493], [139.319684, 35.738553], [139.319681, 35.738577], [139.319688, 35.738599], [139.319762, 35.738696], [139.31966, 35.738882], [139.319614, 35.738955], [139.319557, 35.739007], [139.319515, 35.739058], [139.319495, 35.739086], [139.319475, 35.739122]], [[139.319409, 35.739262], [139.319389, 35.739306], [139.319376, 35.739328], [139.319361, 35.739349], [139.319319, 35.739395], [139.319284, 35.739418], [139.319239, 35.739464], [139.319222, 35.739488], [139.31921, 35.739512], [139.319173, 35.739626], [139.319143, 35.739769], [139.319084, 35.739898], [139.319049, 35.740103], [139.319, 35.740374], [139.318897, 35.74099], [139.318795, 35.741576], [139.318772, 35.741671], [139.318754, 35.741756], [139.318738, 35.741821], [139.318712, 35.741923], [139.318697, 35.74198], [139.318687, 35.742031], [139.318678, 35.742092], [139.31867, 35.742153], [139.318666, 35.742283], [139.318666, 35.742413], [139.318662, 35.742657], [139.31866, 35.742733], [139.318652, 35.742809], [139.318642, 35.742878], [139.318629, 35.742926], [139.318628, 35.742962], [139.318614, 35.743195], [139.318585, 35.743589], [139.318576, 35.743753], [139.318561, 35.743884], [139.318465, 35.744132], [139.318449, 35.744196], [139.318444, 35.744265], [139.31845, 35.744295], [139.318464, 35.744327], [139.318481, 35.744354], [139.318501, 35.744381], [139.318544, 35.744423], [139.318312, 35.744602], [139.318285, 35.744626], [139.318268, 35.744651], [139.318251, 35.744703], [139.318232, 35.744739], [139.318216, 35.744762], [139.318187, 35.744792], [139.318059, 35.744905], [139.317927, 35.74503], [139.317797, 35.74515], [139.317701, 35.745258], [139.317613, 35.745368], [139.317554, 35.745458], [139.317543, 35.745482], [139.317536, 35.745526]], [[139.319475, 35.739122], [139.319409, 35.739262]], [[139.323957, 35.731747], [139.324095, 35.731639], [139.324286, 35.731469], [139.324268, 35.731443]], [[139.323885, 35.731668], [139.323678, 35.731799], [139.32347, 35.731938], [139.323255, 35.732093], [139.32304, 35.73225]], [[139.32304, 35.73225], [139.32296, 35.732314], [139.322852, 35.732394]], [[139.323682, 35.732289], [139.323663, 35.732271], [139.323606, 35.732218], [139.32361, 35.732136], [139.32363, 35.732058], [139.323673, 35.732017]], [[139.329303, 35.727513], [139.329276, 35.727522], [139.329177, 35.72761], [139.329143, 35.72766], [139.32912, 35.727666], [139.329111, 35.727667], [139.329104, 35.727665], [139.329101, 35.727661], [139.329101, 35.727656], [139.329145, 35.727513], [139.32915, 35.727496]], [[139.330017, 35.720523], [139.330013, 35.721037], [139.330014, 35.721273], [139.330014, 35.721511], [139.330014, 35.721931], [139.330012, 35.722395], [139.33001, 35.722769], [139.330004, 35.723147], [139.330009, 35.723501], [139.33001, 35.723596], [139.330005, 35.723729], [139.33, 35.723857], [139.329994, 35.723935], [139.32998, 35.724084], [139.329969, 35.724179], [139.329952, 35.724284], [139.329934, 35.724379], [139.329912, 35.72448], [139.329865, 35.724688], [139.329801, 35.724969], [139.329768, 35.725125], [139.329715, 35.725383], [139.32965, 35.72566], [139.329586, 35.725919], [139.329521, 35.726202], [139.329456, 35.72646], [139.329427, 35.726578], [139.329389, 35.726714], [139.329338, 35.726887], [139.329288, 35.727054], [139.329233, 35.727239], [139.32915, 35.727496]], [[139.352064, 35.698242], [139.352035, 35.698233], [139.352025, 35.698206], [139.352041, 35.698179], [139.352709, 35.697994], [139.35273, 35.697978], [139.352722, 35.697946], [139.35269, 35.697944], [139.35261, 35.697956], [139.351829, 35.698092], [139.351709, 35.698134], [139.351585, 35.698173], [139.350637, 35.698318], [139.349919, 35.698424], [139.349552, 35.698477], [139.349409, 35.698498], [139.349267, 35.698522], [139.349206, 35.698537], [139.349129, 35.698557], [139.349057, 35.698583], [139.348996, 35.698608], [139.348881, 35.698661], [139.348686, 35.698769], [139.348114, 35.699126], [139.348032, 35.699205], [139.347972, 35.699306], [139.34792, 35.699386], [139.347852, 35.699474], [139.347716, 35.699568], [139.34753, 35.699699], [139.347478, 35.699729]], [[139.379235, 35.693303], [139.378193, 35.693511], [139.377178, 35.693733], [139.376957, 35.693799], [139.376544, 35.693962], [139.375925, 35.694256]], [[139.387098, 35.69114], [139.38754, 35.691067], [139.388245, 35.69095], [139.389176, 35.690802], [139.390227, 35.690613], [139.391244, 35.690415], [139.392342, 35.690153], [139.393509, 35.689856], [139.393847, 35.689778], [139.393892, 35.689795]], [[139.398313, 35.68812], [139.398487, 35.688437], [139.398505, 35.688501], [139.398506, 35.688553], [139.398496, 35.688585], [139.398475, 35.688649], [139.398366, 35.688705], [139.398374, 35.688719], [139.398388, 35.688742]], [[139.395581, 35.688963], [139.395454, 35.689004], [139.395341, 35.689035], [139.395217, 35.689054], [139.395104, 35.689062], [139.395003, 35.689049], [139.394898, 35.689026], [139.394805, 35.689013], [139.394713, 35.689018], [139.394615, 35.689036], [139.393631, 35.689287], [139.392576, 35.689568], [139.39244, 35.68961], [139.392361, 35.68964], [139.392291, 35.68968], [139.39216, 35.689767], [139.392029, 35.689862], [139.391938, 35.689909], [139.391847, 35.689931], [139.39176, 35.689927], [139.391664, 35.689906], [139.391323, 35.689819], [139.391192, 35.689795], [139.391087, 35.689792], [139.390917, 35.689815], [139.390587, 35.689856], [139.39025, 35.689917], [139.389337, 35.690086], [139.388407, 35.690249], [139.388299, 35.690274], [139.388233, 35.690306], [139.38818, 35.690342], [139.388143, 35.690377], [139.387928, 35.690635], [139.387734, 35.690868], [139.387678, 35.690933], [139.387626, 35.690975], [139.387565, 35.691], [139.387098, 35.69114]], [[139.400885, 35.687723], [139.40084, 35.687757], [139.40071, 35.687797], [139.400612, 35.687831], [139.400555, 35.687873]], [[139.404496, 35.688127], [139.404572, 35.68808], [139.404636, 35.688018], [139.405149, 35.687425], [139.405562, 35.686957]], [[139.405785, 35.686764], [139.406038, 35.686569], [139.406101, 35.686516], [139.406135, 35.68648], [139.406148, 35.686462], [139.406154, 35.686446], [139.406153, 35.686432], [139.40615, 35.686419], [139.406144, 35.686408], [139.406128, 35.686398], [139.406102, 35.686394], [139.406066, 35.686395], [139.405994, 35.686409], [139.405935, 35.686425], [139.405508, 35.686561], [139.405124, 35.686669], [139.404751, 35.686776], [139.40463, 35.686809], [139.404388, 35.686874], [139.403805, 35.687023], [139.403351, 35.687136], [139.403217, 35.687167], [139.403067, 35.687205], [139.402918, 35.68724], [139.402209, 35.687398], [139.40154, 35.687564], [139.401083, 35.687677], [139.400885, 35.687723]], [[139.409585, 35.685611], [139.410261, 35.685324], [139.410794, 35.685073], [139.411176, 35.684884], [139.4118, 35.684568], [139.412029, 35.684475], [139.412128, 35.684443], [139.412259, 35.684428], [139.412961, 35.684437], [139.413044, 35.684438]], [[139.408119, 35.686368], [139.40814, 35.686418], [139.408227, 35.686628], [139.408253, 35.68669]], [[139.413415, 35.684474], [139.413308, 35.68447], [139.413286, 35.68447], [139.413218, 35.684467], [139.413044, 35.684438]], [[139.555756, 35.63718], [139.555767, 35.63713], [139.555788, 35.637104], [139.555807, 35.63708], [139.555879, 35.63703], [139.555906, 35.63702], [139.556027, 35.636974], [139.556095, 35.636915]], [[139.57349, 35.624666], [139.573095, 35.624819], [139.572938, 35.624885], [139.572704, 35.624984], [139.572544, 35.625047], [139.572303, 35.625154], [139.571984, 35.625313], [139.571734, 35.625443], [139.571679, 35.625472]], [[139.571679, 35.625472], [139.571678, 35.62552], [139.571655, 35.625566], [139.571535, 35.625664], [139.571377, 35.625762], [139.57124, 35.625843], [139.57105, 35.625952], [139.570942, 35.626025], [139.570708, 35.626234], [139.570687, 35.626253]], [[139.478782, 35.654942], [139.478807, 35.654962], [139.478953, 35.654975], [139.479481, 35.654965], [139.480008, 35.654998], [139.480233, 35.655012], [139.48035, 35.655023], [139.480373, 35.655026], [139.480595, 35.65505], [139.48067, 35.655066], [139.480798, 35.655084], [139.48093, 35.655101], [139.481021, 35.655111], [139.481136, 35.655118], [139.481296, 35.655124], [139.481465, 35.655128]], [[139.456082, 35.655172], [139.456294, 35.655122], [139.45629, 35.655114], [139.45629, 35.655105], [139.456295, 35.655098], [139.456303, 35.655091], [139.456317, 35.655084], [139.456756, 35.654945], [139.456767, 35.654941], [139.456774, 35.654935], [139.456786, 35.654927], [139.456794, 35.654917], [139.456798, 35.654911], [139.456799, 35.654905], [139.456797, 35.654896], [139.456795, 35.654889], [139.456787, 35.654882], [139.456771, 35.654876], [139.456748, 35.654875], [139.456673, 35.654884], [139.456577, 35.654904], [139.456094, 35.655012], [139.455909, 35.655054], [139.455105, 35.655231], [139.455012, 35.655257], [139.454988, 35.655264], [139.454589, 35.655379], [139.454476, 35.655423], [139.454399, 35.655471], [139.453342, 35.655675], [139.452322, 35.655896], [139.451925, 35.65599], [139.451519, 35.656092], [139.451361, 35.656181], [139.451194, 35.656275], [139.45112, 35.656305], [139.451044, 35.656325], [139.450977, 35.656334], [139.45091, 35.656335], [139.450624, 35.656345], [139.450547, 35.656354], [139.450482, 35.656371], [139.450313, 35.656414], [139.450142, 35.656463], [139.449965, 35.656518], [139.449644, 35.656616], [139.44932, 35.65672], [139.44916, 35.656769], [139.448992, 35.656826], [139.448668, 35.656941], [139.448135, 35.657137], [139.447799, 35.657275], [139.447435, 35.657435], [139.44717, 35.657555], [139.446917, 35.657662], [139.44658, 35.657826], [139.446229, 35.657989], [139.446069, 35.658073], [139.445695, 35.65827], [139.445377, 35.658431], [139.444989, 35.658636], [139.444841, 35.658717], [139.444696, 35.658801], [139.444433, 35.658951], [139.444115, 35.659141], [139.443532, 35.659515], [139.443151, 35.659772], [139.442975, 35.659896], [139.442778, 35.660045], [139.442506, 35.660257], [139.442265, 35.660452], [139.442131, 35.660572], [139.441996, 35.660659], [139.441947, 35.66074], [139.441811, 35.660877], [139.441682, 35.661013], [139.441537, 35.661165], [139.44142, 35.661267], [139.4413, 35.661369]], [[139.488994, 35.655592], [139.489025, 35.655523], [139.489097, 35.655478], [139.489174, 35.655468], [139.489519, 35.655427], [139.489565, 35.655413], [139.489597, 35.655378], [139.489597, 35.655352]], [[139.485586, 35.655226], [139.485243, 35.655198], [139.484917, 35.655169], [139.484241, 35.655098], [139.483827, 35.655085], [139.483569, 35.655069], [139.48347, 35.655064], [139.48337, 35.655059], [139.483286, 35.655055], [139.482805, 35.655031], [139.482651, 35.655029], [139.482374, 35.655032], [139.481759, 35.655037], [139.481482, 35.655043], [139.481274, 35.65505], [139.481099, 35.655049], [139.480936, 35.655035], [139.480646, 35.654992], [139.480529, 35.654971], [139.480365, 35.654947], [139.480096, 35.65491], [139.479694, 35.654892], [139.479344, 35.654881], [139.479284, 35.654882], [139.479213, 35.654884], [139.479093, 35.654896], [139.479008, 35.654902], [139.478881, 35.654918], [139.478836, 35.65493], [139.478782, 35.654942], [139.478642, 35.65496], [139.478476, 35.654973], [139.478394, 35.654974], [139.478352, 35.654975], [139.478315, 35.654961], [139.478261, 35.654941], [139.478248, 35.654911], [139.478215, 35.654836], [139.478201, 35.654709], [139.478101, 35.654221], [139.47808, 35.654144], [139.478048, 35.654093], [139.478008, 35.65405], [139.477933, 35.653992], [139.477842, 35.653957], [139.477338, 35.653817], [139.476827, 35.653669], [139.476297, 35.653528], [139.476276, 35.653522], [139.4759, 35.653426], [139.475551, 35.653344], [139.475316, 35.653292], [139.475025, 35.653236], [139.474575, 35.653163], [139.474154, 35.653096], [139.473816, 35.653053], [139.473484, 35.653025], [139.473172, 35.652996], [139.472779, 35.652973], [139.472415, 35.65296], [139.472085, 35.652955], [139.471515, 35.652966], [139.470756, 35.653002], [139.470413, 35.653027], [139.469919, 35.653054], [139.469085, 35.65313], [139.46755, 35.653292], [139.467271, 35.65332], [139.467244, 35.653324], [139.466863, 35.653378], [139.465988, 35.653494], [139.465201, 35.653612], [139.464359, 35.65374], [139.464063, 35.653784], [139.463662, 35.653849], [139.462977, 35.653963], [139.460843, 35.654322], [139.459007, 35.654655], [139.457541, 35.65491], [139.457007, 35.655003], [139.456383, 35.655114], [139.456331, 35.655123], [139.456312, 35.655126], [139.456303, 35.655125], [139.456294, 35.655122]], [[139.48648, 35.655399], [139.486557, 35.65537], [139.486901, 35.655368], [139.486949, 35.655357], [139.486959, 35.655338]], [[139.524952, 35.646615], [139.52498, 35.646507], [139.525004, 35.646479], [139.525068, 35.646401], [139.525216, 35.646245], [139.525429, 35.646013], [139.52556, 35.645874], [139.525601, 35.645825], [139.525649, 35.645763], [139.525671, 35.64573], [139.52568, 35.645706], [139.525694, 35.645656], [139.525714, 35.645577], [139.525731, 35.645535], [139.525759, 35.645485], [139.525809, 35.645427], [139.526143, 35.645114], [139.52645, 35.644808], [139.526734, 35.644547], [139.526959, 35.644366], [139.527225, 35.644188], [139.527417, 35.64406], [139.527624, 35.643947], [139.527839, 35.643827], [139.528008, 35.643751], [139.528231, 35.643652], [139.528833, 35.643399], [139.529075, 35.643307], [139.529413, 35.643189], [139.529753, 35.643068], [139.530293, 35.642866], [139.530696, 35.642725], [139.53093, 35.64264], [139.531518, 35.642452], [139.531803, 35.642365], [139.531928, 35.642339], [139.532548, 35.642192], [139.532715, 35.642163], [139.532911, 35.642114], [139.533176, 35.642063], [139.533356, 35.642023], [139.533594, 35.641976], [139.53389, 35.641908], [139.534111, 35.641865], [139.534679, 35.641743], [139.535087, 35.641667], [139.535573, 35.641581], [139.536123, 35.641473], [139.536677, 35.641373], [139.536978, 35.641318], [139.537112, 35.641297], [139.537271, 35.641259], [139.537684, 35.641147], [139.537928, 35.641081], [139.538094, 35.641038], [139.538233, 35.641006], [139.538314, 35.640998], [139.538511, 35.640982], [139.538675, 35.640968], [139.538806, 35.640945], [139.538855, 35.640934], [139.538963, 35.640898], [139.539048, 35.640865], [139.539156, 35.640817], [139.539194, 35.64081], [139.539218, 35.640813], [139.539231, 35.640835], [139.539222, 35.640853], [139.5392, 35.64087], [139.539078, 35.640913], [139.538844, 35.641002], [139.538705, 35.641028], [139.538636, 35.641043], [139.538605, 35.641065], [139.538602, 35.641089], [139.538628, 35.641116], [139.539408, 35.640942], [139.540287, 35.640749], [139.540899, 35.640603], [139.541519, 35.640456], [139.54221, 35.64029], [139.542871, 35.640125], [139.543498, 35.639959], [139.544184, 35.639783], [139.545207, 35.639497], [139.54575, 35.63933], [139.54636, 35.639154], [139.547876, 35.638717], [139.54934, 35.638305], [139.549902, 35.638162], [139.550399, 35.638035], [139.550672, 35.637964], [139.551064, 35.637867], [139.551414, 35.637783], [139.551651, 35.637729], [139.552059, 35.637633], [139.552556, 35.637534], [139.552658, 35.637509], [139.552895, 35.637465], [139.553101, 35.637438], [139.553415, 35.637383], [139.553809, 35.637305], [139.55412, 35.637252], [139.554476, 35.637192], [139.555056, 35.637094], [139.555606, 35.637], [139.556095, 35.636915], [139.556838, 35.636797], [139.557474, 35.636698], [139.558265, 35.636548], [139.559306, 35.636344], [139.559973, 35.636191], [139.560761, 35.635995], [139.560987, 35.635927], [139.561206, 35.635862], [139.561408, 35.635798], [139.561764, 35.635665], [139.562156, 35.635507], [139.562335, 35.635427], [139.56245, 35.635381], [139.562661, 35.635289], [139.562878, 35.635179], [139.563078, 35.635071], [139.563211, 35.634994], [139.563505, 35.634811], [139.563805, 35.634625], [139.5641, 35.634426], [139.564402, 35.634226], [139.564987, 35.633746], [139.565092, 35.633659], [139.56516, 35.633601]], [[139.702395, 35.554591], [139.701656, 35.555267], [139.701674, 35.555328]], [[139.704115, 35.553488], [139.704076, 35.553416], [139.704582, 35.552686], [139.704599, 35.552599]], [[139.703066, 35.546346], [139.703008, 35.546329], [139.702941, 35.54629], [139.702878, 35.546218], [139.702435, 35.545397], [139.702407, 35.545365], [139.702377, 35.545352]], [[139.722744, 35.544113], [139.722696, 35.544061], [139.722485, 35.543961], [139.722255, 35.543865], [139.722077, 35.54379], [139.722031, 35.543763], [139.722002, 35.543732], [139.721978, 35.543709], [139.721905, 35.543617], [139.72189, 35.543564]], [[139.716096, 35.541658], [139.715638, 35.54146], [139.715626, 35.541443], [139.715632, 35.541416]], [[139.626499, 35.610517], [139.627522, 35.609829], [139.62775, 35.609683], [139.627846, 35.609616], [139.628731, 35.609056], [139.630156, 35.608175], [139.630686, 35.607836], [139.631438, 35.607361]], [[139.632798, 35.606769], [139.632892, 35.606675], [139.633644, 35.606102], [139.633677, 35.606042]], [[139.631438, 35.607361], [139.631663, 35.607304], [139.632626, 35.606844], [139.63271, 35.606814]], [[139.63271, 35.606814], [139.632749, 35.606799], [139.632798, 35.606769]], [[139.625163, 35.611721], [139.625226, 35.61171], [139.625324, 35.611631], [139.62549, 35.611489], [139.625585, 35.611425], [139.625737, 35.611337], [139.625781, 35.61139], [139.625787, 35.611397], [139.625815, 35.611423]], [[139.632557, 35.606662], [139.633606, 35.606064], [139.633677, 35.606042]], [[139.432876, 35.668968], [139.432841, 35.669036], [139.432732, 35.669215], [139.432687, 35.669279], [139.432691, 35.669328]], [[139.684842, 35.561609], [139.685396, 35.561082], [139.685487, 35.561001], [139.686511, 35.560367], [139.687374, 35.559854], [139.688403, 35.559224], [139.688478, 35.559147]], [[139.3106, 35.753703], [139.31066, 35.753703], [139.310743, 35.753702]], [[139.310389, 35.754123], [139.310308, 35.754102]], [[139.375327, 35.694803], [139.375301, 35.694796], [139.375296, 35.694782], [139.375316, 35.694753], [139.375952, 35.694351], [139.376012, 35.6943], [139.376014, 35.694268], [139.375981, 35.694247], [139.375925, 35.694256]], [[139.457007, 35.655003], [139.457033, 35.654972], [139.457089, 35.65489], [139.457095, 35.654877], [139.457095, 35.654867], [139.457088, 35.654853], [139.457074, 35.654841], [139.457057, 35.654836], [139.457037, 35.654833], [139.456771, 35.654876]], [[139.513676, 35.653988], [139.513627, 35.654016], [139.513398, 35.654131], [139.51332, 35.65417], [139.513013, 35.654301], [139.512966, 35.654332], [139.51296, 35.654359], [139.512966, 35.654386]], [[139.51319, 35.654353], [139.513086, 35.654357], [139.512966, 35.654386], [139.512866, 35.654425], [139.512765, 35.654475], [139.512639, 35.654559], [139.512595, 35.65459], [139.512563, 35.65462], [139.512538, 35.654678], [139.512521, 35.654761]], [[139.503962, 35.653472], [139.503988, 35.653471], [139.504034, 35.653475], [139.504109, 35.653462], [139.504127, 35.653439]], [[139.503752, 35.65351], [139.503781, 35.653477], [139.503962, 35.653472], [139.503831, 35.653449], [139.503804, 35.653437], [139.503811, 35.653426]], [[139.621696, 35.614633], [139.621364, 35.6144]], [[139.335619, 35.706754], [139.335637, 35.706738], [139.335649, 35.706731], [139.335667, 35.706726], [139.335688, 35.70673], [139.335711, 35.706733], [139.335729, 35.706735], [139.335746, 35.706733], [139.335775, 35.706724], [139.335814, 35.706705], [139.335827, 35.706696], [139.335847, 35.70669], [139.335871, 35.70669]], [[139.335871, 35.70669], [139.335863, 35.706731], [139.335857, 35.706774], [139.335844, 35.706808]], [[139.310308, 35.754102], [139.310281, 35.754139]], [[139.330045, 35.71997], [139.330045, 35.719989], [139.330017, 35.720523]], [[139.61734, 35.614928], [139.617297, 35.614954], [139.615273, 35.615701]], [[139.615313, 35.616137], [139.615233, 35.616054]], [[139.631438, 35.607361], [139.631554, 35.607285], [139.632557, 35.606662]], [[139.632798, 35.606769], [139.632907, 35.606735], [139.633253, 35.606536], [139.633519, 35.606394], [139.633716, 35.606325], [139.633783, 35.60636]], [[139.375925, 35.694256], [139.375833, 35.694309], [139.375473, 35.694498], [139.375199, 35.694645], [139.37477, 35.694896], [139.374368, 35.695156], [139.374211, 35.69524], [139.374038, 35.69532], [139.373816, 35.695416], [139.373676, 35.695488], [139.373577, 35.695552], [139.373506, 35.695583], [139.373404, 35.695615], [139.373193, 35.695674], [139.372746, 35.695799], [139.372267, 35.695912], [139.371835, 35.695999], [139.371478, 35.696058], [139.371022, 35.696118], [139.370217, 35.696217], [139.369821, 35.696258], [139.368974, 35.696337], [139.367904, 35.69641], [139.365988, 35.696524], [139.364244, 35.696625], [139.363531, 35.696675], [139.363373, 35.696689]], [[139.709989, 35.540027], [139.710155, 35.54005], [139.710244, 35.540068], [139.710389, 35.540093], [139.711003, 35.540186], [139.71115, 35.54021], [139.711292, 35.540235]], [[139.530291, 35.643022], [139.530277, 35.64299], [139.530287, 35.642955], [139.530344, 35.642929], [139.530653, 35.64281], [139.530857, 35.642725], [139.530884, 35.642703], [139.53093, 35.64264]], [[139.522916, 35.648302], [139.522944, 35.648295], [139.523006, 35.648277], [139.523067, 35.648248], [139.523218, 35.648126], [139.523277, 35.648121]], [[139.440366, 35.661991], [139.440621, 35.661775], [139.440975, 35.6615], [139.441064, 35.661438]], [[139.441996, 35.660659], [139.441771, 35.660844], [139.441624, 35.660968], [139.441237, 35.661282]], [[139.408988, 35.685875], [139.40948, 35.685664], [139.409585, 35.685611]], [[139.408119, 35.686368], [139.408126, 35.686334], [139.408163, 35.686297], [139.408308, 35.686235], [139.408449, 35.686174], [139.408712, 35.686046], [139.408988, 35.685875]], [[139.44111, 35.661526], [139.441088, 35.661546], [139.440956, 35.661647], [139.440787, 35.661744], [139.440575, 35.661868], [139.440366, 35.661991], [139.440323, 35.662019], [139.440158, 35.662171], [139.440093, 35.662225], [139.439748, 35.662493], [139.439369, 35.662813], [139.438985, 35.663138], [139.438598, 35.663471], [139.438183, 35.663824], [139.437898, 35.664076], [139.437806, 35.664154], [139.43729, 35.664603], [139.436771, 35.665068], [139.435846, 35.665915], [139.435609, 35.666146], [139.435354, 35.666387], [139.434574, 35.667142], [139.434189, 35.667547], [139.43383, 35.667939], [139.432876, 35.668968], [139.432581, 35.669281], [139.432316, 35.669563], [139.431788, 35.670134], [139.431532, 35.670415], [139.430911, 35.67108], [139.430269, 35.671759], [139.429938, 35.672122], [139.429178, 35.672948], [139.428782, 35.673374], [139.428602, 35.673564], [139.428394, 35.67379], [139.428262, 35.67394], [139.428124, 35.674096], [139.427933, 35.674316], [139.427774, 35.674503]], [[139.4413, 35.661369], [139.44111, 35.661526]], [[139.597557, 35.620438], [139.597319, 35.62049], [139.597057, 35.620526], [139.596319, 35.620593], [139.596121, 35.620602], [139.59569, 35.62061], [139.595091, 35.620582], [139.593598, 35.620538], [139.592824, 35.620527], [139.592183, 35.620565], [139.591266, 35.620704], [139.590575, 35.620779], [139.590022, 35.620835], [139.589463, 35.620845]], [[139.321502, 35.733443], [139.321384, 35.733539], [139.321358, 35.733568], [139.321329, 35.733612], [139.321205, 35.733807], [139.321058, 35.73405], [139.32106, 35.734081], [139.320902, 35.734335], [139.320836, 35.734441], [139.320774, 35.734542], [139.320624, 35.734804], [139.320585, 35.734874], [139.320554, 35.73494], [139.320505, 35.73505], [139.320471, 35.73513], [139.320442, 35.735203], [139.320417, 35.735265], [139.320404, 35.735335], [139.320401, 35.735384], [139.320401, 35.735463], [139.320402, 35.735518], [139.320402, 35.735574], [139.320403, 35.735704], [139.320404, 35.735778], [139.320486, 35.735846]], [[139.321559, 35.733397], [139.321502, 35.733443]], [[139.322823, 35.732416], [139.322718, 35.732492], [139.322365, 35.732754], [139.322207, 35.73287], [139.322054, 35.732985], [139.321965, 35.733062], [139.321823, 35.733189], [139.321697, 35.73329], [139.321559, 35.733397]], [[139.322852, 35.732394], [139.322823, 35.732416]], [[139.426436, 35.676072], [139.426499, 35.676028], [139.426565, 35.675977], [139.426619, 35.675929], [139.426663, 35.675887], [139.426718, 35.67584], [139.426819, 35.675786]], [[139.440158, 35.662171], [139.440365, 35.662061], [139.440524, 35.661958], [139.440608, 35.661913], [139.440889, 35.661802]], [[139.441778, 35.661074], [139.441839, 35.660937], [139.44187, 35.660892], [139.441986, 35.660761], [139.442045, 35.660697], [139.442131, 35.660572]], [[139.702395, 35.554591], [139.70272, 35.55437], [139.703001, 35.554156], [139.703244, 35.553967], [139.703465, 35.553781], [139.703697, 35.55357], [139.703914, 35.553351], [139.70398, 35.553283], [139.704599, 35.552599], [139.704652, 35.55254], [139.704729, 35.552408], [139.704782, 35.552316], [139.704868, 35.552134], [139.704927, 35.551966], [139.704969, 35.55175], [139.705004, 35.551546], [139.705006, 35.551343], [139.704987, 35.5511], [139.704889, 35.550697], [139.704775, 35.550291], [139.704771, 35.550276], [139.70464, 35.549929], [139.704518, 35.549627], [139.704351, 35.54927], [139.704201, 35.548973], [139.70361, 35.547916], [139.703386, 35.547508], [139.702968, 35.546682], [139.702879, 35.546516], [139.702725, 35.54625], [139.702586, 35.545953], [139.702469, 35.545661], [139.702377, 35.545352], [139.702297, 35.545015], [139.702248, 35.544691], [139.702211, 35.544397], [139.702193, 35.544241], [139.702181, 35.544206], [139.702148, 35.544169]], [[139.703001, 35.545721], [139.702932, 35.545713], [139.702807, 35.545583], [139.702797, 35.545573], [139.702759, 35.545566]], [[139.702499, 35.5448], [139.702501, 35.544816], [139.702499, 35.544828], [139.70249, 35.54484], [139.702475, 35.544846], [139.702455, 35.54484], [139.702442, 35.544826], [139.702393, 35.544703], [139.702342, 35.544551], [139.702298, 35.544399], [139.702255, 35.544213], [139.702237, 35.544161], [139.702225, 35.54415], [139.702206, 35.544148], [139.702179, 35.54415], [139.702148, 35.544169]], [[139.708554, 35.539779], [139.708317, 35.539775], [139.708158, 35.539773], [139.707851, 35.539778], [139.707811, 35.53978], [139.707779, 35.539789], [139.707738, 35.539814], [139.707704, 35.539825], [139.707646, 35.539824], [139.707095, 35.539842], [139.706898, 35.539848], [139.706612, 35.539858], [139.706537, 35.539867], [139.70645, 35.539884], [139.706142, 35.539949], [139.706005, 35.539983], [139.705804, 35.540042], [139.705691, 35.540081]], [[139.705691, 35.540081], [139.705617, 35.540105], [139.705488, 35.540153], [139.705443, 35.540171], [139.705385, 35.540195], [139.705269, 35.540254], [139.705202, 35.540289], [139.705146, 35.540326], [139.704978, 35.540444], [139.704814, 35.540556], [139.704789, 35.540572], [139.704763, 35.540588], [139.704452, 35.540814], [139.704422, 35.540878], [139.704376, 35.5409], [139.704142, 35.54105], [139.703896, 35.541229], [139.703729, 35.541363], [139.703541, 35.541521], [139.703503, 35.541557], [139.703346, 35.5417], [139.703171, 35.541883], [139.702995, 35.542066], [139.702843, 35.54226], [139.702776, 35.542363], [139.702675, 35.542547], [139.702589, 35.542707], [139.702519, 35.542868], [139.702494, 35.542946], [139.702447, 35.543118], [139.7024, 35.543331], [139.702366, 35.543552], [139.702355, 35.543655], [139.702345, 35.543766], [139.702349, 35.543937], [139.702355, 35.544005], [139.70238, 35.544287], [139.702415, 35.544446], [139.702439, 35.54455], [139.702482, 35.544741], [139.702499, 35.5448], [139.70251, 35.544857], [139.702522, 35.544919], [139.70257, 35.54506], [139.702637, 35.545248], [139.702711, 35.545442], [139.702759, 35.545566], [139.7028, 35.545673], [139.702851, 35.545786], [139.702938, 35.545964], [139.703042, 35.546214], [139.703066, 35.546346]], [[139.701674, 35.555328], [139.70201, 35.555097], [139.702321, 35.554901], [139.702669, 35.554669], [139.702917, 35.554486], [139.703152, 35.554308], [139.70326, 35.554228], [139.703481, 35.554048], [139.70382, 35.553765], [139.703944, 35.553659], [139.704115, 35.553488]], [[139.694311, 35.557332], [139.694573, 35.557329], [139.695002, 35.55731], [139.695354, 35.557295], [139.695676, 35.557304], [139.695816, 35.55731], [139.695935, 35.557303], [139.696048, 35.557294], [139.696174, 35.557277], [139.696339, 35.557253], [139.696667, 35.557228], [139.696794, 35.557202], [139.696903, 35.557193], [139.697092, 35.557201], [139.697178, 35.557193], [139.697217, 35.557182], [139.69729, 35.557156], [139.697345, 35.557144], [139.697395, 35.557137], [139.697516, 35.557129], [139.697603, 35.557119], [139.697724, 35.557091], [139.697853, 35.557054], [139.69827, 35.556942], [139.698327, 35.556919], [139.698344, 35.556917], [139.698361, 35.556921], [139.698372, 35.556936], [139.698376, 35.556955], [139.698364, 35.556976], [139.698335, 35.55699], [139.698318, 35.556994], [139.698271, 35.557009], [139.698139, 35.557051], [139.697689, 35.557229], [139.697629, 35.55725], [139.697562, 35.557272], [139.697505, 35.55729], [139.697454, 35.557303], [139.697421, 35.557325], [139.697413, 35.557349], [139.697421, 35.55736], [139.697449, 35.557371], [139.697502, 35.557374]], [[139.694311, 35.557332], [139.694421, 35.557399], [139.695625, 35.557454], [139.695712, 35.557467], [139.695719, 35.557509]], [[139.684425, 35.56213], [139.68461, 35.561997], [139.684862, 35.561809], [139.685112, 35.561634], [139.685297, 35.561503], [139.685679, 35.561233], [139.685957, 35.561041], [139.686476, 35.560705], [139.68671, 35.560552], [139.686915, 35.560424], [139.687208, 35.560239], [139.687723, 35.559926], [139.688157, 35.559663], [139.688292, 35.559584], [139.688549, 35.559447], [139.68891, 35.559259], [139.689259, 35.559097], [139.689561, 35.558957], [139.689761, 35.558861], [139.689934, 35.558782], [139.690133, 35.558695], [139.690384, 35.558588], [139.690611, 35.558496], [139.690727, 35.558451], [139.690931, 35.558372], [139.691181, 35.558284], [139.691443, 35.558201], [139.691794, 35.558107], [139.692133, 35.558031], [139.692372, 35.557974], [139.69277, 35.557887], [139.693212, 35.557778], [139.693852, 35.557659], [139.694369, 35.557573], [139.694526, 35.55757], [139.694677, 35.557554], [139.694892, 35.557555], [139.695118, 35.557566], [139.695221, 35.557562], [139.695318, 35.557555], [139.695719, 35.557509]], [[139.684425, 35.56213], [139.684372, 35.562126], [139.684356, 35.562117], [139.684351, 35.562095], [139.684362, 35.562076], [139.684396, 35.56204], [139.684532, 35.561916], [139.684666, 35.561787], [139.684764, 35.561693], [139.684842, 35.561609]], [[139.737179, 35.545558], [139.737324, 35.545603], [139.737487, 35.545645]], [[139.486824, 35.655504], [139.486826, 35.655429]], [[139.311352, 35.752734], [139.31147, 35.752718]], [[139.317949, 35.745133], [139.317943, 35.745161], [139.317901, 35.745227], [139.317822, 35.745337], [139.317711, 35.745466], [139.317683, 35.745516], [139.317659, 35.745564], [139.317653, 35.745602], [139.317622, 35.74564]], [[139.318544, 35.744423], [139.318609, 35.74438], [139.318631, 35.744361], [139.318651, 35.744338], [139.318667, 35.744307], [139.318736, 35.744129], [139.318771, 35.744019]], [[139.320283, 35.736569], [139.320251, 35.736543], [139.320382, 35.736168], [139.320363, 35.736143]], [[139.323832, 35.732158], [139.323673, 35.732017]], [[139.513627, 35.654016], [139.513643, 35.654055], [139.51349, 35.654157], [139.513439, 35.654183]], [[139.512521, 35.654761], [139.51255, 35.65484]], [[139.680706, 35.564931], [139.680719, 35.564918], [139.680989, 35.564647], [139.681172, 35.564477], [139.681283, 35.564354], [139.681329, 35.564305], [139.68153, 35.564136], [139.681583, 35.564091], [139.68166, 35.564024], [139.681982, 35.563752], [139.682059, 35.563687], [139.682395, 35.563426], [139.682826, 35.563097], [139.683202, 35.562802], [139.6837, 35.562427], [139.684127, 35.562108], [139.684292, 35.561982], [139.684548, 35.561774], [139.684696, 35.561659], [139.684769, 35.5616], [139.684801, 35.561597], [139.684842, 35.561609]], [[139.513238, 35.653988], [139.51325, 35.654026], [139.513302, 35.654145], [139.51332, 35.65417]], [[139.714473, 35.540803], [139.714521, 35.5408], [139.714575, 35.540788], [139.714645, 35.540765], [139.714698, 35.540721], [139.714757, 35.540681]], [[139.561764, 35.635665], [139.561811, 35.635688], [139.562503, 35.635465], [139.562526, 35.635503]], [[139.323885, 35.731668], [139.323917, 35.731648], [139.324102, 35.731536], [139.324268, 35.731443]], [[139.741978, 35.545124], [139.742122, 35.545105]], [[139.737179, 35.545558], [139.73712, 35.54558], [139.737056, 35.545601], [139.736986, 35.54562], [139.736925, 35.54563], [139.736892, 35.545637], [139.736877, 35.54565], [139.736873, 35.545682]], [[139.740779, 35.545279], [139.740936, 35.54531], [139.741005, 35.545308], [139.74107, 35.545301], [139.741349, 35.54527], [139.741541, 35.545176]], [[139.741026, 35.545393], [139.741039, 35.545393], [139.741071, 35.545394], [139.74107, 35.545301]], [[139.740995, 35.545391], [139.741026, 35.545393]], [[139.715879, 35.540773], [139.715777, 35.540878], [139.715621, 35.541173]], [[139.716096, 35.541658], [139.716084, 35.541688]], [[139.720812, 35.543628], [139.720828, 35.543593]], [[139.710999, 35.540025], [139.710882, 35.540004], [139.710661, 35.539972], [139.710378, 35.539929], [139.71002, 35.539869], [139.709875, 35.539864], [139.709617, 35.53986], [139.709451, 35.539844], [139.709102, 35.539814], [139.708633, 35.539782]], [[139.708633, 35.539782], [139.708599, 35.53978], [139.708554, 35.539779]], [[139.734824, 35.545552], [139.734869, 35.545544]], [[139.618627, 35.616111], [139.618475, 35.616119], [139.618025, 35.616135], [139.617912, 35.616141]], [[139.617912, 35.616141], [139.61783, 35.616142], [139.617748, 35.616144]], [[139.621364, 35.6144], [139.621234, 35.614315]], [[139.621696, 35.614633], [139.62181, 35.614717]], [[139.689054, 35.558853], [139.689287, 35.558669], [139.689872, 35.558371], [139.690225, 35.558225], [139.690391, 35.558165], [139.690455, 35.558162], [139.690509, 35.558171], [139.690544, 35.558201], [139.690567, 35.558236], [139.690584, 35.55829], [139.690567, 35.558343], [139.690518, 35.558388], [139.690437, 35.558437], [139.690306, 35.558509], [139.689665, 35.558836], [139.689561, 35.558957]], [[139.481465, 35.655128], [139.481544, 35.655182], [139.481583, 35.655213]], [[139.481583, 35.655213], [139.481584, 35.655249], [139.481585, 35.655282]], [[139.489597, 35.655352], [139.489573, 35.655322], [139.489538, 35.655312], [139.489478, 35.655312], [139.489131, 35.655326], [139.488882, 35.655345], [139.488706, 35.655348], [139.488569, 35.655354], [139.488452, 35.655365], [139.488336, 35.655377], [139.488233, 35.655375], [139.488039, 35.65537], [139.487778, 35.655362], [139.487589, 35.65535], [139.487437, 35.655355], [139.487206, 35.655354], [139.486959, 35.655338], [139.486931, 35.655335], [139.48653, 35.655311], [139.486356, 35.655302], [139.486235, 35.655292], [139.485913, 35.65524], [139.485705, 35.655229]], [[139.485705, 35.655229], [139.485586, 35.655226]], [[139.454988, 35.655264], [139.454891, 35.654998], [139.454879, 35.654923], [139.454905, 35.654878], [139.455114, 35.654809], [139.455325, 35.65477], [139.455797, 35.654679], [139.456094, 35.654603], [139.456436, 35.654514], [139.4566, 35.654473], [139.456678, 35.654441], [139.456758, 35.654437], [139.456826, 35.654452], [139.456894, 35.654663], [139.456873, 35.65474]], [[139.62494, 35.611159], [139.625336, 35.611209]], [[139.62247, 35.614234], [139.622319, 35.614311], [139.622267, 35.614332], [139.622224, 35.614334]], [[139.62247, 35.614234], [139.622559, 35.614196], [139.622646, 35.614172]], [[139.621301, 35.613666], [139.621358, 35.613711], [139.62141, 35.613725], [139.621444, 35.613718], [139.621484, 35.613703], [139.62152, 35.613667], [139.621846, 35.613369], [139.621921, 35.613314], [139.622, 35.613267], [139.622117, 35.613204], [139.62221, 35.613164], [139.622463, 35.613061]], [[139.621302, 35.614249], [139.621799, 35.613715], [139.62209, 35.613417], [139.622175, 35.61336], [139.622285, 35.613299], [139.622476, 35.613224], [139.6225, 35.613214], [139.622534, 35.613189], [139.622463, 35.613061]], [[139.625224, 35.611647], [139.625204, 35.611605], [139.625406, 35.611346], [139.62544, 35.611315], [139.625637, 35.611162], [139.625757, 35.610977]], [[139.633783, 35.60636], [139.633832, 35.606381]]]}}, {"type": "Feature", "properties": {"name": "荒川サイクリングロード"}, "geometry": {"type": "MultiLineString", "coordinates": [[[139.433494, 36.082813], [139.433635, 36.082723]], [[139.434549, 36.082625], [139.434519, 36.082586], [139.434498, 36.082559]], [[139.468051, 36.055071], [139.46803, 36.055153], [139.467948, 36.05546], [139.467877, 36.055754], [139.467829, 36.055959], [139.467781, 36.05622], [139.467761, 36.0564], [139.467737, 36.056633], [139.467722, 36.056856], [139.467701, 36.057189], [139.467683, 36.057673], [139.467668, 36.058264], [139.467655, 36.058997], [139.467648, 36.059389], [139.467645, 36.059755], [139.467636, 36.060217], [139.467636, 36.060578], [139.46766, 36.061264], [139.467673, 36.061495], [139.467671, 36.061679], [139.467651, 36.061911], [139.46761, 36.062164], [139.467443, 36.062905], [139.467362, 36.063269], [139.467314, 36.063463], [139.467274, 36.063604], [139.46721, 36.063774], [139.467135, 36.063946], [139.467055, 36.064103], [139.46698, 36.064227], [139.466888, 36.064371], [139.466777, 36.064514], [139.466649, 36.064665], [139.466504, 36.064818], [139.466355, 36.064972], [139.466126, 36.065199], [139.466015, 36.065305], [139.465881, 36.065423], [139.465748, 36.065525], [139.465544, 36.065682], [139.4655, 36.065714], [139.465448, 36.065754], [139.46514, 36.065993], [139.464834, 36.066221], [139.464503, 36.066457], [139.464213, 36.066668], [139.463787, 36.066992], [139.463383, 36.067276], [139.463, 36.067549], [139.462818, 36.067679], [139.462686, 36.067773], [139.46249, 36.067906], [139.46228, 36.068048], [139.461924, 36.068282], [139.461633, 36.068467], [139.461355, 36.068648], [139.460954, 36.0689], [139.460371, 36.069269], [139.460068, 36.069459], [139.459823, 36.069621], [139.459528, 36.069813], [139.459234, 36.070022], [139.458986, 36.070199], [139.45877, 36.070354], [139.458506, 36.070548], [139.458411, 36.070616], [139.458157, 36.070806], [139.457964, 36.070948], [139.457379, 36.07137], [139.457137, 36.071554], [139.456676, 36.07189], [139.456294, 36.072161], [139.455979, 36.072382], [139.455748, 36.072547], [139.455444, 36.07277], [139.455381, 36.072806], [139.455336, 36.072814], [139.455298, 36.072829], [139.454987, 36.073055], [139.454979, 36.073087], [139.454942, 36.073116], [139.454489, 36.073438], [139.454264, 36.073608], [139.453952, 36.073838], [139.453633, 36.074074], [139.453471, 36.0742], [139.453331, 36.074305], [139.453105, 36.074474], [139.452785, 36.074711], [139.45251, 36.074918], [139.452458, 36.074949], [139.452377, 36.074997], [139.452215, 36.075121], [139.452079, 36.075238], [139.451933, 36.075355], [139.451804, 36.075457], [139.451568, 36.075625], [139.451377, 36.075755], [139.451222, 36.075861], [139.450969, 36.076026], [139.450739, 36.076156], [139.450488, 36.076284], [139.450244, 36.076402], [139.450034, 36.076488], [139.449807, 36.076576], [139.449488, 36.076691], [139.449182, 36.076799], [139.44875, 36.076951], [139.448092, 36.077183], [139.447612, 36.07735], [139.447119, 36.077524], [139.44661, 36.077708], [139.446249, 36.077839], [139.446196, 36.077848], [139.446106, 36.077848], [139.446058, 36.077856], [139.445977, 36.077881]], [[139.434498, 36.082559], [139.434487, 36.082545], [139.433891, 36.082731], [139.433856, 36.082737], [139.433803, 36.08273], [139.433731, 36.082718], [139.433697, 36.082709], [139.433666, 36.082709], [139.433635, 36.082723]], [[139.436253, 36.081674], [139.435916, 36.081809], [139.435676, 36.081929], [139.435405, 36.082086], [139.435295, 36.082158], [139.435112, 36.082286], [139.434945, 36.082402], [139.434772, 36.082504], [139.434549, 36.082625]], [[139.436345, 36.081635], [139.436299, 36.081653], [139.436253, 36.081674]], [[139.434549, 36.082625], [139.434443, 36.082674], [139.433872, 36.082921], [139.43384, 36.082938]], [[139.43384, 36.082938], [139.433789, 36.082969], [139.433747, 36.082998]], [[139.432995, 36.082336], [139.43297, 36.082358], [139.432968, 36.082364], [139.432996, 36.082389], [139.433073, 36.082459], [139.433163, 36.082554], [139.433306, 36.082694], [139.433444, 36.082851], [139.433494, 36.082813]], [[139.445977, 36.077881], [139.445963, 36.077889], [139.445941, 36.077907], [139.445888, 36.07796]], [[139.445888, 36.07796], [139.445868, 36.07797], [139.445751, 36.078009], [139.44546, 36.078105], [139.444942, 36.078282], [139.4445, 36.078433], [139.443973, 36.078619], [139.443467, 36.078801], [139.442958, 36.07896], [139.4424, 36.079157], [139.442073, 36.079262], [139.441821, 36.079353], [139.441676, 36.079407], [139.441573, 36.079445], [139.441213, 36.079583], [139.44068, 36.079795], [139.439731, 36.080205], [139.439427, 36.080346], [139.439167, 36.080442], [139.43896, 36.080525], [139.438667, 36.08066], [139.43826, 36.080843], [139.437736, 36.081066], [139.437431, 36.081195], [139.437088, 36.081336], [139.436723, 36.081487], [139.436345, 36.081635]]]}}]}